<?xml version="1.0" encoding="UTF-8"?>
<gpx version="1.1" creator="Apple Health Export" xmlns="http://www.topografix.com/GPX/1/1" xmlns:xsi="http://www.w3.org/2001/XMLSchema-instance" xsi:schemaLocation="http://www.topografix.com/GPX/1/1 http://www.topografix.com/GPX/1/1/gpx.xsd">
  <metadata>
    <time>2021-02-21T19:24:48Z</time>
  </metadata>
  <trk>
    <name>Route 2020-11-02 4:30pm</name>
    <trkseg>
      <trkpt lon="-123.279525" lat="44.563382"><ele>90.126289</ele><time>2020-11-03T00:26:35Z</time><extensions><speed>0.480000</speed><course>208.828125</course><hAcc>10.000000</hAcc><vAcc>16.000000</vAcc></extensions></trkpt>
      <trkpt lon="-123.279614" lat="44.563438"><ele>80.467232</ele><time>2020-11-03T00:26:36Z</time><extensions><speed>0.480000</speed><course>208.828125</course><hAcc>10.000000</hAcc><vAcc>12.000000</vAcc></extensions></trkpt>
      <trkpt lon="-123.279473" lat="44.563401"><ele>77.606758</ele><time>2020-11-03T00:26:37Z</time><extensions><speed>0.620000</speed><course>262.617188</course><hAcc>10.000000</hAcc><vAcc>12.000000</vAcc></extensions></trkpt>
      <trkpt lon="-123.279420" lat="44.563362"><ele>71.185616</ele><time>2020-11-03T00:26:38Z</time><extensions><speed>0.780000</speed><course>214.101562</course><hAcc>5.000000</hAcc><vAcc>12.000000</vAcc></extensions></trkpt>
      <trkpt lon="-123.279439" lat="44.563342"><ele>73.013924</ele><time>2020-11-03T00:26:39Z</time><extensions><speed>1.990000</speed><course>185.625000</course><hAcc>5.000000</hAcc><vAcc>4.000000</vAcc></extensions></trkpt>
      <trkpt lon="-123.279475" lat="44.563309"><ele>73.002937</ele><time>2020-11-03T00:26:40Z</time><extensions><speed>2.260000</speed><course>185.625000</course><hAcc>5.000000</hAcc><vAcc>4.000000</vAcc></extensions></trkpt>
      <trkpt lon="-123.279476" lat="44.563271"><ele>73.034126</ele><time>2020-11-03T00:26:41Z</time><extensions><speed>2.260000</speed><course>188.789062</course><hAcc>5.000000</hAcc><vAcc>4.000000</vAcc></extensions></trkpt>
      <trkpt lon="-123.279486" lat="44.563240"><ele>72.696358</ele><time>2020-11-03T00:26:42Z</time><extensions><speed>2.980000</speed><course>196.171875</course><hAcc>5.000000</hAcc><vAcc>4.000000</vAcc></extensions></trkpt>
      <trkpt lon="-123.279486" lat="44.563207"><ele>73.453804</ele><time>2020-11-03T00:26:43Z</time><extensions><speed>3.730000</speed><course>189.843750</course><hAcc>5.000000</hAcc><vAcc>4.000000</vAcc></extensions></trkpt>
      <trkpt lon="-123.279485" lat="44.563173"><ele>73.436226</ele><time>2020-11-03T00:26:44Z</time><extensions><speed>3.850000</speed><course>187.734375</course><hAcc>5.000000</hAcc><vAcc>4.000000</vAcc></extensions></trkpt>
      <trkpt lon="-123.279486" lat="44.563132"><ele>73.211128</ele><time>2020-11-03T00:26:45Z</time><extensions><speed>3.850000</speed><course>183.515625</course><hAcc>5.000000</hAcc><vAcc>4.000000</vAcc></extensions></trkpt>
      <trkpt lon="-123.279484" lat="44.563083"><ele>73.393745</ele><time>2020-11-03T00:26:46Z</time><extensions><speed>4.710000</speed><course>182.109375</course><hAcc>5.000000</hAcc><vAcc>4.000000</vAcc></extensions></trkpt>
      <trkpt lon="-123.279481" lat="44.563032"><ele>73.309761</ele><time>2020-11-03T00:26:47Z</time><extensions><speed>5.430000</speed><course>182.812500</course><hAcc>5.000000</hAcc><vAcc>4.000000</vAcc></extensions></trkpt>
      <trkpt lon="-123.279484" lat="44.562978"><ele>72.964119</ele><time>2020-11-03T00:26:48Z</time><extensions><speed>5.830000</speed><course>183.515625</course><hAcc>5.000000</hAcc><vAcc>4.000000</vAcc></extensions></trkpt>
      <trkpt lon="-123.279488" lat="44.562922"><ele>72.685371</ele><time>2020-11-03T00:26:49Z</time><extensions><speed>5.830000</speed><course>184.218750</course><hAcc>5.000000</hAcc><vAcc>4.000000</vAcc></extensions></trkpt>
      <trkpt lon="-123.279493" lat="44.562863"><ele>72.708626</ele><time>2020-11-03T00:26:50Z</time><extensions><speed>6.100000</speed><course>184.921875</course><hAcc>5.000000</hAcc><vAcc>3.000000</vAcc></extensions></trkpt>
      <trkpt lon="-123.279496" lat="44.562801"><ele>72.507210</ele><time>2020-11-03T00:26:51Z</time><extensions><speed>6.770000</speed><course>180.703125</course><hAcc>5.000000</hAcc><vAcc>3.000000</vAcc></extensions></trkpt>
      <trkpt lon="-123.279498" lat="44.562739"><ele>73.825264</ele><time>2020-11-03T00:26:52Z</time><extensions><speed>6.770000</speed><course>182.460938</course><hAcc>5.000000</hAcc><vAcc>3.000000</vAcc></extensions></trkpt>
      <trkpt lon="-123.279480" lat="44.562662"><ele>74.044624</ele><time>2020-11-03T00:26:53Z</time><extensions><speed>6.770000</speed><course>177.890625</course><hAcc>5.000000</hAcc><vAcc>3.000000</vAcc></extensions></trkpt>
      <trkpt lon="-123.279462" lat="44.562592"><ele>74.287971</ele><time>2020-11-03T00:26:54Z</time><extensions><speed>7.270000</speed><course>176.132812</course><hAcc>5.000000</hAcc><vAcc>3.000000</vAcc></extensions></trkpt>
      <trkpt lon="-123.279451" lat="44.562549"><ele>72.142891</ele><time>2020-11-03T00:26:55Z</time><extensions><speed>6.770000</speed><course>169.101562</course><hAcc>5.000000</hAcc><vAcc>3.000000</vAcc></extensions></trkpt>
      <trkpt lon="-123.279373" lat="44.562492"><ele>71.960030</ele><time>2020-11-03T00:26:56Z</time><extensions><speed>6.770000</speed><course>148.007812</course><hAcc>5.000000</hAcc><vAcc>3.000000</vAcc></extensions></trkpt>
      <trkpt lon="-123.279325" lat="44.562444"><ele>72.433174</ele><time>2020-11-03T00:26:57Z</time><extensions><speed>6.660000</speed><course>140.625000</course><hAcc>5.000000</hAcc><vAcc>3.000000</vAcc></extensions></trkpt>
      <trkpt lon="-123.279272" lat="44.562428"><ele>72.740303</ele><time>2020-11-03T00:26:58Z</time><extensions><speed>6.190000</speed><course>124.101562</course><hAcc>5.000000</hAcc><vAcc>3.000000</vAcc></extensions></trkpt>
      <trkpt lon="-123.279222" lat="44.562379"><ele>72.951180</ele><time>2020-11-03T00:26:59Z</time><extensions><speed>6.250000</speed><course>136.406250</course><hAcc>5.000000</hAcc><vAcc>3.000000</vAcc></extensions></trkpt>
      <trkpt lon="-123.279164" lat="44.562339"><ele>72.825813</ele><time>2020-11-03T00:27:00Z</time><extensions><speed>6.340000</speed><course>136.054688</course><hAcc>5.000000</hAcc><vAcc>3.000000</vAcc></extensions></trkpt>
      <trkpt lon="-123.279119" lat="44.562287"><ele>72.776863</ele><time>2020-11-03T00:27:01Z</time><extensions><speed>6.340000</speed><course>144.140625</course><hAcc>5.000000</hAcc><vAcc>3.000000</vAcc></extensions></trkpt>
      <trkpt lon="-123.279096" lat="44.562227"><ele>72.672432</ele><time>2020-11-03T00:27:02Z</time><extensions><speed>6.510000</speed><course>153.632812</course><hAcc>5.000000</hAcc><vAcc>3.000000</vAcc></extensions></trkpt>
      <trkpt lon="-123.279126" lat="44.562189"><ele>73.224861</ele><time>2020-11-03T00:27:03Z</time><extensions><speed>5.990000</speed><course>159.960938</course><hAcc>5.000000</hAcc><vAcc>3.000000</vAcc></extensions></trkpt>
      <trkpt lon="-123.279066" lat="44.562146"><ele>72.659920</ele><time>2020-11-03T00:27:04Z</time><extensions><speed>5.990000</speed><course>154.335938</course><hAcc>5.000000</hAcc><vAcc>3.000000</vAcc></extensions></trkpt>
      <trkpt lon="-123.279042" lat="44.562113"><ele>73.636543</ele><time>2020-11-03T00:27:05Z</time><extensions><speed>5.890000</speed><course>150.468750</course><hAcc>5.000000</hAcc><vAcc>3.000000</vAcc></extensions></trkpt>
      <trkpt lon="-123.278992" lat="44.562068"><ele>73.808418</ele><time>2020-11-03T00:27:06Z</time><extensions><speed>5.870000</speed><course>146.250000</course><hAcc>5.000000</hAcc><vAcc>3.000000</vAcc></extensions></trkpt>
      <trkpt lon="-123.278925" lat="44.562037"><ele>73.925789</ele><time>2020-11-03T00:27:07Z</time><extensions><speed>5.580000</speed><course>135.351562</course><hAcc>5.000000</hAcc><vAcc>3.000000</vAcc></extensions></trkpt>
      <trkpt lon="-123.278868" lat="44.562007"><ele>73.082466</ele><time>2020-11-03T00:27:08Z</time><extensions><speed>5.580000</speed><course>120.937500</course><hAcc>5.000000</hAcc><vAcc>3.000000</vAcc></extensions></trkpt>
      <trkpt lon="-123.278784" lat="44.561981"><ele>72.989388</ele><time>2020-11-03T00:27:09Z</time><extensions><speed>5.580000</speed><course>114.257812</course><hAcc>5.000000</hAcc><vAcc>3.000000</vAcc></extensions></trkpt>
      <trkpt lon="-123.278742" lat="44.561944"><ele>73.702705</ele><time>2020-11-03T00:27:10Z</time><extensions><speed>5.810000</speed><course>126.914062</course><hAcc>5.000000</hAcc><vAcc>3.000000</vAcc></extensions></trkpt>
      <trkpt lon="-123.278681" lat="44.561917"><ele>73.579903</ele><time>2020-11-03T00:27:11Z</time><extensions><speed>5.430000</speed><course>128.320312</course><hAcc>5.000000</hAcc><vAcc>3.000000</vAcc></extensions></trkpt>
      <trkpt lon="-123.278594" lat="44.561903"><ele>73.946053</ele><time>2020-11-03T00:27:12Z</time><extensions><speed>6.270000</speed><course>110.039062</course><hAcc>5.000000</hAcc><vAcc>3.000000</vAcc></extensions></trkpt>
      <trkpt lon="-123.278496" lat="44.561900"><ele>74.515755</ele><time>2020-11-03T00:27:13Z</time><extensions><speed>6.270000</speed><course>97.031250</course><hAcc>5.000000</hAcc><vAcc>3.000000</vAcc></extensions></trkpt>
      <trkpt lon="-123.278410" lat="44.561899"><ele>73.754097</ele><time>2020-11-03T00:27:14Z</time><extensions><speed>6.870000</speed><course>93.164062</course><hAcc>5.000000</hAcc><vAcc>3.000000</vAcc></extensions></trkpt>
      <trkpt lon="-123.278323" lat="44.561895"><ele>73.766365</ele><time>2020-11-03T00:27:15Z</time><extensions><speed>6.890000</speed><course>93.164062</course><hAcc>5.000000</hAcc><vAcc>3.000000</vAcc></extensions></trkpt>
      <trkpt lon="-123.278233" lat="44.561914"><ele>75.232063</ele><time>2020-11-03T00:27:16Z</time><extensions><speed>7.440000</speed><course>87.187500</course><hAcc>5.000000</hAcc><vAcc>3.000000</vAcc></extensions></trkpt>
      <trkpt lon="-123.278129" lat="44.561921"><ele>75.647957</ele><time>2020-11-03T00:27:17Z</time><extensions><speed>7.290000</speed><course>91.054688</course><hAcc>5.000000</hAcc><vAcc>3.000000</vAcc></extensions></trkpt>
      <trkpt lon="-123.278039" lat="44.561916"><ele>76.301277</ele><time>2020-11-03T00:27:18Z</time><extensions><speed>7.400000</speed><course>92.109375</course><hAcc>5.000000</hAcc><vAcc>3.000000</vAcc></extensions></trkpt>
      <trkpt lon="-123.277936" lat="44.561911"><ele>75.524544</ele><time>2020-11-03T00:27:19Z</time><extensions><speed>7.600000</speed><course>88.593750</course><hAcc>5.000000</hAcc><vAcc>3.000000</vAcc></extensions></trkpt>
      <trkpt lon="-123.277838" lat="44.561914"><ele>75.037056</ele><time>2020-11-03T00:27:20Z</time><extensions><speed>7.770000</speed><course>86.484375</course><hAcc>5.000000</hAcc><vAcc>3.000000</vAcc></extensions></trkpt>
      <trkpt lon="-123.277735" lat="44.561913"><ele>74.312874</ele><time>2020-11-03T00:27:21Z</time><extensions><speed>7.770000</speed><course>89.648438</course><hAcc>5.000000</hAcc><vAcc>3.000000</vAcc></extensions></trkpt>
      <trkpt lon="-123.277637" lat="44.561913"><ele>74.090034</ele><time>2020-11-03T00:27:22Z</time><extensions><speed>7.770000</speed><course>89.648438</course><hAcc>5.000000</hAcc><vAcc>3.000000</vAcc></extensions></trkpt>
      <trkpt lon="-123.277513" lat="44.561925"><ele>75.417610</ele><time>2020-11-03T00:27:23Z</time><extensions><speed>7.690000</speed><course>88.242188</course><hAcc>5.000000</hAcc><vAcc>3.000000</vAcc></extensions></trkpt>
      <trkpt lon="-123.277417" lat="44.561927"><ele>75.211128</ele><time>2020-11-03T00:27:24Z</time><extensions><speed>7.690000</speed><course>88.242188</course><hAcc>5.000000</hAcc><vAcc>4.000000</vAcc></extensions></trkpt>
      <trkpt lon="-123.277284" lat="44.561941"><ele>74.903572</ele><time>2020-11-03T00:27:25Z</time><extensions><speed>8.270000</speed><course>91.054688</course><hAcc>5.000000</hAcc><vAcc>3.000000</vAcc></extensions></trkpt>
      <trkpt lon="-123.277169" lat="44.561931"><ele>74.519600</ele><time>2020-11-03T00:27:26Z</time><extensions><speed>8.470000</speed><course>91.406250</course><hAcc>5.000000</hAcc><vAcc>4.000000</vAcc></extensions></trkpt>
      <trkpt lon="-123.277065" lat="44.561929"><ele>74.184639</ele><time>2020-11-03T00:27:27Z</time><extensions><speed>8.430000</speed><course>91.406250</course><hAcc>5.000000</hAcc><vAcc>4.000000</vAcc></extensions></trkpt>
      <trkpt lon="-123.276967" lat="44.561931"><ele>74.303169</ele><time>2020-11-03T00:27:28Z</time><extensions><speed>8.070000</speed><course>93.515625</course><hAcc>5.000000</hAcc><vAcc>4.000000</vAcc></extensions></trkpt>
      <trkpt lon="-123.276875" lat="44.561923"><ele>74.180733</ele><time>2020-11-03T00:27:29Z</time><extensions><speed>7.690000</speed><course>95.273438</course><hAcc>5.000000</hAcc><vAcc>4.000000</vAcc></extensions></trkpt>
      <trkpt lon="-123.276777" lat="44.561917"><ele>73.945381</ele><time>2020-11-03T00:27:30Z</time><extensions><speed>7.620000</speed><course>90.703125</course><hAcc>5.000000</hAcc><vAcc>4.000000</vAcc></extensions></trkpt>
      <trkpt lon="-123.276688" lat="44.561919"><ele>73.597847</ele><time>2020-11-03T00:27:31Z</time><extensions><speed>7.330000</speed><course>88.593750</course><hAcc>5.000000</hAcc><vAcc>4.000000</vAcc></extensions></trkpt>
      <trkpt lon="-123.276587" lat="44.561940"><ele>73.542427</ele><time>2020-11-03T00:27:32Z</time><extensions><speed>7.260000</speed><course>85.781250</course><hAcc>5.000000</hAcc><vAcc>4.000000</vAcc></extensions></trkpt>
      <trkpt lon="-123.276494" lat="44.561946"><ele>73.271187</ele><time>2020-11-03T00:27:33Z</time><extensions><speed>7.260000</speed><course>85.781250</course><hAcc>5.000000</hAcc><vAcc>4.000000</vAcc></extensions></trkpt>
      <trkpt lon="-123.276369" lat="44.561959"><ele>73.362679</ele><time>2020-11-03T00:27:34Z</time><extensions><speed>7.690000</speed><course>88.242188</course><hAcc>5.000000</hAcc><vAcc>4.000000</vAcc></extensions></trkpt>
      <trkpt lon="-123.276265" lat="44.561955"><ele>73.660652</ele><time>2020-11-03T00:27:35Z</time><extensions><speed>7.990000</speed><course>91.406250</course><hAcc>5.000000</hAcc><vAcc>4.000000</vAcc></extensions></trkpt>
      <trkpt lon="-123.276170" lat="44.561950"><ele>74.004036</ele><time>2020-11-03T00:27:36Z</time><extensions><speed>8.010000</speed><course>92.109375</course><hAcc>5.000000</hAcc><vAcc>4.000000</vAcc></extensions></trkpt>
      <trkpt lon="-123.276076" lat="44.561947"><ele>73.862434</ele><time>2020-11-03T00:27:37Z</time><extensions><speed>8.060000</speed><course>91.406250</course><hAcc>5.000000</hAcc><vAcc>4.000000</vAcc></extensions></trkpt>
      <trkpt lon="-123.275983" lat="44.561942"><ele>74.093575</ele><time>2020-11-03T00:27:38Z</time><extensions><speed>7.850000</speed><course>90.351562</course><hAcc>5.000000</hAcc><vAcc>4.000000</vAcc></extensions></trkpt>
      <trkpt lon="-123.275885" lat="44.561942"><ele>74.199715</ele><time>2020-11-03T00:27:39Z</time><extensions><speed>7.960000</speed><course>87.539062</course><hAcc>5.000000</hAcc><vAcc>4.000000</vAcc></extensions></trkpt>
      <trkpt lon="-123.275794" lat="44.561948"><ele>74.211678</ele><time>2020-11-03T00:27:40Z</time><extensions><speed>7.520000</speed><course>85.429688</course><hAcc>5.000000</hAcc><vAcc>4.000000</vAcc></extensions></trkpt>
      <trkpt lon="-123.275704" lat="44.561946"><ele>74.111031</ele><time>2020-11-03T00:27:41Z</time><extensions><speed>7.740000</speed><course>87.539062</course><hAcc>5.000000</hAcc><vAcc>4.000000</vAcc></extensions></trkpt>
      <trkpt lon="-123.275607" lat="44.561949"><ele>73.778206</ele><time>2020-11-03T00:27:42Z</time><extensions><speed>7.740000</speed><course>87.539062</course><hAcc>5.000000</hAcc><vAcc>4.000000</vAcc></extensions></trkpt>
      <trkpt lon="-123.275499" lat="44.561941"><ele>73.589607</ele><time>2020-11-03T00:27:43Z</time><extensions><speed>8.160000</speed><course>89.296875</course><hAcc>5.000000</hAcc><vAcc>4.000000</vAcc></extensions></trkpt>
      <trkpt lon="-123.275376" lat="44.561937"><ele>73.490120</ele><time>2020-11-03T00:27:44Z</time><extensions><speed>8.710000</speed><course>92.109375</course><hAcc>5.000000</hAcc><vAcc>4.000000</vAcc></extensions></trkpt>
      <trkpt lon="-123.275274" lat="44.561936"><ele>73.470833</ele><time>2020-11-03T00:27:45Z</time><extensions><speed>8.610000</speed><course>91.406250</course><hAcc>5.000000</hAcc><vAcc>4.000000</vAcc></extensions></trkpt>
      <trkpt lon="-123.275176" lat="44.561932"><ele>73.491768</ele><time>2020-11-03T00:27:46Z</time><extensions><speed>8.210000</speed><course>90.703125</course><hAcc>5.000000</hAcc><vAcc>4.000000</vAcc></extensions></trkpt>
      <trkpt lon="-123.275066" lat="44.561936"><ele>72.929146</ele><time>2020-11-03T00:27:47Z</time><extensions><speed>8.590000</speed><course>89.296875</course><hAcc>5.000000</hAcc><vAcc>4.000000</vAcc></extensions></trkpt>
      <trkpt lon="-123.274951" lat="44.561940"><ele>73.032600</ele><time>2020-11-03T00:27:48Z</time><extensions><speed>8.560000</speed><course>93.164062</course><hAcc>5.000000</hAcc><vAcc>4.000000</vAcc></extensions></trkpt>
      <trkpt lon="-123.274840" lat="44.561938"><ele>73.513924</ele><time>2020-11-03T00:27:49Z</time><extensions><speed>8.780000</speed><course>93.164062</course><hAcc>5.000000</hAcc><vAcc>4.000000</vAcc></extensions></trkpt>
      <trkpt lon="-123.274733" lat="44.561937"><ele>73.774300</ele><time>2020-11-03T00:27:50Z</time><extensions><speed>8.580000</speed><course>90.000000</course><hAcc>5.000000</hAcc><vAcc>4.000000</vAcc></extensions></trkpt>
      <trkpt lon="-123.274625" lat="44.561937"><ele>73.649117</ele><time>2020-11-03T00:27:51Z</time><extensions><speed>8.580000</speed><course>90.000000</course><hAcc>5.000000</hAcc><vAcc>4.000000</vAcc></extensions></trkpt>
      <trkpt lon="-123.274532" lat="44.561945"><ele>73.218025</ele><time>2020-11-03T00:27:52Z</time><extensions><speed>8.200000</speed><course>95.625000</course><hAcc>5.000000</hAcc><vAcc>3.000000</vAcc></extensions></trkpt>
      <trkpt lon="-123.274447" lat="44.561912"><ele>73.433357</ele><time>2020-11-03T00:27:53Z</time><extensions><speed>8.130000</speed><course>119.531250</course><hAcc>5.000000</hAcc><vAcc>3.000000</vAcc></extensions></trkpt>
      <trkpt lon="-123.274381" lat="44.561862"><ele>73.428711</ele><time>2020-11-03T00:27:54Z</time><extensions><speed>7.810000</speed><course>137.812500</course><hAcc>5.000000</hAcc><vAcc>3.000000</vAcc></extensions></trkpt>
      <trkpt lon="-123.274342" lat="44.561805"><ele>73.292046</ele><time>2020-11-03T00:27:55Z</time><extensions><speed>7.590000</speed><course>156.445312</course><hAcc>5.000000</hAcc><vAcc>3.000000</vAcc></extensions></trkpt>
      <trkpt lon="-123.274340" lat="44.561741"><ele>73.468521</ele><time>2020-11-03T00:27:56Z</time><extensions><speed>7.210000</speed><course>172.617188</course><hAcc>5.000000</hAcc><vAcc>3.000000</vAcc></extensions></trkpt>
      <trkpt lon="-123.274369" lat="44.561675"><ele>73.449600</ele><time>2020-11-03T00:27:57Z</time><extensions><speed>7.020000</speed><course>187.382812</course><hAcc>5.000000</hAcc><vAcc>3.000000</vAcc></extensions></trkpt>
      <trkpt lon="-123.274386" lat="44.561613"><ele>73.494583</ele><time>2020-11-03T00:27:58Z</time><extensions><speed>7.010000</speed><course>187.734375</course><hAcc>5.000000</hAcc><vAcc>3.000000</vAcc></extensions></trkpt>
      <trkpt lon="-123.274387" lat="44.561535"><ele>73.440384</ele><time>2020-11-03T00:27:59Z</time><extensions><speed>7.030000</speed><course>180.703125</course><hAcc>5.000000</hAcc><vAcc>3.000000</vAcc></extensions></trkpt>
      <trkpt lon="-123.274396" lat="44.561470"><ele>73.429359</ele><time>2020-11-03T00:28:00Z</time><extensions><speed>7.050000</speed><course>177.890625</course><hAcc>5.000000</hAcc><vAcc>3.000000</vAcc></extensions></trkpt>
      <trkpt lon="-123.274360" lat="44.561403"><ele>73.271790</ele><time>2020-11-03T00:28:01Z</time><extensions><speed>7.320000</speed><course>168.046875</course><hAcc>5.000000</hAcc><vAcc>3.000000</vAcc></extensions></trkpt>
      <trkpt lon="-123.274341" lat="44.561338"><ele>72.710686</ele><time>2020-11-03T00:28:02Z</time><extensions><speed>7.330000</speed><course>168.046875</course><hAcc>5.000000</hAcc><vAcc>3.000000</vAcc></extensions></trkpt>
      <trkpt lon="-123.274304" lat="44.561246"><ele>72.752144</ele><time>2020-11-03T00:28:03Z</time><extensions><speed>7.490000</speed><course>169.804688</course><hAcc>5.000000</hAcc><vAcc>3.000000</vAcc></extensions></trkpt>
      <trkpt lon="-123.274288" lat="44.561183"><ele>72.724205</ele><time>2020-11-03T00:28:04Z</time><extensions><speed>7.300000</speed><course>170.507812</course><hAcc>5.000000</hAcc><vAcc>3.000000</vAcc></extensions></trkpt>
      <trkpt lon="-123.274282" lat="44.561123"><ele>72.515778</ele><time>2020-11-03T00:28:05Z</time><extensions><speed>7.220000</speed><course>170.156250</course><hAcc>5.000000</hAcc><vAcc>3.000000</vAcc></extensions></trkpt>
      <trkpt lon="-123.274266" lat="44.561059"><ele>72.588058</ele><time>2020-11-03T00:28:06Z</time><extensions><speed>7.220000</speed><course>170.156250</course><hAcc>5.000000</hAcc><vAcc>3.000000</vAcc></extensions></trkpt>
      <trkpt lon="-123.274272" lat="44.561007"><ele>72.752449</ele><time>2020-11-03T00:28:07Z</time><extensions><speed>7.310000</speed><course>170.859375</course><hAcc>5.000000</hAcc><vAcc>3.000000</vAcc></extensions></trkpt>
      <trkpt lon="-123.274273" lat="44.560950"><ele>72.594437</ele><time>2020-11-03T00:28:08Z</time><extensions><speed>7.290000</speed><course>173.320312</course><hAcc>5.000000</hAcc><vAcc>3.000000</vAcc></extensions></trkpt>
      <trkpt lon="-123.274244" lat="44.560881"><ele>72.667526</ele><time>2020-11-03T00:28:09Z</time><extensions><speed>7.370000</speed><course>168.398438</course><hAcc>5.000000</hAcc><vAcc>3.000000</vAcc></extensions></trkpt>
      <trkpt lon="-123.274242" lat="44.560817"><ele>72.455933</ele><time>2020-11-03T00:28:10Z</time><extensions><speed>7.200000</speed><course>171.562500</course><hAcc>5.000000</hAcc><vAcc>3.000000</vAcc></extensions></trkpt>
      <trkpt lon="-123.274225" lat="44.560752"><ele>72.775795</ele><time>2020-11-03T00:28:11Z</time><extensions><speed>7.510000</speed><course>172.617188</course><hAcc>5.000000</hAcc><vAcc>3.000000</vAcc></extensions></trkpt>
      <trkpt lon="-123.274214" lat="44.560685"><ele>72.324158</ele><time>2020-11-03T00:28:12Z</time><extensions><speed>7.500000</speed><course>172.968750</course><hAcc>5.000000</hAcc><vAcc>3.000000</vAcc></extensions></trkpt>
      <trkpt lon="-123.274184" lat="44.560622"><ele>72.596779</ele><time>2020-11-03T00:28:13Z</time><extensions><speed>7.690000</speed><course>171.562500</course><hAcc>5.000000</hAcc><vAcc>3.000000</vAcc></extensions></trkpt>
      <trkpt lon="-123.274160" lat="44.560551"><ele>72.463150</ele><time>2020-11-03T00:28:14Z</time><extensions><speed>7.470000</speed><course>166.992188</course><hAcc>5.000000</hAcc><vAcc>3.000000</vAcc></extensions></trkpt>
      <trkpt lon="-123.274139" lat="44.560487"><ele>72.301025</ele><time>2020-11-03T00:28:15Z</time><extensions><speed>7.000000</speed><course>169.453125</course><hAcc>5.000000</hAcc><vAcc>3.000000</vAcc></extensions></trkpt>
      <trkpt lon="-123.274110" lat="44.560422"><ele>72.235176</ele><time>2020-11-03T00:28:16Z</time><extensions><speed>7.280000</speed><course>163.828125</course><hAcc>5.000000</hAcc><vAcc>3.000000</vAcc></extensions></trkpt>
      <trkpt lon="-123.274077" lat="44.560354"><ele>72.680115</ele><time>2020-11-03T00:28:17Z</time><extensions><speed>6.820000</speed><course>164.882812</course><hAcc>5.000000</hAcc><vAcc>3.000000</vAcc></extensions></trkpt>
      <trkpt lon="-123.274055" lat="44.560294"><ele>72.139320</ele><time>2020-11-03T00:28:18Z</time><extensions><speed>6.810000</speed><course>164.882812</course><hAcc>5.000000</hAcc><vAcc>3.000000</vAcc></extensions></trkpt>
      <trkpt lon="-123.274028" lat="44.560240"><ele>72.590187</ele><time>2020-11-03T00:28:19Z</time><extensions><speed>6.320000</speed><course>161.718750</course><hAcc>5.000000</hAcc><vAcc>3.000000</vAcc></extensions></trkpt>
      <trkpt lon="-123.273980" lat="44.560196"><ele>72.142807</ele><time>2020-11-03T00:28:20Z</time><extensions><speed>6.050000</speed><course>147.304688</course><hAcc>5.000000</hAcc><vAcc>3.000000</vAcc></extensions></trkpt>
      <trkpt lon="-123.273932" lat="44.560156"><ele>72.122475</ele><time>2020-11-03T00:28:21Z</time><extensions><speed>5.710000</speed><course>140.273438</course><hAcc>5.000000</hAcc><vAcc>3.000000</vAcc></extensions></trkpt>
      <trkpt lon="-123.273880" lat="44.560118"><ele>71.863678</ele><time>2020-11-03T00:28:22Z</time><extensions><speed>5.790000</speed><course>139.218750</course><hAcc>5.000000</hAcc><vAcc>3.000000</vAcc></extensions></trkpt>
      <trkpt lon="-123.273861" lat="44.560082"><ele>72.216652</ele><time>2020-11-03T00:28:23Z</time><extensions><speed>5.310000</speed><course>138.515625</course><hAcc>5.000000</hAcc><vAcc>3.000000</vAcc></extensions></trkpt>
      <trkpt lon="-123.273807" lat="44.560049"><ele>72.268463</ele><time>2020-11-03T00:28:24Z</time><extensions><speed>5.360000</speed><course>131.484375</course><hAcc>5.000000</hAcc><vAcc>3.000000</vAcc></extensions></trkpt>
      <trkpt lon="-123.273738" lat="44.560019"><ele>72.168755</ele><time>2020-11-03T00:28:25Z</time><extensions><speed>5.710000</speed><course>123.046875</course><hAcc>5.000000</hAcc><vAcc>3.000000</vAcc></extensions></trkpt>
      <trkpt lon="-123.273656" lat="44.559997"><ele>72.516563</ele><time>2020-11-03T00:28:26Z</time><extensions><speed>5.370000</speed><course>113.203125</course><hAcc>5.000000</hAcc><vAcc>3.000000</vAcc></extensions></trkpt>
      <trkpt lon="-123.273593" lat="44.559978"><ele>72.101997</ele><time>2020-11-03T00:28:27Z</time><extensions><speed>5.370000</speed><course>113.203125</course><hAcc>5.000000</hAcc><vAcc>3.000000</vAcc></extensions></trkpt>
      <trkpt lon="-123.273553" lat="44.559993"><ele>72.413452</ele><time>2020-11-03T00:28:28Z</time><extensions><speed>4.650000</speed><course>91.757812</course><hAcc>5.000000</hAcc><vAcc>3.000000</vAcc></extensions></trkpt>
      <trkpt lon="-123.273505" lat="44.559989"><ele>72.295067</ele><time>2020-11-03T00:28:29Z</time><extensions><speed>4.660000</speed><course>87.890625</course><hAcc>5.000000</hAcc><vAcc>3.000000</vAcc></extensions></trkpt>
      <trkpt lon="-123.273437" lat="44.559982"><ele>72.060883</ele><time>2020-11-03T00:28:30Z</time><extensions><speed>4.660000</speed><course>113.554688</course><hAcc>5.000000</hAcc><vAcc>3.000000</vAcc></extensions></trkpt>
      <trkpt lon="-123.273401" lat="44.559960"><ele>71.893684</ele><time>2020-11-03T00:28:31Z</time><extensions><speed>4.660000</speed><course>125.859375</course><hAcc>5.000000</hAcc><vAcc>3.000000</vAcc></extensions></trkpt>
      <trkpt lon="-123.273320" lat="44.559929"><ele>72.196220</ele><time>2020-11-03T00:28:32Z</time><extensions><speed>5.060000</speed><course>120.234375</course><hAcc>5.000000</hAcc><vAcc>3.000000</vAcc></extensions></trkpt>
      <trkpt lon="-123.273264" lat="44.559905"><ele>72.196831</ele><time>2020-11-03T00:28:33Z</time><extensions><speed>5.110000</speed><course>119.882812</course><hAcc>5.000000</hAcc><vAcc>3.000000</vAcc></extensions></trkpt>
      <trkpt lon="-123.273182" lat="44.559908"><ele>72.038155</ele><time>2020-11-03T00:28:34Z</time><extensions><speed>5.060000</speed><course>110.390625</course><hAcc>5.000000</hAcc><vAcc>3.000000</vAcc></extensions></trkpt>
      <trkpt lon="-123.273103" lat="44.559917"><ele>72.192429</ele><time>2020-11-03T00:28:35Z</time><extensions><speed>5.110000</speed><course>87.187500</course><hAcc>5.000000</hAcc><vAcc>3.000000</vAcc></extensions></trkpt>
      <trkpt lon="-123.273017" lat="44.559933"><ele>72.263046</ele><time>2020-11-03T00:28:36Z</time><extensions><speed>6.660000</speed><course>86.835938</course><hAcc>5.000000</hAcc><vAcc>3.000000</vAcc></extensions></trkpt>
      <trkpt lon="-123.272931" lat="44.559946"><ele>72.162697</ele><time>2020-11-03T00:28:37Z</time><extensions><speed>6.660000</speed><course>80.859375</course><hAcc>5.000000</hAcc><vAcc>3.000000</vAcc></extensions></trkpt>
      <trkpt lon="-123.272841" lat="44.559950"><ele>72.097481</ele><time>2020-11-03T00:28:38Z</time><extensions><speed>6.610000</speed><course>80.507812</course><hAcc>5.000000</hAcc><vAcc>4.000000</vAcc></extensions></trkpt>
      <trkpt lon="-123.272761" lat="44.559959"><ele>72.085510</ele><time>2020-11-03T00:28:39Z</time><extensions><speed>6.600000</speed><course>80.859375</course><hAcc>5.000000</hAcc><vAcc>4.000000</vAcc></extensions></trkpt>
      <trkpt lon="-123.272652" lat="44.559996"><ele>72.317162</ele><time>2020-11-03T00:28:40Z</time><extensions><speed>7.240000</speed><course>74.531250</course><hAcc>5.000000</hAcc><vAcc>4.000000</vAcc></extensions></trkpt>
      <trkpt lon="-123.272564" lat="44.560013"><ele>72.783531</ele><time>2020-11-03T00:28:41Z</time><extensions><speed>7.240000</speed><course>74.531250</course><hAcc>10.000000</hAcc><vAcc>4.000000</vAcc></extensions></trkpt>
      <trkpt lon="-123.272501" lat="44.560012"><ele>71.923294</ele><time>2020-11-03T00:28:42Z</time><extensions><speed>7.230000</speed><course>84.023438</course><hAcc>5.000000</hAcc><vAcc>4.000000</vAcc></extensions></trkpt>
      <trkpt lon="-123.272429" lat="44.560016"><ele>72.658745</ele><time>2020-11-03T00:28:43Z</time><extensions><speed>6.230000</speed><course>82.968750</course><hAcc>5.000000</hAcc><vAcc>4.000000</vAcc></extensions></trkpt>
      <trkpt lon="-123.272348" lat="44.560013"><ele>72.657860</ele><time>2020-11-03T00:28:44Z</time><extensions><speed>6.230000</speed><course>84.023438</course><hAcc>5.000000</hAcc><vAcc>4.000000</vAcc></extensions></trkpt>
      <trkpt lon="-123.272274" lat="44.560016"><ele>72.801659</ele><time>2020-11-03T00:28:45Z</time><extensions><speed>6.230000</speed><course>84.375000</course><hAcc>10.000000</hAcc><vAcc>4.000000</vAcc></extensions></trkpt>
      <trkpt lon="-123.272211" lat="44.560020"><ele>72.519096</ele><time>2020-11-03T00:28:46Z</time><extensions><speed>5.590000</speed><course>82.617188</course><hAcc>5.000000</hAcc><vAcc>4.000000</vAcc></extensions></trkpt>
      <trkpt lon="-123.272111" lat="44.560043"><ele>72.728569</ele><time>2020-11-03T00:28:47Z</time><extensions><speed>6.230000</speed><course>82.617188</course><hAcc>5.000000</hAcc><vAcc>4.000000</vAcc></extensions></trkpt>
      <trkpt lon="-123.272031" lat="44.560053"><ele>72.704666</ele><time>2020-11-03T00:28:48Z</time><extensions><speed>6.580000</speed><course>82.265625</course><hAcc>5.000000</hAcc><vAcc>4.000000</vAcc></extensions></trkpt>
      <trkpt lon="-123.271954" lat="44.560062"><ele>72.584435</ele><time>2020-11-03T00:28:49Z</time><extensions><speed>6.580000</speed><course>80.156250</course><hAcc>5.000000</hAcc><vAcc>4.000000</vAcc></extensions></trkpt>
      <trkpt lon="-123.271875" lat="44.560071"><ele>72.398743</ele><time>2020-11-03T00:28:50Z</time><extensions><speed>6.310000</speed><course>80.156250</course><hAcc>5.000000</hAcc><vAcc>4.000000</vAcc></extensions></trkpt>
      <trkpt lon="-123.271787" lat="44.560087"><ele>72.503197</ele><time>2020-11-03T00:28:51Z</time><extensions><speed>6.300000</speed><course>85.781250</course><hAcc>5.000000</hAcc><vAcc>4.000000</vAcc></extensions></trkpt>
      <trkpt lon="-123.271715" lat="44.560091"><ele>72.609573</ele><time>2020-11-03T00:28:52Z</time><extensions><speed>5.740000</speed><course>85.781250</course><hAcc>5.000000</hAcc><vAcc>4.000000</vAcc></extensions></trkpt>
      <trkpt lon="-123.271644" lat="44.560093"><ele>72.610352</ele><time>2020-11-03T00:28:53Z</time><extensions><speed>5.970000</speed><course>86.835938</course><hAcc>5.000000</hAcc><vAcc>4.000000</vAcc></extensions></trkpt>
      <trkpt lon="-123.271558" lat="44.560086"><ele>72.709053</ele><time>2020-11-03T00:28:54Z</time><extensions><speed>5.970000</speed><course>82.265625</course><hAcc>5.000000</hAcc><vAcc>4.000000</vAcc></extensions></trkpt>
      <trkpt lon="-123.271474" lat="44.560101"><ele>72.509865</ele><time>2020-11-03T00:28:55Z</time><extensions><speed>6.280000</speed><course>78.750000</course><hAcc>5.000000</hAcc><vAcc>4.000000</vAcc></extensions></trkpt>
      <trkpt lon="-123.271409" lat="44.560110"><ele>72.707794</ele><time>2020-11-03T00:28:56Z</time><extensions><speed>6.060000</speed><course>80.156250</course><hAcc>5.000000</hAcc><vAcc>4.000000</vAcc></extensions></trkpt>
      <trkpt lon="-123.271362" lat="44.560111"><ele>72.765358</ele><time>2020-11-03T00:28:57Z</time><extensions><speed>6.060000</speed><course>73.125000</course><hAcc>5.000000</hAcc><vAcc>4.000000</vAcc></extensions></trkpt>
      <trkpt lon="-123.271283" lat="44.560134"><ele>72.647179</ele><time>2020-11-03T00:28:58Z</time><extensions><speed>5.540000</speed><course>73.828125</course><hAcc>5.000000</hAcc><vAcc>4.000000</vAcc></extensions></trkpt>
      <trkpt lon="-123.271216" lat="44.560148"><ele>72.726707</ele><time>2020-11-03T00:28:59Z</time><extensions><speed>5.540000</speed><course>73.828125</course><hAcc>5.000000</hAcc><vAcc>4.000000</vAcc></extensions></trkpt>
      <trkpt lon="-123.271191" lat="44.560131"><ele>72.430702</ele><time>2020-11-03T00:29:00Z</time><extensions><speed>3.780000</speed><course>97.031250</course><hAcc>5.000000</hAcc><vAcc>4.000000</vAcc></extensions></trkpt>
      <trkpt lon="-123.271134" lat="44.560122"><ele>72.274292</ele><time>2020-11-03T00:29:01Z</time><extensions><speed>4.520000</speed><course>110.039062</course><hAcc>5.000000</hAcc><vAcc>4.000000</vAcc></extensions></trkpt>
      <trkpt lon="-123.271080" lat="44.560110"><ele>72.121101</ele><time>2020-11-03T00:29:02Z</time><extensions><speed>4.260000</speed><course>114.257812</course><hAcc>5.000000</hAcc><vAcc>4.000000</vAcc></extensions></trkpt>
      <trkpt lon="-123.271064" lat="44.560080"><ele>72.476341</ele><time>2020-11-03T00:29:03Z</time><extensions><speed>4.260000</speed><course>121.640625</course><hAcc>10.000000</hAcc><vAcc>4.000000</vAcc></extensions></trkpt>
      <trkpt lon="-123.271014" lat="44.560016"><ele>72.345093</ele><time>2020-11-03T00:29:04Z</time><extensions><speed>4.900000</speed><course>147.656250</course><hAcc>10.000000</hAcc><vAcc>4.000000</vAcc></extensions></trkpt>
      <trkpt lon="-123.271026" lat="44.559951"><ele>72.454224</ele><time>2020-11-03T00:29:05Z</time><extensions><speed>5.410000</speed><course>164.179688</course><hAcc>10.000000</hAcc><vAcc>4.000000</vAcc></extensions></trkpt>
      <trkpt lon="-123.271006" lat="44.559905"><ele>72.560043</ele><time>2020-11-03T00:29:06Z</time><extensions><speed>5.160000</speed><course>167.695312</course><hAcc>10.000000</hAcc><vAcc>4.000000</vAcc></extensions></trkpt>
      <trkpt lon="-123.271006" lat="44.559871"><ele>72.399071</ele><time>2020-11-03T00:29:07Z</time><extensions><speed>5.160000</speed><course>176.132812</course><hAcc>10.000000</hAcc><vAcc>4.000000</vAcc></extensions></trkpt>
      <trkpt lon="-123.271009" lat="44.559808"><ele>72.229103</ele><time>2020-11-03T00:29:08Z</time><extensions><speed>5.340000</speed><course>182.460938</course><hAcc>5.000000</hAcc><vAcc>4.000000</vAcc></extensions></trkpt>
      <trkpt lon="-123.271007" lat="44.559740"><ele>72.442818</ele><time>2020-11-03T00:29:09Z</time><extensions><speed>5.820000</speed><course>181.406250</course><hAcc>5.000000</hAcc><vAcc>4.000000</vAcc></extensions></trkpt>
      <trkpt lon="-123.270997" lat="44.559668"><ele>72.391373</ele><time>2020-11-03T00:29:10Z</time><extensions><speed>5.820000</speed><course>178.593750</course><hAcc>5.000000</hAcc><vAcc>4.000000</vAcc></extensions></trkpt>
      <trkpt lon="-123.270956" lat="44.559582"><ele>72.565933</ele><time>2020-11-03T00:29:11Z</time><extensions><speed>6.380000</speed><course>171.914062</course><hAcc>5.000000</hAcc><vAcc>4.000000</vAcc></extensions></trkpt>
      <trkpt lon="-123.270931" lat="44.559515"><ele>72.471466</ele><time>2020-11-03T00:29:12Z</time><extensions><speed>7.070000</speed><course>170.156250</course><hAcc>5.000000</hAcc><vAcc>4.000000</vAcc></extensions></trkpt>
      <trkpt lon="-123.270915" lat="44.559448"><ele>72.647804</ele><time>2020-11-03T00:29:13Z</time><extensions><speed>7.070000</speed><course>171.562500</course><hAcc>5.000000</hAcc><vAcc>4.000000</vAcc></extensions></trkpt>
      <trkpt lon="-123.270916" lat="44.559389"><ele>72.526695</ele><time>2020-11-03T00:29:14Z</time><extensions><speed>6.960000</speed><course>173.320312</course><hAcc>5.000000</hAcc><vAcc>4.000000</vAcc></extensions></trkpt>
      <trkpt lon="-123.270929" lat="44.559331"><ele>72.636505</ele><time>2020-11-03T00:29:15Z</time><extensions><speed>6.720000</speed><course>176.835938</course><hAcc>5.000000</hAcc><vAcc>4.000000</vAcc></extensions></trkpt>
      <trkpt lon="-123.270920" lat="44.559255"><ele>72.596977</ele><time>2020-11-03T00:29:16Z</time><extensions><speed>7.210000</speed><course>175.429688</course><hAcc>5.000000</hAcc><vAcc>4.000000</vAcc></extensions></trkpt>
      <trkpt lon="-123.270901" lat="44.559194"><ele>72.459290</ele><time>2020-11-03T00:29:17Z</time><extensions><speed>7.210000</speed><course>172.968750</course><hAcc>5.000000</hAcc><vAcc>3.000000</vAcc></extensions></trkpt>
      <trkpt lon="-123.270886" lat="44.559136"><ele>72.339233</ele><time>2020-11-03T00:29:18Z</time><extensions><speed>6.740000</speed><course>169.101562</course><hAcc>5.000000</hAcc><vAcc>3.000000</vAcc></extensions></trkpt>
      <trkpt lon="-123.270837" lat="44.559063"><ele>72.237961</ele><time>2020-11-03T00:29:19Z</time><extensions><speed>7.210000</speed><course>164.179688</course><hAcc>5.000000</hAcc><vAcc>3.000000</vAcc></extensions></trkpt>
      <trkpt lon="-123.270803" lat="44.559001"><ele>72.340691</ele><time>2020-11-03T00:29:20Z</time><extensions><speed>6.500000</speed><course>163.828125</course><hAcc>5.000000</hAcc><vAcc>3.000000</vAcc></extensions></trkpt>
      <trkpt lon="-123.270772" lat="44.558934"><ele>72.457703</ele><time>2020-11-03T00:29:21Z</time><extensions><speed>7.310000</speed><course>163.476562</course><hAcc>5.000000</hAcc><vAcc>3.000000</vAcc></extensions></trkpt>
      <trkpt lon="-123.270717" lat="44.558869"><ele>72.137444</ele><time>2020-11-03T00:29:22Z</time><extensions><speed>6.900000</speed><course>158.203125</course><hAcc>5.000000</hAcc><vAcc>3.000000</vAcc></extensions></trkpt>
      <trkpt lon="-123.270704" lat="44.558841"><ele>72.384300</ele><time>2020-11-03T00:29:23Z</time><extensions><speed>6.250000</speed><course>155.390625</course><hAcc>5.000000</hAcc><vAcc>3.000000</vAcc></extensions></trkpt>
      <trkpt lon="-123.270735" lat="44.558813"><ele>72.443024</ele><time>2020-11-03T00:29:24Z</time><extensions><speed>4.590000</speed><course>167.343750</course><hAcc>5.000000</hAcc><vAcc>3.000000</vAcc></extensions></trkpt>
      <trkpt lon="-123.270767" lat="44.558773"><ele>72.223198</ele><time>2020-11-03T00:29:25Z</time><extensions><speed>5.030000</speed><course>180.000000</course><hAcc>5.000000</hAcc><vAcc>3.000000</vAcc></extensions></trkpt>
      <trkpt lon="-123.270779" lat="44.558737"><ele>71.980194</ele><time>2020-11-03T00:29:26Z</time><extensions><speed>5.030000</speed><course>179.296875</course><hAcc>5.000000</hAcc><vAcc>3.000000</vAcc></extensions></trkpt>
      <trkpt lon="-123.270818" lat="44.558722"><ele>71.554558</ele><time>2020-11-03T00:29:27Z</time><extensions><speed>4.670000</speed><course>207.773438</course><hAcc>5.000000</hAcc><vAcc>3.000000</vAcc></extensions></trkpt>
      <trkpt lon="-123.270858" lat="44.558715"><ele>71.833466</ele><time>2020-11-03T00:29:28Z</time><extensions><speed>3.320000</speed><course>250.664062</course><hAcc>5.000000</hAcc><vAcc>3.000000</vAcc></extensions></trkpt>
      <trkpt lon="-123.270908" lat="44.558708"><ele>71.669373</ele><time>2020-11-03T00:29:29Z</time><extensions><speed>4.410000</speed><course>259.101562</course><hAcc>5.000000</hAcc><vAcc>3.000000</vAcc></extensions></trkpt>
      <trkpt lon="-123.270974" lat="44.558723"><ele>72.000214</ele><time>2020-11-03T00:29:30Z</time><extensions><speed>4.410000</speed><course>262.265625</course><hAcc>5.000000</hAcc><vAcc>3.000000</vAcc></extensions></trkpt>
      <trkpt lon="-123.271031" lat="44.558724"><ele>71.915123</ele><time>2020-11-03T00:29:31Z</time><extensions><speed>4.180000</speed><course>263.671875</course><hAcc>5.000000</hAcc><vAcc>3.000000</vAcc></extensions></trkpt>
      <trkpt lon="-123.271071" lat="44.558729"><ele>71.869576</ele><time>2020-11-03T00:29:32Z</time><extensions><speed>3.980000</speed><course>269.296875</course><hAcc>5.000000</hAcc><vAcc>3.000000</vAcc></extensions></trkpt>
      <trkpt lon="-123.271079" lat="44.558728"><ele>71.800484</ele><time>2020-11-03T00:29:33Z</time><extensions><speed>1.100000</speed><course>256.289062</course><hAcc>5.000000</hAcc><vAcc>3.000000</vAcc></extensions></trkpt>
      <trkpt lon="-123.271088" lat="44.558733"><ele>71.830429</ele><time>2020-11-03T00:29:34Z</time><extensions><speed>1.100000</speed><course>274.218750</course><hAcc>5.000000</hAcc><vAcc>3.000000</vAcc></extensions></trkpt>
      <trkpt lon="-123.271115" lat="44.558748"><ele>71.863411</ele><time>2020-11-03T00:29:35Z</time><extensions><speed>0.950000</speed><course>302.343750</course><hAcc>5.000000</hAcc><vAcc>3.000000</vAcc></extensions></trkpt>
      <trkpt lon="-123.271120" lat="44.558750"><ele>71.679642</ele><time>2020-11-03T00:29:36Z</time><extensions><speed>0.890000</speed><course>264.023438</course><hAcc>5.000000</hAcc><vAcc>3.000000</vAcc></extensions></trkpt>
      <trkpt lon="-123.271122" lat="44.558751"><ele>71.731018</ele><time>2020-11-03T00:29:37Z</time><extensions><speed>0.310000</speed><course>264.023438</course><hAcc>5.000000</hAcc><vAcc>3.000000</vAcc></extensions></trkpt>
      <trkpt lon="-123.271120" lat="44.558750"><ele>71.732292</ele><time>2020-11-03T00:29:38Z</time><extensions><speed>0.190000</speed><course>264.023438</course><hAcc>5.000000</hAcc><vAcc>3.000000</vAcc></extensions></trkpt>
      <trkpt lon="-123.271121" lat="44.558747"><ele>71.486511</ele><time>2020-11-03T00:29:39Z</time><extensions><speed>0.250000</speed><course>264.023438</course><hAcc>5.000000</hAcc><vAcc>4.000000</vAcc></extensions></trkpt>
      <trkpt lon="-123.271122" lat="44.558741"><ele>71.658691</ele><time>2020-11-03T00:29:40Z</time><extensions><speed>0.250000</speed><course>263.671875</course><hAcc>10.000000</hAcc><vAcc>4.000000</vAcc></extensions></trkpt>
      <trkpt lon="-123.271122" lat="44.558733"><ele>71.853516</ele><time>2020-11-03T00:29:41Z</time><extensions><speed>0.490000</speed><course>263.671875</course><hAcc>10.000000</hAcc><vAcc>4.000000</vAcc></extensions></trkpt>
      <trkpt lon="-123.271121" lat="44.558729"><ele>71.593079</ele><time>2020-11-03T00:29:42Z</time><extensions><speed>0.490000</speed><course>263.671875</course><hAcc>10.000000</hAcc><vAcc>4.000000</vAcc></extensions></trkpt>
      <trkpt lon="-123.271117" lat="44.558728"><ele>71.749527</ele><time>2020-11-03T00:29:43Z</time><extensions><speed>0.410000</speed><course>137.109375</course><hAcc>10.000000</hAcc><vAcc>4.000000</vAcc></extensions></trkpt>
      <trkpt lon="-123.271111" lat="44.558730"><ele>71.737213</ele><time>2020-11-03T00:29:44Z</time><extensions><speed>0.360000</speed><course>264.023438</course><hAcc>10.000000</hAcc><vAcc>3.000000</vAcc></extensions></trkpt>
      <trkpt lon="-123.271105" lat="44.558734"><ele>71.522110</ele><time>2020-11-03T00:29:45Z</time><extensions><speed>0.370000</speed><course>91.757812</course><hAcc>10.000000</hAcc><vAcc>4.000000</vAcc></extensions></trkpt>
      <trkpt lon="-123.271104" lat="44.558742"><ele>71.880814</ele><time>2020-11-03T00:29:46Z</time><extensions><speed>0.710000</speed><course>14.062500</course><hAcc>10.000000</hAcc><vAcc>4.000000</vAcc></extensions></trkpt>
      <trkpt lon="-123.271108" lat="44.558748"><ele>71.709198</ele><time>2020-11-03T00:29:47Z</time><extensions><speed>0.570000</speed><course>313.242188</course><hAcc>10.000000</hAcc><vAcc>4.000000</vAcc></extensions></trkpt>
      <trkpt lon="-123.271115" lat="44.558746"><ele>71.922440</ele><time>2020-11-03T00:29:48Z</time><extensions><speed>0.570000</speed><course>273.867188</course><hAcc>10.000000</hAcc><vAcc>4.000000</vAcc></extensions></trkpt>
      <trkpt lon="-123.271119" lat="44.558742"><ele>71.926521</ele><time>2020-11-03T00:29:49Z</time><extensions><speed>0.230000</speed><course>242.578125</course><hAcc>10.000000</hAcc><vAcc>4.000000</vAcc></extensions></trkpt>
      <trkpt lon="-123.271120" lat="44.558738"><ele>71.741051</ele><time>2020-11-03T00:29:50Z</time><extensions><speed>0.230000</speed><course>263.671875</course><hAcc>10.000000</hAcc><vAcc>4.000000</vAcc></extensions></trkpt>
      <trkpt lon="-123.271118" lat="44.558733"><ele>71.936180</ele><time>2020-11-03T00:29:51Z</time><extensions><speed>0.230000</speed><course>85.078125</course><hAcc>10.000000</hAcc><vAcc>4.000000</vAcc></extensions></trkpt>
      <trkpt lon="-123.271112" lat="44.558729"><ele>71.873512</ele><time>2020-11-03T00:29:52Z</time><extensions><speed>0.300000</speed><course>96.679688</course><hAcc>10.000000</hAcc><vAcc>4.000000</vAcc></extensions></trkpt>
      <trkpt lon="-123.271106" lat="44.558724"><ele>71.873901</ele><time>2020-11-03T00:29:53Z</time><extensions><speed>0.290000</speed><course>84.375000</course><hAcc>10.000000</hAcc><vAcc>3.000000</vAcc></extensions></trkpt>
      <trkpt lon="-123.271097" lat="44.558722"><ele>71.878159</ele><time>2020-11-03T00:29:54Z</time><extensions><speed>0.540000</speed><course>84.375000</course><hAcc>10.000000</hAcc><vAcc>3.000000</vAcc></extensions></trkpt>
      <trkpt lon="-123.271093" lat="44.558720"><ele>71.862663</ele><time>2020-11-03T00:29:55Z</time><extensions><speed>0.220000</speed><course>62.226562</course><hAcc>10.000000</hAcc><vAcc>3.000000</vAcc></extensions></trkpt>
      <trkpt lon="-123.271093" lat="44.558723"><ele>71.927437</ele><time>2020-11-03T00:29:56Z</time><extensions><speed>0.450000</speed><course>12.656250</course><hAcc>10.000000</hAcc><vAcc>3.000000</vAcc></extensions></trkpt>
      <trkpt lon="-123.271095" lat="44.558724"><ele>71.927330</ele><time>2020-11-03T00:29:57Z</time><extensions><speed>0.270000</speed><course>306.914062</course><hAcc>10.000000</hAcc><vAcc>3.000000</vAcc></extensions></trkpt>
      <trkpt lon="-123.271101" lat="44.558724"><ele>71.873329</ele><time>2020-11-03T00:29:58Z</time><extensions><speed>0.480000</speed><course>270.000000</course><hAcc>10.000000</hAcc><vAcc>3.000000</vAcc></extensions></trkpt>
      <trkpt lon="-123.271113" lat="44.558720"><ele>71.846870</ele><time>2020-11-03T00:29:59Z</time><extensions><speed>0.480000</speed><course>242.578125</course><hAcc>10.000000</hAcc><vAcc>3.000000</vAcc></extensions></trkpt>
      <trkpt lon="-123.271124" lat="44.558714"><ele>71.854095</ele><time>2020-11-03T00:30:00Z</time><extensions><speed>0.710000</speed><course>250.312500</course><hAcc>10.000000</hAcc><vAcc>3.000000</vAcc></extensions></trkpt>
      <trkpt lon="-123.271127" lat="44.558708"><ele>71.904533</ele><time>2020-11-03T00:30:01Z</time><extensions><speed>0.170000</speed><course>259.804688</course><hAcc>10.000000</hAcc><vAcc>3.000000</vAcc></extensions></trkpt>
      <trkpt lon="-123.271127" lat="44.558708"><ele>72.025032</ele><time>2020-11-03T00:30:02Z</time><extensions><speed>0.000000</speed><course>270.703125</course><hAcc>10.000000</hAcc><vAcc>3.000000</vAcc></extensions></trkpt>
      <trkpt lon="-123.271126" lat="44.558707"><ele>71.985207</ele><time>2020-11-03T00:30:03Z</time><extensions><speed>0.170000</speed><course>333.632812</course><hAcc>10.000000</hAcc><vAcc>3.000000</vAcc></extensions></trkpt>
      <trkpt lon="-123.271125" lat="44.558709"><ele>72.001610</ele><time>2020-11-03T00:30:04Z</time><extensions><speed>0.420000</speed><course>24.960938</course><hAcc>10.000000</hAcc><vAcc>3.000000</vAcc></extensions></trkpt>
      <trkpt lon="-123.271123" lat="44.558709"><ele>71.928894</ele><time>2020-11-03T00:30:05Z</time><extensions><speed>0.190000</speed><course>14.062500</course><hAcc>10.000000</hAcc><vAcc>3.000000</vAcc></extensions></trkpt>
      <trkpt lon="-123.271123" lat="44.558709"><ele>71.935600</ele><time>2020-11-03T00:30:06Z</time><extensions><speed>0.000000</speed><course>14.062500</course><hAcc>10.000000</hAcc><vAcc>3.000000</vAcc></extensions></trkpt>
      <trkpt lon="-123.271123" lat="44.558709"><ele>71.990372</ele><time>2020-11-03T00:30:07Z</time><extensions><speed>0.000000</speed><course>14.062500</course><hAcc>10.000000</hAcc><vAcc>3.000000</vAcc></extensions></trkpt>
      <trkpt lon="-123.271123" lat="44.558709"><ele>71.937981</ele><time>2020-11-03T00:30:08Z</time><extensions><speed>0.000000</speed><course>14.062500</course><hAcc>10.000000</hAcc><vAcc>3.000000</vAcc></extensions></trkpt>
      <trkpt lon="-123.271123" lat="44.558709"><ele>71.954689</ele><time>2020-11-03T00:30:09Z</time><extensions><speed>0.000000</speed><course>14.062500</course><hAcc>10.000000</hAcc><vAcc>3.000000</vAcc></extensions></trkpt>
      <trkpt lon="-123.271123" lat="44.558709"><ele>71.888939</ele><time>2020-11-03T00:30:10Z</time><extensions><speed>0.000000</speed><course>14.062500</course><hAcc>10.000000</hAcc><vAcc>3.000000</vAcc></extensions></trkpt>
    </trkseg>
  </trk>
</gpx>