<?xml version="1.0" encoding="UTF-8"?>
<gpx version="1.1" creator="Apple Health Export" xmlns="http://www.topografix.com/GPX/1/1" xmlns:xsi="http://www.w3.org/2001/XMLSchema-instance" xsi:schemaLocation="http://www.topografix.com/GPX/1/1 http://www.topografix.com/GPX/1/1/gpx.xsd">
  <metadata>
    <time>2021-02-21T19:24:47Z</time>
  </metadata>
  <trk>
    <name>Route 2020-10-05 7:01pm</name>
    <trkseg>
      <trkpt lon="-123.279108" lat="44.563146"><ele>73.089828</ele><time>2020-10-06T01:54:56Z</time><extensions><speed>0.000000</speed><course>-1.000000</course><hAcc>31.998320</hAcc><vAcc>42.597721</vAcc></extensions></trkpt>
      <trkpt lon="-123.279110" lat="44.563158"><ele>73.090553</ele><time>2020-10-06T01:54:57Z</time><extensions><speed>0.000000</speed><course>-1.000000</course><hAcc>15.999160</hAcc><vAcc>25.139969</vAcc></extensions></trkpt>
      <trkpt lon="-123.279227" lat="44.563272"><ele>77.392464</ele><time>2020-10-06T01:55:03Z</time><extensions><speed>1.030000</speed><course>316.054688</course><hAcc>5.000000</hAcc><vAcc>6.000000</vAcc></extensions></trkpt>
      <trkpt lon="-123.279283" lat="44.563128"><ele>71.243294</ele><time>2020-10-06T01:55:04Z</time><extensions><speed>1.030000</speed><course>282.656250</course><hAcc>5.000000</hAcc><vAcc>3.000000</vAcc></extensions></trkpt>
      <trkpt lon="-123.279282" lat="44.563139"><ele>68.953377</ele><time>2020-10-06T01:55:05Z</time><extensions><speed>0.740000</speed><course>268.242188</course><hAcc>5.000000</hAcc><vAcc>3.000000</vAcc></extensions></trkpt>
      <trkpt lon="-123.279285" lat="44.563150"><ele>68.053780</ele><time>2020-10-06T01:55:06Z</time><extensions><speed>0.740000</speed><course>286.171875</course><hAcc>5.000000</hAcc><vAcc>3.000000</vAcc></extensions></trkpt>
      <trkpt lon="-123.279298" lat="44.563152"><ele>69.981941</ele><time>2020-10-06T01:55:07Z</time><extensions><speed>0.810000</speed><course>281.601562</course><hAcc>5.000000</hAcc><vAcc>3.000000</vAcc></extensions></trkpt>
      <trkpt lon="-123.279316" lat="44.563150"><ele>69.425545</ele><time>2020-10-06T01:55:08Z</time><extensions><speed>1.180000</speed><course>288.984375</course><hAcc>5.000000</hAcc><vAcc>3.000000</vAcc></extensions></trkpt>
      <trkpt lon="-123.279333" lat="44.563148"><ele>68.673714</ele><time>2020-10-06T01:55:09Z</time><extensions><speed>1.180000</speed><course>284.765625</course><hAcc>5.000000</hAcc><vAcc>3.000000</vAcc></extensions></trkpt>
      <trkpt lon="-123.279349" lat="44.563149"><ele>68.546089</ele><time>2020-10-06T01:55:10Z</time><extensions><speed>1.180000</speed><course>287.226562</course><hAcc>5.000000</hAcc><vAcc>3.000000</vAcc></extensions></trkpt>
      <trkpt lon="-123.279368" lat="44.563150"><ele>69.291573</ele><time>2020-10-06T01:55:11Z</time><extensions><speed>1.290000</speed><course>283.710938</course><hAcc>5.000000</hAcc><vAcc>3.000000</vAcc></extensions></trkpt>
      <trkpt lon="-123.279384" lat="44.563154"><ele>69.803963</ele><time>2020-10-06T01:55:12Z</time><extensions><speed>0.990000</speed><course>289.687500</course><hAcc>5.000000</hAcc><vAcc>3.000000</vAcc></extensions></trkpt>
      <trkpt lon="-123.279397" lat="44.563160"><ele>70.546089</ele><time>2020-10-06T01:55:13Z</time><extensions><speed>1.240000</speed><course>294.257812</course><hAcc>5.000000</hAcc><vAcc>3.000000</vAcc></extensions></trkpt>
      <trkpt lon="-123.279410" lat="44.563167"><ele>70.890327</ele><time>2020-10-06T01:55:14Z</time><extensions><speed>1.210000</speed><course>310.078125</course><hAcc>5.000000</hAcc><vAcc>3.000000</vAcc></extensions></trkpt>
      <trkpt lon="-123.279424" lat="44.563175"><ele>71.209297</ele><time>2020-10-06T01:55:15Z</time><extensions><speed>1.240000</speed><course>300.937500</course><hAcc>5.000000</hAcc><vAcc>3.000000</vAcc></extensions></trkpt>
      <trkpt lon="-123.279437" lat="44.563183"><ele>71.480782</ele><time>2020-10-06T01:55:16Z</time><extensions><speed>1.130000</speed><course>281.601562</course><hAcc>5.000000</hAcc><vAcc>3.000000</vAcc></extensions></trkpt>
      <trkpt lon="-123.279447" lat="44.563191"><ele>71.851814</ele><time>2020-10-06T01:55:17Z</time><extensions><speed>1.130000</speed><course>299.882812</course><hAcc>5.000000</hAcc><vAcc>3.000000</vAcc></extensions></trkpt>
      <trkpt lon="-123.279456" lat="44.563203"><ele>71.486824</ele><time>2020-10-06T01:55:18Z</time><extensions><speed>1.130000</speed><course>332.578125</course><hAcc>5.000000</hAcc><vAcc>3.000000</vAcc></extensions></trkpt>
      <trkpt lon="-123.279463" lat="44.563219"><ele>71.765388</ele><time>2020-10-06T01:55:19Z</time><extensions><speed>1.040000</speed><course>337.851562</course><hAcc>5.000000</hAcc><vAcc>3.000000</vAcc></extensions></trkpt>
      <trkpt lon="-123.279465" lat="44.563237"><ele>72.296700</ele><time>2020-10-06T01:55:20Z</time><extensions><speed>1.160000</speed><course>350.156250</course><hAcc>5.000000</hAcc><vAcc>3.000000</vAcc></extensions></trkpt>
      <trkpt lon="-123.279465" lat="44.563255"><ele>72.692146</ele><time>2020-10-06T01:55:21Z</time><extensions><speed>1.260000</speed><course>353.671875</course><hAcc>5.000000</hAcc><vAcc>3.000000</vAcc></extensions></trkpt>
      <trkpt lon="-123.279464" lat="44.563273"><ele>72.843391</ele><time>2020-10-06T01:55:22Z</time><extensions><speed>1.340000</speed><course>359.648438</course><hAcc>5.000000</hAcc><vAcc>3.000000</vAcc></extensions></trkpt>
      <trkpt lon="-123.279462" lat="44.563290"><ele>73.190742</ele><time>2020-10-06T01:55:23Z</time><extensions><speed>1.260000</speed><course>0.351562</course><hAcc>5.000000</hAcc><vAcc>3.000000</vAcc></extensions></trkpt>
      <trkpt lon="-123.279459" lat="44.563306"><ele>73.617378</ele><time>2020-10-06T01:55:24Z</time><extensions><speed>1.260000</speed><course>1.054688</course><hAcc>5.000000</hAcc><vAcc>3.000000</vAcc></extensions></trkpt>
      <trkpt lon="-123.279457" lat="44.563319"><ele>73.825142</ele><time>2020-10-06T01:55:25Z</time><extensions><speed>1.110000</speed><course>2.109375</course><hAcc>5.000000</hAcc><vAcc>3.000000</vAcc></extensions></trkpt>
      <trkpt lon="-123.279453" lat="44.563331"><ele>73.801895</ele><time>2020-10-06T01:55:26Z</time><extensions><speed>0.880000</speed><course>36.210938</course><hAcc>5.000000</hAcc><vAcc>3.000000</vAcc></extensions></trkpt>
      <trkpt lon="-123.279447" lat="44.563342"><ele>73.873924</ele><time>2020-10-06T01:55:27Z</time><extensions><speed>1.120000</speed><course>15.468750</course><hAcc>5.000000</hAcc><vAcc>3.000000</vAcc></extensions></trkpt>
      <trkpt lon="-123.279442" lat="44.563352"><ele>73.957153</ele><time>2020-10-06T01:55:28Z</time><extensions><speed>0.880000</speed><course>16.171875</course><hAcc>5.000000</hAcc><vAcc>3.000000</vAcc></extensions></trkpt>
      <trkpt lon="-123.279438" lat="44.563357"><ele>74.079292</ele><time>2020-10-06T01:55:29Z</time><extensions><speed>0.680000</speed><course>40.429688</course><hAcc>5.000000</hAcc><vAcc>3.000000</vAcc></extensions></trkpt>
      <trkpt lon="-123.279435" lat="44.563360"><ele>74.066490</ele><time>2020-10-06T01:55:30Z</time><extensions><speed>0.390000</speed><course>71.367188</course><hAcc>5.000000</hAcc><vAcc>3.000000</vAcc></extensions></trkpt>
      <trkpt lon="-123.279432" lat="44.563363"><ele>74.022652</ele><time>2020-10-06T01:55:31Z</time><extensions><speed>0.380000</speed><course>15.820312</course><hAcc>5.000000</hAcc><vAcc>3.000000</vAcc></extensions></trkpt>
      <trkpt lon="-123.279432" lat="44.563363"><ele>73.945435</ele><time>2020-10-06T01:55:32Z</time><extensions><speed>0.000000</speed><course>21.796875</course><hAcc>5.000000</hAcc><vAcc>3.000000</vAcc></extensions></trkpt>
      <trkpt lon="-123.279432" lat="44.563363"><ele>74.009636</ele><time>2020-10-06T01:55:33Z</time><extensions><speed>0.000000</speed><course>228.164062</course><hAcc>5.000000</hAcc><vAcc>3.000000</vAcc></extensions></trkpt>
      <trkpt lon="-123.279432" lat="44.563363"><ele>73.923439</ele><time>2020-10-06T01:55:34Z</time><extensions><speed>0.000000</speed><course>228.164062</course><hAcc>5.000000</hAcc><vAcc>3.000000</vAcc></extensions></trkpt>
      <trkpt lon="-123.279432" lat="44.563363"><ele>74.004951</ele><time>2020-10-06T01:55:35Z</time><extensions><speed>0.000000</speed><course>15.468750</course><hAcc>5.000000</hAcc><vAcc>3.000000</vAcc></extensions></trkpt>
      <trkpt lon="-123.279432" lat="44.563363"><ele>74.010147</ele><time>2020-10-06T01:55:36Z</time><extensions><speed>0.000000</speed><course>319.218750</course><hAcc>5.000000</hAcc><vAcc>3.000000</vAcc></extensions></trkpt>
      <trkpt lon="-123.279432" lat="44.563363"><ele>73.901825</ele><time>2020-10-06T01:55:37Z</time><extensions><speed>0.000000</speed><course>14.062500</course><hAcc>5.000000</hAcc><vAcc>3.000000</vAcc></extensions></trkpt>
      <trkpt lon="-123.279432" lat="44.563363"><ele>73.923553</ele><time>2020-10-06T01:55:38Z</time><extensions><speed>0.000000</speed><course>355.429688</course><hAcc>5.000000</hAcc><vAcc>3.000000</vAcc></extensions></trkpt>
      <trkpt lon="-123.279432" lat="44.563363"><ele>73.930862</ele><time>2020-10-06T01:55:39Z</time><extensions><speed>0.000000</speed><course>306.562500</course><hAcc>5.000000</hAcc><vAcc>3.000000</vAcc></extensions></trkpt>
      <trkpt lon="-123.279432" lat="44.563363"><ele>74.177765</ele><time>2020-10-06T01:55:40Z</time><extensions><speed>0.000000</speed><course>303.750000</course><hAcc>5.000000</hAcc><vAcc>3.000000</vAcc></extensions></trkpt>
      <trkpt lon="-123.279432" lat="44.563363"><ele>74.013062</ele><time>2020-10-06T01:55:41Z</time><extensions><speed>0.000000</speed><course>264.726562</course><hAcc>5.000000</hAcc><vAcc>3.000000</vAcc></extensions></trkpt>
      <trkpt lon="-123.279432" lat="44.563363"><ele>74.018784</ele><time>2020-10-06T01:55:42Z</time><extensions><speed>0.000000</speed><course>134.296875</course><hAcc>5.000000</hAcc><vAcc>3.000000</vAcc></extensions></trkpt>
      <trkpt lon="-123.279432" lat="44.563363"><ele>73.919014</ele><time>2020-10-06T01:55:43Z</time><extensions><speed>0.000000</speed><course>150.117188</course><hAcc>5.000000</hAcc><vAcc>3.000000</vAcc></extensions></trkpt>
      <trkpt lon="-123.279432" lat="44.563363"><ele>74.007118</ele><time>2020-10-06T01:55:44Z</time><extensions><speed>0.000000</speed><course>284.765625</course><hAcc>5.000000</hAcc><vAcc>3.000000</vAcc></extensions></trkpt>
      <trkpt lon="-123.279413" lat="44.563366"><ele>73.928909</ele><time>2020-10-06T01:55:45Z</time><extensions><speed>0.240000</speed><course>162.070312</course><hAcc>5.000000</hAcc><vAcc>3.000000</vAcc></extensions></trkpt>
      <trkpt lon="-123.279410" lat="44.563367"><ele>73.966400</ele><time>2020-10-06T01:55:46Z</time><extensions><speed>0.260000</speed><course>54.843750</course><hAcc>5.000000</hAcc><vAcc>3.000000</vAcc></extensions></trkpt>
      <trkpt lon="-123.279410" lat="44.563367"><ele>73.842728</ele><time>2020-10-06T01:55:47Z</time><extensions><speed>0.000000</speed><course>321.328125</course><hAcc>5.000000</hAcc><vAcc>3.000000</vAcc></extensions></trkpt>
      <trkpt lon="-123.279405" lat="44.563370"><ele>74.053207</ele><time>2020-10-06T01:55:48Z</time><extensions><speed>0.150000</speed><course>134.648438</course><hAcc>5.000000</hAcc><vAcc>3.000000</vAcc></extensions></trkpt>
      <trkpt lon="-123.279405" lat="44.563370"><ele>73.955215</ele><time>2020-10-06T01:55:49Z</time><extensions><speed>0.000000</speed><course>198.632812</course><hAcc>5.000000</hAcc><vAcc>3.000000</vAcc></extensions></trkpt>
      <trkpt lon="-123.279405" lat="44.563370"><ele>74.015015</ele><time>2020-10-06T01:55:50Z</time><extensions><speed>0.000000</speed><course>199.687500</course><hAcc>5.000000</hAcc><vAcc>3.000000</vAcc></extensions></trkpt>
      <trkpt lon="-123.279405" lat="44.563370"><ele>73.947342</ele><time>2020-10-06T01:55:51Z</time><extensions><speed>0.000000</speed><course>230.625000</course><hAcc>5.000000</hAcc><vAcc>3.000000</vAcc></extensions></trkpt>
      <trkpt lon="-123.279405" lat="44.563370"><ele>73.974281</ele><time>2020-10-06T01:55:52Z</time><extensions><speed>0.000000</speed><course>16.171875</course><hAcc>5.000000</hAcc><vAcc>3.000000</vAcc></extensions></trkpt>
      <trkpt lon="-123.279405" lat="44.563370"><ele>73.925842</ele><time>2020-10-06T01:55:53Z</time><extensions><speed>0.000000</speed><course>175.078125</course><hAcc>5.000000</hAcc><vAcc>3.000000</vAcc></extensions></trkpt>
      <trkpt lon="-123.279405" lat="44.563370"><ele>73.925552</ele><time>2020-10-06T01:55:54Z</time><extensions><speed>0.000000</speed><course>29.531250</course><hAcc>5.000000</hAcc><vAcc>3.000000</vAcc></extensions></trkpt>
      <trkpt lon="-123.279405" lat="44.563370"><ele>73.986107</ele><time>2020-10-06T01:55:55Z</time><extensions><speed>0.000000</speed><course>112.851562</course><hAcc>5.000000</hAcc><vAcc>3.000000</vAcc></extensions></trkpt>
      <trkpt lon="-123.279410" lat="44.563374"><ele>73.987305</ele><time>2020-10-06T01:55:56Z</time><extensions><speed>0.210000</speed><course>305.156250</course><hAcc>5.000000</hAcc><vAcc>3.000000</vAcc></extensions></trkpt>
      <trkpt lon="-123.279413" lat="44.563375"><ele>74.015808</ele><time>2020-10-06T01:55:57Z</time><extensions><speed>0.160000</speed><course>338.906250</course><hAcc>5.000000</hAcc><vAcc>3.000000</vAcc></extensions></trkpt>
      <trkpt lon="-123.279416" lat="44.563377"><ele>73.961075</ele><time>2020-10-06T01:55:58Z</time><extensions><speed>0.210000</speed><course>310.078125</course><hAcc>5.000000</hAcc><vAcc>3.000000</vAcc></extensions></trkpt>
      <trkpt lon="-123.279422" lat="44.563379"><ele>74.060661</ele><time>2020-10-06T01:55:59Z</time><extensions><speed>0.530000</speed><course>295.312500</course><hAcc>5.000000</hAcc><vAcc>3.000000</vAcc></extensions></trkpt>
      <trkpt lon="-123.279427" lat="44.563381"><ele>73.983551</ele><time>2020-10-06T01:56:00Z</time><extensions><speed>0.530000</speed><course>243.281250</course><hAcc>5.000000</hAcc><vAcc>3.000000</vAcc></extensions></trkpt>
      <trkpt lon="-123.279438" lat="44.563376"><ele>74.146744</ele><time>2020-10-06T01:56:01Z</time><extensions><speed>0.530000</speed><course>220.781250</course><hAcc>5.000000</hAcc><vAcc>3.000000</vAcc></extensions></trkpt>
      <trkpt lon="-123.279449" lat="44.563363"><ele>74.383202</ele><time>2020-10-06T01:56:02Z</time><extensions><speed>1.150000</speed><course>188.437500</course><hAcc>5.000000</hAcc><vAcc>3.000000</vAcc></extensions></trkpt>
      <trkpt lon="-123.279456" lat="44.563344"><ele>74.231247</ele><time>2020-10-06T01:56:03Z</time><extensions><speed>1.780000</speed><course>185.273438</course><hAcc>5.000000</hAcc><vAcc>3.000000</vAcc></extensions></trkpt>
      <trkpt lon="-123.279461" lat="44.563323"><ele>74.095238</ele><time>2020-10-06T01:56:04Z</time><extensions><speed>2.120000</speed><course>187.382812</course><hAcc>5.000000</hAcc><vAcc>3.000000</vAcc></extensions></trkpt>
      <trkpt lon="-123.279467" lat="44.563302"><ele>74.038094</ele><time>2020-10-06T01:56:05Z</time><extensions><speed>2.050000</speed><course>193.007812</course><hAcc>5.000000</hAcc><vAcc>3.000000</vAcc></extensions></trkpt>
      <trkpt lon="-123.279482" lat="44.563281"><ele>73.997505</ele><time>2020-10-06T01:56:06Z</time><extensions><speed>2.120000</speed><course>206.718750</course><hAcc>5.000000</hAcc><vAcc>3.000000</vAcc></extensions></trkpt>
      <trkpt lon="-123.279510" lat="44.563265"><ele>73.851738</ele><time>2020-10-06T01:56:07Z</time><extensions><speed>2.930000</speed><course>230.976562</course><hAcc>5.000000</hAcc><vAcc>3.000000</vAcc></extensions></trkpt>
      <trkpt lon="-123.279548" lat="44.563261"><ele>74.063652</ele><time>2020-10-06T01:56:08Z</time><extensions><speed>2.930000</speed><course>260.156250</course><hAcc>5.000000</hAcc><vAcc>3.000000</vAcc></extensions></trkpt>
      <trkpt lon="-123.279589" lat="44.563274"><ele>74.154327</ele><time>2020-10-06T01:56:09Z</time><extensions><speed>2.930000</speed><course>292.500000</course><hAcc>5.000000</hAcc><vAcc>3.000000</vAcc></extensions></trkpt>
      <trkpt lon="-123.279622" lat="44.563302"><ele>74.397179</ele><time>2020-10-06T01:56:10Z</time><extensions><speed>3.490000</speed><course>318.515625</course><hAcc>5.000000</hAcc><vAcc>3.000000</vAcc></extensions></trkpt>
      <trkpt lon="-123.279643" lat="44.563340"><ele>74.670265</ele><time>2020-10-06T01:56:11Z</time><extensions><speed>3.590000</speed><course>334.687500</course><hAcc>5.000000</hAcc><vAcc>3.000000</vAcc></extensions></trkpt>
      <trkpt lon="-123.279658" lat="44.563383"><ele>74.471283</ele><time>2020-10-06T01:56:12Z</time><extensions><speed>4.430000</speed><course>343.125000</course><hAcc>5.000000</hAcc><vAcc>3.000000</vAcc></extensions></trkpt>
      <trkpt lon="-123.279666" lat="44.563428"><ele>74.845795</ele><time>2020-10-06T01:56:13Z</time><extensions><speed>4.470000</speed><course>352.617188</course><hAcc>5.000000</hAcc><vAcc>3.000000</vAcc></extensions></trkpt>
      <trkpt lon="-123.279672" lat="44.563475"><ele>74.947098</ele><time>2020-10-06T01:56:14Z</time><extensions><speed>4.470000</speed><course>352.265625</course><hAcc>5.000000</hAcc><vAcc>3.000000</vAcc></extensions></trkpt>
      <trkpt lon="-123.279680" lat="44.563522"><ele>74.584244</ele><time>2020-10-06T01:56:15Z</time><extensions><speed>4.800000</speed><course>348.398438</course><hAcc>5.000000</hAcc><vAcc>3.000000</vAcc></extensions></trkpt>
      <trkpt lon="-123.279693" lat="44.563570"><ele>75.028473</ele><time>2020-10-06T01:56:16Z</time><extensions><speed>4.830000</speed><course>344.531250</course><hAcc>5.000000</hAcc><vAcc>3.000000</vAcc></extensions></trkpt>
      <trkpt lon="-123.279709" lat="44.563616"><ele>75.027222</ele><time>2020-10-06T01:56:17Z</time><extensions><speed>4.710000</speed><course>343.476562</course><hAcc>5.000000</hAcc><vAcc>3.000000</vAcc></extensions></trkpt>
      <trkpt lon="-123.279726" lat="44.563661"><ele>75.174744</ele><time>2020-10-06T01:56:18Z</time><extensions><speed>5.110000</speed><course>343.125000</course><hAcc>5.000000</hAcc><vAcc>3.000000</vAcc></extensions></trkpt>
      <trkpt lon="-123.279742" lat="44.563710"><ele>75.550194</ele><time>2020-10-06T01:56:19Z</time><extensions><speed>5.060000</speed><course>342.421875</course><hAcc>5.000000</hAcc><vAcc>3.000000</vAcc></extensions></trkpt>
      <trkpt lon="-123.279758" lat="44.563777"><ele>75.691147</ele><time>2020-10-06T01:56:20Z</time><extensions><speed>5.110000</speed><course>341.718750</course><hAcc>5.000000</hAcc><vAcc>3.000000</vAcc></extensions></trkpt>
      <trkpt lon="-123.279762" lat="44.563819"><ele>75.972008</ele><time>2020-10-06T01:56:21Z</time><extensions><speed>5.080000</speed><course>344.179688</course><hAcc>5.000000</hAcc><vAcc>3.000000</vAcc></extensions></trkpt>
      <trkpt lon="-123.279759" lat="44.563861"><ele>75.917458</ele><time>2020-10-06T01:56:22Z</time><extensions><speed>4.590000</speed><course>357.187500</course><hAcc>5.000000</hAcc><vAcc>3.000000</vAcc></extensions></trkpt>
      <trkpt lon="-123.279774" lat="44.563902"><ele>76.266975</ele><time>2020-10-06T01:56:23Z</time><extensions><speed>4.820000</speed><course>345.234375</course><hAcc>5.000000</hAcc><vAcc>4.000000</vAcc></extensions></trkpt>
      <trkpt lon="-123.279805" lat="44.563941"><ele>76.969467</ele><time>2020-10-06T01:56:24Z</time><extensions><speed>4.820000</speed><course>340.312500</course><hAcc>5.000000</hAcc><vAcc>4.000000</vAcc></extensions></trkpt>
      <trkpt lon="-123.279828" lat="44.563981"><ele>76.614273</ele><time>2020-10-06T01:56:25Z</time><extensions><speed>4.820000</speed><course>343.125000</course><hAcc>5.000000</hAcc><vAcc>4.000000</vAcc></extensions></trkpt>
      <trkpt lon="-123.279843" lat="44.564023"><ele>76.989838</ele><time>2020-10-06T01:56:26Z</time><extensions><speed>4.680000</speed><course>344.179688</course><hAcc>5.000000</hAcc><vAcc>4.000000</vAcc></extensions></trkpt>
      <trkpt lon="-123.279849" lat="44.564057"><ele>77.822662</ele><time>2020-10-06T01:56:27Z</time><extensions><speed>4.680000</speed><course>351.914062</course><hAcc>5.000000</hAcc><vAcc>4.000000</vAcc></extensions></trkpt>
      <trkpt lon="-123.279856" lat="44.564098"><ele>77.298470</ele><time>2020-10-06T01:56:28Z</time><extensions><speed>4.680000</speed><course>351.562500</course><hAcc>5.000000</hAcc><vAcc>4.000000</vAcc></extensions></trkpt>
      <trkpt lon="-123.279868" lat="44.564140"><ele>77.506897</ele><time>2020-10-06T01:56:29Z</time><extensions><speed>4.710000</speed><course>349.804688</course><hAcc>5.000000</hAcc><vAcc>4.000000</vAcc></extensions></trkpt>
      <trkpt lon="-123.279878" lat="44.564180"><ele>78.251007</ele><time>2020-10-06T01:56:30Z</time><extensions><speed>4.630000</speed><course>350.859375</course><hAcc>5.000000</hAcc><vAcc>4.000000</vAcc></extensions></trkpt>
      <trkpt lon="-123.279887" lat="44.564221"><ele>77.770378</ele><time>2020-10-06T01:56:31Z</time><extensions><speed>4.630000</speed><course>351.562500</course><hAcc>5.000000</hAcc><vAcc>3.000000</vAcc></extensions></trkpt>
      <trkpt lon="-123.279895" lat="44.564265"><ele>78.038597</ele><time>2020-10-06T01:56:32Z</time><extensions><speed>4.630000</speed><course>354.023438</course><hAcc>5.000000</hAcc><vAcc>3.000000</vAcc></extensions></trkpt>
      <trkpt lon="-123.279901" lat="44.564307"><ele>78.377304</ele><time>2020-10-06T01:56:33Z</time><extensions><speed>4.620000</speed><course>356.132812</course><hAcc>5.000000</hAcc><vAcc>3.000000</vAcc></extensions></trkpt>
      <trkpt lon="-123.279912" lat="44.564359"><ele>78.168098</ele><time>2020-10-06T01:56:34Z</time><extensions><speed>4.990000</speed><course>357.539062</course><hAcc>5.000000</hAcc><vAcc>3.000000</vAcc></extensions></trkpt>
      <trkpt lon="-123.279900" lat="44.564406"><ele>78.392494</ele><time>2020-10-06T01:56:35Z</time><extensions><speed>5.010000</speed><course>358.945312</course><hAcc>5.000000</hAcc><vAcc>3.000000</vAcc></extensions></trkpt>
      <trkpt lon="-123.279892" lat="44.564453"><ele>78.890480</ele><time>2020-10-06T01:56:36Z</time><extensions><speed>5.130000</speed><course>359.296875</course><hAcc>5.000000</hAcc><vAcc>3.000000</vAcc></extensions></trkpt>
      <trkpt lon="-123.279911" lat="44.564508"><ele>78.482849</ele><time>2020-10-06T01:56:37Z</time><extensions><speed>5.130000</speed><course>353.320312</course><hAcc>5.000000</hAcc><vAcc>3.000000</vAcc></extensions></trkpt>
      <trkpt lon="-123.279921" lat="44.564560"><ele>78.585602</ele><time>2020-10-06T01:56:38Z</time><extensions><speed>5.510000</speed><course>354.023438</course><hAcc>5.000000</hAcc><vAcc>3.000000</vAcc></extensions></trkpt>
      <trkpt lon="-123.279929" lat="44.564611"><ele>78.810944</ele><time>2020-10-06T01:56:39Z</time><extensions><speed>5.590000</speed><course>355.781250</course><hAcc>5.000000</hAcc><vAcc>3.000000</vAcc></extensions></trkpt>
      <trkpt lon="-123.279931" lat="44.564664"><ele>79.156204</ele><time>2020-10-06T01:56:40Z</time><extensions><speed>5.720000</speed><course>359.296875</course><hAcc>5.000000</hAcc><vAcc>3.000000</vAcc></extensions></trkpt>
      <trkpt lon="-123.279927" lat="44.564722"><ele>79.049377</ele><time>2020-10-06T01:56:41Z</time><extensions><speed>5.720000</speed><course>3.867188</course><hAcc>5.000000</hAcc><vAcc>3.000000</vAcc></extensions></trkpt>
      <trkpt lon="-123.279918" lat="44.564776"><ele>78.565224</ele><time>2020-10-06T01:56:42Z</time><extensions><speed>6.200000</speed><course>1.757812</course><hAcc>5.000000</hAcc><vAcc>3.000000</vAcc></extensions></trkpt>
      <trkpt lon="-123.279926" lat="44.564822"><ele>78.566940</ele><time>2020-10-06T01:56:43Z</time><extensions><speed>5.670000</speed><course>358.242188</course><hAcc>5.000000</hAcc><vAcc>3.000000</vAcc></extensions></trkpt>
      <trkpt lon="-123.279938" lat="44.564876"><ele>78.523056</ele><time>2020-10-06T01:56:44Z</time><extensions><speed>5.970000</speed><course>356.835938</course><hAcc>5.000000</hAcc><vAcc>3.000000</vAcc></extensions></trkpt>
      <trkpt lon="-123.279942" lat="44.564926"><ele>78.800323</ele><time>2020-10-06T01:56:45Z</time><extensions><speed>5.670000</speed><course>356.835938</course><hAcc>5.000000</hAcc><vAcc>3.000000</vAcc></extensions></trkpt>
      <trkpt lon="-123.279955" lat="44.564975"><ele>78.672615</ele><time>2020-10-06T01:56:46Z</time><extensions><speed>5.410000</speed><course>353.671875</course><hAcc>5.000000</hAcc><vAcc>3.000000</vAcc></extensions></trkpt>
      <trkpt lon="-123.279960" lat="44.565020"><ele>78.956093</ele><time>2020-10-06T01:56:47Z</time><extensions><speed>5.300000</speed><course>350.156250</course><hAcc>5.000000</hAcc><vAcc>3.000000</vAcc></extensions></trkpt>
      <trkpt lon="-123.279962" lat="44.565056"><ele>79.245293</ele><time>2020-10-06T01:56:48Z</time><extensions><speed>4.670000</speed><course>351.210938</course><hAcc>5.000000</hAcc><vAcc>3.000000</vAcc></extensions></trkpt>
      <trkpt lon="-123.279974" lat="44.565098"><ele>79.264244</ele><time>2020-10-06T01:56:49Z</time><extensions><speed>4.670000</speed><course>352.617188</course><hAcc>5.000000</hAcc><vAcc>3.000000</vAcc></extensions></trkpt>
      <trkpt lon="-123.279940" lat="44.565148"><ele>79.542343</ele><time>2020-10-06T01:56:50Z</time><extensions><speed>4.670000</speed><course>9.140625</course><hAcc>5.000000</hAcc><vAcc>3.000000</vAcc></extensions></trkpt>
      <trkpt lon="-123.279928" lat="44.565191"><ele>79.405685</ele><time>2020-10-06T01:56:51Z</time><extensions><speed>5.430000</speed><course>8.789062</course><hAcc>5.000000</hAcc><vAcc>3.000000</vAcc></extensions></trkpt>
      <trkpt lon="-123.279905" lat="44.565231"><ele>79.314522</ele><time>2020-10-06T01:56:52Z</time><extensions><speed>4.870000</speed><course>10.195312</course><hAcc>5.000000</hAcc><vAcc>3.000000</vAcc></extensions></trkpt>
      <trkpt lon="-123.279907" lat="44.565282"><ele>79.436531</ele><time>2020-10-06T01:56:53Z</time><extensions><speed>4.970000</speed><course>3.164062</course><hAcc>5.000000</hAcc><vAcc>3.000000</vAcc></extensions></trkpt>
      <trkpt lon="-123.279912" lat="44.565326"><ele>79.658813</ele><time>2020-10-06T01:56:54Z</time><extensions><speed>4.870000</speed><course>359.648438</course><hAcc>5.000000</hAcc><vAcc>3.000000</vAcc></extensions></trkpt>
      <trkpt lon="-123.279908" lat="44.565363"><ele>79.347710</ele><time>2020-10-06T01:56:55Z</time><extensions><speed>4.620000</speed><course>0.000000</course><hAcc>5.000000</hAcc><vAcc>3.000000</vAcc></extensions></trkpt>
      <trkpt lon="-123.279914" lat="44.565407"><ele>79.752655</ele><time>2020-10-06T01:56:56Z</time><extensions><speed>4.620000</speed><course>358.242188</course><hAcc>5.000000</hAcc><vAcc>3.000000</vAcc></extensions></trkpt>
      <trkpt lon="-123.279896" lat="44.565455"><ele>79.997772</ele><time>2020-10-06T01:56:57Z</time><extensions><speed>4.400000</speed><course>5.625000</course><hAcc>5.000000</hAcc><vAcc>3.000000</vAcc></extensions></trkpt>
      <trkpt lon="-123.279893" lat="44.565490"><ele>79.742569</ele><time>2020-10-06T01:56:58Z</time><extensions><speed>4.400000</speed><course>5.625000</course><hAcc>5.000000</hAcc><vAcc>3.000000</vAcc></extensions></trkpt>
      <trkpt lon="-123.279893" lat="44.565526"><ele>79.958572</ele><time>2020-10-06T01:56:59Z</time><extensions><speed>4.260000</speed><course>0.703125</course><hAcc>5.000000</hAcc><vAcc>3.000000</vAcc></extensions></trkpt>
      <trkpt lon="-123.279881" lat="44.565567"><ele>79.711800</ele><time>2020-10-06T01:57:00Z</time><extensions><speed>4.220000</speed><course>2.460938</course><hAcc>5.000000</hAcc><vAcc>3.000000</vAcc></extensions></trkpt>
      <trkpt lon="-123.279884" lat="44.565609"><ele>79.656754</ele><time>2020-10-06T01:57:01Z</time><extensions><speed>4.430000</speed><course>2.109375</course><hAcc>5.000000</hAcc><vAcc>3.000000</vAcc></extensions></trkpt>
      <trkpt lon="-123.279865" lat="44.565635"><ele>79.950584</ele><time>2020-10-06T01:57:02Z</time><extensions><speed>4.430000</speed><course>7.734375</course><hAcc>5.000000</hAcc><vAcc>3.000000</vAcc></extensions></trkpt>
      <trkpt lon="-123.279848" lat="44.565663"><ele>79.952843</ele><time>2020-10-06T01:57:03Z</time><extensions><speed>3.610000</speed><course>16.171875</course><hAcc>5.000000</hAcc><vAcc>3.000000</vAcc></extensions></trkpt>
      <trkpt lon="-123.279840" lat="44.565697"><ele>79.634529</ele><time>2020-10-06T01:57:04Z</time><extensions><speed>3.610000</speed><course>6.328125</course><hAcc>5.000000</hAcc><vAcc>3.000000</vAcc></extensions></trkpt>
      <trkpt lon="-123.279837" lat="44.565738"><ele>79.792305</ele><time>2020-10-06T01:57:05Z</time><extensions><speed>4.780000</speed><course>4.921875</course><hAcc>5.000000</hAcc><vAcc>3.000000</vAcc></extensions></trkpt>
      <trkpt lon="-123.279833" lat="44.565782"><ele>79.635201</ele><time>2020-10-06T01:57:06Z</time><extensions><speed>4.780000</speed><course>1.757812</course><hAcc>5.000000</hAcc><vAcc>3.000000</vAcc></extensions></trkpt>
      <trkpt lon="-123.279833" lat="44.565816"><ele>79.920311</ele><time>2020-10-06T01:57:07Z</time><extensions><speed>4.710000</speed><course>2.109375</course><hAcc>5.000000</hAcc><vAcc>3.000000</vAcc></extensions></trkpt>
      <trkpt lon="-123.279836" lat="44.565851"><ele>79.794746</ele><time>2020-10-06T01:57:08Z</time><extensions><speed>4.220000</speed><course>358.945312</course><hAcc>5.000000</hAcc><vAcc>3.000000</vAcc></extensions></trkpt>
      <trkpt lon="-123.279839" lat="44.565892"><ele>79.592857</ele><time>2020-10-06T01:57:09Z</time><extensions><speed>4.170000</speed><course>356.835938</course><hAcc>5.000000</hAcc><vAcc>3.000000</vAcc></extensions></trkpt>
      <trkpt lon="-123.279841" lat="44.565924"><ele>79.752129</ele><time>2020-10-06T01:57:10Z</time><extensions><speed>4.170000</speed><course>358.593750</course><hAcc>5.000000</hAcc><vAcc>3.000000</vAcc></extensions></trkpt>
      <trkpt lon="-123.279846" lat="44.565953"><ele>79.858482</ele><time>2020-10-06T01:57:11Z</time><extensions><speed>3.120000</speed><course>356.132812</course><hAcc>5.000000</hAcc><vAcc>3.000000</vAcc></extensions></trkpt>
      <trkpt lon="-123.279855" lat="44.565985"><ele>79.824043</ele><time>2020-10-06T01:57:12Z</time><extensions><speed>3.120000</speed><course>351.562500</course><hAcc>5.000000</hAcc><vAcc>3.000000</vAcc></extensions></trkpt>
      <trkpt lon="-123.279869" lat="44.566019"><ele>79.783287</ele><time>2020-10-06T01:57:13Z</time><extensions><speed>3.560000</speed><course>345.585938</course><hAcc>5.000000</hAcc><vAcc>3.000000</vAcc></extensions></trkpt>
      <trkpt lon="-123.279885" lat="44.566053"><ele>79.962029</ele><time>2020-10-06T01:57:14Z</time><extensions><speed>3.670000</speed><course>344.882812</course><hAcc>5.000000</hAcc><vAcc>3.000000</vAcc></extensions></trkpt>
      <trkpt lon="-123.279895" lat="44.566092"><ele>80.065414</ele><time>2020-10-06T01:57:15Z</time><extensions><speed>3.670000</speed><course>349.453125</course><hAcc>5.000000</hAcc><vAcc>3.000000</vAcc></extensions></trkpt>
      <trkpt lon="-123.279902" lat="44.566132"><ele>80.010429</ele><time>2020-10-06T01:57:16Z</time><extensions><speed>4.030000</speed><course>352.617188</course><hAcc>5.000000</hAcc><vAcc>3.000000</vAcc></extensions></trkpt>
      <trkpt lon="-123.279908" lat="44.566175"><ele>79.920349</ele><time>2020-10-06T01:57:17Z</time><extensions><speed>4.150000</speed><course>354.375000</course><hAcc>5.000000</hAcc><vAcc>3.000000</vAcc></extensions></trkpt>
      <trkpt lon="-123.279914" lat="44.566217"><ele>80.073166</ele><time>2020-10-06T01:57:18Z</time><extensions><speed>4.270000</speed><course>351.562500</course><hAcc>5.000000</hAcc><vAcc>3.000000</vAcc></extensions></trkpt>
      <trkpt lon="-123.279920" lat="44.566259"><ele>80.141258</ele><time>2020-10-06T01:57:19Z</time><extensions><speed>4.460000</speed><course>351.562500</course><hAcc>5.000000</hAcc><vAcc>3.000000</vAcc></extensions></trkpt>
      <trkpt lon="-123.279919" lat="44.566300"><ele>79.879333</ele><time>2020-10-06T01:57:20Z</time><extensions><speed>4.390000</speed><course>355.078125</course><hAcc>5.000000</hAcc><vAcc>3.000000</vAcc></extensions></trkpt>
      <trkpt lon="-123.279920" lat="44.566346"><ele>80.085648</ele><time>2020-10-06T01:57:21Z</time><extensions><speed>4.460000</speed><course>357.890625</course><hAcc>5.000000</hAcc><vAcc>3.000000</vAcc></extensions></trkpt>
      <trkpt lon="-123.279914" lat="44.566404"><ele>80.192863</ele><time>2020-10-06T01:57:22Z</time><extensions><speed>4.870000</speed><course>359.648438</course><hAcc>5.000000</hAcc><vAcc>3.000000</vAcc></extensions></trkpt>
      <trkpt lon="-123.279916" lat="44.566450"><ele>80.130997</ele><time>2020-10-06T01:57:23Z</time><extensions><speed>5.240000</speed><course>356.484375</course><hAcc>5.000000</hAcc><vAcc>3.000000</vAcc></extensions></trkpt>
      <trkpt lon="-123.279901" lat="44.566501"><ele>80.322479</ele><time>2020-10-06T01:57:24Z</time><extensions><speed>5.430000</speed><course>4.921875</course><hAcc>5.000000</hAcc><vAcc>3.000000</vAcc></extensions></trkpt>
      <trkpt lon="-123.279886" lat="44.566552"><ele>80.518135</ele><time>2020-10-06T01:57:25Z</time><extensions><speed>5.380000</speed><course>2.812500</course><hAcc>5.000000</hAcc><vAcc>3.000000</vAcc></extensions></trkpt>
      <trkpt lon="-123.279880" lat="44.566599"><ele>80.596283</ele><time>2020-10-06T01:57:26Z</time><extensions><speed>5.380000</speed><course>358.242188</course><hAcc>5.000000</hAcc><vAcc>3.000000</vAcc></extensions></trkpt>
      <trkpt lon="-123.279878" lat="44.566659"><ele>80.593918</ele><time>2020-10-06T01:57:27Z</time><extensions><speed>6.010000</speed><course>2.109375</course><hAcc>5.000000</hAcc><vAcc>3.000000</vAcc></extensions></trkpt>
      <trkpt lon="-123.279867" lat="44.566716"><ele>80.557343</ele><time>2020-10-06T01:57:28Z</time><extensions><speed>6.060000</speed><course>4.218750</course><hAcc>5.000000</hAcc><vAcc>3.000000</vAcc></extensions></trkpt>
      <trkpt lon="-123.279876" lat="44.566761"><ele>80.792320</ele><time>2020-10-06T01:57:29Z</time><extensions><speed>6.010000</speed><course>1.406250</course><hAcc>5.000000</hAcc><vAcc>3.000000</vAcc></extensions></trkpt>
      <trkpt lon="-123.279882" lat="44.566809"><ele>80.773956</ele><time>2020-10-06T01:57:30Z</time><extensions><speed>5.520000</speed><course>358.593750</course><hAcc>5.000000</hAcc><vAcc>3.000000</vAcc></extensions></trkpt>
      <trkpt lon="-123.279866" lat="44.566866"><ele>80.849762</ele><time>2020-10-06T01:57:31Z</time><extensions><speed>6.220000</speed><course>359.296875</course><hAcc>5.000000</hAcc><vAcc>3.000000</vAcc></extensions></trkpt>
      <trkpt lon="-123.279831" lat="44.566912"><ele>80.660477</ele><time>2020-10-06T01:57:32Z</time><extensions><speed>6.400000</speed><course>1.054688</course><hAcc>5.000000</hAcc><vAcc>3.000000</vAcc></extensions></trkpt>
      <trkpt lon="-123.279829" lat="44.566986"><ele>81.212418</ele><time>2020-10-06T01:57:33Z</time><extensions><speed>6.400000</speed><course>1.054688</course><hAcc>5.000000</hAcc><vAcc>3.000000</vAcc></extensions></trkpt>
      <trkpt lon="-123.279836" lat="44.567037"><ele>81.553177</ele><time>2020-10-06T01:57:34Z</time><extensions><speed>6.400000</speed><course>358.242188</course><hAcc>5.000000</hAcc><vAcc>3.000000</vAcc></extensions></trkpt>
      <trkpt lon="-123.279840" lat="44.567098"><ele>81.378792</ele><time>2020-10-06T01:57:35Z</time><extensions><speed>6.310000</speed><course>359.648438</course><hAcc>5.000000</hAcc><vAcc>3.000000</vAcc></extensions></trkpt>
      <trkpt lon="-123.279905" lat="44.567177"><ele>81.517044</ele><time>2020-10-06T01:57:36Z</time><extensions><speed>6.500000</speed><course>348.750000</course><hAcc>5.000000</hAcc><vAcc>3.000000</vAcc></extensions></trkpt>
      <trkpt lon="-123.279884" lat="44.567229"><ele>80.739975</ele><time>2020-10-06T01:57:37Z</time><extensions><speed>6.310000</speed><course>358.945312</course><hAcc>5.000000</hAcc><vAcc>3.000000</vAcc></extensions></trkpt>
      <trkpt lon="-123.279893" lat="44.567272"><ele>80.862450</ele><time>2020-10-06T01:57:38Z</time><extensions><speed>5.940000</speed><course>356.132812</course><hAcc>5.000000</hAcc><vAcc>3.000000</vAcc></extensions></trkpt>
      <trkpt lon="-123.279891" lat="44.567325"><ele>81.367218</ele><time>2020-10-06T01:57:39Z</time><extensions><speed>5.370000</speed><course>357.187500</course><hAcc>5.000000</hAcc><vAcc>3.000000</vAcc></extensions></trkpt>
      <trkpt lon="-123.279900" lat="44.567371"><ele>81.375648</ele><time>2020-10-06T01:57:40Z</time><extensions><speed>5.030000</speed><course>352.968750</course><hAcc>5.000000</hAcc><vAcc>3.000000</vAcc></extensions></trkpt>
      <trkpt lon="-123.279899" lat="44.567430"><ele>81.278519</ele><time>2020-10-06T01:57:41Z</time><extensions><speed>5.450000</speed><course>358.593750</course><hAcc>5.000000</hAcc><vAcc>3.000000</vAcc></extensions></trkpt>
      <trkpt lon="-123.279900" lat="44.567495"><ele>81.288773</ele><time>2020-10-06T01:57:42Z</time><extensions><speed>5.450000</speed><course>353.320312</course><hAcc>5.000000</hAcc><vAcc>3.000000</vAcc></extensions></trkpt>
      <trkpt lon="-123.279913" lat="44.567540"><ele>81.054497</ele><time>2020-10-06T01:57:43Z</time><extensions><speed>5.450000</speed><course>351.562500</course><hAcc>5.000000</hAcc><vAcc>3.000000</vAcc></extensions></trkpt>
      <trkpt lon="-123.279912" lat="44.567587"><ele>81.263908</ele><time>2020-10-06T01:57:44Z</time><extensions><speed>5.130000</speed><course>357.187500</course><hAcc>5.000000</hAcc><vAcc>3.000000</vAcc></extensions></trkpt>
      <trkpt lon="-123.279925" lat="44.567631"><ele>81.255455</ele><time>2020-10-06T01:57:45Z</time><extensions><speed>5.130000</speed><course>352.617188</course><hAcc>5.000000</hAcc><vAcc>3.000000</vAcc></extensions></trkpt>
      <trkpt lon="-123.279943" lat="44.567678"><ele>81.148605</ele><time>2020-10-06T01:57:46Z</time><extensions><speed>5.110000</speed><course>349.101562</course><hAcc>5.000000</hAcc><vAcc>3.000000</vAcc></extensions></trkpt>
      <trkpt lon="-123.279952" lat="44.567726"><ele>81.008652</ele><time>2020-10-06T01:57:47Z</time><extensions><speed>5.080000</speed><course>351.914062</course><hAcc>5.000000</hAcc><vAcc>3.000000</vAcc></extensions></trkpt>
      <trkpt lon="-123.279995" lat="44.567779"><ele>81.071213</ele><time>2020-10-06T01:57:48Z</time><extensions><speed>5.910000</speed><course>332.226562</course><hAcc>5.000000</hAcc><vAcc>3.000000</vAcc></extensions></trkpt>
      <trkpt lon="-123.279985" lat="44.567823"><ele>81.032036</ele><time>2020-10-06T01:57:49Z</time><extensions><speed>5.910000</speed><course>352.617188</course><hAcc>5.000000</hAcc><vAcc>3.000000</vAcc></extensions></trkpt>
      <trkpt lon="-123.279962" lat="44.567865"><ele>81.020226</ele><time>2020-10-06T01:57:50Z</time><extensions><speed>5.290000</speed><course>0.351562</course><hAcc>5.000000</hAcc><vAcc>3.000000</vAcc></extensions></trkpt>
      <trkpt lon="-123.279942" lat="44.567900"><ele>81.033005</ele><time>2020-10-06T01:57:51Z</time><extensions><speed>4.950000</speed><course>3.867188</course><hAcc>5.000000</hAcc><vAcc>3.000000</vAcc></extensions></trkpt>
      <trkpt lon="-123.279902" lat="44.567948"><ele>80.929291</ele><time>2020-10-06T01:57:52Z</time><extensions><speed>5.100000</speed><course>356.835938</course><hAcc>5.000000</hAcc><vAcc>3.000000</vAcc></extensions></trkpt>
      <trkpt lon="-123.279892" lat="44.567994"><ele>80.914528</ele><time>2020-10-06T01:57:53Z</time><extensions><speed>5.220000</speed><course>358.945312</course><hAcc>5.000000</hAcc><vAcc>3.000000</vAcc></extensions></trkpt>
      <trkpt lon="-123.279888" lat="44.568040"><ele>80.862816</ele><time>2020-10-06T01:57:54Z</time><extensions><speed>5.380000</speed><course>0.000000</course><hAcc>5.000000</hAcc><vAcc>3.000000</vAcc></extensions></trkpt>
      <trkpt lon="-123.279893" lat="44.568090"><ele>80.810455</ele><time>2020-10-06T01:57:55Z</time><extensions><speed>5.380000</speed><course>359.648438</course><hAcc>5.000000</hAcc><vAcc>3.000000</vAcc></extensions></trkpt>
      <trkpt lon="-123.279892" lat="44.568137"><ele>80.804573</ele><time>2020-10-06T01:57:56Z</time><extensions><speed>5.380000</speed><course>1.757812</course><hAcc>5.000000</hAcc><vAcc>3.000000</vAcc></extensions></trkpt>
      <trkpt lon="-123.279896" lat="44.568186"><ele>80.703682</ele><time>2020-10-06T01:57:57Z</time><extensions><speed>5.400000</speed><course>0.703125</course><hAcc>5.000000</hAcc><vAcc>3.000000</vAcc></extensions></trkpt>
      <trkpt lon="-123.279906" lat="44.568230"><ele>80.737007</ele><time>2020-10-06T01:57:58Z</time><extensions><speed>5.400000</speed><course>351.914062</course><hAcc>5.000000</hAcc><vAcc>3.000000</vAcc></extensions></trkpt>
      <trkpt lon="-123.279912" lat="44.568275"><ele>80.625008</ele><time>2020-10-06T01:57:59Z</time><extensions><speed>5.280000</speed><course>354.375000</course><hAcc>5.000000</hAcc><vAcc>3.000000</vAcc></extensions></trkpt>
      <trkpt lon="-123.279889" lat="44.568321"><ele>80.818550</ele><time>2020-10-06T01:58:00Z</time><extensions><speed>5.280000</speed><course>14.062500</course><hAcc>5.000000</hAcc><vAcc>3.000000</vAcc></extensions></trkpt>
      <trkpt lon="-123.279884" lat="44.568371"><ele>80.814438</ele><time>2020-10-06T01:58:01Z</time><extensions><speed>5.380000</speed><course>7.734375</course><hAcc>5.000000</hAcc><vAcc>3.000000</vAcc></extensions></trkpt>
      <trkpt lon="-123.279887" lat="44.568418"><ele>80.819176</ele><time>2020-10-06T01:58:02Z</time><extensions><speed>5.150000</speed><course>0.703125</course><hAcc>5.000000</hAcc><vAcc>3.000000</vAcc></extensions></trkpt>
      <trkpt lon="-123.279898" lat="44.568467"><ele>80.748726</ele><time>2020-10-06T01:58:03Z</time><extensions><speed>5.270000</speed><course>356.132812</course><hAcc>5.000000</hAcc><vAcc>3.000000</vAcc></extensions></trkpt>
      <trkpt lon="-123.279909" lat="44.568522"><ele>80.728935</ele><time>2020-10-06T01:58:04Z</time><extensions><speed>5.270000</speed><course>359.296875</course><hAcc>5.000000</hAcc><vAcc>3.000000</vAcc></extensions></trkpt>
      <trkpt lon="-123.279916" lat="44.568574"><ele>80.727753</ele><time>2020-10-06T01:58:05Z</time><extensions><speed>5.460000</speed><course>358.945312</course><hAcc>5.000000</hAcc><vAcc>3.000000</vAcc></extensions></trkpt>
      <trkpt lon="-123.279917" lat="44.568625"><ele>80.965477</ele><time>2020-10-06T01:58:06Z</time><extensions><speed>5.750000</speed><course>357.539062</course><hAcc>5.000000</hAcc><vAcc>3.000000</vAcc></extensions></trkpt>
      <trkpt lon="-123.279946" lat="44.568682"><ele>81.251884</ele><time>2020-10-06T01:58:07Z</time><extensions><speed>6.020000</speed><course>344.531250</course><hAcc>5.000000</hAcc><vAcc>3.000000</vAcc></extensions></trkpt>
      <trkpt lon="-123.279965" lat="44.568729"><ele>81.335686</ele><time>2020-10-06T01:58:08Z</time><extensions><speed>5.750000</speed><course>341.718750</course><hAcc>5.000000</hAcc><vAcc>3.000000</vAcc></extensions></trkpt>
      <trkpt lon="-123.279975" lat="44.568777"><ele>81.486710</ele><time>2020-10-06T01:58:09Z</time><extensions><speed>5.590000</speed><course>350.156250</course><hAcc>5.000000</hAcc><vAcc>3.000000</vAcc></extensions></trkpt>
      <trkpt lon="-123.279980" lat="44.568832"><ele>81.676750</ele><time>2020-10-06T01:58:10Z</time><extensions><speed>5.900000</speed><course>356.835938</course><hAcc>5.000000</hAcc><vAcc>3.000000</vAcc></extensions></trkpt>
      <trkpt lon="-123.279978" lat="44.568882"><ele>81.571281</ele><time>2020-10-06T01:58:11Z</time><extensions><speed>5.900000</speed><course>359.648438</course><hAcc>5.000000</hAcc><vAcc>3.000000</vAcc></extensions></trkpt>
      <trkpt lon="-123.279969" lat="44.568931"><ele>81.614098</ele><time>2020-10-06T01:58:12Z</time><extensions><speed>5.550000</speed><course>0.000000</course><hAcc>5.000000</hAcc><vAcc>3.000000</vAcc></extensions></trkpt>
      <trkpt lon="-123.279978" lat="44.568984"><ele>81.621002</ele><time>2020-10-06T01:58:13Z</time><extensions><speed>5.530000</speed><course>354.726562</course><hAcc>5.000000</hAcc><vAcc>3.000000</vAcc></extensions></trkpt>
      <trkpt lon="-123.279993" lat="44.569026"><ele>81.788864</ele><time>2020-10-06T01:58:14Z</time><extensions><speed>5.340000</speed><course>348.750000</course><hAcc>5.000000</hAcc><vAcc>3.000000</vAcc></extensions></trkpt>
      <trkpt lon="-123.280003" lat="44.569068"><ele>81.574135</ele><time>2020-10-06T01:58:15Z</time><extensions><speed>5.030000</speed><course>348.750000</course><hAcc>5.000000</hAcc><vAcc>3.000000</vAcc></extensions></trkpt>
      <trkpt lon="-123.280036" lat="44.569110"><ele>81.635216</ele><time>2020-10-06T01:58:16Z</time><extensions><speed>5.170000</speed><course>336.445312</course><hAcc>5.000000</hAcc><vAcc>3.000000</vAcc></extensions></trkpt>
      <trkpt lon="-123.280104" lat="44.569150"><ele>81.663483</ele><time>2020-10-06T01:58:17Z</time><extensions><speed>5.170000</speed><course>309.375000</course><hAcc>5.000000</hAcc><vAcc>3.000000</vAcc></extensions></trkpt>
      <trkpt lon="-123.280162" lat="44.569178"><ele>81.603050</ele><time>2020-10-06T01:58:18Z</time><extensions><speed>5.170000</speed><course>304.804688</course><hAcc>5.000000</hAcc><vAcc>3.000000</vAcc></extensions></trkpt>
      <trkpt lon="-123.280208" lat="44.569217"><ele>81.609116</ele><time>2020-10-06T01:58:19Z</time><extensions><speed>5.110000</speed><course>316.054688</course><hAcc>5.000000</hAcc><vAcc>3.000000</vAcc></extensions></trkpt>
      <trkpt lon="-123.280256" lat="44.569251"><ele>81.597298</ele><time>2020-10-06T01:58:20Z</time><extensions><speed>5.800000</speed><course>314.648438</course><hAcc>5.000000</hAcc><vAcc>3.000000</vAcc></extensions></trkpt>
      <trkpt lon="-123.280249" lat="44.569280"><ele>81.609962</ele><time>2020-10-06T01:58:21Z</time><extensions><speed>5.800000</speed><course>330.820312</course><hAcc>5.000000</hAcc><vAcc>3.000000</vAcc></extensions></trkpt>
      <trkpt lon="-123.280335" lat="44.569314"><ele>81.653412</ele><time>2020-10-06T01:58:22Z</time><extensions><speed>5.140000</speed><course>315.351562</course><hAcc>5.000000</hAcc><vAcc>3.000000</vAcc></extensions></trkpt>
      <trkpt lon="-123.280375" lat="44.569348"><ele>81.477531</ele><time>2020-10-06T01:58:23Z</time><extensions><speed>4.980000</speed><course>316.054688</course><hAcc>5.000000</hAcc><vAcc>3.000000</vAcc></extensions></trkpt>
      <trkpt lon="-123.280416" lat="44.569389"><ele>81.614380</ele><time>2020-10-06T01:58:24Z</time><extensions><speed>5.480000</speed><course>318.515625</course><hAcc>5.000000</hAcc><vAcc>3.000000</vAcc></extensions></trkpt>
      <trkpt lon="-123.280499" lat="44.569438"><ele>81.873711</ele><time>2020-10-06T01:58:25Z</time><extensions><speed>5.630000</speed><course>322.031250</course><hAcc>5.000000</hAcc><vAcc>3.000000</vAcc></extensions></trkpt>
      <trkpt lon="-123.280538" lat="44.569490"><ele>81.880798</ele><time>2020-10-06T01:58:26Z</time><extensions><speed>5.590000</speed><course>324.140625</course><hAcc>5.000000</hAcc><vAcc>3.000000</vAcc></extensions></trkpt>
      <trkpt lon="-123.280549" lat="44.569525"><ele>81.735046</ele><time>2020-10-06T01:58:27Z</time><extensions><speed>5.590000</speed><course>323.789062</course><hAcc>5.000000</hAcc><vAcc>3.000000</vAcc></extensions></trkpt>
      <trkpt lon="-123.280589" lat="44.569563"><ele>81.812653</ele><time>2020-10-06T01:58:28Z</time><extensions><speed>5.300000</speed><course>323.789062</course><hAcc>5.000000</hAcc><vAcc>3.000000</vAcc></extensions></trkpt>
      <trkpt lon="-123.280626" lat="44.569604"><ele>81.836174</ele><time>2020-10-06T01:58:29Z</time><extensions><speed>5.120000</speed><course>325.195312</course><hAcc>5.000000</hAcc><vAcc>3.000000</vAcc></extensions></trkpt>
      <trkpt lon="-123.280704" lat="44.569637"><ele>81.833061</ele><time>2020-10-06T01:58:30Z</time><extensions><speed>5.120000</speed><course>320.625000</course><hAcc>5.000000</hAcc><vAcc>3.000000</vAcc></extensions></trkpt>
      <trkpt lon="-123.280769" lat="44.569681"><ele>81.811600</ele><time>2020-10-06T01:58:31Z</time><extensions><speed>4.900000</speed><course>309.023438</course><hAcc>5.000000</hAcc><vAcc>3.000000</vAcc></extensions></trkpt>
      <trkpt lon="-123.280806" lat="44.569707"><ele>81.834763</ele><time>2020-10-06T01:58:32Z</time><extensions><speed>4.740000</speed><course>309.726562</course><hAcc>5.000000</hAcc><vAcc>3.000000</vAcc></extensions></trkpt>
      <trkpt lon="-123.280818" lat="44.569728"><ele>81.983742</ele><time>2020-10-06T01:58:33Z</time><extensions><speed>5.210000</speed><course>319.921875</course><hAcc>5.000000</hAcc><vAcc>3.000000</vAcc></extensions></trkpt>
      <trkpt lon="-123.280861" lat="44.569775"><ele>81.894333</ele><time>2020-10-06T01:58:34Z</time><extensions><speed>5.210000</speed><course>317.812500</course><hAcc>5.000000</hAcc><vAcc>3.000000</vAcc></extensions></trkpt>
      <trkpt lon="-123.280900" lat="44.569819"><ele>81.785110</ele><time>2020-10-06T01:58:35Z</time><extensions><speed>5.150000</speed><course>323.085938</course><hAcc>5.000000</hAcc><vAcc>4.000000</vAcc></extensions></trkpt>
      <trkpt lon="-123.280949" lat="44.569864"><ele>81.789093</ele><time>2020-10-06T01:58:36Z</time><extensions><speed>5.000000</speed><course>320.625000</course><hAcc>5.000000</hAcc><vAcc>4.000000</vAcc></extensions></trkpt>
      <trkpt lon="-123.280996" lat="44.569895"><ele>81.799515</ele><time>2020-10-06T01:58:37Z</time><extensions><speed>4.920000</speed><course>316.054688</course><hAcc>5.000000</hAcc><vAcc>3.000000</vAcc></extensions></trkpt>
      <trkpt lon="-123.281016" lat="44.569924"><ele>81.779251</ele><time>2020-10-06T01:58:38Z</time><extensions><speed>4.920000</speed><course>318.867188</course><hAcc>5.000000</hAcc><vAcc>3.000000</vAcc></extensions></trkpt>
      <trkpt lon="-123.281067" lat="44.569958"><ele>81.849983</ele><time>2020-10-06T01:58:39Z</time><extensions><speed>4.600000</speed><course>318.164062</course><hAcc>5.000000</hAcc><vAcc>3.000000</vAcc></extensions></trkpt>
      <trkpt lon="-123.281108" lat="44.569989"><ele>81.997818</ele><time>2020-10-06T01:58:40Z</time><extensions><speed>4.600000</speed><course>319.218750</course><hAcc>5.000000</hAcc><vAcc>3.000000</vAcc></extensions></trkpt>
      <trkpt lon="-123.281139" lat="44.570022"><ele>81.988220</ele><time>2020-10-06T01:58:41Z</time><extensions><speed>4.600000</speed><course>327.304688</course><hAcc>5.000000</hAcc><vAcc>3.000000</vAcc></extensions></trkpt>
      <trkpt lon="-123.281194" lat="44.570058"><ele>82.154526</ele><time>2020-10-06T01:58:42Z</time><extensions><speed>5.390000</speed><course>317.109375</course><hAcc>5.000000</hAcc><vAcc>3.000000</vAcc></extensions></trkpt>
      <trkpt lon="-123.281225" lat="44.570090"><ele>82.159470</ele><time>2020-10-06T01:58:43Z</time><extensions><speed>5.390000</speed><course>324.843750</course><hAcc>5.000000</hAcc><vAcc>3.000000</vAcc></extensions></trkpt>
      <trkpt lon="-123.281276" lat="44.570125"><ele>82.092537</ele><time>2020-10-06T01:58:44Z</time><extensions><speed>4.830000</speed><course>320.976562</course><hAcc>5.000000</hAcc><vAcc>3.000000</vAcc></extensions></trkpt>
      <trkpt lon="-123.281314" lat="44.570158"><ele>82.144493</ele><time>2020-10-06T01:58:45Z</time><extensions><speed>4.730000</speed><course>319.570312</course><hAcc>5.000000</hAcc><vAcc>3.000000</vAcc></extensions></trkpt>
      <trkpt lon="-123.281365" lat="44.570187"><ele>82.183029</ele><time>2020-10-06T01:58:46Z</time><extensions><speed>4.690000</speed><course>315.000000</course><hAcc>5.000000</hAcc><vAcc>3.000000</vAcc></extensions></trkpt>
      <trkpt lon="-123.281416" lat="44.570224"><ele>82.152229</ele><time>2020-10-06T01:58:47Z</time><extensions><speed>5.010000</speed><course>315.351562</course><hAcc>5.000000</hAcc><vAcc>3.000000</vAcc></extensions></trkpt>
      <trkpt lon="-123.281456" lat="44.570259"><ele>82.018745</ele><time>2020-10-06T01:58:48Z</time><extensions><speed>4.930000</speed><course>314.648438</course><hAcc>5.000000</hAcc><vAcc>3.000000</vAcc></extensions></trkpt>
      <trkpt lon="-123.281515" lat="44.570294"><ele>82.260117</ele><time>2020-10-06T01:58:49Z</time><extensions><speed>4.930000</speed><course>319.218750</course><hAcc>5.000000</hAcc><vAcc>3.000000</vAcc></extensions></trkpt>
      <trkpt lon="-123.281549" lat="44.570329"><ele>82.237892</ele><time>2020-10-06T01:58:50Z</time><extensions><speed>4.760000</speed><course>317.812500</course><hAcc>5.000000</hAcc><vAcc>3.000000</vAcc></extensions></trkpt>
      <trkpt lon="-123.281605" lat="44.570352"><ele>82.142929</ele><time>2020-10-06T01:58:51Z</time><extensions><speed>4.910000</speed><course>314.648438</course><hAcc>5.000000</hAcc><vAcc>3.000000</vAcc></extensions></trkpt>
      <trkpt lon="-123.281645" lat="44.570377"><ele>82.128555</ele><time>2020-10-06T01:58:52Z</time><extensions><speed>4.980000</speed><course>321.328125</course><hAcc>5.000000</hAcc><vAcc>3.000000</vAcc></extensions></trkpt>
      <trkpt lon="-123.281673" lat="44.570422"><ele>82.129692</ele><time>2020-10-06T01:58:53Z</time><extensions><speed>4.980000</speed><course>323.789062</course><hAcc>5.000000</hAcc><vAcc>3.000000</vAcc></extensions></trkpt>
      <trkpt lon="-123.281716" lat="44.570465"><ele>82.142441</ele><time>2020-10-06T01:58:54Z</time><extensions><speed>5.870000</speed><course>323.789062</course><hAcc>5.000000</hAcc><vAcc>3.000000</vAcc></extensions></trkpt>
      <trkpt lon="-123.281777" lat="44.570494"><ele>82.338295</ele><time>2020-10-06T01:58:55Z</time><extensions><speed>5.030000</speed><course>317.109375</course><hAcc>5.000000</hAcc><vAcc>3.000000</vAcc></extensions></trkpt>
      <trkpt lon="-123.281820" lat="44.570532"><ele>82.522583</ele><time>2020-10-06T01:58:56Z</time><extensions><speed>5.290000</speed><course>322.734375</course><hAcc>5.000000</hAcc><vAcc>3.000000</vAcc></extensions></trkpt>
      <trkpt lon="-123.281860" lat="44.570570"><ele>82.660126</ele><time>2020-10-06T01:58:57Z</time><extensions><speed>5.290000</speed><course>323.085938</course><hAcc>5.000000</hAcc><vAcc>3.000000</vAcc></extensions></trkpt>
      <trkpt lon="-123.281879" lat="44.570595"><ele>82.345154</ele><time>2020-10-06T01:58:58Z</time><extensions><speed>5.290000</speed><course>313.945312</course><hAcc>5.000000</hAcc><vAcc>4.000000</vAcc></extensions></trkpt>
      <trkpt lon="-123.281918" lat="44.570647"><ele>82.176361</ele><time>2020-10-06T01:58:59Z</time><extensions><speed>5.290000</speed><course>324.492188</course><hAcc>5.000000</hAcc><vAcc>4.000000</vAcc></extensions></trkpt>
      <trkpt lon="-123.281974" lat="44.570662"><ele>81.989586</ele><time>2020-10-06T01:59:00Z</time><extensions><speed>4.800000</speed><course>318.515625</course><hAcc>5.000000</hAcc><vAcc>4.000000</vAcc></extensions></trkpt>
      <trkpt lon="-123.282024" lat="44.570704"><ele>82.036766</ele><time>2020-10-06T01:59:01Z</time><extensions><speed>5.570000</speed><course>322.031250</course><hAcc>5.000000</hAcc><vAcc>4.000000</vAcc></extensions></trkpt>
      <trkpt lon="-123.282075" lat="44.570745"><ele>81.880157</ele><time>2020-10-06T01:59:02Z</time><extensions><speed>5.310000</speed><course>316.757812</course><hAcc>5.000000</hAcc><vAcc>4.000000</vAcc></extensions></trkpt>
      <trkpt lon="-123.282119" lat="44.570776"><ele>81.991013</ele><time>2020-10-06T01:59:03Z</time><extensions><speed>5.310000</speed><course>313.945312</course><hAcc>5.000000</hAcc><vAcc>4.000000</vAcc></extensions></trkpt>
      <trkpt lon="-123.282161" lat="44.570816"><ele>81.966576</ele><time>2020-10-06T01:59:04Z</time><extensions><speed>5.190000</speed><course>319.218750</course><hAcc>5.000000</hAcc><vAcc>4.000000</vAcc></extensions></trkpt>
      <trkpt lon="-123.282222" lat="44.570859"><ele>82.481499</ele><time>2020-10-06T01:59:05Z</time><extensions><speed>5.530000</speed><course>316.406250</course><hAcc>5.000000</hAcc><vAcc>4.000000</vAcc></extensions></trkpt>
      <trkpt lon="-123.282281" lat="44.570902"><ele>81.681107</ele><time>2020-10-06T01:59:06Z</time><extensions><speed>5.540000</speed><course>318.867188</course><hAcc>5.000000</hAcc><vAcc>4.000000</vAcc></extensions></trkpt>
      <trkpt lon="-123.282319" lat="44.570938"><ele>81.834167</ele><time>2020-10-06T01:59:07Z</time><extensions><speed>5.530000</speed><course>317.812500</course><hAcc>5.000000</hAcc><vAcc>3.000000</vAcc></extensions></trkpt>
      <trkpt lon="-123.282363" lat="44.570971"><ele>81.938354</ele><time>2020-10-06T01:59:08Z</time><extensions><speed>5.160000</speed><course>319.218750</course><hAcc>5.000000</hAcc><vAcc>3.000000</vAcc></extensions></trkpt>
      <trkpt lon="-123.282405" lat="44.571006"><ele>81.734932</ele><time>2020-10-06T01:59:09Z</time><extensions><speed>5.270000</speed><course>318.515625</course><hAcc>5.000000</hAcc><vAcc>3.000000</vAcc></extensions></trkpt>
      <trkpt lon="-123.282448" lat="44.571042"><ele>81.977554</ele><time>2020-10-06T01:59:10Z</time><extensions><speed>5.270000</speed><course>321.328125</course><hAcc>5.000000</hAcc><vAcc>3.000000</vAcc></extensions></trkpt>
      <trkpt lon="-123.282471" lat="44.571077"><ele>81.747986</ele><time>2020-10-06T01:59:11Z</time><extensions><speed>5.200000</speed><course>321.679688</course><hAcc>5.000000</hAcc><vAcc>3.000000</vAcc></extensions></trkpt>
      <trkpt lon="-123.282472" lat="44.571105"><ele>81.795959</ele><time>2020-10-06T01:59:12Z</time><extensions><speed>4.550000</speed><course>325.898438</course><hAcc>5.000000</hAcc><vAcc>3.000000</vAcc></extensions></trkpt>
      <trkpt lon="-123.282570" lat="44.571155"><ele>81.863129</ele><time>2020-10-06T01:59:13Z</time><extensions><speed>5.290000</speed><course>315.351562</course><hAcc>5.000000</hAcc><vAcc>4.000000</vAcc></extensions></trkpt>
      <trkpt lon="-123.282598" lat="44.571204"><ele>81.778610</ele><time>2020-10-06T01:59:14Z</time><extensions><speed>5.290000</speed><course>323.437500</course><hAcc>5.000000</hAcc><vAcc>4.000000</vAcc></extensions></trkpt>
      <trkpt lon="-123.282640" lat="44.571242"><ele>81.686806</ele><time>2020-10-06T01:59:15Z</time><extensions><speed>5.290000</speed><course>317.109375</course><hAcc>5.000000</hAcc><vAcc>4.000000</vAcc></extensions></trkpt>
      <trkpt lon="-123.282692" lat="44.571294"><ele>81.540276</ele><time>2020-10-06T01:59:16Z</time><extensions><speed>5.520000</speed><course>317.109375</course><hAcc>5.000000</hAcc><vAcc>4.000000</vAcc></extensions></trkpt>
      <trkpt lon="-123.282743" lat="44.571338"><ele>81.492958</ele><time>2020-10-06T01:59:17Z</time><extensions><speed>5.500000</speed><course>320.976562</course><hAcc>5.000000</hAcc><vAcc>4.000000</vAcc></extensions></trkpt>
      <trkpt lon="-123.282784" lat="44.571375"><ele>81.430267</ele><time>2020-10-06T01:59:18Z</time><extensions><speed>5.500000</speed><course>320.976562</course><hAcc>5.000000</hAcc><vAcc>4.000000</vAcc></extensions></trkpt>
      <trkpt lon="-123.282819" lat="44.571422"><ele>81.440094</ele><time>2020-10-06T01:59:19Z</time><extensions><speed>5.500000</speed><course>327.656250</course><hAcc>5.000000</hAcc><vAcc>4.000000</vAcc></extensions></trkpt>
      <trkpt lon="-123.282847" lat="44.571465"><ele>81.283188</ele><time>2020-10-06T01:59:20Z</time><extensions><speed>5.470000</speed><course>329.062500</course><hAcc>5.000000</hAcc><vAcc>4.000000</vAcc></extensions></trkpt>
      <trkpt lon="-123.282892" lat="44.571493"><ele>81.349907</ele><time>2020-10-06T01:59:21Z</time><extensions><speed>5.370000</speed><course>322.734375</course><hAcc>5.000000</hAcc><vAcc>4.000000</vAcc></extensions></trkpt>
      <trkpt lon="-123.282946" lat="44.571530"><ele>81.091217</ele><time>2020-10-06T01:59:22Z</time><extensions><speed>5.070000</speed><course>323.789062</course><hAcc>5.000000</hAcc><vAcc>4.000000</vAcc></extensions></trkpt>
      <trkpt lon="-123.282976" lat="44.571555"><ele>81.496330</ele><time>2020-10-06T01:59:23Z</time><extensions><speed>5.080000</speed><course>319.218750</course><hAcc>5.000000</hAcc><vAcc>4.000000</vAcc></extensions></trkpt>
      <trkpt lon="-123.283038" lat="44.571590"><ele>80.836418</ele><time>2020-10-06T01:59:24Z</time><extensions><speed>5.080000</speed><course>313.945312</course><hAcc>5.000000</hAcc><vAcc>4.000000</vAcc></extensions></trkpt>
      <trkpt lon="-123.283099" lat="44.571609"><ele>80.745178</ele><time>2020-10-06T01:59:25Z</time><extensions><speed>5.080000</speed><course>313.593750</course><hAcc>5.000000</hAcc><vAcc>4.000000</vAcc></extensions></trkpt>
      <trkpt lon="-123.283172" lat="44.571635"><ele>80.697624</ele><time>2020-10-06T01:59:26Z</time><extensions><speed>3.040000</speed><course>319.218750</course><hAcc>5.000000</hAcc><vAcc>4.000000</vAcc></extensions></trkpt>
      <trkpt lon="-123.283202" lat="44.571645"><ele>80.511955</ele><time>2020-10-06T01:59:27Z</time><extensions><speed>3.040000</speed><course>320.976562</course><hAcc>5.000000</hAcc><vAcc>4.000000</vAcc></extensions></trkpt>
      <trkpt lon="-123.283218" lat="44.571658"><ele>80.549667</ele><time>2020-10-06T01:59:28Z</time><extensions><speed>2.350000</speed><course>318.867188</course><hAcc>5.000000</hAcc><vAcc>3.000000</vAcc></extensions></trkpt>
      <trkpt lon="-123.283232" lat="44.571672"><ele>80.536400</ele><time>2020-10-06T01:59:29Z</time><extensions><speed>2.050000</speed><course>318.867188</course><hAcc>5.000000</hAcc><vAcc>4.000000</vAcc></extensions></trkpt>
      <trkpt lon="-123.283237" lat="44.571686"><ele>80.465256</ele><time>2020-10-06T01:59:30Z</time><extensions><speed>1.730000</speed><course>321.328125</course><hAcc>5.000000</hAcc><vAcc>3.000000</vAcc></extensions></trkpt>
      <trkpt lon="-123.283237" lat="44.571686"><ele>80.451340</ele><time>2020-10-06T01:59:31Z</time><extensions><speed>0.000000</speed><course>324.140625</course><hAcc>5.000000</hAcc><vAcc>3.000000</vAcc></extensions></trkpt>
      <trkpt lon="-123.283237" lat="44.571686"><ele>80.385818</ele><time>2020-10-06T01:59:32Z</time><extensions><speed>0.000000</speed><course>324.140625</course><hAcc>5.000000</hAcc><vAcc>3.000000</vAcc></extensions></trkpt>
      <trkpt lon="-123.283237" lat="44.571686"><ele>80.181396</ele><time>2020-10-06T01:59:33Z</time><extensions><speed>0.000000</speed><course>324.140625</course><hAcc>5.000000</hAcc><vAcc>3.000000</vAcc></extensions></trkpt>
      <trkpt lon="-123.283237" lat="44.571686"><ele>80.281631</ele><time>2020-10-06T01:59:34Z</time><extensions><speed>0.000000</speed><course>324.140625</course><hAcc>5.000000</hAcc><vAcc>3.000000</vAcc></extensions></trkpt>
      <trkpt lon="-123.283237" lat="44.571686"><ele>80.275711</ele><time>2020-10-06T01:59:35Z</time><extensions><speed>0.000000</speed><course>324.140625</course><hAcc>5.000000</hAcc><vAcc>3.000000</vAcc></extensions></trkpt>
      <trkpt lon="-123.283237" lat="44.571686"><ele>80.208603</ele><time>2020-10-06T01:59:36Z</time><extensions><speed>0.000000</speed><course>324.140625</course><hAcc>5.000000</hAcc><vAcc>3.000000</vAcc></extensions></trkpt>
      <trkpt lon="-123.283237" lat="44.571686"><ele>80.304810</ele><time>2020-10-06T01:59:37Z</time><extensions><speed>0.000000</speed><course>324.140625</course><hAcc>5.000000</hAcc><vAcc>3.000000</vAcc></extensions></trkpt>
      <trkpt lon="-123.283237" lat="44.571686"><ele>79.976326</ele><time>2020-10-06T01:59:38Z</time><extensions><speed>0.000000</speed><course>324.140625</course><hAcc>5.000000</hAcc><vAcc>3.000000</vAcc></extensions></trkpt>
      <trkpt lon="-123.283237" lat="44.571686"><ele>79.890411</ele><time>2020-10-06T01:59:39Z</time><extensions><speed>0.000000</speed><course>324.140625</course><hAcc>5.000000</hAcc><vAcc>3.000000</vAcc></extensions></trkpt>
      <trkpt lon="-123.283237" lat="44.571686"><ele>79.555496</ele><time>2020-10-06T01:59:40Z</time><extensions><speed>0.000000</speed><course>324.140625</course><hAcc>5.000000</hAcc><vAcc>3.000000</vAcc></extensions></trkpt>
      <trkpt lon="-123.283237" lat="44.571686"><ele>79.448608</ele><time>2020-10-06T01:59:41Z</time><extensions><speed>0.000000</speed><course>324.140625</course><hAcc>5.000000</hAcc><vAcc>3.000000</vAcc></extensions></trkpt>
      <trkpt lon="-123.283237" lat="44.571686"><ele>79.456985</ele><time>2020-10-06T01:59:42Z</time><extensions><speed>0.000000</speed><course>332.226562</course><hAcc>5.000000</hAcc><vAcc>3.000000</vAcc></extensions></trkpt>
      <trkpt lon="-123.283239" lat="44.571705"><ele>79.260475</ele><time>2020-10-06T01:59:43Z</time><extensions><speed>1.080000</speed><course>324.140625</course><hAcc>5.000000</hAcc><vAcc>3.000000</vAcc></extensions></trkpt>
      <trkpt lon="-123.283249" lat="44.571728"><ele>79.222740</ele><time>2020-10-06T01:59:44Z</time><extensions><speed>2.250000</speed><course>329.414062</course><hAcc>5.000000</hAcc><vAcc>3.000000</vAcc></extensions></trkpt>
      <trkpt lon="-123.283264" lat="44.571754"><ele>79.283356</ele><time>2020-10-06T01:59:45Z</time><extensions><speed>3.440000</speed><course>327.656250</course><hAcc>5.000000</hAcc><vAcc>3.000000</vAcc></extensions></trkpt>
      <trkpt lon="-123.283292" lat="44.571781"><ele>79.504364</ele><time>2020-10-06T01:59:46Z</time><extensions><speed>3.440000</speed><course>324.492188</course><hAcc>5.000000</hAcc><vAcc>3.000000</vAcc></extensions></trkpt>
      <trkpt lon="-123.283319" lat="44.571807"><ele>79.466705</ele><time>2020-10-06T01:59:47Z</time><extensions><speed>3.520000</speed><course>324.492188</course><hAcc>5.000000</hAcc><vAcc>3.000000</vAcc></extensions></trkpt>
      <trkpt lon="-123.283351" lat="44.571838"><ele>79.266129</ele><time>2020-10-06T01:59:48Z</time><extensions><speed>4.690000</speed><course>326.250000</course><hAcc>5.000000</hAcc><vAcc>3.000000</vAcc></extensions></trkpt>
      <trkpt lon="-123.283383" lat="44.571876"><ele>79.116692</ele><time>2020-10-06T01:59:49Z</time><extensions><speed>4.850000</speed><course>335.742188</course><hAcc>5.000000</hAcc><vAcc>3.000000</vAcc></extensions></trkpt>
      <trkpt lon="-123.283411" lat="44.571915"><ele>78.928040</ele><time>2020-10-06T01:59:50Z</time><extensions><speed>4.850000</speed><course>332.578125</course><hAcc>5.000000</hAcc><vAcc>3.000000</vAcc></extensions></trkpt>
      <trkpt lon="-123.283396" lat="44.571972"><ele>78.974281</ele><time>2020-10-06T01:59:51Z</time><extensions><speed>4.860000</speed><course>352.617188</course><hAcc>5.000000</hAcc><vAcc>3.000000</vAcc></extensions></trkpt>
      <trkpt lon="-123.283395" lat="44.572031"><ele>79.044250</ele><time>2020-10-06T01:59:52Z</time><extensions><speed>5.500000</speed><course>354.726562</course><hAcc>5.000000</hAcc><vAcc>3.000000</vAcc></extensions></trkpt>
      <trkpt lon="-123.283391" lat="44.572081"><ele>78.824478</ele><time>2020-10-06T01:59:53Z</time><extensions><speed>5.940000</speed><course>355.429688</course><hAcc>5.000000</hAcc><vAcc>3.000000</vAcc></extensions></trkpt>
      <trkpt lon="-123.283402" lat="44.572137"><ele>78.735359</ele><time>2020-10-06T01:59:54Z</time><extensions><speed>5.980000</speed><course>353.671875</course><hAcc>5.000000</hAcc><vAcc>3.000000</vAcc></extensions></trkpt>
      <trkpt lon="-123.283412" lat="44.572211"><ele>78.892014</ele><time>2020-10-06T01:59:55Z</time><extensions><speed>5.980000</speed><course>355.781250</course><hAcc>5.000000</hAcc><vAcc>3.000000</vAcc></extensions></trkpt>
      <trkpt lon="-123.283426" lat="44.572276"><ele>78.852531</ele><time>2020-10-06T01:59:56Z</time><extensions><speed>7.040000</speed><course>348.046875</course><hAcc>5.000000</hAcc><vAcc>3.000000</vAcc></extensions></trkpt>
      <trkpt lon="-123.283411" lat="44.572340"><ele>79.061554</ele><time>2020-10-06T01:59:57Z</time><extensions><speed>7.300000</speed><course>356.835938</course><hAcc>5.000000</hAcc><vAcc>3.000000</vAcc></extensions></trkpt>
      <trkpt lon="-123.283403" lat="44.572415"><ele>79.129578</ele><time>2020-10-06T01:59:58Z</time><extensions><speed>8.040000</speed><course>1.406250</course><hAcc>5.000000</hAcc><vAcc>3.000000</vAcc></extensions></trkpt>
      <trkpt lon="-123.283407" lat="44.572503"><ele>78.608162</ele><time>2020-10-06T01:59:59Z</time><extensions><speed>8.930000</speed><course>359.296875</course><hAcc>5.000000</hAcc><vAcc>3.000000</vAcc></extensions></trkpt>
      <trkpt lon="-123.283411" lat="44.572585"><ele>78.785355</ele><time>2020-10-06T02:00:00Z</time><extensions><speed>8.930000</speed><course>358.945312</course><hAcc>5.000000</hAcc><vAcc>3.000000</vAcc></extensions></trkpt>
      <trkpt lon="-123.283408" lat="44.572677"><ele>79.425072</ele><time>2020-10-06T02:00:01Z</time><extensions><speed>9.830000</speed><course>0.000000</course><hAcc>5.000000</hAcc><vAcc>3.000000</vAcc></extensions></trkpt>
      <trkpt lon="-123.283387" lat="44.572761"><ele>79.484512</ele><time>2020-10-06T02:00:02Z</time><extensions><speed>9.660000</speed><course>2.460938</course><hAcc>5.000000</hAcc><vAcc>3.000000</vAcc></extensions></trkpt>
      <trkpt lon="-123.283371" lat="44.572840"><ele>79.181778</ele><time>2020-10-06T02:00:03Z</time><extensions><speed>9.410000</speed><course>1.757812</course><hAcc>5.000000</hAcc><vAcc>3.000000</vAcc></extensions></trkpt>
      <trkpt lon="-123.283359" lat="44.572925"><ele>78.463654</ele><time>2020-10-06T02:00:04Z</time><extensions><speed>8.890000</speed><course>2.812500</course><hAcc>5.000000</hAcc><vAcc>3.000000</vAcc></extensions></trkpt>
      <trkpt lon="-123.283356" lat="44.573000"><ele>77.269257</ele><time>2020-10-06T02:00:05Z</time><extensions><speed>8.410000</speed><course>2.109375</course><hAcc>5.000000</hAcc><vAcc>3.000000</vAcc></extensions></trkpt>
      <trkpt lon="-123.283363" lat="44.573084"><ele>77.015648</ele><time>2020-10-06T02:00:06Z</time><extensions><speed>8.890000</speed><course>358.945312</course><hAcc>5.000000</hAcc><vAcc>3.000000</vAcc></extensions></trkpt>
      <trkpt lon="-123.283345" lat="44.573162"><ele>77.310532</ele><time>2020-10-06T02:00:07Z</time><extensions><speed>8.980000</speed><course>2.109375</course><hAcc>5.000000</hAcc><vAcc>3.000000</vAcc></extensions></trkpt>
      <trkpt lon="-123.283349" lat="44.573240"><ele>76.885094</ele><time>2020-10-06T02:00:08Z</time><extensions><speed>8.320000</speed><course>358.945312</course><hAcc>5.000000</hAcc><vAcc>3.000000</vAcc></extensions></trkpt>
      <trkpt lon="-123.283336" lat="44.573317"><ele>76.625908</ele><time>2020-10-06T02:00:09Z</time><extensions><speed>8.790000</speed><course>4.218750</course><hAcc>5.000000</hAcc><vAcc>3.000000</vAcc></extensions></trkpt>
      <trkpt lon="-123.283330" lat="44.573388"><ele>79.011192</ele><time>2020-10-06T02:00:10Z</time><extensions><speed>8.230000</speed><course>0.000000</course><hAcc>5.000000</hAcc><vAcc>3.000000</vAcc></extensions></trkpt>
      <trkpt lon="-123.283323" lat="44.573465"><ele>78.768341</ele><time>2020-10-06T02:00:11Z</time><extensions><speed>8.510000</speed><course>1.757812</course><hAcc>5.000000</hAcc><vAcc>3.000000</vAcc></extensions></trkpt>
      <trkpt lon="-123.283311" lat="44.573520"><ele>78.649979</ele><time>2020-10-06T02:00:12Z</time><extensions><speed>6.860000</speed><course>2.812500</course><hAcc>5.000000</hAcc><vAcc>3.000000</vAcc></extensions></trkpt>
      <trkpt lon="-123.283301" lat="44.573580"><ele>78.825897</ele><time>2020-10-06T02:00:13Z</time><extensions><speed>6.750000</speed><course>6.328125</course><hAcc>5.000000</hAcc><vAcc>3.000000</vAcc></extensions></trkpt>
      <trkpt lon="-123.283286" lat="44.573644"><ele>78.444038</ele><time>2020-10-06T02:00:14Z</time><extensions><speed>6.940000</speed><course>7.382812</course><hAcc>5.000000</hAcc><vAcc>3.000000</vAcc></extensions></trkpt>
      <trkpt lon="-123.283294" lat="44.573707"><ele>78.716377</ele><time>2020-10-06T02:00:15Z</time><extensions><speed>6.650000</speed><course>1.406250</course><hAcc>5.000000</hAcc><vAcc>3.000000</vAcc></extensions></trkpt>
      <trkpt lon="-123.283289" lat="44.573782"><ele>78.606712</ele><time>2020-10-06T02:00:16Z</time><extensions><speed>7.210000</speed><course>5.273438</course><hAcc>5.000000</hAcc><vAcc>3.000000</vAcc></extensions></trkpt>
      <trkpt lon="-123.283285" lat="44.573835"><ele>78.293068</ele><time>2020-10-06T02:00:17Z</time><extensions><speed>6.240000</speed><course>5.976562</course><hAcc>5.000000</hAcc><vAcc>3.000000</vAcc></extensions></trkpt>
      <trkpt lon="-123.283276" lat="44.573890"><ele>78.239731</ele><time>2020-10-06T02:00:18Z</time><extensions><speed>6.130000</speed><course>9.843750</course><hAcc>5.000000</hAcc><vAcc>3.000000</vAcc></extensions></trkpt>
      <trkpt lon="-123.283276" lat="44.573940"><ele>78.739265</ele><time>2020-10-06T02:00:19Z</time><extensions><speed>5.750000</speed><course>9.492188</course><hAcc>5.000000</hAcc><vAcc>3.000000</vAcc></extensions></trkpt>
      <trkpt lon="-123.283295" lat="44.573997"><ele>78.315369</ele><time>2020-10-06T02:00:20Z</time><extensions><speed>5.730000</speed><course>1.757812</course><hAcc>5.000000</hAcc><vAcc>3.000000</vAcc></extensions></trkpt>
      <trkpt lon="-123.283294" lat="44.574043"><ele>78.438972</ele><time>2020-10-06T02:00:21Z</time><extensions><speed>5.480000</speed><course>1.757812</course><hAcc>5.000000</hAcc><vAcc>3.000000</vAcc></extensions></trkpt>
      <trkpt lon="-123.283296" lat="44.574090"><ele>78.479485</ele><time>2020-10-06T02:00:22Z</time><extensions><speed>5.030000</speed><course>3.867188</course><hAcc>5.000000</hAcc><vAcc>3.000000</vAcc></extensions></trkpt>
      <trkpt lon="-123.283303" lat="44.574136"><ele>78.451027</ele><time>2020-10-06T02:00:23Z</time><extensions><speed>5.030000</speed><course>0.000000</course><hAcc>5.000000</hAcc><vAcc>3.000000</vAcc></extensions></trkpt>
      <trkpt lon="-123.283334" lat="44.574197"><ele>78.396049</ele><time>2020-10-06T02:00:24Z</time><extensions><speed>5.030000</speed><course>344.882812</course><hAcc>5.000000</hAcc><vAcc>3.000000</vAcc></extensions></trkpt>
      <trkpt lon="-123.283328" lat="44.574236"><ele>78.509750</ele><time>2020-10-06T02:00:25Z</time><extensions><speed>5.020000</speed><course>356.132812</course><hAcc>5.000000</hAcc><vAcc>3.000000</vAcc></extensions></trkpt>
      <trkpt lon="-123.283311" lat="44.574268"><ele>78.447807</ele><time>2020-10-06T02:00:26Z</time><extensions><speed>4.500000</speed><course>4.570312</course><hAcc>5.000000</hAcc><vAcc>3.000000</vAcc></extensions></trkpt>
      <trkpt lon="-123.283302" lat="44.574316"><ele>78.627068</ele><time>2020-10-06T02:00:27Z</time><extensions><speed>5.060000</speed><course>4.921875</course><hAcc>5.000000</hAcc><vAcc>3.000000</vAcc></extensions></trkpt>
      <trkpt lon="-123.283306" lat="44.574362"><ele>78.516914</ele><time>2020-10-06T02:00:28Z</time><extensions><speed>4.920000</speed><course>356.132812</course><hAcc>5.000000</hAcc><vAcc>3.000000</vAcc></extensions></trkpt>
      <trkpt lon="-123.283316" lat="44.574417"><ele>78.381447</ele><time>2020-10-06T02:00:29Z</time><extensions><speed>4.920000</speed><course>357.890625</course><hAcc>5.000000</hAcc><vAcc>3.000000</vAcc></extensions></trkpt>
      <trkpt lon="-123.283310" lat="44.574455"><ele>78.552864</ele><time>2020-10-06T02:00:30Z</time><extensions><speed>4.600000</speed><course>3.515625</course><hAcc>5.000000</hAcc><vAcc>3.000000</vAcc></extensions></trkpt>
      <trkpt lon="-123.283292" lat="44.574505"><ele>78.376137</ele><time>2020-10-06T02:00:31Z</time><extensions><speed>5.410000</speed><course>5.976562</course><hAcc>5.000000</hAcc><vAcc>3.000000</vAcc></extensions></trkpt>
      <trkpt lon="-123.283245" lat="44.574533"><ele>78.182419</ele><time>2020-10-06T02:00:32Z</time><extensions><speed>5.090000</speed><course>12.304688</course><hAcc>5.000000</hAcc><vAcc>3.000000</vAcc></extensions></trkpt>
      <trkpt lon="-123.283252" lat="44.574579"><ele>77.968719</ele><time>2020-10-06T02:00:33Z</time><extensions><speed>5.090000</speed><course>4.218750</course><hAcc>5.000000</hAcc><vAcc>3.000000</vAcc></extensions></trkpt>
      <trkpt lon="-123.283246" lat="44.574620"><ele>77.749191</ele><time>2020-10-06T02:00:34Z</time><extensions><speed>4.700000</speed><course>6.679688</course><hAcc>5.000000</hAcc><vAcc>3.000000</vAcc></extensions></trkpt>
      <trkpt lon="-123.283260" lat="44.574672"><ele>77.623245</ele><time>2020-10-06T02:00:35Z</time><extensions><speed>5.050000</speed><course>358.593750</course><hAcc>5.000000</hAcc><vAcc>3.000000</vAcc></extensions></trkpt>
      <trkpt lon="-123.283244" lat="44.574721"><ele>77.448174</ele><time>2020-10-06T02:00:36Z</time><extensions><speed>5.050000</speed><course>1.757812</course><hAcc>5.000000</hAcc><vAcc>3.000000</vAcc></extensions></trkpt>
      <trkpt lon="-123.283241" lat="44.574769"><ele>77.302811</ele><time>2020-10-06T02:00:37Z</time><extensions><speed>5.170000</speed><course>0.000000</course><hAcc>5.000000</hAcc><vAcc>3.000000</vAcc></extensions></trkpt>
      <trkpt lon="-123.283231" lat="44.574829"><ele>77.286041</ele><time>2020-10-06T02:00:38Z</time><extensions><speed>5.780000</speed><course>3.164062</course><hAcc>5.000000</hAcc><vAcc>3.000000</vAcc></extensions></trkpt>
      <trkpt lon="-123.283230" lat="44.574883"><ele>77.208557</ele><time>2020-10-06T02:00:39Z</time><extensions><speed>5.780000</speed><course>1.406250</course><hAcc>5.000000</hAcc><vAcc>3.000000</vAcc></extensions></trkpt>
      <trkpt lon="-123.283227" lat="44.574941"><ele>76.903137</ele><time>2020-10-06T02:00:40Z</time><extensions><speed>5.780000</speed><course>0.351562</course><hAcc>5.000000</hAcc><vAcc>3.000000</vAcc></extensions></trkpt>
      <trkpt lon="-123.283217" lat="44.574996"><ele>76.832748</ele><time>2020-10-06T02:00:41Z</time><extensions><speed>5.920000</speed><course>359.648438</course><hAcc>5.000000</hAcc><vAcc>3.000000</vAcc></extensions></trkpt>
      <trkpt lon="-123.283218" lat="44.575050"><ele>76.701836</ele><time>2020-10-06T02:00:42Z</time><extensions><speed>5.960000</speed><course>1.757812</course><hAcc>5.000000</hAcc><vAcc>3.000000</vAcc></extensions></trkpt>
      <trkpt lon="-123.283223" lat="44.575112"><ele>76.585480</ele><time>2020-10-06T02:00:43Z</time><extensions><speed>6.710000</speed><course>359.648438</course><hAcc>5.000000</hAcc><vAcc>3.000000</vAcc></extensions></trkpt>
      <trkpt lon="-123.283200" lat="44.575159"><ele>76.503662</ele><time>2020-10-06T02:00:44Z</time><extensions><speed>6.710000</speed><course>6.328125</course><hAcc>5.000000</hAcc><vAcc>3.000000</vAcc></extensions></trkpt>
      <trkpt lon="-123.283188" lat="44.575208"><ele>76.378494</ele><time>2020-10-06T02:00:45Z</time><extensions><speed>6.000000</speed><course>7.031250</course><hAcc>5.000000</hAcc><vAcc>3.000000</vAcc></extensions></trkpt>
      <trkpt lon="-123.283204" lat="44.575268"><ele>76.162483</ele><time>2020-10-06T02:00:46Z</time><extensions><speed>6.000000</speed><course>358.593750</course><hAcc>5.000000</hAcc><vAcc>3.000000</vAcc></extensions></trkpt>
      <trkpt lon="-123.283204" lat="44.575323"><ele>75.800468</ele><time>2020-10-06T02:00:47Z</time><extensions><speed>5.900000</speed><course>3.515625</course><hAcc>5.000000</hAcc><vAcc>3.000000</vAcc></extensions></trkpt>
      <trkpt lon="-123.283214" lat="44.575371"><ele>75.736572</ele><time>2020-10-06T02:00:48Z</time><extensions><speed>5.900000</speed><course>359.648438</course><hAcc>5.000000</hAcc><vAcc>3.000000</vAcc></extensions></trkpt>
      <trkpt lon="-123.283195" lat="44.575416"><ele>75.603188</ele><time>2020-10-06T02:00:49Z</time><extensions><speed>5.870000</speed><course>9.492188</course><hAcc>5.000000</hAcc><vAcc>3.000000</vAcc></extensions></trkpt>
      <trkpt lon="-123.283158" lat="44.575460"><ele>75.923790</ele><time>2020-10-06T02:00:50Z</time><extensions><speed>5.600000</speed><course>18.281250</course><hAcc>5.000000</hAcc><vAcc>3.000000</vAcc></extensions></trkpt>
      <trkpt lon="-123.283145" lat="44.575510"><ele>75.762192</ele><time>2020-10-06T02:00:51Z</time><extensions><speed>5.390000</speed><course>13.359375</course><hAcc>5.000000</hAcc><vAcc>3.000000</vAcc></extensions></trkpt>
      <trkpt lon="-123.283137" lat="44.575562"><ele>75.760979</ele><time>2020-10-06T02:00:52Z</time><extensions><speed>5.550000</speed><course>7.734375</course><hAcc>5.000000</hAcc><vAcc>3.000000</vAcc></extensions></trkpt>
      <trkpt lon="-123.283148" lat="44.575616"><ele>75.733299</ele><time>2020-10-06T02:00:53Z</time><extensions><speed>5.550000</speed><course>0.703125</course><hAcc>5.000000</hAcc><vAcc>3.000000</vAcc></extensions></trkpt>
      <trkpt lon="-123.283154" lat="44.575662"><ele>75.343216</ele><time>2020-10-06T02:00:54Z</time><extensions><speed>5.550000</speed><course>358.593750</course><hAcc>5.000000</hAcc><vAcc>3.000000</vAcc></extensions></trkpt>
      <trkpt lon="-123.283147" lat="44.575714"><ele>75.160439</ele><time>2020-10-06T02:00:55Z</time><extensions><speed>5.550000</speed><course>5.273438</course><hAcc>5.000000</hAcc><vAcc>3.000000</vAcc></extensions></trkpt>
      <trkpt lon="-123.283150" lat="44.575766"><ele>74.983803</ele><time>2020-10-06T02:00:56Z</time><extensions><speed>5.480000</speed><course>3.164062</course><hAcc>5.000000</hAcc><vAcc>3.000000</vAcc></extensions></trkpt>
      <trkpt lon="-123.283157" lat="44.575824"><ele>74.953339</ele><time>2020-10-06T02:00:57Z</time><extensions><speed>5.530000</speed><course>2.460938</course><hAcc>5.000000</hAcc><vAcc>3.000000</vAcc></extensions></trkpt>
      <trkpt lon="-123.283157" lat="44.575872"><ele>74.909012</ele><time>2020-10-06T02:00:58Z</time><extensions><speed>5.480000</speed><course>357.187500</course><hAcc>5.000000</hAcc><vAcc>3.000000</vAcc></extensions></trkpt>
      <trkpt lon="-123.283155" lat="44.575926"><ele>74.775581</ele><time>2020-10-06T02:00:59Z</time><extensions><speed>5.410000</speed><course>359.648438</course><hAcc>5.000000</hAcc><vAcc>3.000000</vAcc></extensions></trkpt>
      <trkpt lon="-123.283148" lat="44.575966"><ele>74.757004</ele><time>2020-10-06T02:01:00Z</time><extensions><speed>5.310000</speed><course>1.054688</course><hAcc>5.000000</hAcc><vAcc>3.000000</vAcc></extensions></trkpt>
      <trkpt lon="-123.283132" lat="44.576006"><ele>74.758232</ele><time>2020-10-06T02:01:01Z</time><extensions><speed>4.440000</speed><course>13.359375</course><hAcc>5.000000</hAcc><vAcc>3.000000</vAcc></extensions></trkpt>
      <trkpt lon="-123.283131" lat="44.576049"><ele>75.224625</ele><time>2020-10-06T02:01:02Z</time><extensions><speed>4.650000</speed><course>5.625000</course><hAcc>5.000000</hAcc><vAcc>3.000000</vAcc></extensions></trkpt>
      <trkpt lon="-123.283122" lat="44.576092"><ele>74.510574</ele><time>2020-10-06T02:01:03Z</time><extensions><speed>4.650000</speed><course>3.867188</course><hAcc>5.000000</hAcc><vAcc>3.000000</vAcc></extensions></trkpt>
      <trkpt lon="-123.283111" lat="44.576135"><ele>74.735222</ele><time>2020-10-06T02:01:04Z</time><extensions><speed>4.650000</speed><course>8.085938</course><hAcc>5.000000</hAcc><vAcc>3.000000</vAcc></extensions></trkpt>
      <trkpt lon="-123.283106" lat="44.576167"><ele>74.880394</ele><time>2020-10-06T02:01:05Z</time><extensions><speed>3.610000</speed><course>12.656250</course><hAcc>5.000000</hAcc><vAcc>3.000000</vAcc></extensions></trkpt>
      <trkpt lon="-123.283125" lat="44.576218"><ele>74.768433</ele><time>2020-10-06T02:01:06Z</time><extensions><speed>4.270000</speed><course>357.539062</course><hAcc>5.000000</hAcc><vAcc>3.000000</vAcc></extensions></trkpt>
      <trkpt lon="-123.283100" lat="44.576255"><ele>74.420883</ele><time>2020-10-06T02:01:07Z</time><extensions><speed>4.090000</speed><course>27.421875</course><hAcc>5.000000</hAcc><vAcc>3.000000</vAcc></extensions></trkpt>
      <trkpt lon="-123.283095" lat="44.576299"><ele>74.809402</ele><time>2020-10-06T02:01:08Z</time><extensions><speed>4.090000</speed><course>14.414062</course><hAcc>5.000000</hAcc><vAcc>3.000000</vAcc></extensions></trkpt>
      <trkpt lon="-123.283096" lat="44.576343"><ele>74.548241</ele><time>2020-10-06T02:01:09Z</time><extensions><speed>4.010000</speed><course>10.898438</course><hAcc>5.000000</hAcc><vAcc>3.000000</vAcc></extensions></trkpt>
      <trkpt lon="-123.283107" lat="44.576374"><ele>74.720299</ele><time>2020-10-06T02:01:10Z</time><extensions><speed>3.420000</speed><course>351.914062</course><hAcc>5.000000</hAcc><vAcc>3.000000</vAcc></extensions></trkpt>
      <trkpt lon="-123.283123" lat="44.576411"><ele>74.651695</ele><time>2020-10-06T02:01:11Z</time><extensions><speed>3.420000</speed><course>357.539062</course><hAcc>5.000000</hAcc><vAcc>3.000000</vAcc></extensions></trkpt>
      <trkpt lon="-123.283129" lat="44.576443"><ele>74.752083</ele><time>2020-10-06T02:01:12Z</time><extensions><speed>3.200000</speed><course>9.843750</course><hAcc>5.000000</hAcc><vAcc>3.000000</vAcc></extensions></trkpt>
      <trkpt lon="-123.283134" lat="44.576473"><ele>74.722397</ele><time>2020-10-06T02:01:13Z</time><extensions><speed>3.170000</speed><course>351.562500</course><hAcc>5.000000</hAcc><vAcc>3.000000</vAcc></extensions></trkpt>
      <trkpt lon="-123.283142" lat="44.576499"><ele>74.666885</ele><time>2020-10-06T02:01:14Z</time><extensions><speed>2.660000</speed><course>332.226562</course><hAcc>5.000000</hAcc><vAcc>3.000000</vAcc></extensions></trkpt>
      <trkpt lon="-123.283161" lat="44.576519"><ele>74.825089</ele><time>2020-10-06T02:01:15Z</time><extensions><speed>2.660000</speed><course>303.750000</course><hAcc>5.000000</hAcc><vAcc>3.000000</vAcc></extensions></trkpt>
      <trkpt lon="-123.283194" lat="44.576532"><ele>74.731224</ele><time>2020-10-06T02:01:16Z</time><extensions><speed>2.660000</speed><course>304.804688</course><hAcc>5.000000</hAcc><vAcc>3.000000</vAcc></extensions></trkpt>
      <trkpt lon="-123.283232" lat="44.576538"><ele>74.834129</ele><time>2020-10-06T02:01:17Z</time><extensions><speed>2.500000</speed><course>287.929688</course><hAcc>5.000000</hAcc><vAcc>3.000000</vAcc></extensions></trkpt>
      <trkpt lon="-123.283272" lat="44.576539"><ele>74.735527</ele><time>2020-10-06T02:01:18Z</time><extensions><speed>2.460000</speed><course>279.140625</course><hAcc>5.000000</hAcc><vAcc>3.000000</vAcc></extensions></trkpt>
      <trkpt lon="-123.283299" lat="44.576538"><ele>74.650162</ele><time>2020-10-06T02:01:19Z</time><extensions><speed>1.180000</speed><course>280.195312</course><hAcc>5.000000</hAcc><vAcc>3.000000</vAcc></extensions></trkpt>
      <trkpt lon="-123.283319" lat="44.576536"><ele>74.751343</ele><time>2020-10-06T02:01:20Z</time><extensions><speed>1.420000</speed><course>277.031250</course><hAcc>5.000000</hAcc><vAcc>3.000000</vAcc></extensions></trkpt>
      <trkpt lon="-123.283338" lat="44.576536"><ele>74.695969</ele><time>2020-10-06T02:01:21Z</time><extensions><speed>1.180000</speed><course>278.437500</course><hAcc>5.000000</hAcc><vAcc>3.000000</vAcc></extensions></trkpt>
      <trkpt lon="-123.283348" lat="44.576535"><ele>74.427353</ele><time>2020-10-06T02:01:22Z</time><extensions><speed>1.030000</speed><course>280.898438</course><hAcc>5.000000</hAcc><vAcc>3.000000</vAcc></extensions></trkpt>
      <trkpt lon="-123.283355" lat="44.576535"><ele>74.661720</ele><time>2020-10-06T02:01:23Z</time><extensions><speed>0.470000</speed><course>280.898438</course><hAcc>5.000000</hAcc><vAcc>3.000000</vAcc></extensions></trkpt>
      <trkpt lon="-123.283366" lat="44.576533"><ele>74.879700</ele><time>2020-10-06T02:01:24Z</time><extensions><speed>0.720000</speed><course>280.898438</course><hAcc>5.000000</hAcc><vAcc>3.000000</vAcc></extensions></trkpt>
      <trkpt lon="-123.283375" lat="44.576530"><ele>74.545654</ele><time>2020-10-06T02:01:25Z</time><extensions><speed>0.720000</speed><course>280.546875</course><hAcc>5.000000</hAcc><vAcc>4.000000</vAcc></extensions></trkpt>
      <trkpt lon="-123.283383" lat="44.576527"><ele>74.611252</ele><time>2020-10-06T02:01:26Z</time><extensions><speed>0.650000</speed><course>280.546875</course><hAcc>5.000000</hAcc><vAcc>4.000000</vAcc></extensions></trkpt>
      <trkpt lon="-123.283393" lat="44.576531"><ele>74.715057</ele><time>2020-10-06T02:01:27Z</time><extensions><speed>0.650000</speed><course>302.695312</course><hAcc>5.000000</hAcc><vAcc>4.000000</vAcc></extensions></trkpt>
      <trkpt lon="-123.283397" lat="44.576535"><ele>74.897202</ele><time>2020-10-06T02:01:28Z</time><extensions><speed>0.640000</speed><course>280.546875</course><hAcc>5.000000</hAcc><vAcc>4.000000</vAcc></extensions></trkpt>
      <trkpt lon="-123.283402" lat="44.576540"><ele>74.755165</ele><time>2020-10-06T02:01:29Z</time><extensions><speed>0.450000</speed><course>280.195312</course><hAcc>5.000000</hAcc><vAcc>4.000000</vAcc></extensions></trkpt>
      <trkpt lon="-123.283417" lat="44.576535"><ele>74.701958</ele><time>2020-10-06T02:01:30Z</time><extensions><speed>0.920000</speed><course>268.593750</course><hAcc>5.000000</hAcc><vAcc>4.000000</vAcc></extensions></trkpt>
      <trkpt lon="-123.283436" lat="44.576532"><ele>74.742523</ele><time>2020-10-06T02:01:31Z</time><extensions><speed>0.790000</speed><course>261.914062</course><hAcc>5.000000</hAcc><vAcc>4.000000</vAcc></extensions></trkpt>
      <trkpt lon="-123.283446" lat="44.576528"><ele>74.707169</ele><time>2020-10-06T02:01:32Z</time><extensions><speed>0.790000</speed><course>279.140625</course><hAcc>5.000000</hAcc><vAcc>4.000000</vAcc></extensions></trkpt>
      <trkpt lon="-123.283451" lat="44.576523"><ele>74.728439</ele><time>2020-10-06T02:01:33Z</time><extensions><speed>0.350000</speed><course>279.140625</course><hAcc>5.000000</hAcc><vAcc>4.000000</vAcc></extensions></trkpt>
      <trkpt lon="-123.283458" lat="44.576519"><ele>74.783676</ele><time>2020-10-06T02:01:34Z</time><extensions><speed>0.320000</speed><course>279.140625</course><hAcc>5.000000</hAcc><vAcc>4.000000</vAcc></extensions></trkpt>
      <trkpt lon="-123.283472" lat="44.576517"><ele>74.738617</ele><time>2020-10-06T02:01:35Z</time><extensions><speed>0.810000</speed><course>239.062500</course><hAcc>10.000000</hAcc><vAcc>4.000000</vAcc></extensions></trkpt>
      <trkpt lon="-123.283487" lat="44.576516"><ele>74.791748</ele><time>2020-10-06T02:01:36Z</time><extensions><speed>0.630000</speed><course>261.210938</course><hAcc>10.000000</hAcc><vAcc>4.000000</vAcc></extensions></trkpt>
      <trkpt lon="-123.283496" lat="44.576518"><ele>74.797539</ele><time>2020-10-06T02:01:37Z</time><extensions><speed>0.240000</speed><course>271.757812</course><hAcc>10.000000</hAcc><vAcc>4.000000</vAcc></extensions></trkpt>
      <trkpt lon="-123.283501" lat="44.576516"><ele>74.764847</ele><time>2020-10-06T02:01:38Z</time><extensions><speed>0.210000</speed><course>273.164062</course><hAcc>5.000000</hAcc><vAcc>4.000000</vAcc></extensions></trkpt>
      <trkpt lon="-123.283501" lat="44.576513"><ele>74.725159</ele><time>2020-10-06T02:01:39Z</time><extensions><speed>0.170000</speed><course>275.625000</course><hAcc>5.000000</hAcc><vAcc>4.000000</vAcc></extensions></trkpt>
      <trkpt lon="-123.283503" lat="44.576509"><ele>74.824547</ele><time>2020-10-06T02:01:40Z</time><extensions><speed>0.210000</speed><course>254.531250</course><hAcc>5.000000</hAcc><vAcc>4.000000</vAcc></extensions></trkpt>
      <trkpt lon="-123.283503" lat="44.576505"><ele>74.890907</ele><time>2020-10-06T02:01:41Z</time><extensions><speed>0.150000</speed><course>229.921875</course><hAcc>5.000000</hAcc><vAcc>4.000000</vAcc></extensions></trkpt>
      <trkpt lon="-123.283503" lat="44.576505"><ele>74.528511</ele><time>2020-10-06T02:01:42Z</time><extensions><speed>0.000000</speed><course>193.007812</course><hAcc>5.000000</hAcc><vAcc>4.000000</vAcc></extensions></trkpt>
      <trkpt lon="-123.283503" lat="44.576505"><ele>75.041458</ele><time>2020-10-06T02:01:43Z</time><extensions><speed>0.000000</speed><course>150.117188</course><hAcc>5.000000</hAcc><vAcc>4.000000</vAcc></extensions></trkpt>
      <trkpt lon="-123.283501" lat="44.576502"><ele>75.006470</ele><time>2020-10-06T02:01:44Z</time><extensions><speed>0.150000</speed><course>350.156250</course><hAcc>5.000000</hAcc><vAcc>4.000000</vAcc></extensions></trkpt>
      <trkpt lon="-123.283506" lat="44.576504"><ele>75.058487</ele><time>2020-10-06T02:01:45Z</time><extensions><speed>0.150000</speed><course>314.648438</course><hAcc>5.000000</hAcc><vAcc>4.000000</vAcc></extensions></trkpt>
      <trkpt lon="-123.283508" lat="44.576505"><ele>74.913605</ele><time>2020-10-06T02:01:46Z</time><extensions><speed>0.210000</speed><course>326.601562</course><hAcc>5.000000</hAcc><vAcc>4.000000</vAcc></extensions></trkpt>
      <trkpt lon="-123.283508" lat="44.576505"><ele>74.929710</ele><time>2020-10-06T02:01:47Z</time><extensions><speed>0.000000</speed><course>32.695312</course><hAcc>5.000000</hAcc><vAcc>4.000000</vAcc></extensions></trkpt>
      <trkpt lon="-123.283506" lat="44.576508"><ele>74.947746</ele><time>2020-10-06T02:01:48Z</time><extensions><speed>0.330000</speed><course>64.335938</course><hAcc>10.000000</hAcc><vAcc>4.000000</vAcc></extensions></trkpt>
      <trkpt lon="-123.283503" lat="44.576516"><ele>75.000603</ele><time>2020-10-06T02:01:49Z</time><extensions><speed>0.330000</speed><course>13.007812</course><hAcc>5.000000</hAcc><vAcc>4.000000</vAcc></extensions></trkpt>
      <trkpt lon="-123.283500" lat="44.576523"><ele>75.229866</ele><time>2020-10-06T02:01:50Z</time><extensions><speed>0.650000</speed><course>5.625000</course><hAcc>10.000000</hAcc><vAcc>4.000000</vAcc></extensions></trkpt>
      <trkpt lon="-123.283497" lat="44.576526"><ele>75.227997</ele><time>2020-10-06T02:01:51Z</time><extensions><speed>0.320000</speed><course>8.085938</course><hAcc>10.000000</hAcc><vAcc>4.000000</vAcc></extensions></trkpt>
    </trkseg>
  </trk>
</gpx>