<?xml version="1.0" encoding="UTF-8"?>
<gpx version="1.1" creator="Apple Health Export" xmlns="http://www.topografix.com/GPX/1/1" xmlns:xsi="http://www.w3.org/2001/XMLSchema-instance" xsi:schemaLocation="http://www.topografix.com/GPX/1/1 http://www.topografix.com/GPX/1/1/gpx.xsd">
  <metadata>
    <time>2021-02-21T19:24:48Z</time>
  </metadata>
  <trk>
    <name>Route 2020-12-06 4:29pm</name>
    <trkseg>
      <trkpt lon="-123.271123" lat="44.560095"><ele>0.000000</ele><time>2020-12-07T00:29:26Z</time><extensions><speed>-1.000000</speed><course>-1.000000</course><hAcc>0.000000</hAcc><vAcc>-1.000000</vAcc></extensions></trkpt>
      <trkpt lon="-123.271147" lat="44.560133"><ele>0.000000</ele><time>2020-12-07T00:29:26Z</time><extensions><speed>-1.000000</speed><course>-1.000000</course><hAcc>0.000000</hAcc><vAcc>-1.000000</vAcc></extensions></trkpt>
      <trkpt lon="-123.271157" lat="44.560147"><ele>0.000000</ele><time>2020-12-07T00:29:26Z</time><extensions><speed>-1.000000</speed><course>-1.000000</course><hAcc>0.000000</hAcc><vAcc>-1.000000</vAcc></extensions></trkpt>
      <trkpt lon="-123.271273" lat="44.560164"><ele>0.000000</ele><time>2020-12-07T00:29:26Z</time><extensions><speed>-1.000000</speed><course>-1.000000</course><hAcc>0.000000</hAcc><vAcc>-1.000000</vAcc></extensions></trkpt>
      <trkpt lon="-123.271394" lat="44.560170"><ele>0.000000</ele><time>2020-12-07T00:29:26Z</time><extensions><speed>-1.000000</speed><course>-1.000000</course><hAcc>0.000000</hAcc><vAcc>-1.000000</vAcc></extensions></trkpt>
      <trkpt lon="-123.271539" lat="44.560145"><ele>0.000000</ele><time>2020-12-07T00:29:26Z</time><extensions><speed>-1.000000</speed><course>-1.000000</course><hAcc>0.000000</hAcc><vAcc>-1.000000</vAcc></extensions></trkpt>
      <trkpt lon="-123.271756" lat="44.560144"><ele>0.000000</ele><time>2020-12-07T00:29:26Z</time><extensions><speed>-1.000000</speed><course>-1.000000</course><hAcc>0.000000</hAcc><vAcc>-1.000000</vAcc></extensions></trkpt>
      <trkpt lon="-123.271920" lat="44.560130"><ele>0.000000</ele><time>2020-12-07T00:29:26Z</time><extensions><speed>-1.000000</speed><course>-1.000000</course><hAcc>0.000000</hAcc><vAcc>-1.000000</vAcc></extensions></trkpt>
      <trkpt lon="-123.272121" lat="44.560121"><ele>0.000000</ele><time>2020-12-07T00:29:26Z</time><extensions><speed>-1.000000</speed><course>-1.000000</course><hAcc>0.000000</hAcc><vAcc>-1.000000</vAcc></extensions></trkpt>
      <trkpt lon="-123.272384" lat="44.560110"><ele>0.000000</ele><time>2020-12-07T00:29:26Z</time><extensions><speed>-1.000000</speed><course>-1.000000</course><hAcc>0.000000</hAcc><vAcc>-1.000000</vAcc></extensions></trkpt>
      <trkpt lon="-123.272539" lat="44.560102"><ele>0.000000</ele><time>2020-12-07T00:29:26Z</time><extensions><speed>-1.000000</speed><course>-1.000000</course><hAcc>0.000000</hAcc><vAcc>-1.000000</vAcc></extensions></trkpt>
      <trkpt lon="-123.272587" lat="44.560098"><ele>0.000000</ele><time>2020-12-07T00:29:26Z</time><extensions><speed>-1.000000</speed><course>-1.000000</course><hAcc>0.000000</hAcc><vAcc>-1.000000</vAcc></extensions></trkpt>
      <trkpt lon="-123.272773" lat="44.560091"><ele>0.000000</ele><time>2020-12-07T00:29:26Z</time><extensions><speed>-1.000000</speed><course>-1.000000</course><hAcc>0.000000</hAcc><vAcc>-1.000000</vAcc></extensions></trkpt>
      <trkpt lon="-123.272827" lat="44.560084"><ele>0.000000</ele><time>2020-12-07T00:29:26Z</time><extensions><speed>-1.000000</speed><course>-1.000000</course><hAcc>0.000000</hAcc><vAcc>-1.000000</vAcc></extensions></trkpt>
      <trkpt lon="-123.273017" lat="44.560051"><ele>0.000000</ele><time>2020-12-07T00:29:26Z</time><extensions><speed>-1.000000</speed><course>-1.000000</course><hAcc>0.000000</hAcc><vAcc>-1.000000</vAcc></extensions></trkpt>
      <trkpt lon="-123.273192" lat="44.560028"><ele>0.000000</ele><time>2020-12-07T00:29:26Z</time><extensions><speed>-1.000000</speed><course>-1.000000</course><hAcc>0.000000</hAcc><vAcc>-1.000000</vAcc></extensions></trkpt>
      <trkpt lon="-123.273417" lat="44.560006"><ele>0.000000</ele><time>2020-12-07T00:29:26Z</time><extensions><speed>-1.000000</speed><course>-1.000000</course><hAcc>0.000000</hAcc><vAcc>-1.000000</vAcc></extensions></trkpt>
      <trkpt lon="-123.273565" lat="44.559993"><ele>0.000000</ele><time>2020-12-07T00:29:26Z</time><extensions><speed>-1.000000</speed><course>-1.000000</course><hAcc>0.000000</hAcc><vAcc>-1.000000</vAcc></extensions></trkpt>
      <trkpt lon="-123.273779" lat="44.560008"><ele>0.000000</ele><time>2020-12-07T00:29:26Z</time><extensions><speed>-1.000000</speed><course>-1.000000</course><hAcc>0.000000</hAcc><vAcc>-1.000000</vAcc></extensions></trkpt>
      <trkpt lon="-123.273943" lat="44.560051"><ele>0.000000</ele><time>2020-12-07T00:29:26Z</time><extensions><speed>-1.000000</speed><course>-1.000000</course><hAcc>0.000000</hAcc><vAcc>-1.000000</vAcc></extensions></trkpt>
      <trkpt lon="-123.273983" lat="44.560193"><ele>0.000000</ele><time>2020-12-07T00:29:26Z</time><extensions><speed>-1.000000</speed><course>-1.000000</course><hAcc>0.000000</hAcc><vAcc>-1.000000</vAcc></extensions></trkpt>
      <trkpt lon="-123.274082" lat="44.560277"><ele>0.000000</ele><time>2020-12-07T00:29:26Z</time><extensions><speed>-1.000000</speed><course>-1.000000</course><hAcc>0.000000</hAcc><vAcc>-1.000000</vAcc></extensions></trkpt>
      <trkpt lon="-123.274196" lat="44.560398"><ele>0.000000</ele><time>2020-12-07T00:29:26Z</time><extensions><speed>-1.000000</speed><course>-1.000000</course><hAcc>0.000000</hAcc><vAcc>-1.000000</vAcc></extensions></trkpt>
      <trkpt lon="-123.274237" lat="44.560476"><ele>0.000000</ele><time>2020-12-07T00:29:26Z</time><extensions><speed>-1.000000</speed><course>-1.000000</course><hAcc>0.000000</hAcc><vAcc>-1.000000</vAcc></extensions></trkpt>
      <trkpt lon="-123.274233" lat="44.560517"><ele>0.000000</ele><time>2020-12-07T00:29:26Z</time><extensions><speed>-1.000000</speed><course>-1.000000</course><hAcc>0.000000</hAcc><vAcc>-1.000000</vAcc></extensions></trkpt>
      <trkpt lon="-123.274240" lat="44.560607"><ele>0.000000</ele><time>2020-12-07T00:29:26Z</time><extensions><speed>-1.000000</speed><course>-1.000000</course><hAcc>0.000000</hAcc><vAcc>-1.000000</vAcc></extensions></trkpt>
      <trkpt lon="-123.274256" lat="44.560685"><ele>0.000000</ele><time>2020-12-07T00:29:26Z</time><extensions><speed>-1.000000</speed><course>-1.000000</course><hAcc>0.000000</hAcc><vAcc>-1.000000</vAcc></extensions></trkpt>
      <trkpt lon="-123.274262" lat="44.560731"><ele>0.000000</ele><time>2020-12-07T00:29:26Z</time><extensions><speed>-1.000000</speed><course>-1.000000</course><hAcc>0.000000</hAcc><vAcc>-1.000000</vAcc></extensions></trkpt>
      <trkpt lon="-123.274276" lat="44.560798"><ele>0.000000</ele><time>2020-12-07T00:29:26Z</time><extensions><speed>-1.000000</speed><course>-1.000000</course><hAcc>0.000000</hAcc><vAcc>-1.000000</vAcc></extensions></trkpt>
      <trkpt lon="-123.274289" lat="44.560904"><ele>0.000000</ele><time>2020-12-07T00:29:26Z</time><extensions><speed>-1.000000</speed><course>-1.000000</course><hAcc>0.000000</hAcc><vAcc>-1.000000</vAcc></extensions></trkpt>
      <trkpt lon="-123.274298" lat="44.560938"><ele>0.000000</ele><time>2020-12-07T00:29:26Z</time><extensions><speed>-1.000000</speed><course>-1.000000</course><hAcc>0.000000</hAcc><vAcc>-1.000000</vAcc></extensions></trkpt>
      <trkpt lon="-123.274311" lat="44.561039"><ele>0.000000</ele><time>2020-12-07T00:29:26Z</time><extensions><speed>-1.000000</speed><course>-1.000000</course><hAcc>0.000000</hAcc><vAcc>-1.000000</vAcc></extensions></trkpt>
      <trkpt lon="-123.274316" lat="44.561073"><ele>0.000000</ele><time>2020-12-07T00:29:26Z</time><extensions><speed>-1.000000</speed><course>-1.000000</course><hAcc>0.000000</hAcc><vAcc>-1.000000</vAcc></extensions></trkpt>
      <trkpt lon="-123.274345" lat="44.561132"><ele>0.000000</ele><time>2020-12-07T00:29:26Z</time><extensions><speed>-1.000000</speed><course>-1.000000</course><hAcc>0.000000</hAcc><vAcc>-1.000000</vAcc></extensions></trkpt>
      <trkpt lon="-123.274359" lat="44.561164"><ele>0.000000</ele><time>2020-12-07T00:29:26Z</time><extensions><speed>-1.000000</speed><course>-1.000000</course><hAcc>0.000000</hAcc><vAcc>-1.000000</vAcc></extensions></trkpt>
      <trkpt lon="-123.274410" lat="44.561282"><ele>0.000000</ele><time>2020-12-07T00:29:26Z</time><extensions><speed>-1.000000</speed><course>-1.000000</course><hAcc>0.000000</hAcc><vAcc>-1.000000</vAcc></extensions></trkpt>
      <trkpt lon="-123.274433" lat="44.561380"><ele>0.000000</ele><time>2020-12-07T00:29:26Z</time><extensions><speed>-1.000000</speed><course>-1.000000</course><hAcc>0.000000</hAcc><vAcc>-1.000000</vAcc></extensions></trkpt>
      <trkpt lon="-123.274466" lat="44.561515"><ele>0.000000</ele><time>2020-12-07T00:29:26Z</time><extensions><speed>-1.000000</speed><course>-1.000000</course><hAcc>0.000000</hAcc><vAcc>-1.000000</vAcc></extensions></trkpt>
      <trkpt lon="-123.274470" lat="44.561648"><ele>0.000000</ele><time>2020-12-07T00:29:26Z</time><extensions><speed>-1.000000</speed><course>-1.000000</course><hAcc>0.000000</hAcc><vAcc>-1.000000</vAcc></extensions></trkpt>
      <trkpt lon="-123.274536" lat="44.561779"><ele>0.000000</ele><time>2020-12-07T00:29:26Z</time><extensions><speed>-1.000000</speed><course>-1.000000</course><hAcc>0.000000</hAcc><vAcc>-1.000000</vAcc></extensions></trkpt>
      <trkpt lon="-123.274528" lat="44.561923"><ele>0.000000</ele><time>2020-12-07T00:29:26Z</time><extensions><speed>-1.000000</speed><course>-1.000000</course><hAcc>0.000000</hAcc><vAcc>-1.000000</vAcc></extensions></trkpt>
      <trkpt lon="-123.274550" lat="44.562066"><ele>0.000000</ele><time>2020-12-07T00:29:26Z</time><extensions><speed>-1.000000</speed><course>-1.000000</course><hAcc>0.000000</hAcc><vAcc>-1.000000</vAcc></extensions></trkpt>
      <trkpt lon="-123.274683" lat="44.562098"><ele>0.000000</ele><time>2020-12-07T00:29:26Z</time><extensions><speed>-1.000000</speed><course>-1.000000</course><hAcc>0.000000</hAcc><vAcc>-1.000000</vAcc></extensions></trkpt>
      <trkpt lon="-123.274863" lat="44.562098"><ele>0.000000</ele><time>2020-12-07T00:29:26Z</time><extensions><speed>-1.000000</speed><course>-1.000000</course><hAcc>0.000000</hAcc><vAcc>-1.000000</vAcc></extensions></trkpt>
      <trkpt lon="-123.275008" lat="44.562094"><ele>0.000000</ele><time>2020-12-07T00:29:26Z</time><extensions><speed>-1.000000</speed><course>-1.000000</course><hAcc>0.000000</hAcc><vAcc>-1.000000</vAcc></extensions></trkpt>
      <trkpt lon="-123.275192" lat="44.562089"><ele>0.000000</ele><time>2020-12-07T00:29:26Z</time><extensions><speed>-1.000000</speed><course>-1.000000</course><hAcc>0.000000</hAcc><vAcc>-1.000000</vAcc></extensions></trkpt>
      <trkpt lon="-123.275372" lat="44.562082"><ele>0.000000</ele><time>2020-12-07T00:29:26Z</time><extensions><speed>-1.000000</speed><course>-1.000000</course><hAcc>0.000000</hAcc><vAcc>-1.000000</vAcc></extensions></trkpt>
      <trkpt lon="-123.275561" lat="44.562077"><ele>0.000000</ele><time>2020-12-07T00:29:26Z</time><extensions><speed>-1.000000</speed><course>-1.000000</course><hAcc>0.000000</hAcc><vAcc>-1.000000</vAcc></extensions></trkpt>
      <trkpt lon="-123.275732" lat="44.562066"><ele>0.000000</ele><time>2020-12-07T00:29:26Z</time><extensions><speed>-1.000000</speed><course>-1.000000</course><hAcc>0.000000</hAcc><vAcc>-1.000000</vAcc></extensions></trkpt>
      <trkpt lon="-123.275872" lat="44.562029"><ele>0.000000</ele><time>2020-12-07T00:29:26Z</time><extensions><speed>-1.000000</speed><course>-1.000000</course><hAcc>0.000000</hAcc><vAcc>-1.000000</vAcc></extensions></trkpt>
      <trkpt lon="-123.276132" lat="44.561993"><ele>0.000000</ele><time>2020-12-07T00:29:26Z</time><extensions><speed>-1.000000</speed><course>-1.000000</course><hAcc>0.000000</hAcc><vAcc>-1.000000</vAcc></extensions></trkpt>
      <trkpt lon="-123.276343" lat="44.561952"><ele>0.000000</ele><time>2020-12-07T00:29:26Z</time><extensions><speed>-1.000000</speed><course>-1.000000</course><hAcc>0.000000</hAcc><vAcc>-1.000000</vAcc></extensions></trkpt>
      <trkpt lon="-123.276491" lat="44.561941"><ele>0.000000</ele><time>2020-12-07T00:29:26Z</time><extensions><speed>-1.000000</speed><course>-1.000000</course><hAcc>0.000000</hAcc><vAcc>-1.000000</vAcc></extensions></trkpt>
      <trkpt lon="-123.276705" lat="44.561942"><ele>0.000000</ele><time>2020-12-07T00:29:26Z</time><extensions><speed>-1.000000</speed><course>-1.000000</course><hAcc>0.000000</hAcc><vAcc>-1.000000</vAcc></extensions></trkpt>
      <trkpt lon="-123.276914" lat="44.561948"><ele>0.000000</ele><time>2020-12-07T00:29:26Z</time><extensions><speed>-1.000000</speed><course>-1.000000</course><hAcc>0.000000</hAcc><vAcc>-1.000000</vAcc></extensions></trkpt>
      <trkpt lon="-123.277089" lat="44.561965"><ele>0.000000</ele><time>2020-12-07T00:29:26Z</time><extensions><speed>-1.000000</speed><course>-1.000000</course><hAcc>0.000000</hAcc><vAcc>-1.000000</vAcc></extensions></trkpt>
      <trkpt lon="-123.277193" lat="44.561985"><ele>0.000000</ele><time>2020-12-07T00:29:26Z</time><extensions><speed>-1.000000</speed><course>-1.000000</course><hAcc>0.000000</hAcc><vAcc>-1.000000</vAcc></extensions></trkpt>
      <trkpt lon="-123.277401" lat="44.561987"><ele>0.000000</ele><time>2020-12-07T00:29:26Z</time><extensions><speed>-1.000000</speed><course>-1.000000</course><hAcc>0.000000</hAcc><vAcc>-1.000000</vAcc></extensions></trkpt>
      <trkpt lon="-123.277597" lat="44.561984"><ele>0.000000</ele><time>2020-12-07T00:29:26Z</time><extensions><speed>-1.000000</speed><course>-1.000000</course><hAcc>0.000000</hAcc><vAcc>-1.000000</vAcc></extensions></trkpt>
      <trkpt lon="-123.277741" lat="44.561989"><ele>0.000000</ele><time>2020-12-07T00:29:26Z</time><extensions><speed>-1.000000</speed><course>-1.000000</course><hAcc>0.000000</hAcc><vAcc>-1.000000</vAcc></extensions></trkpt>
      <trkpt lon="-123.277939" lat="44.561997"><ele>0.000000</ele><time>2020-12-07T00:29:26Z</time><extensions><speed>-1.000000</speed><course>-1.000000</course><hAcc>0.000000</hAcc><vAcc>-1.000000</vAcc></extensions></trkpt>
      <trkpt lon="-123.278125" lat="44.561994"><ele>0.000000</ele><time>2020-12-07T00:29:26Z</time><extensions><speed>-1.000000</speed><course>-1.000000</course><hAcc>0.000000</hAcc><vAcc>-1.000000</vAcc></extensions></trkpt>
      <trkpt lon="-123.278324" lat="44.562002"><ele>0.000000</ele><time>2020-12-07T00:29:26Z</time><extensions><speed>-1.000000</speed><course>-1.000000</course><hAcc>0.000000</hAcc><vAcc>-1.000000</vAcc></extensions></trkpt>
      <trkpt lon="-123.278511" lat="44.561996"><ele>0.000000</ele><time>2020-12-07T00:29:26Z</time><extensions><speed>-1.000000</speed><course>-1.000000</course><hAcc>0.000000</hAcc><vAcc>-1.000000</vAcc></extensions></trkpt>
      <trkpt lon="-123.278649" lat="44.562006"><ele>0.000000</ele><time>2020-12-07T00:29:26Z</time><extensions><speed>-1.000000</speed><course>-1.000000</course><hAcc>0.000000</hAcc><vAcc>-1.000000</vAcc></extensions></trkpt>
      <trkpt lon="-123.278830" lat="44.562035"><ele>0.000000</ele><time>2020-12-07T00:29:26Z</time><extensions><speed>-1.000000</speed><course>-1.000000</course><hAcc>0.000000</hAcc><vAcc>-1.000000</vAcc></extensions></trkpt>
      <trkpt lon="-123.278982" lat="44.562114"><ele>0.000000</ele><time>2020-12-07T00:29:26Z</time><extensions><speed>-1.000000</speed><course>-1.000000</course><hAcc>0.000000</hAcc><vAcc>-1.000000</vAcc></extensions></trkpt>
      <trkpt lon="-123.279084" lat="44.562237"><ele>0.000000</ele><time>2020-12-07T00:29:26Z</time><extensions><speed>-1.000000</speed><course>-1.000000</course><hAcc>0.000000</hAcc><vAcc>-1.000000</vAcc></extensions></trkpt>
      <trkpt lon="-123.279157" lat="44.562366"><ele>0.000000</ele><time>2020-12-07T00:29:26Z</time><extensions><speed>-1.000000</speed><course>-1.000000</course><hAcc>0.000000</hAcc><vAcc>-1.000000</vAcc></extensions></trkpt>
      <trkpt lon="-123.279255" lat="44.562460"><ele>0.000000</ele><time>2020-12-07T00:29:26Z</time><extensions><speed>-1.000000</speed><course>-1.000000</course><hAcc>0.000000</hAcc><vAcc>-1.000000</vAcc></extensions></trkpt>
      <trkpt lon="-123.279420" lat="44.562515"><ele>0.000000</ele><time>2020-12-07T00:29:26Z</time><extensions><speed>-1.000000</speed><course>-1.000000</course><hAcc>0.000000</hAcc><vAcc>-1.000000</vAcc></extensions></trkpt>
      <trkpt lon="-123.279587" lat="44.562594"><ele>0.000000</ele><time>2020-12-07T00:29:26Z</time><extensions><speed>-1.000000</speed><course>-1.000000</course><hAcc>0.000000</hAcc><vAcc>-1.000000</vAcc></extensions></trkpt>
      <trkpt lon="-123.279659" lat="44.562740"><ele>0.000000</ele><time>2020-12-07T00:29:26Z</time><extensions><speed>-1.000000</speed><course>-1.000000</course><hAcc>0.000000</hAcc><vAcc>-1.000000</vAcc></extensions></trkpt>
      <trkpt lon="-123.279763" lat="44.562856"><ele>0.000000</ele><time>2020-12-07T00:29:26Z</time><extensions><speed>-1.000000</speed><course>-1.000000</course><hAcc>0.000000</hAcc><vAcc>-1.000000</vAcc></extensions></trkpt>
      <trkpt lon="-123.279791" lat="44.562983"><ele>0.000000</ele><time>2020-12-07T00:29:26Z</time><extensions><speed>-1.000000</speed><course>-1.000000</course><hAcc>0.000000</hAcc><vAcc>-1.000000</vAcc></extensions></trkpt>
      <trkpt lon="-123.279796" lat="44.563097"><ele>0.000000</ele><time>2020-12-07T00:29:26Z</time><extensions><speed>-1.000000</speed><course>-1.000000</course><hAcc>0.000000</hAcc><vAcc>-1.000000</vAcc></extensions></trkpt>
      <trkpt lon="-123.279806" lat="44.563210"><ele>0.000000</ele><time>2020-12-07T00:29:26Z</time><extensions><speed>-1.000000</speed><course>-1.000000</course><hAcc>0.000000</hAcc><vAcc>-1.000000</vAcc></extensions></trkpt>
      <trkpt lon="-123.279824" lat="44.563273"><ele>0.000000</ele><time>2020-12-07T00:29:26Z</time><extensions><speed>-1.000000</speed><course>-1.000000</course><hAcc>0.000000</hAcc><vAcc>-1.000000</vAcc></extensions></trkpt>
      <trkpt lon="-123.279958" lat="44.563354"><ele>0.000000</ele><time>2020-12-07T00:29:26Z</time><extensions><speed>-1.000000</speed><course>-1.000000</course><hAcc>0.000000</hAcc><vAcc>-1.000000</vAcc></extensions></trkpt>
      <trkpt lon="-123.280143" lat="44.563373"><ele>0.000000</ele><time>2020-12-07T00:29:26Z</time><extensions><speed>-1.000000</speed><course>-1.000000</course><hAcc>0.000000</hAcc><vAcc>-1.000000</vAcc></extensions></trkpt>
      <trkpt lon="-123.280284" lat="44.563376"><ele>0.000000</ele><time>2020-12-07T00:29:26Z</time><extensions><speed>-1.000000</speed><course>-1.000000</course><hAcc>0.000000</hAcc><vAcc>-1.000000</vAcc></extensions></trkpt>
      <trkpt lon="-123.280489" lat="44.563377"><ele>0.000000</ele><time>2020-12-07T00:29:26Z</time><extensions><speed>-1.000000</speed><course>-1.000000</course><hAcc>0.000000</hAcc><vAcc>-1.000000</vAcc></extensions></trkpt>
      <trkpt lon="-123.280673" lat="44.563381"><ele>0.000000</ele><time>2020-12-07T00:29:26Z</time><extensions><speed>-1.000000</speed><course>-1.000000</course><hAcc>0.000000</hAcc><vAcc>-1.000000</vAcc></extensions></trkpt>
      <trkpt lon="-123.280879" lat="44.563378"><ele>0.000000</ele><time>2020-12-07T00:29:26Z</time><extensions><speed>-1.000000</speed><course>-1.000000</course><hAcc>0.000000</hAcc><vAcc>-1.000000</vAcc></extensions></trkpt>
      <trkpt lon="-123.281099" lat="44.563379"><ele>0.000000</ele><time>2020-12-07T00:29:26Z</time><extensions><speed>-1.000000</speed><course>-1.000000</course><hAcc>0.000000</hAcc><vAcc>-1.000000</vAcc></extensions></trkpt>
      <trkpt lon="-123.281283" lat="44.563388"><ele>0.000000</ele><time>2020-12-07T00:29:26Z</time><extensions><speed>-1.000000</speed><course>-1.000000</course><hAcc>0.000000</hAcc><vAcc>-1.000000</vAcc></extensions></trkpt>
      <trkpt lon="-123.281417" lat="44.563393"><ele>0.000000</ele><time>2020-12-07T00:29:26Z</time><extensions><speed>-1.000000</speed><course>-1.000000</course><hAcc>0.000000</hAcc><vAcc>-1.000000</vAcc></extensions></trkpt>
      <trkpt lon="-123.281612" lat="44.563406"><ele>0.000000</ele><time>2020-12-07T00:29:26Z</time><extensions><speed>-1.000000</speed><course>-1.000000</course><hAcc>0.000000</hAcc><vAcc>-1.000000</vAcc></extensions></trkpt>
      <trkpt lon="-123.281774" lat="44.563364"><ele>0.000000</ele><time>2020-12-07T00:29:26Z</time><extensions><speed>-1.000000</speed><course>-1.000000</course><hAcc>0.000000</hAcc><vAcc>-1.000000</vAcc></extensions></trkpt>
      <trkpt lon="-123.281834" lat="44.563253"><ele>0.000000</ele><time>2020-12-07T00:29:26Z</time><extensions><speed>-1.000000</speed><course>-1.000000</course><hAcc>0.000000</hAcc><vAcc>-1.000000</vAcc></extensions></trkpt>
      <trkpt lon="-123.281834" lat="44.563120"><ele>0.000000</ele><time>2020-12-07T00:29:26Z</time><extensions><speed>-1.000000</speed><course>-1.000000</course><hAcc>0.000000</hAcc><vAcc>-1.000000</vAcc></extensions></trkpt>
      <trkpt lon="-123.281839" lat="44.562991"><ele>0.000000</ele><time>2020-12-07T00:29:26Z</time><extensions><speed>-1.000000</speed><course>-1.000000</course><hAcc>0.000000</hAcc><vAcc>-1.000000</vAcc></extensions></trkpt>
      <trkpt lon="-123.281836" lat="44.562892"><ele>0.000000</ele><time>2020-12-07T00:29:26Z</time><extensions><speed>-1.000000</speed><course>-1.000000</course><hAcc>0.000000</hAcc><vAcc>-1.000000</vAcc></extensions></trkpt>
      <trkpt lon="-123.281830" lat="44.562752"><ele>0.000000</ele><time>2020-12-07T00:29:26Z</time><extensions><speed>-1.000000</speed><course>-1.000000</course><hAcc>0.000000</hAcc><vAcc>-1.000000</vAcc></extensions></trkpt>
      <trkpt lon="-123.281852" lat="44.562615"><ele>0.000000</ele><time>2020-12-07T00:29:26Z</time><extensions><speed>-1.000000</speed><course>-1.000000</course><hAcc>0.000000</hAcc><vAcc>-1.000000</vAcc></extensions></trkpt>
      <trkpt lon="-123.281841" lat="44.562474"><ele>0.000000</ele><time>2020-12-07T00:29:26Z</time><extensions><speed>-1.000000</speed><course>-1.000000</course><hAcc>0.000000</hAcc><vAcc>-1.000000</vAcc></extensions></trkpt>
      <trkpt lon="-123.281848" lat="44.562419"><ele>0.000000</ele><time>2020-12-07T00:29:26Z</time><extensions><speed>-1.000000</speed><course>-1.000000</course><hAcc>0.000000</hAcc><vAcc>-1.000000</vAcc></extensions></trkpt>
      <trkpt lon="-123.281844" lat="44.562385"><ele>0.000000</ele><time>2020-12-07T00:29:26Z</time><extensions><speed>-1.000000</speed><course>-1.000000</course><hAcc>0.000000</hAcc><vAcc>-1.000000</vAcc></extensions></trkpt>
      <trkpt lon="-123.281837" lat="44.562280"><ele>0.000000</ele><time>2020-12-07T00:29:26Z</time><extensions><speed>-1.000000</speed><course>-1.000000</course><hAcc>0.000000</hAcc><vAcc>-1.000000</vAcc></extensions></trkpt>
      <trkpt lon="-123.281843" lat="44.562249"><ele>0.000000</ele><time>2020-12-07T00:29:26Z</time><extensions><speed>-1.000000</speed><course>-1.000000</course><hAcc>0.000000</hAcc><vAcc>-1.000000</vAcc></extensions></trkpt>
      <trkpt lon="-123.281781" lat="44.562197"><ele>0.000000</ele><time>2020-12-07T00:29:26Z</time><extensions><speed>-1.000000</speed><course>-1.000000</course><hAcc>0.000000</hAcc><vAcc>-1.000000</vAcc></extensions></trkpt>
      <trkpt lon="-123.281648" lat="44.562173"><ele>0.000000</ele><time>2020-12-07T00:29:26Z</time><extensions><speed>-1.000000</speed><course>-1.000000</course><hAcc>0.000000</hAcc><vAcc>-1.000000</vAcc></extensions></trkpt>
      <trkpt lon="-123.281514" lat="44.562180"><ele>0.000000</ele><time>2020-12-07T00:29:26Z</time><extensions><speed>-1.000000</speed><course>-1.000000</course><hAcc>0.000000</hAcc><vAcc>-1.000000</vAcc></extensions></trkpt>
      <trkpt lon="-123.281361" lat="44.562183"><ele>0.000000</ele><time>2020-12-07T00:29:26Z</time><extensions><speed>-1.000000</speed><course>-1.000000</course><hAcc>0.000000</hAcc><vAcc>-1.000000</vAcc></extensions></trkpt>
      <trkpt lon="-123.281336" lat="44.562183"><ele>0.000000</ele><time>2020-12-07T00:29:26Z</time><extensions><speed>-1.000000</speed><course>-1.000000</course><hAcc>0.000000</hAcc><vAcc>-1.000000</vAcc></extensions></trkpt>
      <trkpt lon="-123.281245" lat="44.562178"><ele>0.000000</ele><time>2020-12-07T00:29:26Z</time><extensions><speed>-1.000000</speed><course>-1.000000</course><hAcc>0.000000</hAcc><vAcc>-1.000000</vAcc></extensions></trkpt>
      <trkpt lon="-123.281227" lat="44.562176"><ele>0.000000</ele><time>2020-12-07T00:29:26Z</time><extensions><speed>-1.000000</speed><course>-1.000000</course><hAcc>0.000000</hAcc><vAcc>-1.000000</vAcc></extensions></trkpt>
      <trkpt lon="-123.281090" lat="44.562181"><ele>0.000000</ele><time>2020-12-07T00:29:26Z</time><extensions><speed>-1.000000</speed><course>-1.000000</course><hAcc>0.000000</hAcc><vAcc>-1.000000</vAcc></extensions></trkpt>
      <trkpt lon="-123.280943" lat="44.562173"><ele>0.000000</ele><time>2020-12-07T00:29:26Z</time><extensions><speed>-1.000000</speed><course>-1.000000</course><hAcc>0.000000</hAcc><vAcc>-1.000000</vAcc></extensions></trkpt>
      <trkpt lon="-123.280766" lat="44.562172"><ele>0.000000</ele><time>2020-12-07T00:29:26Z</time><extensions><speed>-1.000000</speed><course>-1.000000</course><hAcc>0.000000</hAcc><vAcc>-1.000000</vAcc></extensions></trkpt>
      <trkpt lon="-123.280569" lat="44.562177"><ele>0.000000</ele><time>2020-12-07T00:29:26Z</time><extensions><speed>-1.000000</speed><course>-1.000000</course><hAcc>0.000000</hAcc><vAcc>-1.000000</vAcc></extensions></trkpt>
      <trkpt lon="-123.280438" lat="44.562168"><ele>0.000000</ele><time>2020-12-07T00:29:26Z</time><extensions><speed>-1.000000</speed><course>-1.000000</course><hAcc>0.000000</hAcc><vAcc>-1.000000</vAcc></extensions></trkpt>
      <trkpt lon="-123.280258" lat="44.562163"><ele>0.000000</ele><time>2020-12-07T00:29:26Z</time><extensions><speed>-1.000000</speed><course>-1.000000</course><hAcc>0.000000</hAcc><vAcc>-1.000000</vAcc></extensions></trkpt>
      <trkpt lon="-123.280108" lat="44.562169"><ele>0.000000</ele><time>2020-12-07T00:29:26Z</time><extensions><speed>-1.000000</speed><course>-1.000000</course><hAcc>0.000000</hAcc><vAcc>-1.000000</vAcc></extensions></trkpt>
      <trkpt lon="-123.279929" lat="44.562178"><ele>0.000000</ele><time>2020-12-07T00:29:26Z</time><extensions><speed>-1.000000</speed><course>-1.000000</course><hAcc>0.000000</hAcc><vAcc>-1.000000</vAcc></extensions></trkpt>
      <trkpt lon="-123.279815" lat="44.562264"><ele>0.000000</ele><time>2020-12-07T00:29:26Z</time><extensions><speed>-1.000000</speed><course>-1.000000</course><hAcc>0.000000</hAcc><vAcc>-1.000000</vAcc></extensions></trkpt>
      <trkpt lon="-123.279825" lat="44.562353"><ele>0.000000</ele><time>2020-12-07T00:29:26Z</time><extensions><speed>-1.000000</speed><course>-1.000000</course><hAcc>0.000000</hAcc><vAcc>-1.000000</vAcc></extensions></trkpt>
      <trkpt lon="-123.279812" lat="44.562483"><ele>0.000000</ele><time>2020-12-07T00:29:26Z</time><extensions><speed>-1.000000</speed><course>-1.000000</course><hAcc>0.000000</hAcc><vAcc>-1.000000</vAcc></extensions></trkpt>
      <trkpt lon="-123.279816" lat="44.562601"><ele>0.000000</ele><time>2020-12-07T00:29:26Z</time><extensions><speed>-1.000000</speed><course>-1.000000</course><hAcc>0.000000</hAcc><vAcc>-1.000000</vAcc></extensions></trkpt>
      <trkpt lon="-123.279807" lat="44.562742"><ele>0.000000</ele><time>2020-12-07T00:29:26Z</time><extensions><speed>-1.000000</speed><course>-1.000000</course><hAcc>0.000000</hAcc><vAcc>-1.000000</vAcc></extensions></trkpt>
      <trkpt lon="-123.279792" lat="44.562869"><ele>0.000000</ele><time>2020-12-07T00:29:26Z</time><extensions><speed>-1.000000</speed><course>-1.000000</course><hAcc>0.000000</hAcc><vAcc>-1.000000</vAcc></extensions></trkpt>
      <trkpt lon="-123.279788" lat="44.563011"><ele>0.000000</ele><time>2020-12-07T00:29:26Z</time><extensions><speed>-1.000000</speed><course>-1.000000</course><hAcc>0.000000</hAcc><vAcc>-1.000000</vAcc></extensions></trkpt>
      <trkpt lon="-123.279785" lat="44.563144"><ele>0.000000</ele><time>2020-12-07T00:29:26Z</time><extensions><speed>-1.000000</speed><course>-1.000000</course><hAcc>0.000000</hAcc><vAcc>-1.000000</vAcc></extensions></trkpt>
      <trkpt lon="-123.279723" lat="44.563262"><ele>0.000000</ele><time>2020-12-07T00:29:26Z</time><extensions><speed>-1.000000</speed><course>-1.000000</course><hAcc>0.000000</hAcc><vAcc>-1.000000</vAcc></extensions></trkpt>
      <trkpt lon="-123.279732" lat="44.563363"><ele>0.000000</ele><time>2020-12-07T00:29:26Z</time><extensions><speed>-1.000000</speed><course>-1.000000</course><hAcc>0.000000</hAcc><vAcc>-1.000000</vAcc></extensions></trkpt>
      <trkpt lon="-123.279744" lat="44.563507"><ele>0.000000</ele><time>2020-12-07T00:29:26Z</time><extensions><speed>-1.000000</speed><course>-1.000000</course><hAcc>0.000000</hAcc><vAcc>-1.000000</vAcc></extensions></trkpt>
      <trkpt lon="-123.279786" lat="44.563641"><ele>0.000000</ele><time>2020-12-07T00:29:26Z</time><extensions><speed>-1.000000</speed><course>-1.000000</course><hAcc>0.000000</hAcc><vAcc>-1.000000</vAcc></extensions></trkpt>
      <trkpt lon="-123.279829" lat="44.563765"><ele>0.000000</ele><time>2020-12-07T00:29:26Z</time><extensions><speed>-1.000000</speed><course>-1.000000</course><hAcc>0.000000</hAcc><vAcc>-1.000000</vAcc></extensions></trkpt>
      <trkpt lon="-123.279869" lat="44.563891"><ele>0.000000</ele><time>2020-12-07T00:29:26Z</time><extensions><speed>-1.000000</speed><course>-1.000000</course><hAcc>0.000000</hAcc><vAcc>-1.000000</vAcc></extensions></trkpt>
      <trkpt lon="-123.279920" lat="44.563979"><ele>0.000000</ele><time>2020-12-07T00:29:26Z</time><extensions><speed>-1.000000</speed><course>-1.000000</course><hAcc>0.000000</hAcc><vAcc>-1.000000</vAcc></extensions></trkpt>
      <trkpt lon="-123.279961" lat="44.564112"><ele>0.000000</ele><time>2020-12-07T00:29:26Z</time><extensions><speed>-1.000000</speed><course>-1.000000</course><hAcc>0.000000</hAcc><vAcc>-1.000000</vAcc></extensions></trkpt>
      <trkpt lon="-123.280000" lat="44.564247"><ele>0.000000</ele><time>2020-12-07T00:29:26Z</time><extensions><speed>-1.000000</speed><course>-1.000000</course><hAcc>0.000000</hAcc><vAcc>-1.000000</vAcc></extensions></trkpt>
      <trkpt lon="-123.279984" lat="44.564378"><ele>0.000000</ele><time>2020-12-07T00:29:26Z</time><extensions><speed>-1.000000</speed><course>-1.000000</course><hAcc>0.000000</hAcc><vAcc>-1.000000</vAcc></extensions></trkpt>
      <trkpt lon="-123.279971" lat="44.564510"><ele>0.000000</ele><time>2020-12-07T00:29:26Z</time><extensions><speed>-1.000000</speed><course>-1.000000</course><hAcc>0.000000</hAcc><vAcc>-1.000000</vAcc></extensions></trkpt>
      <trkpt lon="-123.279982" lat="44.564596"><ele>0.000000</ele><time>2020-12-07T00:29:26Z</time><extensions><speed>-1.000000</speed><course>-1.000000</course><hAcc>0.000000</hAcc><vAcc>-1.000000</vAcc></extensions></trkpt>
      <trkpt lon="-123.279964" lat="44.564729"><ele>0.000000</ele><time>2020-12-07T00:29:26Z</time><extensions><speed>-1.000000</speed><course>-1.000000</course><hAcc>0.000000</hAcc><vAcc>-1.000000</vAcc></extensions></trkpt>
      <trkpt lon="-123.279958" lat="44.564849"><ele>0.000000</ele><time>2020-12-07T00:29:26Z</time><extensions><speed>-1.000000</speed><course>-1.000000</course><hAcc>0.000000</hAcc><vAcc>-1.000000</vAcc></extensions></trkpt>
      <trkpt lon="-123.279960" lat="44.564980"><ele>0.000000</ele><time>2020-12-07T00:29:26Z</time><extensions><speed>-1.000000</speed><course>-1.000000</course><hAcc>0.000000</hAcc><vAcc>-1.000000</vAcc></extensions></trkpt>
      <trkpt lon="-123.279950" lat="44.565073"><ele>0.000000</ele><time>2020-12-07T00:29:26Z</time><extensions><speed>-1.000000</speed><course>-1.000000</course><hAcc>0.000000</hAcc><vAcc>-1.000000</vAcc></extensions></trkpt>
      <trkpt lon="-123.279943" lat="44.565213"><ele>0.000000</ele><time>2020-12-07T00:29:26Z</time><extensions><speed>-1.000000</speed><course>-1.000000</course><hAcc>0.000000</hAcc><vAcc>-1.000000</vAcc></extensions></trkpt>
      <trkpt lon="-123.279934" lat="44.565353"><ele>0.000000</ele><time>2020-12-07T00:29:26Z</time><extensions><speed>-1.000000</speed><course>-1.000000</course><hAcc>0.000000</hAcc><vAcc>-1.000000</vAcc></extensions></trkpt>
      <trkpt lon="-123.279940" lat="44.565459"><ele>0.000000</ele><time>2020-12-07T00:29:26Z</time><extensions><speed>-1.000000</speed><course>-1.000000</course><hAcc>0.000000</hAcc><vAcc>-1.000000</vAcc></extensions></trkpt>
      <trkpt lon="-123.279920" lat="44.565556"><ele>0.000000</ele><time>2020-12-07T00:29:26Z</time><extensions><speed>-1.000000</speed><course>-1.000000</course><hAcc>0.000000</hAcc><vAcc>-1.000000</vAcc></extensions></trkpt>
      <trkpt lon="-123.279937" lat="44.565642"><ele>0.000000</ele><time>2020-12-07T00:29:26Z</time><extensions><speed>-1.000000</speed><course>-1.000000</course><hAcc>0.000000</hAcc><vAcc>-1.000000</vAcc></extensions></trkpt>
      <trkpt lon="-123.279937" lat="44.565741"><ele>0.000000</ele><time>2020-12-07T00:29:26Z</time><extensions><speed>-1.000000</speed><course>-1.000000</course><hAcc>0.000000</hAcc><vAcc>-1.000000</vAcc></extensions></trkpt>
      <trkpt lon="-123.279938" lat="44.565810"><ele>0.000000</ele><time>2020-12-07T00:29:26Z</time><extensions><speed>-1.000000</speed><course>-1.000000</course><hAcc>0.000000</hAcc><vAcc>-1.000000</vAcc></extensions></trkpt>
      <trkpt lon="-123.279938" lat="44.565883"><ele>0.000000</ele><time>2020-12-07T00:29:26Z</time><extensions><speed>-1.000000</speed><course>-1.000000</course><hAcc>0.000000</hAcc><vAcc>-1.000000</vAcc></extensions></trkpt>
      <trkpt lon="-123.279940" lat="44.566007"><ele>0.000000</ele><time>2020-12-07T00:29:26Z</time><extensions><speed>-1.000000</speed><course>-1.000000</course><hAcc>0.000000</hAcc><vAcc>-1.000000</vAcc></extensions></trkpt>
      <trkpt lon="-123.279929" lat="44.566141"><ele>0.000000</ele><time>2020-12-07T00:29:26Z</time><extensions><speed>-1.000000</speed><course>-1.000000</course><hAcc>0.000000</hAcc><vAcc>-1.000000</vAcc></extensions></trkpt>
      <trkpt lon="-123.279906" lat="44.566274"><ele>0.000000</ele><time>2020-12-07T00:29:26Z</time><extensions><speed>-1.000000</speed><course>-1.000000</course><hAcc>0.000000</hAcc><vAcc>-1.000000</vAcc></extensions></trkpt>
      <trkpt lon="-123.279898" lat="44.566407"><ele>0.000000</ele><time>2020-12-07T00:29:26Z</time><extensions><speed>-1.000000</speed><course>-1.000000</course><hAcc>0.000000</hAcc><vAcc>-1.000000</vAcc></extensions></trkpt>
      <trkpt lon="-123.279899" lat="44.566538"><ele>0.000000</ele><time>2020-12-07T00:29:26Z</time><extensions><speed>-1.000000</speed><course>-1.000000</course><hAcc>0.000000</hAcc><vAcc>-1.000000</vAcc></extensions></trkpt>
      <trkpt lon="-123.279892" lat="44.566630"><ele>0.000000</ele><time>2020-12-07T00:29:26Z</time><extensions><speed>-1.000000</speed><course>-1.000000</course><hAcc>0.000000</hAcc><vAcc>-1.000000</vAcc></extensions></trkpt>
      <trkpt lon="-123.279891" lat="44.566749"><ele>0.000000</ele><time>2020-12-07T00:29:26Z</time><extensions><speed>-1.000000</speed><course>-1.000000</course><hAcc>0.000000</hAcc><vAcc>-1.000000</vAcc></extensions></trkpt>
      <trkpt lon="-123.279910" lat="44.566861"><ele>0.000000</ele><time>2020-12-07T00:29:26Z</time><extensions><speed>-1.000000</speed><course>-1.000000</course><hAcc>0.000000</hAcc><vAcc>-1.000000</vAcc></extensions></trkpt>
      <trkpt lon="-123.279908" lat="44.566999"><ele>0.000000</ele><time>2020-12-07T00:29:26Z</time><extensions><speed>-1.000000</speed><course>-1.000000</course><hAcc>0.000000</hAcc><vAcc>-1.000000</vAcc></extensions></trkpt>
      <trkpt lon="-123.279908" lat="44.567173"><ele>0.000000</ele><time>2020-12-07T00:29:26Z</time><extensions><speed>-1.000000</speed><course>-1.000000</course><hAcc>0.000000</hAcc><vAcc>-1.000000</vAcc></extensions></trkpt>
      <trkpt lon="-123.279931" lat="44.567275"><ele>0.000000</ele><time>2020-12-07T00:29:26Z</time><extensions><speed>-1.000000</speed><course>-1.000000</course><hAcc>0.000000</hAcc><vAcc>-1.000000</vAcc></extensions></trkpt>
      <trkpt lon="-123.279907" lat="44.567380"><ele>0.000000</ele><time>2020-12-07T00:29:26Z</time><extensions><speed>-1.000000</speed><course>-1.000000</course><hAcc>0.000000</hAcc><vAcc>-1.000000</vAcc></extensions></trkpt>
      <trkpt lon="-123.279922" lat="44.567504"><ele>0.000000</ele><time>2020-12-07T00:29:26Z</time><extensions><speed>-1.000000</speed><course>-1.000000</course><hAcc>0.000000</hAcc><vAcc>-1.000000</vAcc></extensions></trkpt>
      <trkpt lon="-123.279888" lat="44.567631"><ele>0.000000</ele><time>2020-12-07T00:29:26Z</time><extensions><speed>-1.000000</speed><course>-1.000000</course><hAcc>0.000000</hAcc><vAcc>-1.000000</vAcc></extensions></trkpt>
      <trkpt lon="-123.279876" lat="44.567763"><ele>0.000000</ele><time>2020-12-07T00:29:26Z</time><extensions><speed>-1.000000</speed><course>-1.000000</course><hAcc>0.000000</hAcc><vAcc>-1.000000</vAcc></extensions></trkpt>
      <trkpt lon="-123.279879" lat="44.567874"><ele>0.000000</ele><time>2020-12-07T00:29:26Z</time><extensions><speed>-1.000000</speed><course>-1.000000</course><hAcc>0.000000</hAcc><vAcc>-1.000000</vAcc></extensions></trkpt>
      <trkpt lon="-123.279868" lat="44.567966"><ele>0.000000</ele><time>2020-12-07T00:29:26Z</time><extensions><speed>-1.000000</speed><course>-1.000000</course><hAcc>0.000000</hAcc><vAcc>-1.000000</vAcc></extensions></trkpt>
      <trkpt lon="-123.279876" lat="44.568095"><ele>0.000000</ele><time>2020-12-07T00:29:26Z</time><extensions><speed>-1.000000</speed><course>-1.000000</course><hAcc>0.000000</hAcc><vAcc>-1.000000</vAcc></extensions></trkpt>
      <trkpt lon="-123.279898" lat="44.568211"><ele>0.000000</ele><time>2020-12-07T00:29:26Z</time><extensions><speed>-1.000000</speed><course>-1.000000</course><hAcc>0.000000</hAcc><vAcc>-1.000000</vAcc></extensions></trkpt>
      <trkpt lon="-123.279917" lat="44.568285"><ele>0.000000</ele><time>2020-12-07T00:29:26Z</time><extensions><speed>-1.000000</speed><course>-1.000000</course><hAcc>0.000000</hAcc><vAcc>-1.000000</vAcc></extensions></trkpt>
      <trkpt lon="-123.279921" lat="44.568398"><ele>0.000000</ele><time>2020-12-07T00:29:26Z</time><extensions><speed>-1.000000</speed><course>-1.000000</course><hAcc>0.000000</hAcc><vAcc>-1.000000</vAcc></extensions></trkpt>
      <trkpt lon="-123.279936" lat="44.568484"><ele>0.000000</ele><time>2020-12-07T00:29:26Z</time><extensions><speed>-1.000000</speed><course>-1.000000</course><hAcc>0.000000</hAcc><vAcc>-1.000000</vAcc></extensions></trkpt>
      <trkpt lon="-123.279937" lat="44.568538"><ele>0.000000</ele><time>2020-12-07T00:29:26Z</time><extensions><speed>-1.000000</speed><course>-1.000000</course><hAcc>0.000000</hAcc><vAcc>-1.000000</vAcc></extensions></trkpt>
      <trkpt lon="-123.279917" lat="44.568667"><ele>0.000000</ele><time>2020-12-07T00:29:26Z</time><extensions><speed>-1.000000</speed><course>-1.000000</course><hAcc>0.000000</hAcc><vAcc>-1.000000</vAcc></extensions></trkpt>
      <trkpt lon="-123.279890" lat="44.568791"><ele>0.000000</ele><time>2020-12-07T00:29:26Z</time><extensions><speed>-1.000000</speed><course>-1.000000</course><hAcc>0.000000</hAcc><vAcc>-1.000000</vAcc></extensions></trkpt>
      <trkpt lon="-123.279783" lat="44.568868"><ele>0.000000</ele><time>2020-12-07T00:29:26Z</time><extensions><speed>-1.000000</speed><course>-1.000000</course><hAcc>0.000000</hAcc><vAcc>-1.000000</vAcc></extensions></trkpt>
      <trkpt lon="-123.279632" lat="44.568861"><ele>0.000000</ele><time>2020-12-07T00:29:26Z</time><extensions><speed>-1.000000</speed><course>-1.000000</course><hAcc>0.000000</hAcc><vAcc>-1.000000</vAcc></extensions></trkpt>
      <trkpt lon="-123.279432" lat="44.568821"><ele>0.000000</ele><time>2020-12-07T00:29:26Z</time><extensions><speed>-1.000000</speed><course>-1.000000</course><hAcc>0.000000</hAcc><vAcc>-1.000000</vAcc></extensions></trkpt>
      <trkpt lon="-123.279245" lat="44.568817"><ele>0.000000</ele><time>2020-12-07T00:29:26Z</time><extensions><speed>-1.000000</speed><course>-1.000000</course><hAcc>0.000000</hAcc><vAcc>-1.000000</vAcc></extensions></trkpt>
      <trkpt lon="-123.279105" lat="44.568798"><ele>0.000000</ele><time>2020-12-07T00:29:26Z</time><extensions><speed>-1.000000</speed><course>-1.000000</course><hAcc>0.000000</hAcc><vAcc>-1.000000</vAcc></extensions></trkpt>
      <trkpt lon="-123.278931" lat="44.568754"><ele>0.000000</ele><time>2020-12-07T00:29:26Z</time><extensions><speed>-1.000000</speed><course>-1.000000</course><hAcc>0.000000</hAcc><vAcc>-1.000000</vAcc></extensions></trkpt>
      <trkpt lon="-123.278760" lat="44.568713"><ele>0.000000</ele><time>2020-12-07T00:29:26Z</time><extensions><speed>-1.000000</speed><course>-1.000000</course><hAcc>0.000000</hAcc><vAcc>-1.000000</vAcc></extensions></trkpt>
      <trkpt lon="-123.278595" lat="44.568646"><ele>0.000000</ele><time>2020-12-07T00:29:26Z</time><extensions><speed>-1.000000</speed><course>-1.000000</course><hAcc>0.000000</hAcc><vAcc>-1.000000</vAcc></extensions></trkpt>
      <trkpt lon="-123.278430" lat="44.568603"><ele>0.000000</ele><time>2020-12-07T00:29:26Z</time><extensions><speed>-1.000000</speed><course>-1.000000</course><hAcc>0.000000</hAcc><vAcc>-1.000000</vAcc></extensions></trkpt>
      <trkpt lon="-123.278276" lat="44.568584"><ele>0.000000</ele><time>2020-12-07T00:29:26Z</time><extensions><speed>-1.000000</speed><course>-1.000000</course><hAcc>0.000000</hAcc><vAcc>-1.000000</vAcc></extensions></trkpt>
      <trkpt lon="-123.278117" lat="44.568539"><ele>0.000000</ele><time>2020-12-07T00:29:26Z</time><extensions><speed>-1.000000</speed><course>-1.000000</course><hAcc>0.000000</hAcc><vAcc>-1.000000</vAcc></extensions></trkpt>
      <trkpt lon="-123.277932" lat="44.568498"><ele>0.000000</ele><time>2020-12-07T00:29:26Z</time><extensions><speed>-1.000000</speed><course>-1.000000</course><hAcc>0.000000</hAcc><vAcc>-1.000000</vAcc></extensions></trkpt>
      <trkpt lon="-123.277772" lat="44.568474"><ele>0.000000</ele><time>2020-12-07T00:29:26Z</time><extensions><speed>-1.000000</speed><course>-1.000000</course><hAcc>0.000000</hAcc><vAcc>-1.000000</vAcc></extensions></trkpt>
      <trkpt lon="-123.277585" lat="44.568435"><ele>0.000000</ele><time>2020-12-07T00:29:26Z</time><extensions><speed>-1.000000</speed><course>-1.000000</course><hAcc>0.000000</hAcc><vAcc>-1.000000</vAcc></extensions></trkpt>
      <trkpt lon="-123.277396" lat="44.568396"><ele>0.000000</ele><time>2020-12-07T00:29:26Z</time><extensions><speed>-1.000000</speed><course>-1.000000</course><hAcc>0.000000</hAcc><vAcc>-1.000000</vAcc></extensions></trkpt>
      <trkpt lon="-123.277297" lat="44.568370"><ele>0.000000</ele><time>2020-12-07T00:29:26Z</time><extensions><speed>-1.000000</speed><course>-1.000000</course><hAcc>0.000000</hAcc><vAcc>-1.000000</vAcc></extensions></trkpt>
      <trkpt lon="-123.277276" lat="44.568361"><ele>0.000000</ele><time>2020-12-07T00:29:26Z</time><extensions><speed>-1.000000</speed><course>-1.000000</course><hAcc>0.000000</hAcc><vAcc>-1.000000</vAcc></extensions></trkpt>
      <trkpt lon="-123.277072" lat="44.568314"><ele>0.000000</ele><time>2020-12-07T00:29:26Z</time><extensions><speed>-1.000000</speed><course>-1.000000</course><hAcc>0.000000</hAcc><vAcc>-1.000000</vAcc></extensions></trkpt>
      <trkpt lon="-123.276880" lat="44.568280"><ele>0.000000</ele><time>2020-12-07T00:29:26Z</time><extensions><speed>-1.000000</speed><course>-1.000000</course><hAcc>0.000000</hAcc><vAcc>-1.000000</vAcc></extensions></trkpt>
      <trkpt lon="-123.276761" lat="44.568265"><ele>0.000000</ele><time>2020-12-07T00:29:26Z</time><extensions><speed>-1.000000</speed><course>-1.000000</course><hAcc>0.000000</hAcc><vAcc>-1.000000</vAcc></extensions></trkpt>
      <trkpt lon="-123.276581" lat="44.568208"><ele>0.000000</ele><time>2020-12-07T00:29:26Z</time><extensions><speed>-1.000000</speed><course>-1.000000</course><hAcc>0.000000</hAcc><vAcc>-1.000000</vAcc></extensions></trkpt>
      <trkpt lon="-123.276419" lat="44.568169"><ele>0.000000</ele><time>2020-12-07T00:29:26Z</time><extensions><speed>-1.000000</speed><course>-1.000000</course><hAcc>0.000000</hAcc><vAcc>-1.000000</vAcc></extensions></trkpt>
      <trkpt lon="-123.276240" lat="44.568146"><ele>0.000000</ele><time>2020-12-07T00:29:26Z</time><extensions><speed>-1.000000</speed><course>-1.000000</course><hAcc>0.000000</hAcc><vAcc>-1.000000</vAcc></extensions></trkpt>
      <trkpt lon="-123.276038" lat="44.568087"><ele>0.000000</ele><time>2020-12-07T00:29:26Z</time><extensions><speed>-1.000000</speed><course>-1.000000</course><hAcc>0.000000</hAcc><vAcc>-1.000000</vAcc></extensions></trkpt>
      <trkpt lon="-123.275907" lat="44.568059"><ele>0.000000</ele><time>2020-12-07T00:29:26Z</time><extensions><speed>-1.000000</speed><course>-1.000000</course><hAcc>0.000000</hAcc><vAcc>-1.000000</vAcc></extensions></trkpt>
      <trkpt lon="-123.275712" lat="44.568037"><ele>0.000000</ele><time>2020-12-07T00:29:26Z</time><extensions><speed>-1.000000</speed><course>-1.000000</course><hAcc>0.000000</hAcc><vAcc>-1.000000</vAcc></extensions></trkpt>
      <trkpt lon="-123.275512" lat="44.567984"><ele>0.000000</ele><time>2020-12-07T00:29:26Z</time><extensions><speed>-1.000000</speed><course>-1.000000</course><hAcc>0.000000</hAcc><vAcc>-1.000000</vAcc></extensions></trkpt>
      <trkpt lon="-123.275317" lat="44.567958"><ele>0.000000</ele><time>2020-12-07T00:29:26Z</time><extensions><speed>-1.000000</speed><course>-1.000000</course><hAcc>0.000000</hAcc><vAcc>-1.000000</vAcc></extensions></trkpt>
      <trkpt lon="-123.275139" lat="44.567899"><ele>0.000000</ele><time>2020-12-07T00:29:26Z</time><extensions><speed>-1.000000</speed><course>-1.000000</course><hAcc>0.000000</hAcc><vAcc>-1.000000</vAcc></extensions></trkpt>
      <trkpt lon="-123.275013" lat="44.567863"><ele>0.000000</ele><time>2020-12-07T00:29:26Z</time><extensions><speed>-1.000000</speed><course>-1.000000</course><hAcc>0.000000</hAcc><vAcc>-1.000000</vAcc></extensions></trkpt>
      <trkpt lon="-123.274842" lat="44.567815"><ele>0.000000</ele><time>2020-12-07T00:29:26Z</time><extensions><speed>-1.000000</speed><course>-1.000000</course><hAcc>0.000000</hAcc><vAcc>-1.000000</vAcc></extensions></trkpt>
      <trkpt lon="-123.274692" lat="44.567771"><ele>0.000000</ele><time>2020-12-07T00:29:26Z</time><extensions><speed>-1.000000</speed><course>-1.000000</course><hAcc>0.000000</hAcc><vAcc>-1.000000</vAcc></extensions></trkpt>
      <trkpt lon="-123.274510" lat="44.567722"><ele>0.000000</ele><time>2020-12-07T00:29:26Z</time><extensions><speed>-1.000000</speed><course>-1.000000</course><hAcc>0.000000</hAcc><vAcc>-1.000000</vAcc></extensions></trkpt>
      <trkpt lon="-123.274315" lat="44.567668"><ele>0.000000</ele><time>2020-12-07T00:29:26Z</time><extensions><speed>-1.000000</speed><course>-1.000000</course><hAcc>0.000000</hAcc><vAcc>-1.000000</vAcc></extensions></trkpt>
      <trkpt lon="-123.274143" lat="44.567621"><ele>0.000000</ele><time>2020-12-07T00:29:26Z</time><extensions><speed>-1.000000</speed><course>-1.000000</course><hAcc>0.000000</hAcc><vAcc>-1.000000</vAcc></extensions></trkpt>
      <trkpt lon="-123.274034" lat="44.567577"><ele>0.000000</ele><time>2020-12-07T00:29:26Z</time><extensions><speed>-1.000000</speed><course>-1.000000</course><hAcc>0.000000</hAcc><vAcc>-1.000000</vAcc></extensions></trkpt>
      <trkpt lon="-123.273860" lat="44.567558"><ele>0.000000</ele><time>2020-12-07T00:29:26Z</time><extensions><speed>-1.000000</speed><course>-1.000000</course><hAcc>0.000000</hAcc><vAcc>-1.000000</vAcc></extensions></trkpt>
      <trkpt lon="-123.273811" lat="44.567544"><ele>0.000000</ele><time>2020-12-07T00:29:26Z</time><extensions><speed>-1.000000</speed><course>-1.000000</course><hAcc>0.000000</hAcc><vAcc>-1.000000</vAcc></extensions></trkpt>
      <trkpt lon="-123.273664" lat="44.567536"><ele>0.000000</ele><time>2020-12-07T00:29:26Z</time><extensions><speed>-1.000000</speed><course>-1.000000</course><hAcc>0.000000</hAcc><vAcc>-1.000000</vAcc></extensions></trkpt>
      <trkpt lon="-123.273527" lat="44.567496"><ele>0.000000</ele><time>2020-12-07T00:29:26Z</time><extensions><speed>-1.000000</speed><course>-1.000000</course><hAcc>0.000000</hAcc><vAcc>-1.000000</vAcc></extensions></trkpt>
      <trkpt lon="-123.273310" lat="44.567453"><ele>0.000000</ele><time>2020-12-07T00:29:26Z</time><extensions><speed>-1.000000</speed><course>-1.000000</course><hAcc>0.000000</hAcc><vAcc>-1.000000</vAcc></extensions></trkpt>
      <trkpt lon="-123.273116" lat="44.567389"><ele>0.000000</ele><time>2020-12-07T00:29:26Z</time><extensions><speed>-1.000000</speed><course>-1.000000</course><hAcc>0.000000</hAcc><vAcc>-1.000000</vAcc></extensions></trkpt>
      <trkpt lon="-123.272945" lat="44.567332"><ele>0.000000</ele><time>2020-12-07T00:29:26Z</time><extensions><speed>-1.000000</speed><course>-1.000000</course><hAcc>0.000000</hAcc><vAcc>-1.000000</vAcc></extensions></trkpt>
      <trkpt lon="-123.272748" lat="44.567278"><ele>0.000000</ele><time>2020-12-07T00:29:26Z</time><extensions><speed>-1.000000</speed><course>-1.000000</course><hAcc>0.000000</hAcc><vAcc>-1.000000</vAcc></extensions></trkpt>
      <trkpt lon="-123.272628" lat="44.567245"><ele>0.000000</ele><time>2020-12-07T00:29:26Z</time><extensions><speed>-1.000000</speed><course>-1.000000</course><hAcc>0.000000</hAcc><vAcc>-1.000000</vAcc></extensions></trkpt>
      <trkpt lon="-123.272449" lat="44.567187"><ele>0.000000</ele><time>2020-12-07T00:29:26Z</time><extensions><speed>-1.000000</speed><course>-1.000000</course><hAcc>0.000000</hAcc><vAcc>-1.000000</vAcc></extensions></trkpt>
      <trkpt lon="-123.272329" lat="44.567105"><ele>0.000000</ele><time>2020-12-07T00:29:26Z</time><extensions><speed>-1.000000</speed><course>-1.000000</course><hAcc>0.000000</hAcc><vAcc>-1.000000</vAcc></extensions></trkpt>
      <trkpt lon="-123.272308" lat="44.566957"><ele>0.000000</ele><time>2020-12-07T00:29:26Z</time><extensions><speed>-1.000000</speed><course>-1.000000</course><hAcc>0.000000</hAcc><vAcc>-1.000000</vAcc></extensions></trkpt>
      <trkpt lon="-123.272354" lat="44.566809"><ele>0.000000</ele><time>2020-12-07T00:29:26Z</time><extensions><speed>-1.000000</speed><course>-1.000000</course><hAcc>0.000000</hAcc><vAcc>-1.000000</vAcc></extensions></trkpt>
      <trkpt lon="-123.272408" lat="44.566657"><ele>0.000000</ele><time>2020-12-07T00:29:26Z</time><extensions><speed>-1.000000</speed><course>-1.000000</course><hAcc>0.000000</hAcc><vAcc>-1.000000</vAcc></extensions></trkpt>
      <trkpt lon="-123.272452" lat="44.566551"><ele>0.000000</ele><time>2020-12-07T00:29:26Z</time><extensions><speed>-1.000000</speed><course>-1.000000</course><hAcc>0.000000</hAcc><vAcc>-1.000000</vAcc></extensions></trkpt>
      <trkpt lon="-123.272530" lat="44.566412"><ele>0.000000</ele><time>2020-12-07T00:29:26Z</time><extensions><speed>-1.000000</speed><course>-1.000000</course><hAcc>0.000000</hAcc><vAcc>-1.000000</vAcc></extensions></trkpt>
      <trkpt lon="-123.272529" lat="44.566285"><ele>0.000000</ele><time>2020-12-07T00:29:26Z</time><extensions><speed>-1.000000</speed><course>-1.000000</course><hAcc>0.000000</hAcc><vAcc>-1.000000</vAcc></extensions></trkpt>
      <trkpt lon="-123.272606" lat="44.566162"><ele>0.000000</ele><time>2020-12-07T00:29:26Z</time><extensions><speed>-1.000000</speed><course>-1.000000</course><hAcc>0.000000</hAcc><vAcc>-1.000000</vAcc></extensions></trkpt>
      <trkpt lon="-123.272617" lat="44.566040"><ele>0.000000</ele><time>2020-12-07T00:29:26Z</time><extensions><speed>-1.000000</speed><course>-1.000000</course><hAcc>0.000000</hAcc><vAcc>-1.000000</vAcc></extensions></trkpt>
      <trkpt lon="-123.272519" lat="44.565918"><ele>0.000000</ele><time>2020-12-07T00:29:26Z</time><extensions><speed>-1.000000</speed><course>-1.000000</course><hAcc>0.000000</hAcc><vAcc>-1.000000</vAcc></extensions></trkpt>
      <trkpt lon="-123.272455" lat="44.565852"><ele>0.000000</ele><time>2020-12-07T00:29:26Z</time><extensions><speed>-1.000000</speed><course>-1.000000</course><hAcc>0.000000</hAcc><vAcc>-1.000000</vAcc></extensions></trkpt>
      <trkpt lon="-123.272337" lat="44.565759"><ele>0.000000</ele><time>2020-12-07T00:29:26Z</time><extensions><speed>-1.000000</speed><course>-1.000000</course><hAcc>0.000000</hAcc><vAcc>-1.000000</vAcc></extensions></trkpt>
      <trkpt lon="-123.272273" lat="44.565700"><ele>0.000000</ele><time>2020-12-07T00:29:26Z</time><extensions><speed>-1.000000</speed><course>-1.000000</course><hAcc>0.000000</hAcc><vAcc>-1.000000</vAcc></extensions></trkpt>
      <trkpt lon="-123.272206" lat="44.565653"><ele>0.000000</ele><time>2020-12-07T00:29:26Z</time><extensions><speed>-1.000000</speed><course>-1.000000</course><hAcc>0.000000</hAcc><vAcc>-1.000000</vAcc></extensions></trkpt>
      <trkpt lon="-123.272082" lat="44.565566"><ele>0.000000</ele><time>2020-12-07T00:29:26Z</time><extensions><speed>-1.000000</speed><course>-1.000000</course><hAcc>0.000000</hAcc><vAcc>-1.000000</vAcc></extensions></trkpt>
      <trkpt lon="-123.271988" lat="44.565504"><ele>0.000000</ele><time>2020-12-07T00:29:26Z</time><extensions><speed>-1.000000</speed><course>-1.000000</course><hAcc>0.000000</hAcc><vAcc>-1.000000</vAcc></extensions></trkpt>
      <trkpt lon="-123.271858" lat="44.565421"><ele>0.000000</ele><time>2020-12-07T00:29:26Z</time><extensions><speed>-1.000000</speed><course>-1.000000</course><hAcc>0.000000</hAcc><vAcc>-1.000000</vAcc></extensions></trkpt>
      <trkpt lon="-123.271731" lat="44.565330"><ele>0.000000</ele><time>2020-12-07T00:29:26Z</time><extensions><speed>-1.000000</speed><course>-1.000000</course><hAcc>0.000000</hAcc><vAcc>-1.000000</vAcc></extensions></trkpt>
      <trkpt lon="-123.271605" lat="44.565252"><ele>0.000000</ele><time>2020-12-07T00:29:26Z</time><extensions><speed>-1.000000</speed><course>-1.000000</course><hAcc>0.000000</hAcc><vAcc>-1.000000</vAcc></extensions></trkpt>
      <trkpt lon="-123.271492" lat="44.565173"><ele>0.000000</ele><time>2020-12-07T00:29:26Z</time><extensions><speed>-1.000000</speed><course>-1.000000</course><hAcc>0.000000</hAcc><vAcc>-1.000000</vAcc></extensions></trkpt>
      <trkpt lon="-123.271414" lat="44.565123"><ele>0.000000</ele><time>2020-12-07T00:29:26Z</time><extensions><speed>-1.000000</speed><course>-1.000000</course><hAcc>0.000000</hAcc><vAcc>-1.000000</vAcc></extensions></trkpt>
      <trkpt lon="-123.271289" lat="44.565023"><ele>0.000000</ele><time>2020-12-07T00:29:26Z</time><extensions><speed>-1.000000</speed><course>-1.000000</course><hAcc>0.000000</hAcc><vAcc>-1.000000</vAcc></extensions></trkpt>
      <trkpt lon="-123.271177" lat="44.564936"><ele>0.000000</ele><time>2020-12-07T00:29:26Z</time><extensions><speed>-1.000000</speed><course>-1.000000</course><hAcc>0.000000</hAcc><vAcc>-1.000000</vAcc></extensions></trkpt>
      <trkpt lon="-123.271084" lat="44.564864"><ele>0.000000</ele><time>2020-12-07T00:29:26Z</time><extensions><speed>-1.000000</speed><course>-1.000000</course><hAcc>0.000000</hAcc><vAcc>-1.000000</vAcc></extensions></trkpt>
      <trkpt lon="-123.270980" lat="44.564781"><ele>0.000000</ele><time>2020-12-07T00:29:26Z</time><extensions><speed>-1.000000</speed><course>-1.000000</course><hAcc>0.000000</hAcc><vAcc>-1.000000</vAcc></extensions></trkpt>
      <trkpt lon="-123.270904" lat="44.564689"><ele>0.000000</ele><time>2020-12-07T00:29:26Z</time><extensions><speed>-1.000000</speed><course>-1.000000</course><hAcc>0.000000</hAcc><vAcc>-1.000000</vAcc></extensions></trkpt>
      <trkpt lon="-123.270759" lat="44.564592"><ele>0.000000</ele><time>2020-12-07T00:29:26Z</time><extensions><speed>-1.000000</speed><course>-1.000000</course><hAcc>0.000000</hAcc><vAcc>-1.000000</vAcc></extensions></trkpt>
      <trkpt lon="-123.270729" lat="44.564562"><ele>0.000000</ele><time>2020-12-07T00:29:26Z</time><extensions><speed>-1.000000</speed><course>-1.000000</course><hAcc>0.000000</hAcc><vAcc>-1.000000</vAcc></extensions></trkpt>
      <trkpt lon="-123.270670" lat="44.564530"><ele>0.000000</ele><time>2020-12-07T00:29:26Z</time><extensions><speed>-1.000000</speed><course>-1.000000</course><hAcc>0.000000</hAcc><vAcc>-1.000000</vAcc></extensions></trkpt>
      <trkpt lon="-123.270590" lat="44.564507"><ele>0.000000</ele><time>2020-12-07T00:29:26Z</time><extensions><speed>-1.000000</speed><course>-1.000000</course><hAcc>0.000000</hAcc><vAcc>-1.000000</vAcc></extensions></trkpt>
      <trkpt lon="-123.270520" lat="44.564506"><ele>0.000000</ele><time>2020-12-07T00:29:26Z</time><extensions><speed>-1.000000</speed><course>-1.000000</course><hAcc>0.000000</hAcc><vAcc>-1.000000</vAcc></extensions></trkpt>
      <trkpt lon="-123.270489" lat="44.564455"><ele>0.000000</ele><time>2020-12-07T00:29:26Z</time><extensions><speed>-1.000000</speed><course>-1.000000</course><hAcc>0.000000</hAcc><vAcc>-1.000000</vAcc></extensions></trkpt>
      <trkpt lon="-123.270552" lat="44.564338"><ele>0.000000</ele><time>2020-12-07T00:29:26Z</time><extensions><speed>-1.000000</speed><course>-1.000000</course><hAcc>0.000000</hAcc><vAcc>-1.000000</vAcc></extensions></trkpt>
      <trkpt lon="-123.270590" lat="44.564264"><ele>0.000000</ele><time>2020-12-07T00:29:26Z</time><extensions><speed>-1.000000</speed><course>-1.000000</course><hAcc>0.000000</hAcc><vAcc>-1.000000</vAcc></extensions></trkpt>
      <trkpt lon="-123.270631" lat="44.564146"><ele>0.000000</ele><time>2020-12-07T00:29:26Z</time><extensions><speed>-1.000000</speed><course>-1.000000</course><hAcc>0.000000</hAcc><vAcc>-1.000000</vAcc></extensions></trkpt>
      <trkpt lon="-123.270667" lat="44.564096"><ele>0.000000</ele><time>2020-12-07T00:29:26Z</time><extensions><speed>-1.000000</speed><course>-1.000000</course><hAcc>0.000000</hAcc><vAcc>-1.000000</vAcc></extensions></trkpt>
      <trkpt lon="-123.270724" lat="44.564020"><ele>0.000000</ele><time>2020-12-07T00:29:26Z</time><extensions><speed>-1.000000</speed><course>-1.000000</course><hAcc>0.000000</hAcc><vAcc>-1.000000</vAcc></extensions></trkpt>
      <trkpt lon="-123.270759" lat="44.563924"><ele>0.000000</ele><time>2020-12-07T00:29:26Z</time><extensions><speed>-1.000000</speed><course>-1.000000</course><hAcc>0.000000</hAcc><vAcc>-1.000000</vAcc></extensions></trkpt>
      <trkpt lon="-123.270766" lat="44.563896"><ele>0.000000</ele><time>2020-12-07T00:29:26Z</time><extensions><speed>-1.000000</speed><course>-1.000000</course><hAcc>0.000000</hAcc><vAcc>-1.000000</vAcc></extensions></trkpt>
      <trkpt lon="-123.270829" lat="44.563784"><ele>0.000000</ele><time>2020-12-07T00:29:26Z</time><extensions><speed>-1.000000</speed><course>-1.000000</course><hAcc>0.000000</hAcc><vAcc>-1.000000</vAcc></extensions></trkpt>
      <trkpt lon="-123.270855" lat="44.563724"><ele>0.000000</ele><time>2020-12-07T00:29:26Z</time><extensions><speed>-1.000000</speed><course>-1.000000</course><hAcc>0.000000</hAcc><vAcc>-1.000000</vAcc></extensions></trkpt>
      <trkpt lon="-123.270922" lat="44.563609"><ele>0.000000</ele><time>2020-12-07T00:29:26Z</time><extensions><speed>-1.000000</speed><course>-1.000000</course><hAcc>0.000000</hAcc><vAcc>-1.000000</vAcc></extensions></trkpt>
      <trkpt lon="-123.270942" lat="44.563576"><ele>0.000000</ele><time>2020-12-07T00:29:26Z</time><extensions><speed>-1.000000</speed><course>-1.000000</course><hAcc>0.000000</hAcc><vAcc>-1.000000</vAcc></extensions></trkpt>
      <trkpt lon="-123.270978" lat="44.563492"><ele>0.000000</ele><time>2020-12-07T00:29:26Z</time><extensions><speed>-1.000000</speed><course>-1.000000</course><hAcc>0.000000</hAcc><vAcc>-1.000000</vAcc></extensions></trkpt>
      <trkpt lon="-123.271005" lat="44.563397"><ele>0.000000</ele><time>2020-12-07T00:29:26Z</time><extensions><speed>-1.000000</speed><course>-1.000000</course><hAcc>0.000000</hAcc><vAcc>-1.000000</vAcc></extensions></trkpt>
      <trkpt lon="-123.271086" lat="44.563318"><ele>0.000000</ele><time>2020-12-07T00:29:26Z</time><extensions><speed>-1.000000</speed><course>-1.000000</course><hAcc>0.000000</hAcc><vAcc>-1.000000</vAcc></extensions></trkpt>
      <trkpt lon="-123.271153" lat="44.563183"><ele>0.000000</ele><time>2020-12-07T00:29:26Z</time><extensions><speed>-1.000000</speed><course>-1.000000</course><hAcc>0.000000</hAcc><vAcc>-1.000000</vAcc></extensions></trkpt>
      <trkpt lon="-123.271193" lat="44.563064"><ele>0.000000</ele><time>2020-12-07T00:29:26Z</time><extensions><speed>-1.000000</speed><course>-1.000000</course><hAcc>0.000000</hAcc><vAcc>-1.000000</vAcc></extensions></trkpt>
      <trkpt lon="-123.271247" lat="44.562985"><ele>0.000000</ele><time>2020-12-07T00:29:26Z</time><extensions><speed>-1.000000</speed><course>-1.000000</course><hAcc>0.000000</hAcc><vAcc>-1.000000</vAcc></extensions></trkpt>
      <trkpt lon="-123.271289" lat="44.562891"><ele>0.000000</ele><time>2020-12-07T00:29:26Z</time><extensions><speed>-1.000000</speed><course>-1.000000</course><hAcc>0.000000</hAcc><vAcc>-1.000000</vAcc></extensions></trkpt>
      <trkpt lon="-123.271372" lat="44.562762"><ele>0.000000</ele><time>2020-12-07T00:29:26Z</time><extensions><speed>-1.000000</speed><course>-1.000000</course><hAcc>0.000000</hAcc><vAcc>-1.000000</vAcc></extensions></trkpt>
      <trkpt lon="-123.271419" lat="44.562659"><ele>0.000000</ele><time>2020-12-07T00:29:26Z</time><extensions><speed>-1.000000</speed><course>-1.000000</course><hAcc>0.000000</hAcc><vAcc>-1.000000</vAcc></extensions></trkpt>
      <trkpt lon="-123.271493" lat="44.562547"><ele>0.000000</ele><time>2020-12-07T00:29:26Z</time><extensions><speed>-1.000000</speed><course>-1.000000</course><hAcc>0.000000</hAcc><vAcc>-1.000000</vAcc></extensions></trkpt>
      <trkpt lon="-123.271492" lat="44.562429"><ele>0.000000</ele><time>2020-12-07T00:29:26Z</time><extensions><speed>-1.000000</speed><course>-1.000000</course><hAcc>0.000000</hAcc><vAcc>-1.000000</vAcc></extensions></trkpt>
      <trkpt lon="-123.271485" lat="44.562303"><ele>0.000000</ele><time>2020-12-07T00:29:26Z</time><extensions><speed>-1.000000</speed><course>-1.000000</course><hAcc>0.000000</hAcc><vAcc>-1.000000</vAcc></extensions></trkpt>
      <trkpt lon="-123.271485" lat="44.562206"><ele>0.000000</ele><time>2020-12-07T00:29:26Z</time><extensions><speed>-1.000000</speed><course>-1.000000</course><hAcc>0.000000</hAcc><vAcc>-1.000000</vAcc></extensions></trkpt>
      <trkpt lon="-123.271488" lat="44.562070"><ele>0.000000</ele><time>2020-12-07T00:29:26Z</time><extensions><speed>-1.000000</speed><course>-1.000000</course><hAcc>0.000000</hAcc><vAcc>-1.000000</vAcc></extensions></trkpt>
      <trkpt lon="-123.271483" lat="44.561954"><ele>0.000000</ele><time>2020-12-07T00:29:26Z</time><extensions><speed>-1.000000</speed><course>-1.000000</course><hAcc>0.000000</hAcc><vAcc>-1.000000</vAcc></extensions></trkpt>
      <trkpt lon="-123.271417" lat="44.561819"><ele>0.000000</ele><time>2020-12-07T00:29:26Z</time><extensions><speed>-1.000000</speed><course>-1.000000</course><hAcc>0.000000</hAcc><vAcc>-1.000000</vAcc></extensions></trkpt>
      <trkpt lon="-123.271396" lat="44.561722"><ele>0.000000</ele><time>2020-12-07T00:29:26Z</time><extensions><speed>-1.000000</speed><course>-1.000000</course><hAcc>0.000000</hAcc><vAcc>-1.000000</vAcc></extensions></trkpt>
      <trkpt lon="-123.271396" lat="44.561594"><ele>0.000000</ele><time>2020-12-07T00:29:26Z</time><extensions><speed>-1.000000</speed><course>-1.000000</course><hAcc>0.000000</hAcc><vAcc>-1.000000</vAcc></extensions></trkpt>
      <trkpt lon="-123.271384" lat="44.561554"><ele>0.000000</ele><time>2020-12-07T00:29:26Z</time><extensions><speed>-1.000000</speed><course>-1.000000</course><hAcc>0.000000</hAcc><vAcc>-1.000000</vAcc></extensions></trkpt>
      <trkpt lon="-123.271366" lat="44.561423"><ele>0.000000</ele><time>2020-12-07T00:29:26Z</time><extensions><speed>-1.000000</speed><course>-1.000000</course><hAcc>0.000000</hAcc><vAcc>-1.000000</vAcc></extensions></trkpt>
      <trkpt lon="-123.271357" lat="44.561333"><ele>0.000000</ele><time>2020-12-07T00:29:26Z</time><extensions><speed>-1.000000</speed><course>-1.000000</course><hAcc>0.000000</hAcc><vAcc>-1.000000</vAcc></extensions></trkpt>
      <trkpt lon="-123.271326" lat="44.561217"><ele>0.000000</ele><time>2020-12-07T00:29:26Z</time><extensions><speed>-1.000000</speed><course>-1.000000</course><hAcc>0.000000</hAcc><vAcc>-1.000000</vAcc></extensions></trkpt>
      <trkpt lon="-123.271308" lat="44.561094"><ele>0.000000</ele><time>2020-12-07T00:29:26Z</time><extensions><speed>-1.000000</speed><course>-1.000000</course><hAcc>0.000000</hAcc><vAcc>-1.000000</vAcc></extensions></trkpt>
      <trkpt lon="-123.271295" lat="44.560969"><ele>0.000000</ele><time>2020-12-07T00:29:26Z</time><extensions><speed>-1.000000</speed><course>-1.000000</course><hAcc>0.000000</hAcc><vAcc>-1.000000</vAcc></extensions></trkpt>
      <trkpt lon="-123.271255" lat="44.560847"><ele>0.000000</ele><time>2020-12-07T00:29:26Z</time><extensions><speed>-1.000000</speed><course>-1.000000</course><hAcc>0.000000</hAcc><vAcc>-1.000000</vAcc></extensions></trkpt>
      <trkpt lon="-123.271232" lat="44.560729"><ele>0.000000</ele><time>2020-12-07T00:29:26Z</time><extensions><speed>-1.000000</speed><course>-1.000000</course><hAcc>0.000000</hAcc><vAcc>-1.000000</vAcc></extensions></trkpt>
      <trkpt lon="-123.271199" lat="44.560612"><ele>0.000000</ele><time>2020-12-07T00:29:26Z</time><extensions><speed>-1.000000</speed><course>-1.000000</course><hAcc>0.000000</hAcc><vAcc>-1.000000</vAcc></extensions></trkpt>
      <trkpt lon="-123.271190" lat="44.560463"><ele>0.000000</ele><time>2020-12-07T00:29:26Z</time><extensions><speed>-1.000000</speed><course>-1.000000</course><hAcc>0.000000</hAcc><vAcc>-1.000000</vAcc></extensions></trkpt>
      <trkpt lon="-123.271177" lat="44.560375"><ele>0.000000</ele><time>2020-12-07T00:29:26Z</time><extensions><speed>-1.000000</speed><course>-1.000000</course><hAcc>0.000000</hAcc><vAcc>-1.000000</vAcc></extensions></trkpt>
      <trkpt lon="-123.271137" lat="44.560236"><ele>0.000000</ele><time>2020-12-07T00:29:26Z</time><extensions><speed>-1.000000</speed><course>-1.000000</course><hAcc>0.000000</hAcc><vAcc>-1.000000</vAcc></extensions></trkpt>
      <trkpt lon="-123.271079" lat="44.560106"><ele>0.000000</ele><time>2020-12-07T00:29:26Z</time><extensions><speed>-1.000000</speed><course>-1.000000</course><hAcc>0.000000</hAcc><vAcc>-1.000000</vAcc></extensions></trkpt>
      <trkpt lon="-123.271005" lat="44.560004"><ele>0.000000</ele><time>2020-12-07T00:29:26Z</time><extensions><speed>-1.000000</speed><course>-1.000000</course><hAcc>0.000000</hAcc><vAcc>-1.000000</vAcc></extensions></trkpt>
      <trkpt lon="-123.270979" lat="44.559875"><ele>0.000000</ele><time>2020-12-07T00:29:26Z</time><extensions><speed>-1.000000</speed><course>-1.000000</course><hAcc>0.000000</hAcc><vAcc>-1.000000</vAcc></extensions></trkpt>
      <trkpt lon="-123.270941" lat="44.559754"><ele>0.000000</ele><time>2020-12-07T00:29:26Z</time><extensions><speed>-1.000000</speed><course>-1.000000</course><hAcc>0.000000</hAcc><vAcc>-1.000000</vAcc></extensions></trkpt>
      <trkpt lon="-123.270913" lat="44.559648"><ele>0.000000</ele><time>2020-12-07T00:29:26Z</time><extensions><speed>-1.000000</speed><course>-1.000000</course><hAcc>0.000000</hAcc><vAcc>-1.000000</vAcc></extensions></trkpt>
      <trkpt lon="-123.270864" lat="44.559515"><ele>0.000000</ele><time>2020-12-07T00:29:26Z</time><extensions><speed>-1.000000</speed><course>-1.000000</course><hAcc>0.000000</hAcc><vAcc>-1.000000</vAcc></extensions></trkpt>
      <trkpt lon="-123.270863" lat="44.559469"><ele>0.000000</ele><time>2020-12-07T00:29:26Z</time><extensions><speed>-1.000000</speed><course>-1.000000</course><hAcc>0.000000</hAcc><vAcc>-1.000000</vAcc></extensions></trkpt>
      <trkpt lon="-123.270860" lat="44.559429"><ele>0.000000</ele><time>2020-12-07T00:29:26Z</time><extensions><speed>-1.000000</speed><course>-1.000000</course><hAcc>0.000000</hAcc><vAcc>-1.000000</vAcc></extensions></trkpt>
      <trkpt lon="-123.270842" lat="44.559294"><ele>0.000000</ele><time>2020-12-07T00:29:26Z</time><extensions><speed>-1.000000</speed><course>-1.000000</course><hAcc>0.000000</hAcc><vAcc>-1.000000</vAcc></extensions></trkpt>
      <trkpt lon="-123.270769" lat="44.559151"><ele>0.000000</ele><time>2020-12-07T00:29:26Z</time><extensions><speed>-1.000000</speed><course>-1.000000</course><hAcc>0.000000</hAcc><vAcc>-1.000000</vAcc></extensions></trkpt>
      <trkpt lon="-123.270734" lat="44.559047"><ele>0.000000</ele><time>2020-12-07T00:29:26Z</time><extensions><speed>-1.000000</speed><course>-1.000000</course><hAcc>0.000000</hAcc><vAcc>-1.000000</vAcc></extensions></trkpt>
      <trkpt lon="-123.270707" lat="44.558936"><ele>0.000000</ele><time>2020-12-07T00:29:26Z</time><extensions><speed>-1.000000</speed><course>-1.000000</course><hAcc>0.000000</hAcc><vAcc>-1.000000</vAcc></extensions></trkpt>
      <trkpt lon="-123.270670" lat="44.558794"><ele>0.000000</ele><time>2020-12-07T00:29:26Z</time><extensions><speed>-1.000000</speed><course>-1.000000</course><hAcc>0.000000</hAcc><vAcc>-1.000000</vAcc></extensions></trkpt>
      <trkpt lon="-123.270642" lat="44.558649"><ele>0.000000</ele><time>2020-12-07T00:29:26Z</time><extensions><speed>-1.000000</speed><course>-1.000000</course><hAcc>0.000000</hAcc><vAcc>-1.000000</vAcc></extensions></trkpt>
      <trkpt lon="-123.270613" lat="44.558560"><ele>0.000000</ele><time>2020-12-07T00:29:26Z</time><extensions><speed>-1.000000</speed><course>-1.000000</course><hAcc>0.000000</hAcc><vAcc>-1.000000</vAcc></extensions></trkpt>
      <trkpt lon="-123.270578" lat="44.558412"><ele>0.000000</ele><time>2020-12-07T00:29:26Z</time><extensions><speed>-1.000000</speed><course>-1.000000</course><hAcc>0.000000</hAcc><vAcc>-1.000000</vAcc></extensions></trkpt>
      <trkpt lon="-123.270546" lat="44.558273"><ele>0.000000</ele><time>2020-12-07T00:29:26Z</time><extensions><speed>-1.000000</speed><course>-1.000000</course><hAcc>0.000000</hAcc><vAcc>-1.000000</vAcc></extensions></trkpt>
      <trkpt lon="-123.270394" lat="44.558233"><ele>0.000000</ele><time>2020-12-07T00:29:26Z</time><extensions><speed>-1.000000</speed><course>-1.000000</course><hAcc>0.000000</hAcc><vAcc>-1.000000</vAcc></extensions></trkpt>
      <trkpt lon="-123.270187" lat="44.558252"><ele>0.000000</ele><time>2020-12-07T00:29:26Z</time><extensions><speed>-1.000000</speed><course>-1.000000</course><hAcc>0.000000</hAcc><vAcc>-1.000000</vAcc></extensions></trkpt>
      <trkpt lon="-123.269991" lat="44.558263"><ele>0.000000</ele><time>2020-12-07T00:29:26Z</time><extensions><speed>-1.000000</speed><course>-1.000000</course><hAcc>0.000000</hAcc><vAcc>-1.000000</vAcc></extensions></trkpt>
      <trkpt lon="-123.269834" lat="44.558272"><ele>0.000000</ele><time>2020-12-07T00:29:26Z</time><extensions><speed>-1.000000</speed><course>-1.000000</course><hAcc>0.000000</hAcc><vAcc>-1.000000</vAcc></extensions></trkpt>
      <trkpt lon="-123.269616" lat="44.558255"><ele>0.000000</ele><time>2020-12-07T00:29:26Z</time><extensions><speed>-1.000000</speed><course>-1.000000</course><hAcc>0.000000</hAcc><vAcc>-1.000000</vAcc></extensions></trkpt>
      <trkpt lon="-123.269431" lat="44.558237"><ele>0.000000</ele><time>2020-12-07T00:29:26Z</time><extensions><speed>-1.000000</speed><course>-1.000000</course><hAcc>0.000000</hAcc><vAcc>-1.000000</vAcc></extensions></trkpt>
      <trkpt lon="-123.269233" lat="44.558194"><ele>0.000000</ele><time>2020-12-07T00:29:26Z</time><extensions><speed>-1.000000</speed><course>-1.000000</course><hAcc>0.000000</hAcc><vAcc>-1.000000</vAcc></extensions></trkpt>
      <trkpt lon="-123.269097" lat="44.558160"><ele>0.000000</ele><time>2020-12-07T00:29:26Z</time><extensions><speed>-1.000000</speed><course>-1.000000</course><hAcc>0.000000</hAcc><vAcc>-1.000000</vAcc></extensions></trkpt>
      <trkpt lon="-123.268907" lat="44.558120"><ele>0.000000</ele><time>2020-12-07T00:29:26Z</time><extensions><speed>-1.000000</speed><course>-1.000000</course><hAcc>0.000000</hAcc><vAcc>-1.000000</vAcc></extensions></trkpt>
      <trkpt lon="-123.268829" lat="44.558107"><ele>0.000000</ele><time>2020-12-07T00:29:26Z</time><extensions><speed>-1.000000</speed><course>-1.000000</course><hAcc>0.000000</hAcc><vAcc>-1.000000</vAcc></extensions></trkpt>
      <trkpt lon="-123.268800" lat="44.558103"><ele>0.000000</ele><time>2020-12-07T00:29:26Z</time><extensions><speed>-1.000000</speed><course>-1.000000</course><hAcc>0.000000</hAcc><vAcc>-1.000000</vAcc></extensions></trkpt>
    </trkseg>
  </trk>
</gpx>