<?xml version="1.0" encoding="UTF-8"?>
<gpx version="1.1" creator="Apple Health Export" xmlns="http://www.topografix.com/GPX/1/1" xmlns:xsi="http://www.w3.org/2001/XMLSchema-instance" xsi:schemaLocation="http://www.topografix.com/GPX/1/1 http://www.topografix.com/GPX/1/1/gpx.xsd">
  <metadata>
    <time>2021-02-21T19:24:48Z</time>
  </metadata>
  <trk>
    <name>Route 2020-10-27 12:12pm</name>
    <trkseg>
      <trkpt lon="-123.273904" lat="44.559996"><ele>69.706306</ele><time>2020-10-27T19:01:50Z</time><extensions><speed>5.990000</speed><course>353.671875</course><hAcc>5.000000</hAcc><vAcc>6.000000</vAcc></extensions></trkpt>
      <trkpt lon="-123.273893" lat="44.560084"><ele>71.396492</ele><time>2020-10-27T19:01:51Z</time><extensions><speed>6.350000</speed><course>352.617188</course><hAcc>5.000000</hAcc><vAcc>4.000000</vAcc></extensions></trkpt>
      <trkpt lon="-123.273888" lat="44.560158"><ele>71.297066</ele><time>2020-10-27T19:01:52Z</time><extensions><speed>6.350000</speed><course>349.453125</course><hAcc>5.000000</hAcc><vAcc>4.000000</vAcc></extensions></trkpt>
      <trkpt lon="-123.273996" lat="44.560294"><ele>70.272285</ele><time>2020-10-27T19:01:53Z</time><extensions><speed>6.350000</speed><course>346.640625</course><hAcc>5.000000</hAcc><vAcc>4.000000</vAcc></extensions></trkpt>
      <trkpt lon="-123.274003" lat="44.560340"><ele>70.366402</ele><time>2020-10-27T19:01:54Z</time><extensions><speed>6.540000</speed><course>351.210938</course><hAcc>5.000000</hAcc><vAcc>4.000000</vAcc></extensions></trkpt>
      <trkpt lon="-123.274049" lat="44.560404"><ele>69.815193</ele><time>2020-10-27T19:01:55Z</time><extensions><speed>7.800000</speed><course>351.210938</course><hAcc>5.000000</hAcc><vAcc>4.000000</vAcc></extensions></trkpt>
      <trkpt lon="-123.274047" lat="44.560463"><ele>69.751411</ele><time>2020-10-27T19:01:56Z</time><extensions><speed>7.800000</speed><course>356.484375</course><hAcc>5.000000</hAcc><vAcc>4.000000</vAcc></extensions></trkpt>
      <trkpt lon="-123.274055" lat="44.560529"><ele>69.910286</ele><time>2020-10-27T19:01:57Z</time><extensions><speed>7.060000</speed><course>352.968750</course><hAcc>5.000000</hAcc><vAcc>4.000000</vAcc></extensions></trkpt>
      <trkpt lon="-123.274053" lat="44.560586"><ele>69.910591</ele><time>2020-10-27T19:01:58Z</time><extensions><speed>6.950000</speed><course>356.132812</course><hAcc>5.000000</hAcc><vAcc>4.000000</vAcc></extensions></trkpt>
      <trkpt lon="-123.274079" lat="44.560640"><ele>69.882454</ele><time>2020-10-27T19:01:59Z</time><extensions><speed>7.160000</speed><course>350.859375</course><hAcc>5.000000</hAcc><vAcc>4.000000</vAcc></extensions></trkpt>
      <trkpt lon="-123.274085" lat="44.560704"><ele>70.567451</ele><time>2020-10-27T19:02:00Z</time><extensions><speed>7.270000</speed><course>351.210938</course><hAcc>5.000000</hAcc><vAcc>4.000000</vAcc></extensions></trkpt>
      <trkpt lon="-123.274094" lat="44.560760"><ele>70.893929</ele><time>2020-10-27T19:02:01Z</time><extensions><speed>6.600000</speed><course>356.484375</course><hAcc>5.000000</hAcc><vAcc>4.000000</vAcc></extensions></trkpt>
      <trkpt lon="-123.274113" lat="44.560824"><ele>70.943245</ele><time>2020-10-27T19:02:02Z</time><extensions><speed>6.800000</speed><course>347.695312</course><hAcc>5.000000</hAcc><vAcc>4.000000</vAcc></extensions></trkpt>
      <trkpt lon="-123.274124" lat="44.560884"><ele>71.294075</ele><time>2020-10-27T19:02:03Z</time><extensions><speed>6.720000</speed><course>351.562500</course><hAcc>5.000000</hAcc><vAcc>3.000000</vAcc></extensions></trkpt>
      <trkpt lon="-123.274131" lat="44.560950"><ele>71.318306</ele><time>2020-10-27T19:02:04Z</time><extensions><speed>6.560000</speed><course>353.320312</course><hAcc>5.000000</hAcc><vAcc>3.000000</vAcc></extensions></trkpt>
      <trkpt lon="-123.274153" lat="44.561006"><ele>71.381660</ele><time>2020-10-27T19:02:05Z</time><extensions><speed>6.670000</speed><course>354.375000</course><hAcc>5.000000</hAcc><vAcc>3.000000</vAcc></extensions></trkpt>
      <trkpt lon="-123.274177" lat="44.561070"><ele>71.550056</ele><time>2020-10-27T19:02:06Z</time><extensions><speed>6.840000</speed><course>351.562500</course><hAcc>5.000000</hAcc><vAcc>3.000000</vAcc></extensions></trkpt>
      <trkpt lon="-123.274211" lat="44.561131"><ele>71.747078</ele><time>2020-10-27T19:02:07Z</time><extensions><speed>6.610000</speed><course>346.992188</course><hAcc>5.000000</hAcc><vAcc>3.000000</vAcc></extensions></trkpt>
      <trkpt lon="-123.274207" lat="44.561174"><ele>72.536629</ele><time>2020-10-27T19:02:08Z</time><extensions><speed>5.570000</speed><course>351.914062</course><hAcc>5.000000</hAcc><vAcc>3.000000</vAcc></extensions></trkpt>
      <trkpt lon="-123.274222" lat="44.561231"><ele>73.097969</ele><time>2020-10-27T19:02:09Z</time><extensions><speed>5.670000</speed><course>352.265625</course><hAcc>5.000000</hAcc><vAcc>3.000000</vAcc></extensions></trkpt>
      <trkpt lon="-123.274245" lat="44.561296"><ele>73.464851</ele><time>2020-10-27T19:02:10Z</time><extensions><speed>6.210000</speed><course>348.046875</course><hAcc>5.000000</hAcc><vAcc>3.000000</vAcc></extensions></trkpt>
      <trkpt lon="-123.274245" lat="44.561344"><ele>74.101143</ele><time>2020-10-27T19:02:11Z</time><extensions><speed>6.210000</speed><course>357.187500</course><hAcc>5.000000</hAcc><vAcc>3.000000</vAcc></extensions></trkpt>
      <trkpt lon="-123.274238" lat="44.561395"><ele>74.323738</ele><time>2020-10-27T19:02:12Z</time><extensions><speed>5.790000</speed><course>358.945312</course><hAcc>5.000000</hAcc><vAcc>3.000000</vAcc></extensions></trkpt>
      <trkpt lon="-123.274237" lat="44.561448"><ele>74.191353</ele><time>2020-10-27T19:02:13Z</time><extensions><speed>5.740000</speed><course>1.054688</course><hAcc>5.000000</hAcc><vAcc>3.000000</vAcc></extensions></trkpt>
      <trkpt lon="-123.274235" lat="44.561502"><ele>74.271187</ele><time>2020-10-27T19:02:14Z</time><extensions><speed>5.810000</speed><course>1.054688</course><hAcc>5.000000</hAcc><vAcc>3.000000</vAcc></extensions></trkpt>
      <trkpt lon="-123.274242" lat="44.561559"><ele>74.630318</ele><time>2020-10-27T19:02:15Z</time><extensions><speed>5.810000</speed><course>2.460938</course><hAcc>5.000000</hAcc><vAcc>3.000000</vAcc></extensions></trkpt>
      <trkpt lon="-123.274254" lat="44.561619"><ele>74.291695</ele><time>2020-10-27T19:02:16Z</time><extensions><speed>5.800000</speed><course>2.812500</course><hAcc>5.000000</hAcc><vAcc>3.000000</vAcc></extensions></trkpt>
      <trkpt lon="-123.274256" lat="44.561666"><ele>74.480843</ele><time>2020-10-27T19:02:17Z</time><extensions><speed>5.720000</speed><course>1.054688</course><hAcc>5.000000</hAcc><vAcc>3.000000</vAcc></extensions></trkpt>
      <trkpt lon="-123.274258" lat="44.561710"><ele>75.471626</ele><time>2020-10-27T19:02:18Z</time><extensions><speed>5.590000</speed><course>5.976562</course><hAcc>5.000000</hAcc><vAcc>3.000000</vAcc></extensions></trkpt>
      <trkpt lon="-123.274263" lat="44.561739"><ele>76.395699</ele><time>2020-10-27T19:02:19Z</time><extensions><speed>4.560000</speed><course>358.242188</course><hAcc>5.000000</hAcc><vAcc>3.000000</vAcc></extensions></trkpt>
      <trkpt lon="-123.274280" lat="44.561784"><ele>76.233345</ele><time>2020-10-27T19:02:20Z</time><extensions><speed>5.050000</speed><course>346.289062</course><hAcc>5.000000</hAcc><vAcc>3.000000</vAcc></extensions></trkpt>
      <trkpt lon="-123.274334" lat="44.561828"><ele>76.349373</ele><time>2020-10-27T19:02:21Z</time><extensions><speed>5.050000</speed><course>326.250000</course><hAcc>5.000000</hAcc><vAcc>3.000000</vAcc></extensions></trkpt>
      <trkpt lon="-123.274383" lat="44.561860"><ele>76.732368</ele><time>2020-10-27T19:02:22Z</time><extensions><speed>5.540000</speed><course>312.539062</course><hAcc>5.000000</hAcc><vAcc>3.000000</vAcc></extensions></trkpt>
      <trkpt lon="-123.274447" lat="44.561893"><ele>76.882027</ele><time>2020-10-27T19:02:23Z</time><extensions><speed>5.970000</speed><course>306.562500</course><hAcc>5.000000</hAcc><vAcc>3.000000</vAcc></extensions></trkpt>
      <trkpt lon="-123.274527" lat="44.561906"><ele>77.004707</ele><time>2020-10-27T19:02:24Z</time><extensions><speed>6.100000</speed><course>288.984375</course><hAcc>5.000000</hAcc><vAcc>3.000000</vAcc></extensions></trkpt>
      <trkpt lon="-123.274612" lat="44.561914"><ele>77.473518</ele><time>2020-10-27T19:02:25Z</time><extensions><speed>6.150000</speed><course>277.382812</course><hAcc>5.000000</hAcc><vAcc>3.000000</vAcc></extensions></trkpt>
      <trkpt lon="-123.274702" lat="44.561921"><ele>77.345039</ele><time>2020-10-27T19:02:26Z</time><extensions><speed>6.150000</speed><course>273.867188</course><hAcc>5.000000</hAcc><vAcc>3.000000</vAcc></extensions></trkpt>
      <trkpt lon="-123.274777" lat="44.561914"><ele>77.219368</ele><time>2020-10-27T19:02:27Z</time><extensions><speed>6.150000</speed><course>266.484375</course><hAcc>5.000000</hAcc><vAcc>3.000000</vAcc></extensions></trkpt>
      <trkpt lon="-123.274874" lat="44.561919"><ele>77.171028</ele><time>2020-10-27T19:02:28Z</time><extensions><speed>6.510000</speed><course>269.296875</course><hAcc>5.000000</hAcc><vAcc>3.000000</vAcc></extensions></trkpt>
      <trkpt lon="-123.275003" lat="44.561933"><ele>77.190681</ele><time>2020-10-27T19:02:29Z</time><extensions><speed>6.510000</speed><course>271.406250</course><hAcc>5.000000</hAcc><vAcc>3.000000</vAcc></extensions></trkpt>
      <trkpt lon="-123.275091" lat="44.561941"><ele>77.439705</ele><time>2020-10-27T19:02:30Z</time><extensions><speed>6.150000</speed><course>272.109375</course><hAcc>5.000000</hAcc><vAcc>3.000000</vAcc></extensions></trkpt>
      <trkpt lon="-123.275168" lat="44.561936"><ele>77.458504</ele><time>2020-10-27T19:02:31Z</time><extensions><speed>6.150000</speed><course>267.539062</course><hAcc>5.000000</hAcc><vAcc>3.000000</vAcc></extensions></trkpt>
      <trkpt lon="-123.275241" lat="44.561936"><ele>78.069710</ele><time>2020-10-27T19:02:32Z</time><extensions><speed>5.780000</speed><course>267.539062</course><hAcc>5.000000</hAcc><vAcc>3.000000</vAcc></extensions></trkpt>
      <trkpt lon="-123.275335" lat="44.561928"><ele>76.568062</ele><time>2020-10-27T19:02:33Z</time><extensions><speed>5.980000</speed><course>263.671875</course><hAcc>5.000000</hAcc><vAcc>3.000000</vAcc></extensions></trkpt>
      <trkpt lon="-123.275407" lat="44.561933"><ele>77.165169</ele><time>2020-10-27T19:02:34Z</time><extensions><speed>5.780000</speed><course>266.484375</course><hAcc>5.000000</hAcc><vAcc>3.000000</vAcc></extensions></trkpt>
      <trkpt lon="-123.275488" lat="44.561934"><ele>77.113350</ele><time>2020-10-27T19:02:35Z</time><extensions><speed>5.980000</speed><course>271.406250</course><hAcc>5.000000</hAcc><vAcc>3.000000</vAcc></extensions></trkpt>
      <trkpt lon="-123.275568" lat="44.561925"><ele>76.733345</ele><time>2020-10-27T19:02:36Z</time><extensions><speed>6.300000</speed><course>269.296875</course><hAcc>5.000000</hAcc><vAcc>3.000000</vAcc></extensions></trkpt>
      <trkpt lon="-123.275639" lat="44.561940"><ele>77.386177</ele><time>2020-10-27T19:02:37Z</time><extensions><speed>6.310000</speed><course>267.539062</course><hAcc>5.000000</hAcc><vAcc>3.000000</vAcc></extensions></trkpt>
      <trkpt lon="-123.275721" lat="44.561923"><ele>77.036446</ele><time>2020-10-27T19:02:38Z</time><extensions><speed>6.490000</speed><course>260.507812</course><hAcc>5.000000</hAcc><vAcc>3.000000</vAcc></extensions></trkpt>
      <trkpt lon="-123.275798" lat="44.561929"><ele>76.084969</ele><time>2020-10-27T19:02:39Z</time><extensions><speed>6.310000</speed><course>264.726562</course><hAcc>5.000000</hAcc><vAcc>3.000000</vAcc></extensions></trkpt>
      <trkpt lon="-123.275871" lat="44.561933"><ele>76.013496</ele><time>2020-10-27T19:02:40Z</time><extensions><speed>5.730000</speed><course>263.671875</course><hAcc>5.000000</hAcc><vAcc>3.000000</vAcc></extensions></trkpt>
      <trkpt lon="-123.275935" lat="44.561918"><ele>75.933784</ele><time>2020-10-27T19:02:41Z</time><extensions><speed>5.290000</speed><course>253.476562</course><hAcc>5.000000</hAcc><vAcc>3.000000</vAcc></extensions></trkpt>
      <trkpt lon="-123.276015" lat="44.561915"><ele>75.800362</ele><time>2020-10-27T19:02:42Z</time><extensions><speed>5.590000</speed><course>251.718750</course><hAcc>5.000000</hAcc><vAcc>3.000000</vAcc></extensions></trkpt>
      <trkpt lon="-123.276079" lat="44.561917"><ele>76.282295</ele><time>2020-10-27T19:02:43Z</time><extensions><speed>5.590000</speed><course>256.640625</course><hAcc>5.000000</hAcc><vAcc>3.000000</vAcc></extensions></trkpt>
      <trkpt lon="-123.276159" lat="44.561898"><ele>76.248238</ele><time>2020-10-27T19:02:44Z</time><extensions><speed>5.910000</speed><course>252.421875</course><hAcc>5.000000</hAcc><vAcc>3.000000</vAcc></extensions></trkpt>
      <trkpt lon="-123.276249" lat="44.561892"><ele>76.533577</ele><time>2020-10-27T19:02:45Z</time><extensions><speed>6.260000</speed><course>260.507812</course><hAcc>5.000000</hAcc><vAcc>3.000000</vAcc></extensions></trkpt>
      <trkpt lon="-123.276338" lat="44.561898"><ele>76.324898</ele><time>2020-10-27T19:02:46Z</time><extensions><speed>7.120000</speed><course>273.867188</course><hAcc>5.000000</hAcc><vAcc>3.000000</vAcc></extensions></trkpt>
      <trkpt lon="-123.276449" lat="44.561897"><ele>75.731209</ele><time>2020-10-27T19:02:47Z</time><extensions><speed>7.410000</speed><course>271.406250</course><hAcc>5.000000</hAcc><vAcc>3.000000</vAcc></extensions></trkpt>
      <trkpt lon="-123.276539" lat="44.561882"><ele>75.304085</ele><time>2020-10-27T19:02:48Z</time><extensions><speed>7.120000</speed><course>268.242188</course><hAcc>5.000000</hAcc><vAcc>3.000000</vAcc></extensions></trkpt>
      <trkpt lon="-123.276622" lat="44.561882"><ele>74.835396</ele><time>2020-10-27T19:02:49Z</time><extensions><speed>6.810000</speed><course>268.593750</course><hAcc>5.000000</hAcc><vAcc>3.000000</vAcc></extensions></trkpt>
      <trkpt lon="-123.276719" lat="44.561865"><ele>74.847298</ele><time>2020-10-27T19:02:50Z</time><extensions><speed>7.460000</speed><course>270.351562</course><hAcc>5.000000</hAcc><vAcc>3.000000</vAcc></extensions></trkpt>
      <trkpt lon="-123.276821" lat="44.561865"><ele>75.307320</ele><time>2020-10-27T19:02:51Z</time><extensions><speed>7.600000</speed><course>270.703125</course><hAcc>5.000000</hAcc><vAcc>3.000000</vAcc></extensions></trkpt>
      <trkpt lon="-123.276912" lat="44.561865"><ele>75.436653</ele><time>2020-10-27T19:02:52Z</time><extensions><speed>7.520000</speed><course>271.054688</course><hAcc>5.000000</hAcc><vAcc>3.000000</vAcc></extensions></trkpt>
      <trkpt lon="-123.277002" lat="44.561847"><ele>75.065010</ele><time>2020-10-27T19:02:53Z</time><extensions><speed>7.100000</speed><course>263.320312</course><hAcc>5.000000</hAcc><vAcc>3.000000</vAcc></extensions></trkpt>
      <trkpt lon="-123.277094" lat="44.561817"><ele>75.051582</ele><time>2020-10-27T19:02:54Z</time><extensions><speed>7.050000</speed><course>253.476562</course><hAcc>10.000000</hAcc><vAcc>3.000000</vAcc></extensions></trkpt>
      <trkpt lon="-123.277176" lat="44.561830"><ele>75.536629</ele><time>2020-10-27T19:02:55Z</time><extensions><speed>6.770000</speed><course>274.921875</course><hAcc>5.000000</hAcc><vAcc>3.000000</vAcc></extensions></trkpt>
      <trkpt lon="-123.277354" lat="44.561829"><ele>74.652596</ele><time>2020-10-27T19:02:56Z</time><extensions><speed>6.890000</speed><course>270.703125</course><hAcc>5.000000</hAcc><vAcc>3.000000</vAcc></extensions></trkpt>
      <trkpt lon="-123.277441" lat="44.561823"><ele>74.798531</ele><time>2020-10-27T19:02:57Z</time><extensions><speed>6.990000</speed><course>270.703125</course><hAcc>5.000000</hAcc><vAcc>3.000000</vAcc></extensions></trkpt>
      <trkpt lon="-123.277479" lat="44.561852"><ele>76.042610</ele><time>2020-10-27T19:02:58Z</time><extensions><speed>6.760000</speed><course>271.757812</course><hAcc>5.000000</hAcc><vAcc>3.000000</vAcc></extensions></trkpt>
      <trkpt lon="-123.277561" lat="44.561869"><ele>75.967171</ele><time>2020-10-27T19:02:59Z</time><extensions><speed>6.520000</speed><course>271.757812</course><hAcc>5.000000</hAcc><vAcc>3.000000</vAcc></extensions></trkpt>
      <trkpt lon="-123.277635" lat="44.561877"><ele>75.851204</ele><time>2020-10-27T19:03:00Z</time><extensions><speed>6.690000</speed><course>271.054688</course><hAcc>5.000000</hAcc><vAcc>3.000000</vAcc></extensions></trkpt>
      <trkpt lon="-123.277697" lat="44.561893"><ele>75.778755</ele><time>2020-10-27T19:03:01Z</time><extensions><speed>6.210000</speed><course>276.328125</course><hAcc>5.000000</hAcc><vAcc>3.000000</vAcc></extensions></trkpt>
      <trkpt lon="-123.277775" lat="44.561907"><ele>74.799873</ele><time>2020-10-27T19:03:02Z</time><extensions><speed>6.410000</speed><course>272.109375</course><hAcc>5.000000</hAcc><vAcc>3.000000</vAcc></extensions></trkpt>
      <trkpt lon="-123.277859" lat="44.561908"><ele>74.464180</ele><time>2020-10-27T19:03:03Z</time><extensions><speed>6.530000</speed><course>272.109375</course><hAcc>5.000000</hAcc><vAcc>3.000000</vAcc></extensions></trkpt>
      <trkpt lon="-123.277941" lat="44.561917"><ele>74.517586</ele><time>2020-10-27T19:03:04Z</time><extensions><speed>6.350000</speed><course>271.757812</course><hAcc>5.000000</hAcc><vAcc>3.000000</vAcc></extensions></trkpt>
      <trkpt lon="-123.278023" lat="44.561923"><ele>74.408699</ele><time>2020-10-27T19:03:05Z</time><extensions><speed>6.160000</speed><course>269.296875</course><hAcc>5.000000</hAcc><vAcc>3.000000</vAcc></extensions></trkpt>
      <trkpt lon="-123.278102" lat="44.561930"><ele>74.290108</ele><time>2020-10-27T19:03:06Z</time><extensions><speed>6.160000</speed><course>268.593750</course><hAcc>5.000000</hAcc><vAcc>3.000000</vAcc></extensions></trkpt>
      <trkpt lon="-123.278166" lat="44.561941"><ele>74.169502</ele><time>2020-10-27T19:03:07Z</time><extensions><speed>6.040000</speed><course>277.734375</course><hAcc>5.000000</hAcc><vAcc>3.000000</vAcc></extensions></trkpt>
      <trkpt lon="-123.278247" lat="44.561936"><ele>74.175606</ele><time>2020-10-27T19:03:08Z</time><extensions><speed>5.900000</speed><course>273.164062</course><hAcc>5.000000</hAcc><vAcc>3.000000</vAcc></extensions></trkpt>
      <trkpt lon="-123.278316" lat="44.561947"><ele>74.273506</ele><time>2020-10-27T19:03:09Z</time><extensions><speed>6.030000</speed><course>276.679688</course><hAcc>5.000000</hAcc><vAcc>3.000000</vAcc></extensions></trkpt>
      <trkpt lon="-123.278363" lat="44.561964"><ele>74.836861</ele><time>2020-10-27T19:03:10Z</time><extensions><speed>6.030000</speed><course>282.656250</course><hAcc>5.000000</hAcc><vAcc>3.000000</vAcc></extensions></trkpt>
      <trkpt lon="-123.278423" lat="44.561961"><ele>74.124519</ele><time>2020-10-27T19:03:11Z</time><extensions><speed>5.690000</speed><course>276.328125</course><hAcc>5.000000</hAcc><vAcc>3.000000</vAcc></extensions></trkpt>
      <trkpt lon="-123.278495" lat="44.561960"><ele>74.054268</ele><time>2020-10-27T19:03:12Z</time><extensions><speed>5.320000</speed><course>274.570312</course><hAcc>5.000000</hAcc><vAcc>3.000000</vAcc></extensions></trkpt>
      <trkpt lon="-123.278561" lat="44.561964"><ele>74.007759</ele><time>2020-10-27T19:03:13Z</time><extensions><speed>5.120000</speed><course>270.351562</course><hAcc>5.000000</hAcc><vAcc>3.000000</vAcc></extensions></trkpt>
      <trkpt lon="-123.278639" lat="44.561974"><ele>73.997566</ele><time>2020-10-27T19:03:14Z</time><extensions><speed>5.120000</speed><course>277.382812</course><hAcc>5.000000</hAcc><vAcc>3.000000</vAcc></extensions></trkpt>
      <trkpt lon="-123.278703" lat="44.561976"><ele>73.359016</ele><time>2020-10-27T19:03:15Z</time><extensions><speed>5.020000</speed><course>275.976562</course><hAcc>5.000000</hAcc><vAcc>3.000000</vAcc></extensions></trkpt>
      <trkpt lon="-123.278761" lat="44.562010"><ele>72.836983</ele><time>2020-10-27T19:03:16Z</time><extensions><speed>4.910000</speed><course>288.984375</course><hAcc>5.000000</hAcc><vAcc>3.000000</vAcc></extensions></trkpt>
      <trkpt lon="-123.278819" lat="44.562025"><ele>72.799324</ele><time>2020-10-27T19:03:17Z</time><extensions><speed>4.910000</speed><course>288.632812</course><hAcc>5.000000</hAcc><vAcc>3.000000</vAcc></extensions></trkpt>
      <trkpt lon="-123.278915" lat="44.562008"><ele>73.367500</ele><time>2020-10-27T19:03:18Z</time><extensions><speed>5.100000</speed><course>290.390625</course><hAcc>5.000000</hAcc><vAcc>3.000000</vAcc></extensions></trkpt>
      <trkpt lon="-123.278958" lat="44.562039"><ele>73.466988</ele><time>2020-10-27T19:03:19Z</time><extensions><speed>5.100000</speed><course>312.187500</course><hAcc>5.000000</hAcc><vAcc>3.000000</vAcc></extensions></trkpt>
      <trkpt lon="-123.278994" lat="44.562067"><ele>72.998177</ele><time>2020-10-27T19:03:20Z</time><extensions><speed>5.100000</speed><course>314.296875</course><hAcc>5.000000</hAcc><vAcc>3.000000</vAcc></extensions></trkpt>
      <trkpt lon="-123.279042" lat="44.562101"><ele>72.852242</ele><time>2020-10-27T19:03:21Z</time><extensions><speed>5.030000</speed><course>317.812500</course><hAcc>5.000000</hAcc><vAcc>3.000000</vAcc></extensions></trkpt>
      <trkpt lon="-123.279084" lat="44.562129"><ele>72.935310</ele><time>2020-10-27T19:03:22Z</time><extensions><speed>4.730000</speed><course>323.789062</course><hAcc>5.000000</hAcc><vAcc>3.000000</vAcc></extensions></trkpt>
      <trkpt lon="-123.279110" lat="44.562173"><ele>73.045296</ele><time>2020-10-27T19:03:23Z</time><extensions><speed>5.200000</speed><course>331.875000</course><hAcc>5.000000</hAcc><vAcc>3.000000</vAcc></extensions></trkpt>
      <trkpt lon="-123.279131" lat="44.562234"><ele>73.256355</ele><time>2020-10-27T19:03:24Z</time><extensions><speed>5.200000</speed><course>341.015625</course><hAcc>5.000000</hAcc><vAcc>3.000000</vAcc></extensions></trkpt>
      <trkpt lon="-123.279160" lat="44.562297"><ele>73.619453</ele><time>2020-10-27T19:03:25Z</time><extensions><speed>5.450000</speed><course>345.585938</course><hAcc>5.000000</hAcc><vAcc>3.000000</vAcc></extensions></trkpt>
      <trkpt lon="-123.279182" lat="44.562348"><ele>73.505798</ele><time>2020-10-27T19:03:26Z</time><extensions><speed>5.450000</speed><course>338.554688</course><hAcc>5.000000</hAcc><vAcc>3.000000</vAcc></extensions></trkpt>
      <trkpt lon="-123.279215" lat="44.562397"><ele>73.360023</ele><time>2020-10-27T19:03:27Z</time><extensions><speed>5.500000</speed><course>325.546875</course><hAcc>5.000000</hAcc><vAcc>3.000000</vAcc></extensions></trkpt>
      <trkpt lon="-123.279259" lat="44.562439"><ele>73.475746</ele><time>2020-10-27T19:03:28Z</time><extensions><speed>5.500000</speed><course>310.781250</course><hAcc>5.000000</hAcc><vAcc>3.000000</vAcc></extensions></trkpt>
      <trkpt lon="-123.279314" lat="44.562468"><ele>73.564621</ele><time>2020-10-27T19:03:29Z</time><extensions><speed>5.500000</speed><course>304.453125</course><hAcc>5.000000</hAcc><vAcc>3.000000</vAcc></extensions></trkpt>
      <trkpt lon="-123.279371" lat="44.562497"><ele>73.540939</ele><time>2020-10-27T19:03:30Z</time><extensions><speed>5.430000</speed><course>296.015625</course><hAcc>5.000000</hAcc><vAcc>3.000000</vAcc></extensions></trkpt>
      <trkpt lon="-123.279425" lat="44.562529"><ele>73.633766</ele><time>2020-10-27T19:03:31Z</time><extensions><speed>5.320000</speed><course>309.375000</course><hAcc>5.000000</hAcc><vAcc>3.000000</vAcc></extensions></trkpt>
      <trkpt lon="-123.279460" lat="44.562565"><ele>73.656189</ele><time>2020-10-27T19:03:32Z</time><extensions><speed>4.810000</speed><course>332.929688</course><hAcc>5.000000</hAcc><vAcc>3.000000</vAcc></extensions></trkpt>
      <trkpt lon="-123.279474" lat="44.562604"><ele>74.017395</ele><time>2020-10-27T19:03:33Z</time><extensions><speed>4.810000</speed><course>351.914062</course><hAcc>5.000000</hAcc><vAcc>3.000000</vAcc></extensions></trkpt>
      <trkpt lon="-123.279492" lat="44.562652"><ele>74.178543</ele><time>2020-10-27T19:03:34Z</time><extensions><speed>4.810000</speed><course>353.671875</course><hAcc>5.000000</hAcc><vAcc>3.000000</vAcc></extensions></trkpt>
      <trkpt lon="-123.279471" lat="44.562674"><ele>74.245689</ele><time>2020-10-27T19:03:35Z</time><extensions><speed>4.780000</speed><course>4.218750</course><hAcc>5.000000</hAcc><vAcc>3.000000</vAcc></extensions></trkpt>
      <trkpt lon="-123.279477" lat="44.562722"><ele>74.569061</ele><time>2020-10-27T19:03:36Z</time><extensions><speed>5.030000</speed><course>358.242188</course><hAcc>5.000000</hAcc><vAcc>3.000000</vAcc></extensions></trkpt>
      <trkpt lon="-123.279476" lat="44.562759"><ele>74.551598</ele><time>2020-10-27T19:03:37Z</time><extensions><speed>5.030000</speed><course>358.242188</course><hAcc>5.000000</hAcc><vAcc>3.000000</vAcc></extensions></trkpt>
      <trkpt lon="-123.279480" lat="44.562805"><ele>74.207024</ele><time>2020-10-27T19:03:38Z</time><extensions><speed>5.030000</speed><course>356.835938</course><hAcc>5.000000</hAcc><vAcc>3.000000</vAcc></extensions></trkpt>
      <trkpt lon="-123.279486" lat="44.562864"><ele>74.306511</ele><time>2020-10-27T19:03:39Z</time><extensions><speed>5.190000</speed><course>0.351562</course><hAcc>5.000000</hAcc><vAcc>3.000000</vAcc></extensions></trkpt>
      <trkpt lon="-123.279469" lat="44.562903"><ele>74.212219</ele><time>2020-10-27T19:03:40Z</time><extensions><speed>5.190000</speed><course>4.570312</course><hAcc>5.000000</hAcc><vAcc>3.000000</vAcc></extensions></trkpt>
      <trkpt lon="-123.279474" lat="44.562961"><ele>74.081261</ele><time>2020-10-27T19:03:41Z</time><extensions><speed>5.160000</speed><course>0.351562</course><hAcc>5.000000</hAcc><vAcc>3.000000</vAcc></extensions></trkpt>
      <trkpt lon="-123.279472" lat="44.563026"><ele>73.968636</ele><time>2020-10-27T19:03:42Z</time><extensions><speed>5.160000</speed><course>0.703125</course><hAcc>5.000000</hAcc><vAcc>4.000000</vAcc></extensions></trkpt>
      <trkpt lon="-123.279478" lat="44.563061"><ele>74.098679</ele><time>2020-10-27T19:03:43Z</time><extensions><speed>4.620000</speed><course>1.757812</course><hAcc>5.000000</hAcc><vAcc>4.000000</vAcc></extensions></trkpt>
      <trkpt lon="-123.279494" lat="44.563115"><ele>74.119598</ele><time>2020-10-27T19:03:44Z</time><extensions><speed>4.620000</speed><course>351.562500</course><hAcc>5.000000</hAcc><vAcc>4.000000</vAcc></extensions></trkpt>
      <trkpt lon="-123.279504" lat="44.563156"><ele>74.082451</ele><time>2020-10-27T19:03:45Z</time><extensions><speed>4.470000</speed><course>354.023438</course><hAcc>5.000000</hAcc><vAcc>4.000000</vAcc></extensions></trkpt>
      <trkpt lon="-123.279498" lat="44.563168"><ele>74.203117</ele><time>2020-10-27T19:03:46Z</time><extensions><speed>4.470000</speed><course>359.296875</course><hAcc>5.000000</hAcc><vAcc>4.000000</vAcc></extensions></trkpt>
      <trkpt lon="-123.279495" lat="44.563204"><ele>74.284088</ele><time>2020-10-27T19:03:47Z</time><extensions><speed>4.160000</speed><course>4.218750</course><hAcc>5.000000</hAcc><vAcc>4.000000</vAcc></extensions></trkpt>
      <trkpt lon="-123.279484" lat="44.563231"><ele>73.924232</ele><time>2020-10-27T19:03:48Z</time><extensions><speed>3.690000</speed><course>8.085938</course><hAcc>5.000000</hAcc><vAcc>4.000000</vAcc></extensions></trkpt>
      <trkpt lon="-123.279473" lat="44.563253"><ele>73.917595</ele><time>2020-10-27T19:03:49Z</time><extensions><speed>3.590000</speed><course>14.765625</course><hAcc>5.000000</hAcc><vAcc>4.000000</vAcc></extensions></trkpt>
      <trkpt lon="-123.279454" lat="44.563282"><ele>73.827446</ele><time>2020-10-27T19:03:50Z</time><extensions><speed>3.280000</speed><course>28.828125</course><hAcc>5.000000</hAcc><vAcc>3.000000</vAcc></extensions></trkpt>
      <trkpt lon="-123.279435" lat="44.563310"><ele>73.847664</ele><time>2020-10-27T19:03:51Z</time><extensions><speed>3.280000</speed><course>27.421875</course><hAcc>5.000000</hAcc><vAcc>4.000000</vAcc></extensions></trkpt>
      <trkpt lon="-123.279413" lat="44.563324"><ele>73.831009</ele><time>2020-10-27T19:03:52Z</time><extensions><speed>3.120000</speed><course>356.484375</course><hAcc>5.000000</hAcc><vAcc>4.000000</vAcc></extensions></trkpt>
      <trkpt lon="-123.279413" lat="44.563324"><ele>73.912773</ele><time>2020-10-27T19:03:53Z</time><extensions><speed>0.000000</speed><course>355.429688</course><hAcc>5.000000</hAcc><vAcc>4.000000</vAcc></extensions></trkpt>
      <trkpt lon="-123.279413" lat="44.563324"><ele>73.786407</ele><time>2020-10-27T19:03:54Z</time><extensions><speed>0.000000</speed><course>355.429688</course><hAcc>5.000000</hAcc><vAcc>4.000000</vAcc></extensions></trkpt>
      <trkpt lon="-123.279413" lat="44.563324"><ele>73.837700</ele><time>2020-10-27T19:03:55Z</time><extensions><speed>0.000000</speed><course>355.078125</course><hAcc>5.000000</hAcc><vAcc>4.000000</vAcc></extensions></trkpt>
      <trkpt lon="-123.279413" lat="44.563324"><ele>73.858040</ele><time>2020-10-27T19:03:56Z</time><extensions><speed>0.000000</speed><course>355.078125</course><hAcc>5.000000</hAcc><vAcc>4.000000</vAcc></extensions></trkpt>
      <trkpt lon="-123.279413" lat="44.563324"><ele>73.710579</ele><time>2020-10-27T19:03:57Z</time><extensions><speed>0.000000</speed><course>355.078125</course><hAcc>5.000000</hAcc><vAcc>4.000000</vAcc></extensions></trkpt>
      <trkpt lon="-123.279413" lat="44.563324"><ele>73.791206</ele><time>2020-10-27T19:03:58Z</time><extensions><speed>0.000000</speed><course>355.078125</course><hAcc>5.000000</hAcc><vAcc>4.000000</vAcc></extensions></trkpt>
      <trkpt lon="-123.279413" lat="44.563324"><ele>73.652336</ele><time>2020-10-27T19:03:59Z</time><extensions><speed>0.000000</speed><course>355.078125</course><hAcc>5.000000</hAcc><vAcc>4.000000</vAcc></extensions></trkpt>
      <trkpt lon="-123.279413" lat="44.563324"><ele>73.730591</ele><time>2020-10-27T19:04:00Z</time><extensions><speed>0.000000</speed><course>355.078125</course><hAcc>5.000000</hAcc><vAcc>4.000000</vAcc></extensions></trkpt>
      <trkpt lon="-123.279413" lat="44.563324"><ele>73.692474</ele><time>2020-10-27T19:04:01Z</time><extensions><speed>0.000000</speed><course>355.078125</course><hAcc>5.000000</hAcc><vAcc>4.000000</vAcc></extensions></trkpt>
      <trkpt lon="-123.279413" lat="44.563324"><ele>73.666405</ele><time>2020-10-27T19:04:02Z</time><extensions><speed>0.000000</speed><course>355.078125</course><hAcc>5.000000</hAcc><vAcc>4.000000</vAcc></extensions></trkpt>
      <trkpt lon="-123.279413" lat="44.563324"><ele>73.634354</ele><time>2020-10-27T19:04:03Z</time><extensions><speed>0.000000</speed><course>355.078125</course><hAcc>5.000000</hAcc><vAcc>4.000000</vAcc></extensions></trkpt>
      <trkpt lon="-123.279413" lat="44.563324"><ele>73.667686</ele><time>2020-10-27T19:04:04Z</time><extensions><speed>0.000000</speed><course>355.078125</course><hAcc>5.000000</hAcc><vAcc>3.000000</vAcc></extensions></trkpt>
      <trkpt lon="-123.279413" lat="44.563324"><ele>73.585968</ele><time>2020-10-27T19:04:05Z</time><extensions><speed>0.000000</speed><course>355.078125</course><hAcc>5.000000</hAcc><vAcc>3.000000</vAcc></extensions></trkpt>
      <trkpt lon="-123.279413" lat="44.563324"><ele>73.590454</ele><time>2020-10-27T19:04:06Z</time><extensions><speed>0.000000</speed><course>355.078125</course><hAcc>5.000000</hAcc><vAcc>3.000000</vAcc></extensions></trkpt>
      <trkpt lon="-123.279413" lat="44.563324"><ele>73.720108</ele><time>2020-10-27T19:04:07Z</time><extensions><speed>0.000000</speed><course>355.078125</course><hAcc>5.000000</hAcc><vAcc>3.000000</vAcc></extensions></trkpt>
      <trkpt lon="-123.279413" lat="44.563324"><ele>73.676270</ele><time>2020-10-27T19:04:08Z</time><extensions><speed>0.000000</speed><course>355.078125</course><hAcc>5.000000</hAcc><vAcc>4.000000</vAcc></extensions></trkpt>
      <trkpt lon="-123.279413" lat="44.563324"><ele>73.736923</ele><time>2020-10-27T19:04:09Z</time><extensions><speed>0.000000</speed><course>355.078125</course><hAcc>5.000000</hAcc><vAcc>4.000000</vAcc></extensions></trkpt>
      <trkpt lon="-123.279413" lat="44.563324"><ele>73.689636</ele><time>2020-10-27T19:04:10Z</time><extensions><speed>0.000000</speed><course>355.078125</course><hAcc>5.000000</hAcc><vAcc>4.000000</vAcc></extensions></trkpt>
      <trkpt lon="-123.279413" lat="44.563324"><ele>73.707733</ele><time>2020-10-27T19:04:11Z</time><extensions><speed>0.000000</speed><course>355.078125</course><hAcc>5.000000</hAcc><vAcc>4.000000</vAcc></extensions></trkpt>
      <trkpt lon="-123.279413" lat="44.563324"><ele>73.730988</ele><time>2020-10-27T19:04:12Z</time><extensions><speed>0.000000</speed><course>355.078125</course><hAcc>5.000000</hAcc><vAcc>4.000000</vAcc></extensions></trkpt>
      <trkpt lon="-123.279413" lat="44.563324"><ele>73.685165</ele><time>2020-10-27T19:04:13Z</time><extensions><speed>0.000000</speed><course>355.078125</course><hAcc>5.000000</hAcc><vAcc>4.000000</vAcc></extensions></trkpt>
      <trkpt lon="-123.279413" lat="44.563324"><ele>73.664429</ele><time>2020-10-27T19:04:14Z</time><extensions><speed>0.000000</speed><course>355.078125</course><hAcc>5.000000</hAcc><vAcc>4.000000</vAcc></extensions></trkpt>
      <trkpt lon="-123.279413" lat="44.563324"><ele>73.693497</ele><time>2020-10-27T19:04:15Z</time><extensions><speed>0.000000</speed><course>355.078125</course><hAcc>5.000000</hAcc><vAcc>4.000000</vAcc></extensions></trkpt>
      <trkpt lon="-123.279413" lat="44.563324"><ele>73.700729</ele><time>2020-10-27T19:04:16Z</time><extensions><speed>0.000000</speed><course>355.078125</course><hAcc>5.000000</hAcc><vAcc>4.000000</vAcc></extensions></trkpt>
      <trkpt lon="-123.279413" lat="44.563324"><ele>73.662949</ele><time>2020-10-27T19:04:17Z</time><extensions><speed>0.000000</speed><course>355.078125</course><hAcc>5.000000</hAcc><vAcc>4.000000</vAcc></extensions></trkpt>
      <trkpt lon="-123.279413" lat="44.563324"><ele>73.631012</ele><time>2020-10-27T19:04:18Z</time><extensions><speed>0.000000</speed><course>355.078125</course><hAcc>5.000000</hAcc><vAcc>4.000000</vAcc></extensions></trkpt>
      <trkpt lon="-123.279413" lat="44.563324"><ele>73.537476</ele><time>2020-10-27T19:04:19Z</time><extensions><speed>0.000000</speed><course>355.078125</course><hAcc>5.000000</hAcc><vAcc>4.000000</vAcc></extensions></trkpt>
      <trkpt lon="-123.279413" lat="44.563324"><ele>73.562874</ele><time>2020-10-27T19:04:20Z</time><extensions><speed>0.000000</speed><course>355.078125</course><hAcc>5.000000</hAcc><vAcc>4.000000</vAcc></extensions></trkpt>
      <trkpt lon="-123.279413" lat="44.563324"><ele>73.636742</ele><time>2020-10-27T19:04:21Z</time><extensions><speed>0.000000</speed><course>355.078125</course><hAcc>5.000000</hAcc><vAcc>4.000000</vAcc></extensions></trkpt>
      <trkpt lon="-123.279413" lat="44.563324"><ele>73.556313</ele><time>2020-10-27T19:04:22Z</time><extensions><speed>0.000000</speed><course>355.078125</course><hAcc>5.000000</hAcc><vAcc>4.000000</vAcc></extensions></trkpt>
      <trkpt lon="-123.279413" lat="44.563324"><ele>73.652344</ele><time>2020-10-27T19:04:23Z</time><extensions><speed>0.000000</speed><course>355.078125</course><hAcc>5.000000</hAcc><vAcc>4.000000</vAcc></extensions></trkpt>
      <trkpt lon="-123.279413" lat="44.563324"><ele>73.579193</ele><time>2020-10-27T19:04:24Z</time><extensions><speed>0.000000</speed><course>293.554688</course><hAcc>5.000000</hAcc><vAcc>4.000000</vAcc></extensions></trkpt>
      <trkpt lon="-123.279418" lat="44.563295"><ele>73.716400</ele><time>2020-10-27T19:04:25Z</time><extensions><speed>0.760000</speed><course>241.875000</course><hAcc>5.000000</hAcc><vAcc>4.000000</vAcc></extensions></trkpt>
      <trkpt lon="-123.279428" lat="44.563289"><ele>73.704506</ele><time>2020-10-27T19:04:26Z</time><extensions><speed>0.760000</speed><course>205.312500</course><hAcc>5.000000</hAcc><vAcc>3.000000</vAcc></extensions></trkpt>
      <trkpt lon="-123.279432" lat="44.563284"><ele>73.749542</ele><time>2020-10-27T19:04:27Z</time><extensions><speed>0.600000</speed><course>169.101562</course><hAcc>5.000000</hAcc><vAcc>3.000000</vAcc></extensions></trkpt>
      <trkpt lon="-123.279432" lat="44.563277"><ele>73.633766</ele><time>2020-10-27T19:04:28Z</time><extensions><speed>1.090000</speed><course>175.078125</course><hAcc>5.000000</hAcc><vAcc>3.000000</vAcc></extensions></trkpt>
      <trkpt lon="-123.279432" lat="44.563267"><ele>73.700554</ele><time>2020-10-27T19:04:29Z</time><extensions><speed>1.090000</speed><course>175.429688</course><hAcc>5.000000</hAcc><vAcc>3.000000</vAcc></extensions></trkpt>
      <trkpt lon="-123.279434" lat="44.563253"><ele>73.834297</ele><time>2020-10-27T19:04:30Z</time><extensions><speed>1.520000</speed><course>183.164062</course><hAcc>5.000000</hAcc><vAcc>3.000000</vAcc></extensions></trkpt>
      <trkpt lon="-123.279437" lat="44.563239"><ele>73.726776</ele><time>2020-10-27T19:04:31Z</time><extensions><speed>1.420000</speed><course>176.132812</course><hAcc>5.000000</hAcc><vAcc>3.000000</vAcc></extensions></trkpt>
      <trkpt lon="-123.279438" lat="44.563229"><ele>73.751335</ele><time>2020-10-27T19:04:32Z</time><extensions><speed>1.420000</speed><course>175.429688</course><hAcc>5.000000</hAcc><vAcc>3.000000</vAcc></extensions></trkpt>
      <trkpt lon="-123.279431" lat="44.563219"><ele>73.552063</ele><time>2020-10-27T19:04:33Z</time><extensions><speed>1.270000</speed><course>136.054688</course><hAcc>5.000000</hAcc><vAcc>3.000000</vAcc></extensions></trkpt>
      <trkpt lon="-123.279420" lat="44.563213"><ele>73.617218</ele><time>2020-10-27T19:04:34Z</time><extensions><speed>1.230000</speed><course>133.593750</course><hAcc>5.000000</hAcc><vAcc>3.000000</vAcc></extensions></trkpt>
      <trkpt lon="-123.279409" lat="44.563211"><ele>73.772774</ele><time>2020-10-27T19:04:35Z</time><extensions><speed>0.890000</speed><course>133.593750</course><hAcc>5.000000</hAcc><vAcc>3.000000</vAcc></extensions></trkpt>
      <trkpt lon="-123.279393" lat="44.563208"><ele>73.801010</ele><time>2020-10-27T19:04:36Z</time><extensions><speed>1.740000</speed><course>117.773438</course><hAcc>5.000000</hAcc><vAcc>3.000000</vAcc></extensions></trkpt>
      <trkpt lon="-123.279372" lat="44.563202"><ele>73.429131</ele><time>2020-10-27T19:04:37Z</time><extensions><speed>1.740000</speed><course>118.125000</course><hAcc>5.000000</hAcc><vAcc>3.000000</vAcc></extensions></trkpt>
      <trkpt lon="-123.279356" lat="44.563199"><ele>73.326584</ele><time>2020-10-27T19:04:38Z</time><extensions><speed>1.040000</speed><course>117.773438</course><hAcc>5.000000</hAcc><vAcc>3.000000</vAcc></extensions></trkpt>
      <trkpt lon="-123.279342" lat="44.563197"><ele>73.272377</ele><time>2020-10-27T19:04:39Z</time><extensions><speed>0.740000</speed><course>113.203125</course><hAcc>5.000000</hAcc><vAcc>3.000000</vAcc></extensions></trkpt>
      <trkpt lon="-123.279324" lat="44.563195"><ele>73.471268</ele><time>2020-10-27T19:04:40Z</time><extensions><speed>1.210000</speed><course>113.203125</course><hAcc>5.000000</hAcc><vAcc>3.000000</vAcc></extensions></trkpt>
      <trkpt lon="-123.279304" lat="44.563191"><ele>73.061928</ele><time>2020-10-27T19:04:41Z</time><extensions><speed>1.460000</speed><course>113.554688</course><hAcc>5.000000</hAcc><vAcc>3.000000</vAcc></extensions></trkpt>
      <trkpt lon="-123.279285" lat="44.563188"><ele>72.857971</ele><time>2020-10-27T19:04:42Z</time><extensions><speed>1.270000</speed><course>91.757812</course><hAcc>5.000000</hAcc><vAcc>3.000000</vAcc></extensions></trkpt>
      <trkpt lon="-123.279265" lat="44.563187"><ele>73.118958</ele><time>2020-10-27T19:04:43Z</time><extensions><speed>1.460000</speed><course>91.406250</course><hAcc>5.000000</hAcc><vAcc>3.000000</vAcc></extensions></trkpt>
      <trkpt lon="-123.279248" lat="44.563189"><ele>73.077599</ele><time>2020-10-27T19:04:44Z</time><extensions><speed>1.400000</speed><course>84.023438</course><hAcc>5.000000</hAcc><vAcc>3.000000</vAcc></extensions></trkpt>
      <trkpt lon="-123.279231" lat="44.563191"><ele>73.019127</ele><time>2020-10-27T19:04:45Z</time><extensions><speed>1.410000</speed><course>91.054688</course><hAcc>5.000000</hAcc><vAcc>3.000000</vAcc></extensions></trkpt>
      <trkpt lon="-123.279213" lat="44.563191"><ele>72.827187</ele><time>2020-10-27T19:04:46Z</time><extensions><speed>1.410000</speed><course>91.406250</course><hAcc>5.000000</hAcc><vAcc>3.000000</vAcc></extensions></trkpt>
      <trkpt lon="-123.279198" lat="44.563188"><ele>72.893013</ele><time>2020-10-27T19:04:47Z</time><extensions><speed>1.140000</speed><course>91.406250</course><hAcc>5.000000</hAcc><vAcc>3.000000</vAcc></extensions></trkpt>
      <trkpt lon="-123.279184" lat="44.563184"><ele>72.953819</ele><time>2020-10-27T19:04:48Z</time><extensions><speed>1.140000</speed><course>104.765625</course><hAcc>5.000000</hAcc><vAcc>3.000000</vAcc></extensions></trkpt>
      <trkpt lon="-123.279176" lat="44.563181"><ele>72.778679</ele><time>2020-10-27T19:04:49Z</time><extensions><speed>1.140000</speed><course>92.109375</course><hAcc>5.000000</hAcc><vAcc>3.000000</vAcc></extensions></trkpt>
      <trkpt lon="-123.279171" lat="44.563181"><ele>72.866409</ele><time>2020-10-27T19:04:50Z</time><extensions><speed>0.480000</speed><course>57.304688</course><hAcc>5.000000</hAcc><vAcc>3.000000</vAcc></extensions></trkpt>
      <trkpt lon="-123.279159" lat="44.563182"><ele>72.905045</ele><time>2020-10-27T19:04:51Z</time><extensions><speed>1.080000</speed><course>79.804688</course><hAcc>5.000000</hAcc><vAcc>3.000000</vAcc></extensions></trkpt>
      <trkpt lon="-123.279146" lat="44.563187"><ele>72.964478</ele><time>2020-10-27T19:04:52Z</time><extensions><speed>1.030000</speed><course>58.007812</course><hAcc>5.000000</hAcc><vAcc>3.000000</vAcc></extensions></trkpt>
      <trkpt lon="-123.279134" lat="44.563192"><ele>72.935966</ele><time>2020-10-27T19:04:53Z</time><extensions><speed>1.030000</speed><course>50.625000</course><hAcc>5.000000</hAcc><vAcc>3.000000</vAcc></extensions></trkpt>
      <trkpt lon="-123.279122" lat="44.563197"><ele>73.032341</ele><time>2020-10-27T19:04:54Z</time><extensions><speed>1.110000</speed><course>47.109375</course><hAcc>5.000000</hAcc><vAcc>3.000000</vAcc></extensions></trkpt>
      <trkpt lon="-123.279108" lat="44.563204"><ele>73.010597</ele><time>2020-10-27T19:04:55Z</time><extensions><speed>1.380000</speed><course>52.382812</course><hAcc>5.000000</hAcc><vAcc>3.000000</vAcc></extensions></trkpt>
      <trkpt lon="-123.279091" lat="44.563209"><ele>73.192238</ele><time>2020-10-27T19:04:56Z</time><extensions><speed>1.350000</speed><course>60.117188</course><hAcc>5.000000</hAcc><vAcc>3.000000</vAcc></extensions></trkpt>
      <trkpt lon="-123.279073" lat="44.563217"><ele>73.184044</ele><time>2020-10-27T19:04:57Z</time><extensions><speed>1.380000</speed><course>49.921875</course><hAcc>5.000000</hAcc><vAcc>3.000000</vAcc></extensions></trkpt>
      <trkpt lon="-123.279065" lat="44.563220"><ele>73.095963</ele><time>2020-10-27T19:04:58Z</time><extensions><speed>0.290000</speed><course>96.328125</course><hAcc>5.000000</hAcc><vAcc>3.000000</vAcc></extensions></trkpt>
      <trkpt lon="-123.279063" lat="44.563218"><ele>73.040222</ele><time>2020-10-27T19:04:59Z</time><extensions><speed>0.430000</speed><course>75.234375</course><hAcc>5.000000</hAcc><vAcc>3.000000</vAcc></extensions></trkpt>
      <trkpt lon="-123.279059" lat="44.563217"><ele>72.828255</ele><time>2020-10-27T19:05:00Z</time><extensions><speed>0.430000</speed><course>85.078125</course><hAcc>5.000000</hAcc><vAcc>3.000000</vAcc></extensions></trkpt>
      <trkpt lon="-123.279057" lat="44.563213"><ele>72.639435</ele><time>2020-10-27T19:05:01Z</time><extensions><speed>0.430000</speed><course>147.656250</course><hAcc>5.000000</hAcc><vAcc>3.000000</vAcc></extensions></trkpt>
      <trkpt lon="-123.279056" lat="44.563209"><ele>73.237869</ele><time>2020-10-27T19:05:02Z</time><extensions><speed>0.360000</speed><course>137.460938</course><hAcc>5.000000</hAcc><vAcc>3.000000</vAcc></extensions></trkpt>
      <trkpt lon="-123.279053" lat="44.563206"><ele>72.840256</ele><time>2020-10-27T19:05:03Z</time><extensions><speed>0.420000</speed><course>124.101562</course><hAcc>5.000000</hAcc><vAcc>3.000000</vAcc></extensions></trkpt>
      <trkpt lon="-123.279047" lat="44.563206"><ele>72.952728</ele><time>2020-10-27T19:05:04Z</time><extensions><speed>0.420000</speed><course>75.234375</course><hAcc>5.000000</hAcc><vAcc>3.000000</vAcc></extensions></trkpt>
      <trkpt lon="-123.279032" lat="44.563209"><ele>72.780487</ele><time>2020-10-27T19:05:05Z</time><extensions><speed>0.760000</speed><course>66.093750</course><hAcc>5.000000</hAcc><vAcc>3.000000</vAcc></extensions></trkpt>
      <trkpt lon="-123.279022" lat="44.563212"><ele>73.438362</ele><time>2020-10-27T19:05:06Z</time><extensions><speed>0.760000</speed><course>68.906250</course><hAcc>5.000000</hAcc><vAcc>3.000000</vAcc></extensions></trkpt>
      <trkpt lon="-123.279019" lat="44.563215"><ele>73.184418</ele><time>2020-10-27T19:05:07Z</time><extensions><speed>0.500000</speed><course>76.992188</course><hAcc>5.000000</hAcc><vAcc>3.000000</vAcc></extensions></trkpt>
      <trkpt lon="-123.279020" lat="44.563217"><ele>73.294922</ele><time>2020-10-27T19:05:08Z</time><extensions><speed>0.500000</speed><course>74.882812</course><hAcc>10.000000</hAcc><vAcc>3.000000</vAcc></extensions></trkpt>
      <trkpt lon="-123.279020" lat="44.563217"><ele>73.257607</ele><time>2020-10-27T19:05:09Z</time><extensions><speed>0.000000</speed><course>60.820312</course><hAcc>10.000000</hAcc><vAcc>3.000000</vAcc></extensions></trkpt>
      <trkpt lon="-123.279015" lat="44.563223"><ele>72.920273</ele><time>2020-10-27T19:05:10Z</time><extensions><speed>0.320000</speed><course>39.375000</course><hAcc>10.000000</hAcc><vAcc>3.000000</vAcc></extensions></trkpt>
      <trkpt lon="-123.279015" lat="44.563225"><ele>72.826965</ele><time>2020-10-27T19:05:11Z</time><extensions><speed>0.290000</speed><course>19.687500</course><hAcc>10.000000</hAcc><vAcc>3.000000</vAcc></extensions></trkpt>
      <trkpt lon="-123.279016" lat="44.563228"><ele>73.366913</ele><time>2020-10-27T19:05:12Z</time><extensions><speed>0.460000</speed><course>19.687500</course><hAcc>10.000000</hAcc><vAcc>3.000000</vAcc></extensions></trkpt>
      <trkpt lon="-123.279019" lat="44.563229"><ele>73.176033</ele><time>2020-10-27T19:05:13Z</time><extensions><speed>0.380000</speed><course>30.234375</course><hAcc>10.000000</hAcc><vAcc>3.000000</vAcc></extensions></trkpt>
      <trkpt lon="-123.279012" lat="44.563229"><ele>72.624931</ele><time>2020-10-27T19:05:14Z</time><extensions><speed>0.460000</speed><course>58.359375</course><hAcc>10.000000</hAcc><vAcc>3.000000</vAcc></extensions></trkpt>
      <trkpt lon="-123.278999" lat="44.563226"><ele>72.901070</ele><time>2020-10-27T19:05:15Z</time><extensions><speed>0.520000</speed><course>81.562500</course><hAcc>10.000000</hAcc><vAcc>3.000000</vAcc></extensions></trkpt>
      <trkpt lon="-123.278992" lat="44.563225"><ele>72.991341</ele><time>2020-10-27T19:05:16Z</time><extensions><speed>0.520000</speed><course>71.367188</course><hAcc>10.000000</hAcc><vAcc>3.000000</vAcc></extensions></trkpt>
      <trkpt lon="-123.278991" lat="44.563221"><ele>73.049835</ele><time>2020-10-27T19:05:17Z</time><extensions><speed>0.520000</speed><course>65.742188</course><hAcc>10.000000</hAcc><vAcc>3.000000</vAcc></extensions></trkpt>
      <trkpt lon="-123.278987" lat="44.563213"><ele>73.005150</ele><time>2020-10-27T19:05:18Z</time><extensions><speed>0.450000</speed><course>144.140625</course><hAcc>10.000000</hAcc><vAcc>3.000000</vAcc></extensions></trkpt>
      <trkpt lon="-123.278988" lat="44.563207"><ele>73.439354</ele><time>2020-10-27T19:05:19Z</time><extensions><speed>0.450000</speed><course>162.773438</course><hAcc>10.000000</hAcc><vAcc>3.000000</vAcc></extensions></trkpt>
      <trkpt lon="-123.278988" lat="44.563199"><ele>72.940346</ele><time>2020-10-27T19:05:20Z</time><extensions><speed>0.560000</speed><course>162.421875</course><hAcc>10.000000</hAcc><vAcc>3.000000</vAcc></extensions></trkpt>
      <trkpt lon="-123.278987" lat="44.563195"><ele>72.936485</ele><time>2020-10-27T19:05:21Z</time><extensions><speed>0.560000</speed><course>162.070312</course><hAcc>10.000000</hAcc><vAcc>3.000000</vAcc></extensions></trkpt>
      <trkpt lon="-123.278983" lat="44.563184"><ele>72.857994</ele><time>2020-10-27T19:05:22Z</time><extensions><speed>0.460000</speed><course>126.562500</course><hAcc>30.000000</hAcc><vAcc>3.000000</vAcc></extensions></trkpt>
      <trkpt lon="-123.278983" lat="44.563184"><ele>73.035187</ele><time>2020-10-27T19:05:23Z</time><extensions><speed>0.000000</speed><course>121.640625</course><hAcc>30.000000</hAcc><vAcc>3.000000</vAcc></extensions></trkpt>
      <trkpt lon="-123.278996" lat="44.563195"><ele>73.043327</ele><time>2020-10-27T19:05:24Z</time><extensions><speed>0.430000</speed><course>18.984375</course><hAcc>30.000000</hAcc><vAcc>3.000000</vAcc></extensions></trkpt>
      <trkpt lon="-123.278966" lat="44.563201"><ele>72.960503</ele><time>2020-10-27T19:05:25Z</time><extensions><speed>1.310000</speed><course>73.828125</course><hAcc>30.000000</hAcc><vAcc>3.000000</vAcc></extensions></trkpt>
      <trkpt lon="-123.278939" lat="44.563201"><ele>73.054184</ele><time>2020-10-27T19:05:26Z</time><extensions><speed>1.310000</speed><course>83.671875</course><hAcc>30.000000</hAcc><vAcc>3.000000</vAcc></extensions></trkpt>
      <trkpt lon="-123.278917" lat="44.563201"><ele>72.986023</ele><time>2020-10-27T19:05:27Z</time><extensions><speed>1.260000</speed><course>85.429688</course><hAcc>30.000000</hAcc><vAcc>4.000000</vAcc></extensions></trkpt>
      <trkpt lon="-123.278901" lat="44.563201"><ele>73.394722</ele><time>2020-10-27T19:05:28Z</time><extensions><speed>1.210000</speed><course>88.593750</course><hAcc>30.000000</hAcc><vAcc>4.000000</vAcc></extensions></trkpt>
      <trkpt lon="-123.278886" lat="44.563208"><ele>73.069740</ele><time>2020-10-27T19:05:29Z</time><extensions><speed>1.060000</speed><course>88.945312</course><hAcc>30.000000</hAcc><vAcc>4.000000</vAcc></extensions></trkpt>
      <trkpt lon="-123.278895" lat="44.563183"><ele>73.117584</ele><time>2020-10-27T19:05:30Z</time><extensions><speed>0.890000</speed><course>100.195312</course><hAcc>30.000000</hAcc><vAcc>4.000000</vAcc></extensions></trkpt>
      <trkpt lon="-123.278894" lat="44.563159"><ele>72.937172</ele><time>2020-10-27T19:05:31Z</time><extensions><speed>0.890000</speed><course>106.875000</course><hAcc>30.000000</hAcc><vAcc>4.000000</vAcc></extensions></trkpt>
      <trkpt lon="-123.278861" lat="44.563130"><ele>73.127144</ele><time>2020-10-27T19:05:32Z</time><extensions><speed>0.890000</speed><course>113.203125</course><hAcc>30.000000</hAcc><vAcc>4.000000</vAcc></extensions></trkpt>
      <trkpt lon="-123.278835" lat="44.563110"><ele>73.196281</ele><time>2020-10-27T19:05:33Z</time><extensions><speed>1.790000</speed><course>113.554688</course><hAcc>30.000000</hAcc><vAcc>4.000000</vAcc></extensions></trkpt>
      <trkpt lon="-123.278810" lat="44.563093"><ele>73.201859</ele><time>2020-10-27T19:05:34Z</time><extensions><speed>1.790000</speed><course>114.257812</course><hAcc>30.000000</hAcc><vAcc>4.000000</vAcc></extensions></trkpt>
      <trkpt lon="-123.278810" lat="44.563093"><ele>73.193237</ele><time>2020-10-27T19:05:35Z</time><extensions><speed>0.000000</speed><course>113.906250</course><hAcc>30.000000</hAcc><vAcc>4.000000</vAcc></extensions></trkpt>
      <trkpt lon="-123.278861" lat="44.563102"><ele>73.159492</ele><time>2020-10-27T19:05:36Z</time><extensions><speed>1.270000</speed><course>301.289062</course><hAcc>30.000000</hAcc><vAcc>3.000000</vAcc></extensions></trkpt>
      <trkpt lon="-123.278930" lat="44.563121"><ele>73.156075</ele><time>2020-10-27T19:05:37Z</time><extensions><speed>1.270000</speed><course>226.054688</course><hAcc>30.000000</hAcc><vAcc>3.000000</vAcc></extensions></trkpt>
      <trkpt lon="-123.278967" lat="44.563107"><ele>73.292999</ele><time>2020-10-27T19:05:38Z</time><extensions><speed>2.440000</speed><course>217.617188</course><hAcc>30.000000</hAcc><vAcc>3.000000</vAcc></extensions></trkpt>
      <trkpt lon="-123.278986" lat="44.563107"><ele>73.171852</ele><time>2020-10-27T19:05:39Z</time><extensions><speed>0.880000</speed><course>225.703125</course><hAcc>30.000000</hAcc><vAcc>3.000000</vAcc></extensions></trkpt>
      <trkpt lon="-123.278998" lat="44.563113"><ele>73.185928</ele><time>2020-10-27T19:05:40Z</time><extensions><speed>0.880000</speed><course>247.851562</course><hAcc>30.000000</hAcc><vAcc>3.000000</vAcc></extensions></trkpt>
      <trkpt lon="-123.279005" lat="44.563122"><ele>73.142708</ele><time>2020-10-27T19:05:41Z</time><extensions><speed>0.870000</speed><course>290.742188</course><hAcc>30.000000</hAcc><vAcc>3.000000</vAcc></extensions></trkpt>
      <trkpt lon="-123.279013" lat="44.563131"><ele>73.204498</ele><time>2020-10-27T19:05:42Z</time><extensions><speed>0.870000</speed><course>303.398438</course><hAcc>30.000000</hAcc><vAcc>3.000000</vAcc></extensions></trkpt>
      <trkpt lon="-123.279017" lat="44.563139"><ele>73.229744</ele><time>2020-10-27T19:05:43Z</time><extensions><speed>0.800000</speed><course>311.835938</course><hAcc>30.000000</hAcc><vAcc>3.000000</vAcc></extensions></trkpt>
      <trkpt lon="-123.279020" lat="44.563146"><ele>73.168198</ele><time>2020-10-27T19:05:44Z</time><extensions><speed>0.810000</speed><course>313.945312</course><hAcc>30.000000</hAcc><vAcc>3.000000</vAcc></extensions></trkpt>
      <trkpt lon="-123.279020" lat="44.563146"><ele>73.247009</ele><time>2020-10-27T19:05:45Z</time><extensions><speed>0.000000</speed><course>298.125000</course><hAcc>30.000000</hAcc><vAcc>3.000000</vAcc></extensions></trkpt>
      <trkpt lon="-123.279020" lat="44.563146"><ele>73.038208</ele><time>2020-10-27T19:05:46Z</time><extensions><speed>0.000000</speed><course>298.125000</course><hAcc>30.000000</hAcc><vAcc>3.000000</vAcc></extensions></trkpt>
      <trkpt lon="-123.279020" lat="44.563146"><ele>73.197678</ele><time>2020-10-27T19:05:47Z</time><extensions><speed>0.000000</speed><course>298.125000</course><hAcc>30.000000</hAcc><vAcc>4.000000</vAcc></extensions></trkpt>
      <trkpt lon="-123.279020" lat="44.563146"><ele>73.139915</ele><time>2020-10-27T19:05:48Z</time><extensions><speed>0.000000</speed><course>298.125000</course><hAcc>30.000000</hAcc><vAcc>4.000000</vAcc></extensions></trkpt>
      <trkpt lon="-123.279020" lat="44.563146"><ele>72.995804</ele><time>2020-10-27T19:05:49Z</time><extensions><speed>0.000000</speed><course>268.242188</course><hAcc>30.000000</hAcc><vAcc>4.000000</vAcc></extensions></trkpt>
      <trkpt lon="-123.278962" lat="44.562971"><ele>73.012589</ele><time>2020-10-27T19:12:06Z</time><extensions><speed>0.000000</speed><course>-1.000000</course><hAcc>30.000000</hAcc><vAcc>4.000000</vAcc></extensions></trkpt>
      <trkpt lon="-123.278962" lat="44.562971"><ele>72.994751</ele><time>2020-10-27T19:12:07Z</time><extensions><speed>0.000000</speed><course>-1.000000</course><hAcc>30.000000</hAcc><vAcc>4.000000</vAcc></extensions></trkpt>
      <trkpt lon="-123.278962" lat="44.562971"><ele>72.859749</ele><time>2020-10-27T19:12:08Z</time><extensions><speed>0.000000</speed><course>-1.000000</course><hAcc>30.000000</hAcc><vAcc>4.000000</vAcc></extensions></trkpt>
      <trkpt lon="-123.278962" lat="44.562971"><ele>72.951225</ele><time>2020-10-27T19:12:09Z</time><extensions><speed>0.000000</speed><course>-1.000000</course><hAcc>30.000000</hAcc><vAcc>4.000000</vAcc></extensions></trkpt>
      <trkpt lon="-123.278962" lat="44.562971"><ele>72.897240</ele><time>2020-10-27T19:12:10Z</time><extensions><speed>0.000000</speed><course>-1.000000</course><hAcc>30.000000</hAcc><vAcc>4.000000</vAcc></extensions></trkpt>
      <trkpt lon="-123.278962" lat="44.562971"><ele>72.883522</ele><time>2020-10-27T19:12:11Z</time><extensions><speed>0.000000</speed><course>-1.000000</course><hAcc>30.000000</hAcc><vAcc>4.000000</vAcc></extensions></trkpt>
    </trkseg>
  </trk>
</gpx>