<?xml version="1.0" encoding="UTF-8"?>
<gpx version="1.1" creator="Apple Health Export" xmlns="http://www.topografix.com/GPX/1/1" xmlns:xsi="http://www.w3.org/2001/XMLSchema-instance" xsi:schemaLocation="http://www.topografix.com/GPX/1/1 http://www.topografix.com/GPX/1/1/gpx.xsd">
  <metadata>
    <time>2021-02-21T19:24:47Z</time>
  </metadata>
  <trk>
    <name>Route 2020-10-07 5:12pm</name>
    <trkseg>
      <trkpt lon="-123.283325" lat="44.573488"><ele>62.926399</ele><time>2020-10-08T00:07:17Z</time><extensions><speed>5.080000</speed><course>187.734375</course><hAcc>10.000000</hAcc><vAcc>16.000000</vAcc></extensions></trkpt>
      <trkpt lon="-123.283325" lat="44.573488"><ele>62.926399</ele><time>2020-10-08T00:07:21Z</time><extensions><speed>5.080000</speed><course>187.734375</course><hAcc>10.000000</hAcc><vAcc>16.000000</vAcc></extensions></trkpt>
      <trkpt lon="-123.283225" lat="44.573115"><ele>74.386612</ele><time>2020-10-08T00:07:26Z</time><extensions><speed>5.051241</speed><course>176.938721</course><hAcc>31.998320</hAcc><vAcc>52.296581</vAcc></extensions></trkpt>
      <trkpt lon="-123.283451" lat="44.573034"><ele>70.046211</ele><time>2020-10-08T00:07:26Z</time><extensions><speed>5.570000</speed><course>184.921875</course><hAcc>10.000000</hAcc><vAcc>12.000000</vAcc></extensions></trkpt>
      <trkpt lon="-123.283555" lat="44.572974"><ele>76.358711</ele><time>2020-10-08T00:07:27Z</time><extensions><speed>5.570000</speed><course>182.109375</course><hAcc>5.000000</hAcc><vAcc>3.000000</vAcc></extensions></trkpt>
      <trkpt lon="-123.283554" lat="44.572926"><ele>76.642220</ele><time>2020-10-08T00:07:28Z</time><extensions><speed>5.420000</speed><course>178.242188</course><hAcc>5.000000</hAcc><vAcc>3.000000</vAcc></extensions></trkpt>
      <trkpt lon="-123.283536" lat="44.572871"><ele>76.398445</ele><time>2020-10-08T00:07:29Z</time><extensions><speed>5.350000</speed><course>182.109375</course><hAcc>5.000000</hAcc><vAcc>3.000000</vAcc></extensions></trkpt>
      <trkpt lon="-123.283481" lat="44.572864"><ele>73.738838</ele><time>2020-10-08T00:07:30Z</time><extensions><speed>5.240000</speed><course>181.054688</course><hAcc>5.000000</hAcc><vAcc>3.000000</vAcc></extensions></trkpt>
      <trkpt lon="-123.283488" lat="44.572809"><ele>73.909431</ele><time>2020-10-08T00:07:31Z</time><extensions><speed>5.420000</speed><course>184.218750</course><hAcc>5.000000</hAcc><vAcc>3.000000</vAcc></extensions></trkpt>
      <trkpt lon="-123.283486" lat="44.572760"><ele>73.934151</ele><time>2020-10-08T00:07:32Z</time><extensions><speed>5.420000</speed><course>182.109375</course><hAcc>5.000000</hAcc><vAcc>3.000000</vAcc></extensions></trkpt>
      <trkpt lon="-123.283478" lat="44.572702"><ele>74.167976</ele><time>2020-10-08T00:07:33Z</time><extensions><speed>5.420000</speed><course>179.648438</course><hAcc>5.000000</hAcc><vAcc>3.000000</vAcc></extensions></trkpt>
      <trkpt lon="-123.283472" lat="44.572656"><ele>73.723335</ele><time>2020-10-08T00:07:34Z</time><extensions><speed>5.520000</speed><course>180.351562</course><hAcc>5.000000</hAcc><vAcc>3.000000</vAcc></extensions></trkpt>
      <trkpt lon="-123.283467" lat="44.572598"><ele>73.824104</ele><time>2020-10-08T00:07:35Z</time><extensions><speed>5.620000</speed><course>180.703125</course><hAcc>5.000000</hAcc><vAcc>3.000000</vAcc></extensions></trkpt>
      <trkpt lon="-123.283473" lat="44.572552"><ele>74.127998</ele><time>2020-10-08T00:07:36Z</time><extensions><speed>5.760000</speed><course>182.460938</course><hAcc>5.000000</hAcc><vAcc>3.000000</vAcc></extensions></trkpt>
      <trkpt lon="-123.283476" lat="44.572501"><ele>74.137581</ele><time>2020-10-08T00:07:37Z</time><extensions><speed>5.810000</speed><course>185.273438</course><hAcc>5.000000</hAcc><vAcc>3.000000</vAcc></extensions></trkpt>
      <trkpt lon="-123.283465" lat="44.572453"><ele>73.703438</ele><time>2020-10-08T00:07:38Z</time><extensions><speed>5.760000</speed><course>182.109375</course><hAcc>5.000000</hAcc><vAcc>3.000000</vAcc></extensions></trkpt>
      <trkpt lon="-123.283466" lat="44.572404"><ele>73.093147</ele><time>2020-10-08T00:07:39Z</time><extensions><speed>5.580000</speed><course>181.757812</course><hAcc>5.000000</hAcc><vAcc>3.000000</vAcc></extensions></trkpt>
      <trkpt lon="-123.283464" lat="44.572354"><ele>72.559029</ele><time>2020-10-08T00:07:40Z</time><extensions><speed>5.340000</speed><course>177.890625</course><hAcc>5.000000</hAcc><vAcc>3.000000</vAcc></extensions></trkpt>
      <trkpt lon="-123.283466" lat="44.572306"><ele>72.792488</ele><time>2020-10-08T00:07:41Z</time><extensions><speed>5.370000</speed><course>182.109375</course><hAcc>5.000000</hAcc><vAcc>3.000000</vAcc></extensions></trkpt>
      <trkpt lon="-123.283469" lat="44.572258"><ele>72.887947</ele><time>2020-10-08T00:07:42Z</time><extensions><speed>5.380000</speed><course>182.109375</course><hAcc>5.000000</hAcc><vAcc>3.000000</vAcc></extensions></trkpt>
      <trkpt lon="-123.283469" lat="44.572205"><ele>73.127388</ele><time>2020-10-08T00:07:43Z</time><extensions><speed>5.370000</speed><course>181.406250</course><hAcc>5.000000</hAcc><vAcc>3.000000</vAcc></extensions></trkpt>
      <trkpt lon="-123.283460" lat="44.572171"><ele>72.315804</ele><time>2020-10-08T00:07:44Z</time><extensions><speed>5.080000</speed><course>176.484375</course><hAcc>5.000000</hAcc><vAcc>3.000000</vAcc></extensions></trkpt>
      <trkpt lon="-123.283472" lat="44.572126"><ele>72.549141</ele><time>2020-10-08T00:07:45Z</time><extensions><speed>4.940000</speed><course>189.492188</course><hAcc>5.000000</hAcc><vAcc>3.000000</vAcc></extensions></trkpt>
      <trkpt lon="-123.283475" lat="44.572087"><ele>72.852852</ele><time>2020-10-08T00:07:46Z</time><extensions><speed>4.550000</speed><course>182.109375</course><hAcc>5.000000</hAcc><vAcc>3.000000</vAcc></extensions></trkpt>
      <trkpt lon="-123.283480" lat="44.572042"><ele>72.709419</ele><time>2020-10-08T00:07:47Z</time><extensions><speed>4.830000</speed><course>185.976562</course><hAcc>5.000000</hAcc><vAcc>3.000000</vAcc></extensions></trkpt>
      <trkpt lon="-123.283478" lat="44.572008"><ele>72.618538</ele><time>2020-10-08T00:07:48Z</time><extensions><speed>4.550000</speed><course>179.648438</course><hAcc>5.000000</hAcc><vAcc>3.000000</vAcc></extensions></trkpt>
      <trkpt lon="-123.283482" lat="44.571971"><ele>72.682442</ele><time>2020-10-08T00:07:49Z</time><extensions><speed>4.060000</speed><course>182.812500</course><hAcc>5.000000</hAcc><vAcc>3.000000</vAcc></extensions></trkpt>
      <trkpt lon="-123.283483" lat="44.571944"><ele>72.720116</ele><time>2020-10-08T00:07:50Z</time><extensions><speed>3.580000</speed><course>182.460938</course><hAcc>5.000000</hAcc><vAcc>3.000000</vAcc></extensions></trkpt>
      <trkpt lon="-123.283484" lat="44.571923"><ele>72.784836</ele><time>2020-10-08T00:07:51Z</time><extensions><speed>2.240000</speed><course>183.867188</course><hAcc>5.000000</hAcc><vAcc>3.000000</vAcc></extensions></trkpt>
      <trkpt lon="-123.283484" lat="44.571907"><ele>72.844704</ele><time>2020-10-08T00:07:52Z</time><extensions><speed>2.240000</speed><course>181.054688</course><hAcc>5.000000</hAcc><vAcc>3.000000</vAcc></extensions></trkpt>
      <trkpt lon="-123.283488" lat="44.571892"><ele>72.902870</ele><time>2020-10-08T00:07:53Z</time><extensions><speed>1.770000</speed><course>179.648438</course><hAcc>5.000000</hAcc><vAcc>3.000000</vAcc></extensions></trkpt>
      <trkpt lon="-123.283492" lat="44.571877"><ele>72.856979</ele><time>2020-10-08T00:07:54Z</time><extensions><speed>1.600000</speed><course>180.000000</course><hAcc>5.000000</hAcc><vAcc>3.000000</vAcc></extensions></trkpt>
      <trkpt lon="-123.283496" lat="44.571868"><ele>72.923752</ele><time>2020-10-08T00:07:55Z</time><extensions><speed>1.590000</speed><course>189.492188</course><hAcc>5.000000</hAcc><vAcc>3.000000</vAcc></extensions></trkpt>
      <trkpt lon="-123.283498" lat="44.571862"><ele>73.163689</ele><time>2020-10-08T00:07:56Z</time><extensions><speed>0.600000</speed><course>185.273438</course><hAcc>5.000000</hAcc><vAcc>3.000000</vAcc></extensions></trkpt>
      <trkpt lon="-123.283501" lat="44.571861"><ele>72.875618</ele><time>2020-10-08T00:07:57Z</time><extensions><speed>0.600000</speed><course>182.109375</course><hAcc>5.000000</hAcc><vAcc>3.000000</vAcc></extensions></trkpt>
      <trkpt lon="-123.283501" lat="44.571861"><ele>72.853554</ele><time>2020-10-08T00:07:58Z</time><extensions><speed>0.470000</speed><course>178.242188</course><hAcc>5.000000</hAcc><vAcc>3.000000</vAcc></extensions></trkpt>
      <trkpt lon="-123.283503" lat="44.571862"><ele>72.888885</ele><time>2020-10-08T00:07:59Z</time><extensions><speed>0.430000</speed><course>196.171875</course><hAcc>5.000000</hAcc><vAcc>3.000000</vAcc></extensions></trkpt>
      <trkpt lon="-123.283503" lat="44.571862"><ele>73.041161</ele><time>2020-10-08T00:08:00Z</time><extensions><speed>0.000000</speed><course>177.539062</course><hAcc>5.000000</hAcc><vAcc>3.000000</vAcc></extensions></trkpt>
      <trkpt lon="-123.283506" lat="44.571855"><ele>73.042717</ele><time>2020-10-08T00:08:01Z</time><extensions><speed>1.570000</speed><course>189.843750</course><hAcc>5.000000</hAcc><vAcc>3.000000</vAcc></extensions></trkpt>
      <trkpt lon="-123.283507" lat="44.571833"><ele>72.763695</ele><time>2020-10-08T00:08:02Z</time><extensions><speed>2.670000</speed><course>174.726562</course><hAcc>5.000000</hAcc><vAcc>3.000000</vAcc></extensions></trkpt>
      <trkpt lon="-123.283497" lat="44.571805"><ele>73.254494</ele><time>2020-10-08T00:08:03Z</time><extensions><speed>2.670000</speed><course>161.718750</course><hAcc>5.000000</hAcc><vAcc>3.000000</vAcc></extensions></trkpt>
      <trkpt lon="-123.283484" lat="44.571777"><ele>73.084251</ele><time>2020-10-08T00:08:04Z</time><extensions><speed>2.910000</speed><course>165.937500</course><hAcc>5.000000</hAcc><vAcc>3.000000</vAcc></extensions></trkpt>
      <trkpt lon="-123.283459" lat="44.571747"><ele>73.327888</ele><time>2020-10-08T00:08:05Z</time><extensions><speed>3.050000</speed><course>152.578125</course><hAcc>5.000000</hAcc><vAcc>3.000000</vAcc></extensions></trkpt>
      <trkpt lon="-123.283423" lat="44.571717"><ele>72.889778</ele><time>2020-10-08T00:08:06Z</time><extensions><speed>3.870000</speed><course>143.437500</course><hAcc>5.000000</hAcc><vAcc>3.000000</vAcc></extensions></trkpt>
      <trkpt lon="-123.283340" lat="44.571678"><ele>72.806664</ele><time>2020-10-08T00:08:07Z</time><extensions><speed>5.320000</speed><course>139.218750</course><hAcc>5.000000</hAcc><vAcc>3.000000</vAcc></extensions></trkpt>
      <trkpt lon="-123.283303" lat="44.571630"><ele>72.655334</ele><time>2020-10-08T00:08:08Z</time><extensions><speed>5.320000</speed><course>151.171875</course><hAcc>5.000000</hAcc><vAcc>3.000000</vAcc></extensions></trkpt>
      <trkpt lon="-123.283259" lat="44.571593"><ele>72.604370</ele><time>2020-10-08T00:08:09Z</time><extensions><speed>5.580000</speed><course>146.250000</course><hAcc>5.000000</hAcc><vAcc>3.000000</vAcc></extensions></trkpt>
      <trkpt lon="-123.283199" lat="44.571561"><ele>72.496605</ele><time>2020-10-08T00:08:10Z</time><extensions><speed>5.810000</speed><course>134.296875</course><hAcc>5.000000</hAcc><vAcc>3.000000</vAcc></extensions></trkpt>
      <trkpt lon="-123.283144" lat="44.571522"><ele>72.622879</ele><time>2020-10-08T00:08:11Z</time><extensions><speed>5.850000</speed><course>134.648438</course><hAcc>5.000000</hAcc><vAcc>3.000000</vAcc></extensions></trkpt>
      <trkpt lon="-123.283080" lat="44.571475"><ele>72.485962</ele><time>2020-10-08T00:08:12Z</time><extensions><speed>6.490000</speed><course>134.648438</course><hAcc>5.000000</hAcc><vAcc>3.000000</vAcc></extensions></trkpt>
      <trkpt lon="-123.283025" lat="44.571431"><ele>72.413712</ele><time>2020-10-08T00:08:13Z</time><extensions><speed>6.490000</speed><course>138.164062</course><hAcc>5.000000</hAcc><vAcc>3.000000</vAcc></extensions></trkpt>
      <trkpt lon="-123.282981" lat="44.571398"><ele>72.099854</ele><time>2020-10-08T00:08:14Z</time><extensions><speed>6.490000</speed><course>138.867188</course><hAcc>5.000000</hAcc><vAcc>3.000000</vAcc></extensions></trkpt>
      <trkpt lon="-123.282931" lat="44.571363"><ele>72.541679</ele><time>2020-10-08T00:08:15Z</time><extensions><speed>6.330000</speed><course>139.218750</course><hAcc>5.000000</hAcc><vAcc>3.000000</vAcc></extensions></trkpt>
      <trkpt lon="-123.282899" lat="44.571318"><ele>72.155579</ele><time>2020-10-08T00:08:16Z</time><extensions><speed>6.100000</speed><course>151.875000</course><hAcc>5.000000</hAcc><vAcc>3.000000</vAcc></extensions></trkpt>
      <trkpt lon="-123.282847" lat="44.571265"><ele>72.143982</ele><time>2020-10-08T00:08:17Z</time><extensions><speed>6.220000</speed><course>140.625000</course><hAcc>5.000000</hAcc><vAcc>3.000000</vAcc></extensions></trkpt>
      <trkpt lon="-123.282794" lat="44.571227"><ele>71.877411</ele><time>2020-10-08T00:08:18Z</time><extensions><speed>6.220000</speed><course>138.164062</course><hAcc>5.000000</hAcc><vAcc>3.000000</vAcc></extensions></trkpt>
      <trkpt lon="-123.282748" lat="44.571189"><ele>71.995895</ele><time>2020-10-08T00:08:19Z</time><extensions><speed>6.220000</speed><course>139.218750</course><hAcc>5.000000</hAcc><vAcc>3.000000</vAcc></extensions></trkpt>
      <trkpt lon="-123.282707" lat="44.571151"><ele>72.325073</ele><time>2020-10-08T00:08:20Z</time><extensions><speed>5.700000</speed><course>140.625000</course><hAcc>5.000000</hAcc><vAcc>3.000000</vAcc></extensions></trkpt>
      <trkpt lon="-123.282668" lat="44.571111"><ele>72.097260</ele><time>2020-10-08T00:08:21Z</time><extensions><speed>5.410000</speed><course>143.437500</course><hAcc>5.000000</hAcc><vAcc>3.000000</vAcc></extensions></trkpt>
      <trkpt lon="-123.282625" lat="44.571074"><ele>72.505608</ele><time>2020-10-08T00:08:22Z</time><extensions><speed>5.410000</speed><course>141.679688</course><hAcc>5.000000</hAcc><vAcc>3.000000</vAcc></extensions></trkpt>
      <trkpt lon="-123.282585" lat="44.571034"><ele>72.490112</ele><time>2020-10-08T00:08:23Z</time><extensions><speed>5.370000</speed><course>142.734375</course><hAcc>5.000000</hAcc><vAcc>3.000000</vAcc></extensions></trkpt>
      <trkpt lon="-123.282545" lat="44.571003"><ele>72.537186</ele><time>2020-10-08T00:08:24Z</time><extensions><speed>5.280000</speed><course>140.273438</course><hAcc>5.000000</hAcc><vAcc>3.000000</vAcc></extensions></trkpt>
      <trkpt lon="-123.282511" lat="44.570976"><ele>72.253952</ele><time>2020-10-08T00:08:25Z</time><extensions><speed>5.190000</speed><course>140.625000</course><hAcc>5.000000</hAcc><vAcc>3.000000</vAcc></extensions></trkpt>
      <trkpt lon="-123.282474" lat="44.570942"><ele>72.127785</ele><time>2020-10-08T00:08:26Z</time><extensions><speed>4.650000</speed><course>143.437500</course><hAcc>5.000000</hAcc><vAcc>3.000000</vAcc></extensions></trkpt>
      <trkpt lon="-123.282442" lat="44.570903"><ele>72.238365</ele><time>2020-10-08T00:08:27Z</time><extensions><speed>4.690000</speed><course>140.625000</course><hAcc>5.000000</hAcc><vAcc>3.000000</vAcc></extensions></trkpt>
      <trkpt lon="-123.282399" lat="44.570888"><ele>72.372589</ele><time>2020-10-08T00:08:28Z</time><extensions><speed>4.650000</speed><course>145.898438</course><hAcc>5.000000</hAcc><vAcc>3.000000</vAcc></extensions></trkpt>
      <trkpt lon="-123.282361" lat="44.570855"><ele>72.562607</ele><time>2020-10-08T00:08:29Z</time><extensions><speed>3.930000</speed><course>144.492188</course><hAcc>5.000000</hAcc><vAcc>3.000000</vAcc></extensions></trkpt>
      <trkpt lon="-123.282332" lat="44.570823"><ele>72.687180</ele><time>2020-10-08T00:08:30Z</time><extensions><speed>3.930000</speed><course>138.164062</course><hAcc>5.000000</hAcc><vAcc>3.000000</vAcc></extensions></trkpt>
      <trkpt lon="-123.282294" lat="44.570790"><ele>72.419304</ele><time>2020-10-08T00:08:31Z</time><extensions><speed>4.410000</speed><course>140.976562</course><hAcc>5.000000</hAcc><vAcc>3.000000</vAcc></extensions></trkpt>
      <trkpt lon="-123.282251" lat="44.570755"><ele>72.636963</ele><time>2020-10-08T00:08:32Z</time><extensions><speed>4.720000</speed><course>140.273438</course><hAcc>5.000000</hAcc><vAcc>3.000000</vAcc></extensions></trkpt>
      <trkpt lon="-123.282208" lat="44.570716"><ele>72.929413</ele><time>2020-10-08T00:08:33Z</time><extensions><speed>4.720000</speed><course>140.625000</course><hAcc>5.000000</hAcc><vAcc>3.000000</vAcc></extensions></trkpt>
      <trkpt lon="-123.282170" lat="44.570682"><ele>72.778702</ele><time>2020-10-08T00:08:34Z</time><extensions><speed>4.720000</speed><course>141.328125</course><hAcc>5.000000</hAcc><vAcc>3.000000</vAcc></extensions></trkpt>
      <trkpt lon="-123.282124" lat="44.570650"><ele>72.853722</ele><time>2020-10-08T00:08:35Z</time><extensions><speed>4.700000</speed><course>136.054688</course><hAcc>5.000000</hAcc><vAcc>3.000000</vAcc></extensions></trkpt>
      <trkpt lon="-123.282089" lat="44.570617"><ele>72.857552</ele><time>2020-10-08T00:08:36Z</time><extensions><speed>4.500000</speed><course>138.867188</course><hAcc>5.000000</hAcc><vAcc>3.000000</vAcc></extensions></trkpt>
      <trkpt lon="-123.282050" lat="44.570588"><ele>72.895905</ele><time>2020-10-08T00:08:37Z</time><extensions><speed>4.500000</speed><course>139.570312</course><hAcc>5.000000</hAcc><vAcc>3.000000</vAcc></extensions></trkpt>
      <trkpt lon="-123.282011" lat="44.570560"><ele>73.059608</ele><time>2020-10-08T00:08:38Z</time><extensions><speed>4.440000</speed><course>138.164062</course><hAcc>5.000000</hAcc><vAcc>3.000000</vAcc></extensions></trkpt>
      <trkpt lon="-123.281972" lat="44.570531"><ele>72.765022</ele><time>2020-10-08T00:08:39Z</time><extensions><speed>4.340000</speed><course>138.164062</course><hAcc>5.000000</hAcc><vAcc>3.000000</vAcc></extensions></trkpt>
      <trkpt lon="-123.281934" lat="44.570501"><ele>72.714714</ele><time>2020-10-08T00:08:40Z</time><extensions><speed>4.340000</speed><course>138.164062</course><hAcc>5.000000</hAcc><vAcc>3.000000</vAcc></extensions></trkpt>
      <trkpt lon="-123.281896" lat="44.570470"><ele>72.619835</ele><time>2020-10-08T00:08:41Z</time><extensions><speed>4.560000</speed><course>140.625000</course><hAcc>5.000000</hAcc><vAcc>3.000000</vAcc></extensions></trkpt>
      <trkpt lon="-123.281861" lat="44.570438"><ele>72.745499</ele><time>2020-10-08T00:08:42Z</time><extensions><speed>4.560000</speed><course>142.382812</course><hAcc>5.000000</hAcc><vAcc>3.000000</vAcc></extensions></trkpt>
      <trkpt lon="-123.281826" lat="44.570408"><ele>72.856682</ele><time>2020-10-08T00:08:43Z</time><extensions><speed>4.370000</speed><course>139.921875</course><hAcc>5.000000</hAcc><vAcc>3.000000</vAcc></extensions></trkpt>
      <trkpt lon="-123.281788" lat="44.570381"><ele>72.744759</ele><time>2020-10-08T00:08:44Z</time><extensions><speed>4.250000</speed><course>135.351562</course><hAcc>5.000000</hAcc><vAcc>3.000000</vAcc></extensions></trkpt>
      <trkpt lon="-123.281748" lat="44.570354"><ele>72.645653</ele><time>2020-10-08T00:08:45Z</time><extensions><speed>4.250000</speed><course>132.890625</course><hAcc>5.000000</hAcc><vAcc>3.000000</vAcc></extensions></trkpt>
      <trkpt lon="-123.281710" lat="44.570329"><ele>72.737404</ele><time>2020-10-08T00:08:46Z</time><extensions><speed>3.700000</speed><course>134.296875</course><hAcc>5.000000</hAcc><vAcc>3.000000</vAcc></extensions></trkpt>
      <trkpt lon="-123.281676" lat="44.570302"><ele>72.702759</ele><time>2020-10-08T00:08:47Z</time><extensions><speed>4.210000</speed><course>138.164062</course><hAcc>5.000000</hAcc><vAcc>3.000000</vAcc></extensions></trkpt>
      <trkpt lon="-123.281639" lat="44.570269"><ele>72.738945</ele><time>2020-10-08T00:08:48Z</time><extensions><speed>4.210000</speed><course>140.273438</course><hAcc>5.000000</hAcc><vAcc>3.000000</vAcc></extensions></trkpt>
      <trkpt lon="-123.281599" lat="44.570239"><ele>72.806618</ele><time>2020-10-08T00:08:49Z</time><extensions><speed>4.330000</speed><course>136.406250</course><hAcc>5.000000</hAcc><vAcc>3.000000</vAcc></extensions></trkpt>
      <trkpt lon="-123.281555" lat="44.570209"><ele>72.768944</ele><time>2020-10-08T00:08:50Z</time><extensions><speed>4.880000</speed><course>134.296875</course><hAcc>5.000000</hAcc><vAcc>3.000000</vAcc></extensions></trkpt>
      <trkpt lon="-123.281508" lat="44.570179"><ele>72.795639</ele><time>2020-10-08T00:08:51Z</time><extensions><speed>4.600000</speed><course>132.539062</course><hAcc>5.000000</hAcc><vAcc>3.000000</vAcc></extensions></trkpt>
      <trkpt lon="-123.281467" lat="44.570147"><ele>72.957565</ele><time>2020-10-08T00:08:52Z</time><extensions><speed>4.840000</speed><course>138.515625</course><hAcc>5.000000</hAcc><vAcc>3.000000</vAcc></extensions></trkpt>
      <trkpt lon="-123.281415" lat="44.570105"><ele>72.912697</ele><time>2020-10-08T00:08:53Z</time><extensions><speed>4.840000</speed><course>140.976562</course><hAcc>5.000000</hAcc><vAcc>3.000000</vAcc></extensions></trkpt>
      <trkpt lon="-123.281394" lat="44.570075"><ele>73.286087</ele><time>2020-10-08T00:08:54Z</time><extensions><speed>4.840000</speed><course>150.468750</course><hAcc>5.000000</hAcc><vAcc>3.000000</vAcc></extensions></trkpt>
      <trkpt lon="-123.281358" lat="44.570041"><ele>73.211639</ele><time>2020-10-08T00:08:55Z</time><extensions><speed>4.590000</speed><course>139.921875</course><hAcc>5.000000</hAcc><vAcc>3.000000</vAcc></extensions></trkpt>
      <trkpt lon="-123.281316" lat="44.570005"><ele>72.785545</ele><time>2020-10-08T00:08:56Z</time><extensions><speed>4.880000</speed><course>136.757812</course><hAcc>5.000000</hAcc><vAcc>3.000000</vAcc></extensions></trkpt>
      <trkpt lon="-123.281267" lat="44.569974"><ele>73.294151</ele><time>2020-10-08T00:08:57Z</time><extensions><speed>5.100000</speed><course>131.132812</course><hAcc>5.000000</hAcc><vAcc>3.000000</vAcc></extensions></trkpt>
      <trkpt lon="-123.281221" lat="44.569948"><ele>73.002274</ele><time>2020-10-08T00:08:58Z</time><extensions><speed>4.880000</speed><course>131.132812</course><hAcc>5.000000</hAcc><vAcc>3.000000</vAcc></extensions></trkpt>
      <trkpt lon="-123.281165" lat="44.569905"><ele>72.910004</ele><time>2020-10-08T00:08:59Z</time><extensions><speed>5.100000</speed><course>136.054688</course><hAcc>5.000000</hAcc><vAcc>3.000000</vAcc></extensions></trkpt>
      <trkpt lon="-123.281117" lat="44.569870"><ele>72.882866</ele><time>2020-10-08T00:09:00Z</time><extensions><speed>5.190000</speed><course>140.273438</course><hAcc>5.000000</hAcc><vAcc>3.000000</vAcc></extensions></trkpt>
      <trkpt lon="-123.281069" lat="44.569835"><ele>72.677513</ele><time>2020-10-08T00:09:01Z</time><extensions><speed>5.190000</speed><course>137.109375</course><hAcc>5.000000</hAcc><vAcc>3.000000</vAcc></extensions></trkpt>
      <trkpt lon="-123.281050" lat="44.569804"><ele>72.360184</ele><time>2020-10-08T00:09:02Z</time><extensions><speed>5.190000</speed><course>143.085938</course><hAcc>5.000000</hAcc><vAcc>3.000000</vAcc></extensions></trkpt>
      <trkpt lon="-123.281015" lat="44.569766"><ele>72.298958</ele><time>2020-10-08T00:09:03Z</time><extensions><speed>5.100000</speed><course>141.679688</course><hAcc>5.000000</hAcc><vAcc>3.000000</vAcc></extensions></trkpt>
      <trkpt lon="-123.280969" lat="44.569731"><ele>71.940918</ele><time>2020-10-08T00:09:04Z</time><extensions><speed>5.100000</speed><course>134.296875</course><hAcc>5.000000</hAcc><vAcc>3.000000</vAcc></extensions></trkpt>
      <trkpt lon="-123.280925" lat="44.569704"><ele>72.060112</ele><time>2020-10-08T00:09:05Z</time><extensions><speed>5.100000</speed><course>134.296875</course><hAcc>5.000000</hAcc><vAcc>3.000000</vAcc></extensions></trkpt>
      <trkpt lon="-123.280878" lat="44.569665"><ele>72.295479</ele><time>2020-10-08T00:09:06Z</time><extensions><speed>5.490000</speed><course>138.515625</course><hAcc>5.000000</hAcc><vAcc>3.000000</vAcc></extensions></trkpt>
      <trkpt lon="-123.280831" lat="44.569626"><ele>72.414566</ele><time>2020-10-08T00:09:07Z</time><extensions><speed>5.490000</speed><course>137.812500</course><hAcc>5.000000</hAcc><vAcc>3.000000</vAcc></extensions></trkpt>
      <trkpt lon="-123.280797" lat="44.569592"><ele>72.237953</ele><time>2020-10-08T00:09:08Z</time><extensions><speed>5.480000</speed><course>133.945312</course><hAcc>5.000000</hAcc><vAcc>3.000000</vAcc></extensions></trkpt>
      <trkpt lon="-123.280748" lat="44.569557"><ele>72.258835</ele><time>2020-10-08T00:09:09Z</time><extensions><speed>5.180000</speed><course>139.570312</course><hAcc>5.000000</hAcc><vAcc>3.000000</vAcc></extensions></trkpt>
      <trkpt lon="-123.280706" lat="44.569522"><ele>72.106689</ele><time>2020-10-08T00:09:10Z</time><extensions><speed>5.180000</speed><course>140.625000</course><hAcc>5.000000</hAcc><vAcc>3.000000</vAcc></extensions></trkpt>
      <trkpt lon="-123.280663" lat="44.569477"><ele>71.982117</ele><time>2020-10-08T00:09:11Z</time><extensions><speed>5.960000</speed><course>138.867188</course><hAcc>5.000000</hAcc><vAcc>3.000000</vAcc></extensions></trkpt>
      <trkpt lon="-123.280612" lat="44.569435"><ele>72.019363</ele><time>2020-10-08T00:09:12Z</time><extensions><speed>5.960000</speed><course>138.867188</course><hAcc>5.000000</hAcc><vAcc>3.000000</vAcc></extensions></trkpt>
      <trkpt lon="-123.280565" lat="44.569391"><ele>72.169540</ele><time>2020-10-08T00:09:13Z</time><extensions><speed>5.960000</speed><course>141.328125</course><hAcc>5.000000</hAcc><vAcc>3.000000</vAcc></extensions></trkpt>
      <trkpt lon="-123.280518" lat="44.569349"><ele>72.209984</ele><time>2020-10-08T00:09:14Z</time><extensions><speed>6.000000</speed><course>140.273438</course><hAcc>5.000000</hAcc><vAcc>3.000000</vAcc></extensions></trkpt>
      <trkpt lon="-123.280475" lat="44.569309"><ele>72.374092</ele><time>2020-10-08T00:09:15Z</time><extensions><speed>6.000000</speed><course>137.812500</course><hAcc>5.000000</hAcc><vAcc>3.000000</vAcc></extensions></trkpt>
      <trkpt lon="-123.280426" lat="44.569275"><ele>72.454689</ele><time>2020-10-08T00:09:16Z</time><extensions><speed>5.610000</speed><course>138.164062</course><hAcc>5.000000</hAcc><vAcc>3.000000</vAcc></extensions></trkpt>
      <trkpt lon="-123.280373" lat="44.569237"><ele>72.430428</ele><time>2020-10-08T00:09:17Z</time><extensions><speed>5.880000</speed><course>135.703125</course><hAcc>5.000000</hAcc><vAcc>3.000000</vAcc></extensions></trkpt>
      <trkpt lon="-123.280328" lat="44.569203"><ele>72.293579</ele><time>2020-10-08T00:09:18Z</time><extensions><speed>5.610000</speed><course>137.460938</course><hAcc>5.000000</hAcc><vAcc>3.000000</vAcc></extensions></trkpt>
      <trkpt lon="-123.280278" lat="44.569158"><ele>71.883133</ele><time>2020-10-08T00:09:19Z</time><extensions><speed>5.880000</speed><course>140.625000</course><hAcc>5.000000</hAcc><vAcc>3.000000</vAcc></extensions></trkpt>
      <trkpt lon="-123.280246" lat="44.569114"><ele>72.242691</ele><time>2020-10-08T00:09:20Z</time><extensions><speed>5.670000</speed><course>137.812500</course><hAcc>5.000000</hAcc><vAcc>3.000000</vAcc></extensions></trkpt>
      <trkpt lon="-123.280188" lat="44.569075"><ele>72.064781</ele><time>2020-10-08T00:09:21Z</time><extensions><speed>5.670000</speed><course>138.164062</course><hAcc>5.000000</hAcc><vAcc>3.000000</vAcc></extensions></trkpt>
      <trkpt lon="-123.280143" lat="44.569040"><ele>72.575935</ele><time>2020-10-08T00:09:22Z</time><extensions><speed>5.670000</speed><course>139.921875</course><hAcc>5.000000</hAcc><vAcc>3.000000</vAcc></extensions></trkpt>
      <trkpt lon="-123.280102" lat="44.568998"><ele>72.588112</ele><time>2020-10-08T00:09:23Z</time><extensions><speed>5.480000</speed><course>144.140625</course><hAcc>5.000000</hAcc><vAcc>3.000000</vAcc></extensions></trkpt>
      <trkpt lon="-123.280074" lat="44.568956"><ele>72.466728</ele><time>2020-10-08T00:09:24Z</time><extensions><speed>5.400000</speed><course>156.445312</course><hAcc>5.000000</hAcc><vAcc>3.000000</vAcc></extensions></trkpt>
      <trkpt lon="-123.280069" lat="44.568909"><ele>72.829575</ele><time>2020-10-08T00:09:25Z</time><extensions><speed>5.430000</speed><course>171.210938</course><hAcc>5.000000</hAcc><vAcc>3.000000</vAcc></extensions></trkpt>
      <trkpt lon="-123.280069" lat="44.568855"><ele>72.944923</ele><time>2020-10-08T00:09:26Z</time><extensions><speed>5.580000</speed><course>180.000000</course><hAcc>5.000000</hAcc><vAcc>3.000000</vAcc></extensions></trkpt>
      <trkpt lon="-123.280075" lat="44.568801"><ele>72.861107</ele><time>2020-10-08T00:09:27Z</time><extensions><speed>5.640000</speed><course>184.218750</course><hAcc>5.000000</hAcc><vAcc>3.000000</vAcc></extensions></trkpt>
      <trkpt lon="-123.280068" lat="44.568753"><ele>72.881134</ele><time>2020-10-08T00:09:28Z</time><extensions><speed>5.580000</speed><course>173.671875</course><hAcc>5.000000</hAcc><vAcc>3.000000</vAcc></extensions></trkpt>
      <trkpt lon="-123.280060" lat="44.568708"><ele>72.969406</ele><time>2020-10-08T00:09:29Z</time><extensions><speed>5.370000</speed><course>174.023438</course><hAcc>5.000000</hAcc><vAcc>3.000000</vAcc></extensions></trkpt>
      <trkpt lon="-123.280068" lat="44.568661"><ele>73.334587</ele><time>2020-10-08T00:09:30Z</time><extensions><speed>5.300000</speed><course>182.460938</course><hAcc>5.000000</hAcc><vAcc>3.000000</vAcc></extensions></trkpt>
      <trkpt lon="-123.280065" lat="44.568614"><ele>73.213760</ele><time>2020-10-08T00:09:31Z</time><extensions><speed>5.360000</speed><course>178.593750</course><hAcc>5.000000</hAcc><vAcc>3.000000</vAcc></extensions></trkpt>
      <trkpt lon="-123.280065" lat="44.568563"><ele>73.599670</ele><time>2020-10-08T00:09:32Z</time><extensions><speed>5.530000</speed><course>178.593750</course><hAcc>5.000000</hAcc><vAcc>3.000000</vAcc></extensions></trkpt>
      <trkpt lon="-123.280052" lat="44.568512"><ele>73.657791</ele><time>2020-10-08T00:09:33Z</time><extensions><speed>5.530000</speed><course>176.132812</course><hAcc>5.000000</hAcc><vAcc>3.000000</vAcc></extensions></trkpt>
      <trkpt lon="-123.280043" lat="44.568466"><ele>73.537056</ele><time>2020-10-08T00:09:34Z</time><extensions><speed>5.530000</speed><course>177.187500</course><hAcc>5.000000</hAcc><vAcc>3.000000</vAcc></extensions></trkpt>
      <trkpt lon="-123.280044" lat="44.568421"><ele>73.665184</ele><time>2020-10-08T00:09:35Z</time><extensions><speed>5.360000</speed><course>180.351562</course><hAcc>5.000000</hAcc><vAcc>3.000000</vAcc></extensions></trkpt>
      <trkpt lon="-123.280037" lat="44.568378"><ele>73.804153</ele><time>2020-10-08T00:09:36Z</time><extensions><speed>5.060000</speed><course>173.320312</course><hAcc>5.000000</hAcc><vAcc>3.000000</vAcc></extensions></trkpt>
      <trkpt lon="-123.280038" lat="44.568331"><ele>73.995445</ele><time>2020-10-08T00:09:37Z</time><extensions><speed>5.280000</speed><course>175.429688</course><hAcc>5.000000</hAcc><vAcc>3.000000</vAcc></extensions></trkpt>
      <trkpt lon="-123.280048" lat="44.568284"><ele>73.670692</ele><time>2020-10-08T00:09:38Z</time><extensions><speed>5.280000</speed><course>179.648438</course><hAcc>5.000000</hAcc><vAcc>3.000000</vAcc></extensions></trkpt>
      <trkpt lon="-123.280051" lat="44.568234"><ele>74.074341</ele><time>2020-10-08T00:09:39Z</time><extensions><speed>5.370000</speed><course>179.296875</course><hAcc>5.000000</hAcc><vAcc>3.000000</vAcc></extensions></trkpt>
      <trkpt lon="-123.280035" lat="44.568184"><ele>74.142075</ele><time>2020-10-08T00:09:40Z</time><extensions><speed>5.640000</speed><course>170.859375</course><hAcc>5.000000</hAcc><vAcc>3.000000</vAcc></extensions></trkpt>
      <trkpt lon="-123.280051" lat="44.568116"><ele>74.200813</ele><time>2020-10-08T00:09:41Z</time><extensions><speed>6.110000</speed><course>181.757812</course><hAcc>5.000000</hAcc><vAcc>3.000000</vAcc></extensions></trkpt>
      <trkpt lon="-123.280037" lat="44.568064"><ele>74.324150</ele><time>2020-10-08T00:09:42Z</time><extensions><speed>6.110000</speed><course>174.023438</course><hAcc>5.000000</hAcc><vAcc>3.000000</vAcc></extensions></trkpt>
      <trkpt lon="-123.280035" lat="44.568016"><ele>74.252098</ele><time>2020-10-08T00:09:43Z</time><extensions><speed>5.730000</speed><course>178.242188</course><hAcc>5.000000</hAcc><vAcc>3.000000</vAcc></extensions></trkpt>
      <trkpt lon="-123.280034" lat="44.567969"><ele>74.469597</ele><time>2020-10-08T00:09:44Z</time><extensions><speed>5.450000</speed><course>178.945312</course><hAcc>5.000000</hAcc><vAcc>3.000000</vAcc></extensions></trkpt>
      <trkpt lon="-123.280034" lat="44.567919"><ele>74.234695</ele><time>2020-10-08T00:09:45Z</time><extensions><speed>5.400000</speed><course>178.945312</course><hAcc>5.000000</hAcc><vAcc>3.000000</vAcc></extensions></trkpt>
      <trkpt lon="-123.280031" lat="44.567869"><ele>74.662064</ele><time>2020-10-08T00:09:46Z</time><extensions><speed>5.250000</speed><course>179.296875</course><hAcc>5.000000</hAcc><vAcc>3.000000</vAcc></extensions></trkpt>
      <trkpt lon="-123.280028" lat="44.567818"><ele>74.593498</ele><time>2020-10-08T00:09:47Z</time><extensions><speed>5.380000</speed><course>178.945312</course><hAcc>5.000000</hAcc><vAcc>3.000000</vAcc></extensions></trkpt>
      <trkpt lon="-123.280027" lat="44.567780"><ele>74.964790</ele><time>2020-10-08T00:09:48Z</time><extensions><speed>5.250000</speed><course>180.351562</course><hAcc>5.000000</hAcc><vAcc>3.000000</vAcc></extensions></trkpt>
      <trkpt lon="-123.280023" lat="44.567733"><ele>75.130501</ele><time>2020-10-08T00:09:49Z</time><extensions><speed>5.370000</speed><course>176.132812</course><hAcc>5.000000</hAcc><vAcc>3.000000</vAcc></extensions></trkpt>
      <trkpt lon="-123.279999" lat="44.567683"><ele>74.968521</ele><time>2020-10-08T00:09:50Z</time><extensions><speed>5.370000</speed><course>169.101562</course><hAcc>5.000000</hAcc><vAcc>3.000000</vAcc></extensions></trkpt>
      <trkpt lon="-123.279998" lat="44.567636"><ele>75.204491</ele><time>2020-10-08T00:09:51Z</time><extensions><speed>5.340000</speed><course>177.187500</course><hAcc>5.000000</hAcc><vAcc>3.000000</vAcc></extensions></trkpt>
      <trkpt lon="-123.280001" lat="44.567585"><ele>74.918243</ele><time>2020-10-08T00:09:52Z</time><extensions><speed>5.760000</speed><course>180.703125</course><hAcc>5.000000</hAcc><vAcc>3.000000</vAcc></extensions></trkpt>
      <trkpt lon="-123.279997" lat="44.567539"><ele>74.966484</ele><time>2020-10-08T00:09:53Z</time><extensions><speed>5.420000</speed><course>176.484375</course><hAcc>5.000000</hAcc><vAcc>3.000000</vAcc></extensions></trkpt>
      <trkpt lon="-123.279990" lat="44.567490"><ele>75.033447</ele><time>2020-10-08T00:09:54Z</time><extensions><speed>5.560000</speed><course>178.945312</course><hAcc>5.000000</hAcc><vAcc>3.000000</vAcc></extensions></trkpt>
      <trkpt lon="-123.279980" lat="44.567438"><ele>74.963005</ele><time>2020-10-08T00:09:55Z</time><extensions><speed>5.560000</speed><course>175.078125</course><hAcc>5.000000</hAcc><vAcc>3.000000</vAcc></extensions></trkpt>
      <trkpt lon="-123.279993" lat="44.567392"><ele>75.083237</ele><time>2020-10-08T00:09:56Z</time><extensions><speed>5.330000</speed><course>186.328125</course><hAcc>5.000000</hAcc><vAcc>3.000000</vAcc></extensions></trkpt>
      <trkpt lon="-123.279987" lat="44.567339"><ele>74.953613</ele><time>2020-10-08T00:09:57Z</time><extensions><speed>5.780000</speed><course>180.351562</course><hAcc>5.000000</hAcc><vAcc>3.000000</vAcc></extensions></trkpt>
      <trkpt lon="-123.279973" lat="44.567293"><ele>75.295181</ele><time>2020-10-08T00:09:58Z</time><extensions><speed>5.540000</speed><course>177.539062</course><hAcc>5.000000</hAcc><vAcc>3.000000</vAcc></extensions></trkpt>
      <trkpt lon="-123.279967" lat="44.567253"><ele>75.163292</ele><time>2020-10-08T00:09:59Z</time><extensions><speed>5.540000</speed><course>178.593750</course><hAcc>5.000000</hAcc><vAcc>3.000000</vAcc></extensions></trkpt>
      <trkpt lon="-123.279970" lat="44.567203"><ele>75.494591</ele><time>2020-10-08T00:10:00Z</time><extensions><speed>5.420000</speed><course>180.703125</course><hAcc>5.000000</hAcc><vAcc>3.000000</vAcc></extensions></trkpt>
      <trkpt lon="-123.279962" lat="44.567145"><ele>75.267586</ele><time>2020-10-08T00:10:01Z</time><extensions><speed>6.070000</speed><course>175.781250</course><hAcc>5.000000</hAcc><vAcc>3.000000</vAcc></extensions></trkpt>
      <trkpt lon="-123.279971" lat="44.567091"><ele>75.390526</ele><time>2020-10-08T00:10:02Z</time><extensions><speed>6.070000</speed><course>184.570312</course><hAcc>5.000000</hAcc><vAcc>3.000000</vAcc></extensions></trkpt>
      <trkpt lon="-123.279969" lat="44.567033"><ele>75.176689</ele><time>2020-10-08T00:10:03Z</time><extensions><speed>5.800000</speed><course>182.109375</course><hAcc>5.000000</hAcc><vAcc>3.000000</vAcc></extensions></trkpt>
      <trkpt lon="-123.279973" lat="44.566979"><ele>75.520630</ele><time>2020-10-08T00:10:04Z</time><extensions><speed>5.800000</speed><course>180.000000</course><hAcc>5.000000</hAcc><vAcc>3.000000</vAcc></extensions></trkpt>
      <trkpt lon="-123.279971" lat="44.566930"><ele>74.979225</ele><time>2020-10-08T00:10:05Z</time><extensions><speed>5.800000</speed><course>177.187500</course><hAcc>5.000000</hAcc><vAcc>3.000000</vAcc></extensions></trkpt>
      <trkpt lon="-123.279967" lat="44.566885"><ele>75.384254</ele><time>2020-10-08T00:10:06Z</time><extensions><speed>5.320000</speed><course>180.351562</course><hAcc>5.000000</hAcc><vAcc>3.000000</vAcc></extensions></trkpt>
      <trkpt lon="-123.279976" lat="44.566827"><ele>75.288849</ele><time>2020-10-08T00:10:07Z</time><extensions><speed>6.120000</speed><course>181.406250</course><hAcc>5.000000</hAcc><vAcc>3.000000</vAcc></extensions></trkpt>
      <trkpt lon="-123.279962" lat="44.566783"><ele>75.438499</ele><time>2020-10-08T00:10:08Z</time><extensions><speed>5.350000</speed><course>180.351562</course><hAcc>5.000000</hAcc><vAcc>3.000000</vAcc></extensions></trkpt>
      <trkpt lon="-123.279966" lat="44.566722"><ele>75.493988</ele><time>2020-10-08T00:10:09Z</time><extensions><speed>6.030000</speed><course>184.570312</course><hAcc>5.000000</hAcc><vAcc>3.000000</vAcc></extensions></trkpt>
      <trkpt lon="-123.279963" lat="44.566669"><ele>75.768440</ele><time>2020-10-08T00:10:10Z</time><extensions><speed>5.630000</speed><course>180.000000</course><hAcc>5.000000</hAcc><vAcc>3.000000</vAcc></extensions></trkpt>
      <trkpt lon="-123.279962" lat="44.566617"><ele>75.186272</ele><time>2020-10-08T00:10:11Z</time><extensions><speed>5.770000</speed><course>175.429688</course><hAcc>5.000000</hAcc><vAcc>3.000000</vAcc></extensions></trkpt>
      <trkpt lon="-123.279966" lat="44.566569"><ele>75.586159</ele><time>2020-10-08T00:10:12Z</time><extensions><speed>5.770000</speed><course>179.648438</course><hAcc>5.000000</hAcc><vAcc>3.000000</vAcc></extensions></trkpt>
      <trkpt lon="-123.279979" lat="44.566506"><ele>75.059227</ele><time>2020-10-08T00:10:13Z</time><extensions><speed>5.770000</speed><course>180.000000</course><hAcc>5.000000</hAcc><vAcc>3.000000</vAcc></extensions></trkpt>
      <trkpt lon="-123.279957" lat="44.566467"><ele>75.087456</ele><time>2020-10-08T00:10:14Z</time><extensions><speed>5.690000</speed><course>166.640625</course><hAcc>5.000000</hAcc><vAcc>3.000000</vAcc></extensions></trkpt>
      <trkpt lon="-123.279954" lat="44.566420"><ele>74.702576</ele><time>2020-10-08T00:10:15Z</time><extensions><speed>5.690000</speed><course>181.406250</course><hAcc>5.000000</hAcc><vAcc>3.000000</vAcc></extensions></trkpt>
      <trkpt lon="-123.279962" lat="44.566360"><ele>74.832527</ele><time>2020-10-08T00:10:16Z</time><extensions><speed>5.310000</speed><course>177.539062</course><hAcc>5.000000</hAcc><vAcc>3.000000</vAcc></extensions></trkpt>
      <trkpt lon="-123.279957" lat="44.566295"><ele>74.118225</ele><time>2020-10-08T00:10:17Z</time><extensions><speed>5.640000</speed><course>176.132812</course><hAcc>5.000000</hAcc><vAcc>3.000000</vAcc></extensions></trkpt>
      <trkpt lon="-123.279956" lat="44.566241"><ele>74.057396</ele><time>2020-10-08T00:10:18Z</time><extensions><speed>5.640000</speed><course>181.054688</course><hAcc>5.000000</hAcc><vAcc>3.000000</vAcc></extensions></trkpt>
      <trkpt lon="-123.279977" lat="44.566181"><ele>74.040215</ele><time>2020-10-08T00:10:19Z</time><extensions><speed>5.730000</speed><course>188.085938</course><hAcc>5.000000</hAcc><vAcc>3.000000</vAcc></extensions></trkpt>
      <trkpt lon="-123.279989" lat="44.566141"><ele>73.772057</ele><time>2020-10-08T00:10:20Z</time><extensions><speed>5.730000</speed><course>190.898438</course><hAcc>5.000000</hAcc><vAcc>3.000000</vAcc></extensions></trkpt>
      <trkpt lon="-123.279980" lat="44.566082"><ele>73.854713</ele><time>2020-10-08T00:10:21Z</time><extensions><speed>5.990000</speed><course>180.351562</course><hAcc>5.000000</hAcc><vAcc>3.000000</vAcc></extensions></trkpt>
      <trkpt lon="-123.279983" lat="44.566030"><ele>74.089531</ele><time>2020-10-08T00:10:22Z</time><extensions><speed>5.990000</speed><course>180.351562</course><hAcc>5.000000</hAcc><vAcc>3.000000</vAcc></extensions></trkpt>
      <trkpt lon="-123.280003" lat="44.565979"><ele>74.030922</ele><time>2020-10-08T00:10:23Z</time><extensions><speed>5.860000</speed><course>193.007812</course><hAcc>5.000000</hAcc><vAcc>3.000000</vAcc></extensions></trkpt>
      <trkpt lon="-123.280016" lat="44.565924"><ele>73.826797</ele><time>2020-10-08T00:10:24Z</time><extensions><speed>5.840000</speed><course>188.437500</course><hAcc>5.000000</hAcc><vAcc>3.000000</vAcc></extensions></trkpt>
      <trkpt lon="-123.280008" lat="44.565881"><ele>73.853348</ele><time>2020-10-08T00:10:25Z</time><extensions><speed>5.640000</speed><course>177.890625</course><hAcc>5.000000</hAcc><vAcc>3.000000</vAcc></extensions></trkpt>
      <trkpt lon="-123.279983" lat="44.565846"><ele>73.756203</ele><time>2020-10-08T00:10:26Z</time><extensions><speed>4.710000</speed><course>166.640625</course><hAcc>5.000000</hAcc><vAcc>3.000000</vAcc></extensions></trkpt>
      <trkpt lon="-123.279974" lat="44.565789"><ele>73.637321</ele><time>2020-10-08T00:10:27Z</time><extensions><speed>5.700000</speed><course>164.179688</course><hAcc>5.000000</hAcc><vAcc>3.000000</vAcc></extensions></trkpt>
      <trkpt lon="-123.279968" lat="44.565728"><ele>73.888275</ele><time>2020-10-08T00:10:28Z</time><extensions><speed>5.700000</speed><course>168.046875</course><hAcc>5.000000</hAcc><vAcc>3.000000</vAcc></extensions></trkpt>
      <trkpt lon="-123.279974" lat="44.565711"><ele>73.741936</ele><time>2020-10-08T00:10:29Z</time><extensions><speed>5.700000</speed><course>179.296875</course><hAcc>5.000000</hAcc><vAcc>3.000000</vAcc></extensions></trkpt>
      <trkpt lon="-123.279968" lat="44.565675"><ele>73.669090</ele><time>2020-10-08T00:10:30Z</time><extensions><speed>4.960000</speed><course>178.593750</course><hAcc>5.000000</hAcc><vAcc>3.000000</vAcc></extensions></trkpt>
      <trkpt lon="-123.279970" lat="44.565616"><ele>73.523560</ele><time>2020-10-08T00:10:31Z</time><extensions><speed>5.320000</speed><course>177.539062</course><hAcc>5.000000</hAcc><vAcc>3.000000</vAcc></extensions></trkpt>
      <trkpt lon="-123.279963" lat="44.565563"><ele>74.163483</ele><time>2020-10-08T00:10:32Z</time><extensions><speed>5.400000</speed><course>176.835938</course><hAcc>5.000000</hAcc><vAcc>3.000000</vAcc></extensions></trkpt>
      <trkpt lon="-123.279952" lat="44.565510"><ele>73.508041</ele><time>2020-10-08T00:10:33Z</time><extensions><speed>5.400000</speed><course>174.726562</course><hAcc>5.000000</hAcc><vAcc>3.000000</vAcc></extensions></trkpt>
      <trkpt lon="-123.279918" lat="44.565460"><ele>73.198845</ele><time>2020-10-08T00:10:34Z</time><extensions><speed>5.400000</speed><course>181.757812</course><hAcc>5.000000</hAcc><vAcc>3.000000</vAcc></extensions></trkpt>
      <trkpt lon="-123.279923" lat="44.565407"><ele>73.849167</ele><time>2020-10-08T00:10:35Z</time><extensions><speed>5.540000</speed><course>181.757812</course><hAcc>5.000000</hAcc><vAcc>3.000000</vAcc></extensions></trkpt>
      <trkpt lon="-123.279927" lat="44.565361"><ele>73.706116</ele><time>2020-10-08T00:10:36Z</time><extensions><speed>5.140000</speed><course>182.109375</course><hAcc>5.000000</hAcc><vAcc>3.000000</vAcc></extensions></trkpt>
      <trkpt lon="-123.279934" lat="44.565313"><ele>73.397629</ele><time>2020-10-08T00:10:37Z</time><extensions><speed>5.140000</speed><course>184.218750</course><hAcc>5.000000</hAcc><vAcc>3.000000</vAcc></extensions></trkpt>
      <trkpt lon="-123.279941" lat="44.565262"><ele>73.046486</ele><time>2020-10-08T00:10:38Z</time><extensions><speed>5.140000</speed><course>182.460938</course><hAcc>5.000000</hAcc><vAcc>3.000000</vAcc></extensions></trkpt>
      <trkpt lon="-123.279929" lat="44.565212"><ele>73.361481</ele><time>2020-10-08T00:10:39Z</time><extensions><speed>5.490000</speed><course>175.078125</course><hAcc>5.000000</hAcc><vAcc>3.000000</vAcc></extensions></trkpt>
      <trkpt lon="-123.279935" lat="44.565174"><ele>73.142059</ele><time>2020-10-08T00:10:40Z</time><extensions><speed>5.490000</speed><course>174.726562</course><hAcc>5.000000</hAcc><vAcc>3.000000</vAcc></extensions></trkpt>
      <trkpt lon="-123.279948" lat="44.565128"><ele>73.301285</ele><time>2020-10-08T00:10:41Z</time><extensions><speed>4.330000</speed><course>188.437500</course><hAcc>5.000000</hAcc><vAcc>3.000000</vAcc></extensions></trkpt>
      <trkpt lon="-123.279934" lat="44.565072"><ele>73.375893</ele><time>2020-10-08T00:10:42Z</time><extensions><speed>5.370000</speed><course>174.023438</course><hAcc>5.000000</hAcc><vAcc>3.000000</vAcc></extensions></trkpt>
      <trkpt lon="-123.279935" lat="44.564994"><ele>73.529671</ele><time>2020-10-08T00:10:43Z</time><extensions><speed>5.370000</speed><course>169.453125</course><hAcc>5.000000</hAcc><vAcc>3.000000</vAcc></extensions></trkpt>
      <trkpt lon="-123.279926" lat="44.564934"><ele>73.188362</ele><time>2020-10-08T00:10:44Z</time><extensions><speed>5.890000</speed><course>170.507812</course><hAcc>5.000000</hAcc><vAcc>3.000000</vAcc></extensions></trkpt>
      <trkpt lon="-123.279939" lat="44.564892"><ele>73.526253</ele><time>2020-10-08T00:10:45Z</time><extensions><speed>5.900000</speed><course>180.351562</course><hAcc>5.000000</hAcc><vAcc>3.000000</vAcc></extensions></trkpt>
      <trkpt lon="-123.279964" lat="44.564833"><ele>73.322853</ele><time>2020-10-08T00:10:46Z</time><extensions><speed>5.700000</speed><course>184.921875</course><hAcc>5.000000</hAcc><vAcc>3.000000</vAcc></extensions></trkpt>
      <trkpt lon="-123.279971" lat="44.564770"><ele>73.247002</ele><time>2020-10-08T00:10:47Z</time><extensions><speed>6.320000</speed><course>183.515625</course><hAcc>5.000000</hAcc><vAcc>3.000000</vAcc></extensions></trkpt>
      <trkpt lon="-123.279986" lat="44.564725"><ele>73.514168</ele><time>2020-10-08T00:10:48Z</time><extensions><speed>6.230000</speed><course>187.031250</course><hAcc>5.000000</hAcc><vAcc>3.000000</vAcc></extensions></trkpt>
      <trkpt lon="-123.279994" lat="44.564668"><ele>73.533981</ele><time>2020-10-08T00:10:49Z</time><extensions><speed>6.230000</speed><course>188.437500</course><hAcc>5.000000</hAcc><vAcc>3.000000</vAcc></extensions></trkpt>
      <trkpt lon="-123.280009" lat="44.564616"><ele>73.577637</ele><time>2020-10-08T00:10:50Z</time><extensions><speed>5.830000</speed><course>192.304688</course><hAcc>5.000000</hAcc><vAcc>3.000000</vAcc></extensions></trkpt>
      <trkpt lon="-123.280015" lat="44.564562"><ele>73.686256</ele><time>2020-10-08T00:10:51Z</time><extensions><speed>5.910000</speed><course>186.328125</course><hAcc>5.000000</hAcc><vAcc>3.000000</vAcc></extensions></trkpt>
      <trkpt lon="-123.280027" lat="44.564522"><ele>73.151268</ele><time>2020-10-08T00:10:52Z</time><extensions><speed>5.910000</speed><course>187.031250</course><hAcc>5.000000</hAcc><vAcc>3.000000</vAcc></extensions></trkpt>
      <trkpt lon="-123.280027" lat="44.564468"><ele>73.292984</ele><time>2020-10-08T00:10:53Z</time><extensions><speed>5.450000</speed><course>180.351562</course><hAcc>5.000000</hAcc><vAcc>3.000000</vAcc></extensions></trkpt>
      <trkpt lon="-123.280040" lat="44.564413"><ele>73.332863</ele><time>2020-10-08T00:10:54Z</time><extensions><speed>5.450000</speed><course>187.382812</course><hAcc>5.000000</hAcc><vAcc>3.000000</vAcc></extensions></trkpt>
      <trkpt lon="-123.280047" lat="44.564348"><ele>73.510605</ele><time>2020-10-08T00:10:55Z</time><extensions><speed>5.640000</speed><course>184.570312</course><hAcc>5.000000</hAcc><vAcc>3.000000</vAcc></extensions></trkpt>
      <trkpt lon="-123.280047" lat="44.564302"><ele>73.056404</ele><time>2020-10-08T00:10:56Z</time><extensions><speed>5.910000</speed><course>184.218750</course><hAcc>5.000000</hAcc><vAcc>3.000000</vAcc></extensions></trkpt>
      <trkpt lon="-123.280042" lat="44.564243"><ele>73.052536</ele><time>2020-10-08T00:10:57Z</time><extensions><speed>6.140000</speed><course>177.187500</course><hAcc>5.000000</hAcc><vAcc>3.000000</vAcc></extensions></trkpt>
      <trkpt lon="-123.280035" lat="44.564175"><ele>73.373367</ele><time>2020-10-08T00:10:58Z</time><extensions><speed>6.080000</speed><course>176.132812</course><hAcc>5.000000</hAcc><vAcc>3.000000</vAcc></extensions></trkpt>
      <trkpt lon="-123.280015" lat="44.564110"><ele>73.096100</ele><time>2020-10-08T00:10:59Z</time><extensions><speed>6.140000</speed><course>169.804688</course><hAcc>5.000000</hAcc><vAcc>3.000000</vAcc></extensions></trkpt>
      <trkpt lon="-123.280014" lat="44.564051"><ele>72.898628</ele><time>2020-10-08T00:11:00Z</time><extensions><speed>6.520000</speed><course>176.484375</course><hAcc>5.000000</hAcc><vAcc>3.000000</vAcc></extensions></trkpt>
      <trkpt lon="-123.280003" lat="44.563994"><ele>72.638466</ele><time>2020-10-08T00:11:01Z</time><extensions><speed>6.820000</speed><course>180.000000</course><hAcc>5.000000</hAcc><vAcc>3.000000</vAcc></extensions></trkpt>
      <trkpt lon="-123.279970" lat="44.563937"><ele>72.432869</ele><time>2020-10-08T00:11:02Z</time><extensions><speed>6.960000</speed><course>163.828125</course><hAcc>5.000000</hAcc><vAcc>3.000000</vAcc></extensions></trkpt>
      <trkpt lon="-123.279936" lat="44.563883"><ele>72.642136</ele><time>2020-10-08T00:11:03Z</time><extensions><speed>6.960000</speed><course>159.257812</course><hAcc>5.000000</hAcc><vAcc>3.000000</vAcc></extensions></trkpt>
      <trkpt lon="-123.279907" lat="44.563825"><ele>72.255692</ele><time>2020-10-08T00:11:04Z</time><extensions><speed>7.060000</speed><course>160.312500</course><hAcc>5.000000</hAcc><vAcc>3.000000</vAcc></extensions></trkpt>
      <trkpt lon="-123.279875" lat="44.563769"><ele>72.005814</ele><time>2020-10-08T00:11:05Z</time><extensions><speed>7.060000</speed><course>158.906250</course><hAcc>5.000000</hAcc><vAcc>3.000000</vAcc></extensions></trkpt>
      <trkpt lon="-123.279834" lat="44.563712"><ele>72.269676</ele><time>2020-10-08T00:11:06Z</time><extensions><speed>7.280000</speed><course>159.960938</course><hAcc>5.000000</hAcc><vAcc>3.000000</vAcc></extensions></trkpt>
      <trkpt lon="-123.279801" lat="44.563649"><ele>71.063629</ele><time>2020-10-08T00:11:07Z</time><extensions><speed>7.390000</speed><course>154.335938</course><hAcc>5.000000</hAcc><vAcc>3.000000</vAcc></extensions></trkpt>
      <trkpt lon="-123.279769" lat="44.563584"><ele>70.994743</ele><time>2020-10-08T00:11:08Z</time><extensions><speed>7.600000</speed><course>150.820312</course><hAcc>5.000000</hAcc><vAcc>3.000000</vAcc></extensions></trkpt>
      <trkpt lon="-123.279732" lat="44.563519"><ele>70.830719</ele><time>2020-10-08T00:11:09Z</time><extensions><speed>7.500000</speed><course>144.140625</course><hAcc>5.000000</hAcc><vAcc>3.000000</vAcc></extensions></trkpt>
      <trkpt lon="-123.279692" lat="44.563455"><ele>70.840683</ele><time>2020-10-08T00:11:10Z</time><extensions><speed>7.760000</speed><course>158.554688</course><hAcc>5.000000</hAcc><vAcc>3.000000</vAcc></extensions></trkpt>
      <trkpt lon="-123.279648" lat="44.563395"><ele>69.155930</ele><time>2020-10-08T00:11:11Z</time><extensions><speed>7.080000</speed><course>140.273438</course><hAcc>5.000000</hAcc><vAcc>3.000000</vAcc></extensions></trkpt>
      <trkpt lon="-123.279625" lat="44.563333"><ele>69.274117</ele><time>2020-10-08T00:11:12Z</time><extensions><speed>6.280000</speed><course>144.492188</course><hAcc>5.000000</hAcc><vAcc>3.000000</vAcc></extensions></trkpt>
      <trkpt lon="-123.279586" lat="44.563281"><ele>68.899498</ele><time>2020-10-08T00:11:13Z</time><extensions><speed>6.260000</speed><course>151.875000</course><hAcc>5.000000</hAcc><vAcc>3.000000</vAcc></extensions></trkpt>
      <trkpt lon="-123.279535" lat="44.563251"><ele>68.958183</ele><time>2020-10-08T00:11:14Z</time><extensions><speed>5.420000</speed><course>109.335938</course><hAcc>5.000000</hAcc><vAcc>3.000000</vAcc></extensions></trkpt>
      <trkpt lon="-123.279475" lat="44.563244"><ele>68.832405</ele><time>2020-10-08T00:11:15Z</time><extensions><speed>4.800000</speed><course>83.671875</course><hAcc>5.000000</hAcc><vAcc>3.000000</vAcc></extensions></trkpt>
      <trkpt lon="-123.279417" lat="44.563266"><ele>68.917320</ele><time>2020-10-08T00:11:16Z</time><extensions><speed>3.980000</speed><course>52.031250</course><hAcc>5.000000</hAcc><vAcc>3.000000</vAcc></extensions></trkpt>
      <trkpt lon="-123.279389" lat="44.563291"><ele>68.980438</ele><time>2020-10-08T00:11:17Z</time><extensions><speed>3.080000</speed><course>8.085938</course><hAcc>5.000000</hAcc><vAcc>3.000000</vAcc></extensions></trkpt>
      <trkpt lon="-123.279371" lat="44.563308"><ele>68.972305</ele><time>2020-10-08T00:11:18Z</time><extensions><speed>3.080000</speed><course>29.531250</course><hAcc>5.000000</hAcc><vAcc>3.000000</vAcc></extensions></trkpt>
      <trkpt lon="-123.279378" lat="44.563312"><ele>68.970467</ele><time>2020-10-08T00:11:19Z</time><extensions><speed>1.730000</speed><course>337.500000</course><hAcc>5.000000</hAcc><vAcc>3.000000</vAcc></extensions></trkpt>
      <trkpt lon="-123.279384" lat="44.563314"><ele>68.858307</ele><time>2020-10-08T00:11:20Z</time><extensions><speed>0.820000</speed><course>335.742188</course><hAcc>5.000000</hAcc><vAcc>3.000000</vAcc></extensions></trkpt>
      <trkpt lon="-123.279388" lat="44.563316"><ele>68.926987</ele><time>2020-10-08T00:11:21Z</time><extensions><speed>0.430000</speed><course>319.921875</course><hAcc>5.000000</hAcc><vAcc>3.000000</vAcc></extensions></trkpt>
      <trkpt lon="-123.279391" lat="44.563316"><ele>68.899063</ele><time>2020-10-08T00:11:22Z</time><extensions><speed>1.070000</speed><course>329.414062</course><hAcc>5.000000</hAcc><vAcc>3.000000</vAcc></extensions></trkpt>
      <trkpt lon="-123.279391" lat="44.563316"><ele>68.749359</ele><time>2020-10-08T00:11:23Z</time><extensions><speed>0.000000</speed><course>329.765625</course><hAcc>5.000000</hAcc><vAcc>3.000000</vAcc></extensions></trkpt>
      <trkpt lon="-123.279391" lat="44.563316"><ele>68.777771</ele><time>2020-10-08T00:11:24Z</time><extensions><speed>0.000000</speed><course>329.765625</course><hAcc>5.000000</hAcc><vAcc>3.000000</vAcc></extensions></trkpt>
      <trkpt lon="-123.279391" lat="44.563316"><ele>68.734230</ele><time>2020-10-08T00:11:25Z</time><extensions><speed>0.000000</speed><course>322.382812</course><hAcc>5.000000</hAcc><vAcc>3.000000</vAcc></extensions></trkpt>
      <trkpt lon="-123.279390" lat="44.563308"><ele>68.856735</ele><time>2020-10-08T00:11:26Z</time><extensions><speed>0.220000</speed><course>322.382812</course><hAcc>5.000000</hAcc><vAcc>3.000000</vAcc></extensions></trkpt>
      <trkpt lon="-123.279389" lat="44.563304"><ele>68.969467</ele><time>2020-10-08T00:11:27Z</time><extensions><speed>0.450000</speed><course>322.382812</course><hAcc>5.000000</hAcc><vAcc>3.000000</vAcc></extensions></trkpt>
      <trkpt lon="-123.279386" lat="44.563297"><ele>69.018600</ele><time>2020-10-08T00:11:28Z</time><extensions><speed>0.540000</speed><course>322.382812</course><hAcc>5.000000</hAcc><vAcc>3.000000</vAcc></extensions></trkpt>
      <trkpt lon="-123.279386" lat="44.563293"><ele>69.049026</ele><time>2020-10-08T00:11:29Z</time><extensions><speed>0.460000</speed><course>322.382812</course><hAcc>5.000000</hAcc><vAcc>3.000000</vAcc></extensions></trkpt>
      <trkpt lon="-123.279386" lat="44.563293"><ele>69.293564</ele><time>2020-10-08T00:11:30Z</time><extensions><speed>0.000000</speed><course>322.382812</course><hAcc>5.000000</hAcc><vAcc>3.000000</vAcc></extensions></trkpt>
      <trkpt lon="-123.279386" lat="44.563293"><ele>69.499924</ele><time>2020-10-08T00:11:31Z</time><extensions><speed>0.000000</speed><course>322.382812</course><hAcc>5.000000</hAcc><vAcc>3.000000</vAcc></extensions></trkpt>
      <trkpt lon="-123.279386" lat="44.563293"><ele>69.439407</ele><time>2020-10-08T00:11:32Z</time><extensions><speed>0.000000</speed><course>322.382812</course><hAcc>5.000000</hAcc><vAcc>3.000000</vAcc></extensions></trkpt>
      <trkpt lon="-123.279386" lat="44.563280"><ele>69.536545</ele><time>2020-10-08T00:11:33Z</time><extensions><speed>0.520000</speed><course>322.382812</course><hAcc>5.000000</hAcc><vAcc>3.000000</vAcc></extensions></trkpt>
      <trkpt lon="-123.279386" lat="44.563280"><ele>69.522636</ele><time>2020-10-08T00:11:34Z</time><extensions><speed>0.000000</speed><course>322.382812</course><hAcc>5.000000</hAcc><vAcc>3.000000</vAcc></extensions></trkpt>
      <trkpt lon="-123.279386" lat="44.563280"><ele>69.610985</ele><time>2020-10-08T00:11:35Z</time><extensions><speed>0.000000</speed><course>322.382812</course><hAcc>5.000000</hAcc><vAcc>3.000000</vAcc></extensions></trkpt>
      <trkpt lon="-123.279386" lat="44.563280"><ele>69.740181</ele><time>2020-10-08T00:11:36Z</time><extensions><speed>0.000000</speed><course>322.382812</course><hAcc>5.000000</hAcc><vAcc>3.000000</vAcc></extensions></trkpt>
      <trkpt lon="-123.279369" lat="44.563276"><ele>69.900909</ele><time>2020-10-08T00:11:37Z</time><extensions><speed>0.370000</speed><course>322.382812</course><hAcc>5.000000</hAcc><vAcc>3.000000</vAcc></extensions></trkpt>
      <trkpt lon="-123.279367" lat="44.563278"><ele>69.945061</ele><time>2020-10-08T00:11:38Z</time><extensions><speed>0.150000</speed><course>322.382812</course><hAcc>5.000000</hAcc><vAcc>3.000000</vAcc></extensions></trkpt>
      <trkpt lon="-123.279368" lat="44.563280"><ele>70.137177</ele><time>2020-10-08T00:11:39Z</time><extensions><speed>0.150000</speed><course>322.382812</course><hAcc>5.000000</hAcc><vAcc>3.000000</vAcc></extensions></trkpt>
      <trkpt lon="-123.279369" lat="44.563280"><ele>70.336113</ele><time>2020-10-08T00:11:40Z</time><extensions><speed>0.220000</speed><course>322.382812</course><hAcc>5.000000</hAcc><vAcc>3.000000</vAcc></extensions></trkpt>
      <trkpt lon="-123.279369" lat="44.563280"><ele>70.452652</ele><time>2020-10-08T00:11:41Z</time><extensions><speed>0.000000</speed><course>322.382812</course><hAcc>5.000000</hAcc><vAcc>3.000000</vAcc></extensions></trkpt>
      <trkpt lon="-123.279369" lat="44.563280"><ele>70.664528</ele><time>2020-10-08T00:11:42Z</time><extensions><speed>0.000000</speed><course>322.382812</course><hAcc>5.000000</hAcc><vAcc>3.000000</vAcc></extensions></trkpt>
      <trkpt lon="-123.279369" lat="44.563280"><ele>70.764542</ele><time>2020-10-08T00:11:43Z</time><extensions><speed>0.000000</speed><course>322.382812</course><hAcc>5.000000</hAcc><vAcc>3.000000</vAcc></extensions></trkpt>
      <trkpt lon="-123.279369" lat="44.563280"><ele>70.909592</ele><time>2020-10-08T00:11:44Z</time><extensions><speed>0.000000</speed><course>322.382812</course><hAcc>5.000000</hAcc><vAcc>3.000000</vAcc></extensions></trkpt>
      <trkpt lon="-123.279369" lat="44.563280"><ele>70.864326</ele><time>2020-10-08T00:11:45Z</time><extensions><speed>0.000000</speed><course>322.382812</course><hAcc>5.000000</hAcc><vAcc>3.000000</vAcc></extensions></trkpt>
      <trkpt lon="-123.279363" lat="44.563263"><ele>71.018700</ele><time>2020-10-08T00:11:46Z</time><extensions><speed>0.330000</speed><course>189.843750</course><hAcc>5.000000</hAcc><vAcc>3.000000</vAcc></extensions></trkpt>
      <trkpt lon="-123.279372" lat="44.563253"><ele>71.210304</ele><time>2020-10-08T00:11:47Z</time><extensions><speed>1.020000</speed><course>189.843750</course><hAcc>5.000000</hAcc><vAcc>3.000000</vAcc></extensions></trkpt>
      <trkpt lon="-123.279380" lat="44.563242"><ele>71.178040</ele><time>2020-10-08T00:11:48Z</time><extensions><speed>1.160000</speed><course>189.843750</course><hAcc>5.000000</hAcc><vAcc>3.000000</vAcc></extensions></trkpt>
      <trkpt lon="-123.279387" lat="44.563232"><ele>71.423653</ele><time>2020-10-08T00:11:49Z</time><extensions><speed>1.160000</speed><course>191.953125</course><hAcc>5.000000</hAcc><vAcc>3.000000</vAcc></extensions></trkpt>
      <trkpt lon="-123.279393" lat="44.563220"><ele>71.277939</ele><time>2020-10-08T00:11:50Z</time><extensions><speed>1.220000</speed><course>192.304688</course><hAcc>5.000000</hAcc><vAcc>3.000000</vAcc></extensions></trkpt>
      <trkpt lon="-123.279399" lat="44.563208"><ele>71.372711</ele><time>2020-10-08T00:11:51Z</time><extensions><speed>1.380000</speed><course>192.304688</course><hAcc>5.000000</hAcc><vAcc>3.000000</vAcc></extensions></trkpt>
      <trkpt lon="-123.279397" lat="44.563197"><ele>71.249092</ele><time>2020-10-08T00:11:52Z</time><extensions><speed>1.300000</speed><course>140.976562</course><hAcc>5.000000</hAcc><vAcc>3.000000</vAcc></extensions></trkpt>
      <trkpt lon="-123.279391" lat="44.563189"><ele>71.466255</ele><time>2020-10-08T00:11:53Z</time><extensions><speed>1.300000</speed><course>139.218750</course><hAcc>5.000000</hAcc><vAcc>3.000000</vAcc></extensions></trkpt>
      <trkpt lon="-123.279378" lat="44.563185"><ele>71.384285</ele><time>2020-10-08T00:11:54Z</time><extensions><speed>1.300000</speed><course>139.921875</course><hAcc>5.000000</hAcc><vAcc>3.000000</vAcc></extensions></trkpt>
      <trkpt lon="-123.279364" lat="44.563180"><ele>71.229164</ele><time>2020-10-08T00:11:55Z</time><extensions><speed>1.300000</speed><course>123.046875</course><hAcc>5.000000</hAcc><vAcc>3.000000</vAcc></extensions></trkpt>
      <trkpt lon="-123.279350" lat="44.563176"><ele>70.997864</ele><time>2020-10-08T00:11:56Z</time><extensions><speed>1.280000</speed><course>139.921875</course><hAcc>5.000000</hAcc><vAcc>3.000000</vAcc></extensions></trkpt>
      <trkpt lon="-123.279341" lat="44.563176"><ele>70.759789</ele><time>2020-10-08T00:11:57Z</time><extensions><speed>0.300000</speed><course>139.921875</course><hAcc>5.000000</hAcc><vAcc>3.000000</vAcc></extensions></trkpt>
      <trkpt lon="-123.279336" lat="44.563178"><ele>70.532806</ele><time>2020-10-08T00:11:58Z</time><extensions><speed>0.300000</speed><course>109.335938</course><hAcc>5.000000</hAcc><vAcc>3.000000</vAcc></extensions></trkpt>
      <trkpt lon="-123.279320" lat="44.563177"><ele>70.613747</ele><time>2020-10-08T00:11:59Z</time><extensions><speed>0.300000</speed><course>98.437500</course><hAcc>5.000000</hAcc><vAcc>3.000000</vAcc></extensions></trkpt>
      <trkpt lon="-123.279299" lat="44.563176"><ele>70.505287</ele><time>2020-10-08T00:12:00Z</time><extensions><speed>1.180000</speed><course>98.789062</course><hAcc>5.000000</hAcc><vAcc>3.000000</vAcc></extensions></trkpt>
      <trkpt lon="-123.279280" lat="44.563175"><ele>70.302887</ele><time>2020-10-08T00:12:01Z</time><extensions><speed>1.270000</speed><course>97.382812</course><hAcc>5.000000</hAcc><vAcc>3.000000</vAcc></extensions></trkpt>
      <trkpt lon="-123.279262" lat="44.563174"><ele>70.357338</ele><time>2020-10-08T00:12:02Z</time><extensions><speed>1.180000</speed><course>97.031250</course><hAcc>5.000000</hAcc><vAcc>3.000000</vAcc></extensions></trkpt>
      <trkpt lon="-123.279243" lat="44.563175"><ele>70.325729</ele><time>2020-10-08T00:12:03Z</time><extensions><speed>1.240000</speed><course>77.343750</course><hAcc>5.000000</hAcc><vAcc>3.000000</vAcc></extensions></trkpt>
      <trkpt lon="-123.279226" lat="44.563176"><ele>70.200005</ele><time>2020-10-08T00:12:04Z</time><extensions><speed>1.180000</speed><course>86.484375</course><hAcc>5.000000</hAcc><vAcc>3.000000</vAcc></extensions></trkpt>
      <trkpt lon="-123.279209" lat="44.563177"><ele>70.493637</ele><time>2020-10-08T00:12:05Z</time><extensions><speed>1.090000</speed><course>88.945312</course><hAcc>5.000000</hAcc><vAcc>3.000000</vAcc></extensions></trkpt>
      <trkpt lon="-123.279190" lat="44.563178"><ele>70.162674</ele><time>2020-10-08T00:12:06Z</time><extensions><speed>1.090000</speed><course>87.539062</course><hAcc>5.000000</hAcc><vAcc>3.000000</vAcc></extensions></trkpt>
      <trkpt lon="-123.279170" lat="44.563178"><ele>70.296173</ele><time>2020-10-08T00:12:06Z</time><extensions><speed>1.290000</speed><course>88.945312</course><hAcc>5.000000</hAcc><vAcc>3.000000</vAcc></extensions></trkpt>
      <trkpt lon="-123.279153" lat="44.563178"><ele>70.203949</ele><time>2020-10-08T00:12:07Z</time><extensions><speed>1.290000</speed><course>73.828125</course><hAcc>5.000000</hAcc><vAcc>3.000000</vAcc></extensions></trkpt>
      <trkpt lon="-123.279137" lat="44.563181"><ele>70.153282</ele><time>2020-10-08T00:12:08Z</time><extensions><speed>1.260000</speed><course>72.421875</course><hAcc>5.000000</hAcc><vAcc>3.000000</vAcc></extensions></trkpt>
      <trkpt lon="-123.279124" lat="44.563183"><ele>70.281548</ele><time>2020-10-08T00:12:09Z</time><extensions><speed>0.890000</speed><course>74.882812</course><hAcc>5.000000</hAcc><vAcc>3.000000</vAcc></extensions></trkpt>
      <trkpt lon="-123.279118" lat="44.563186"><ele>70.243950</ele><time>2020-10-08T00:12:10Z</time><extensions><speed>0.740000</speed><course>352.968750</course><hAcc>5.000000</hAcc><vAcc>3.000000</vAcc></extensions></trkpt>
      <trkpt lon="-123.279113" lat="44.563192"><ele>70.257988</ele><time>2020-10-08T00:12:11Z</time><extensions><speed>0.860000</speed><course>13.359375</course><hAcc>5.000000</hAcc><vAcc>3.000000</vAcc></extensions></trkpt>
      <trkpt lon="-123.279108" lat="44.563199"><ele>70.415352</ele><time>2020-10-08T00:12:12Z</time><extensions><speed>0.860000</speed><course>15.468750</course><hAcc>5.000000</hAcc><vAcc>3.000000</vAcc></extensions></trkpt>
      <trkpt lon="-123.279101" lat="44.563204"><ele>70.449043</ele><time>2020-10-08T00:12:13Z</time><extensions><speed>0.860000</speed><course>34.101562</course><hAcc>5.000000</hAcc><vAcc>3.000000</vAcc></extensions></trkpt>
      <trkpt lon="-123.279093" lat="44.563208"><ele>70.487640</ele><time>2020-10-08T00:12:14Z</time><extensions><speed>0.790000</speed><course>51.328125</course><hAcc>5.000000</hAcc><vAcc>3.000000</vAcc></extensions></trkpt>
      <trkpt lon="-123.279086" lat="44.563209"><ele>70.418304</ele><time>2020-10-08T00:12:15Z</time><extensions><speed>0.610000</speed><course>36.562500</course><hAcc>5.000000</hAcc><vAcc>3.000000</vAcc></extensions></trkpt>
      <trkpt lon="-123.279078" lat="44.563212"><ele>70.446449</ele><time>2020-10-08T00:12:16Z</time><extensions><speed>0.630000</speed><course>50.273438</course><hAcc>5.000000</hAcc><vAcc>3.000000</vAcc></extensions></trkpt>
      <trkpt lon="-123.279070" lat="44.563215"><ele>70.557465</ele><time>2020-10-08T00:12:17Z</time><extensions><speed>0.800000</speed><course>51.328125</course><hAcc>5.000000</hAcc><vAcc>3.000000</vAcc></extensions></trkpt>
      <trkpt lon="-123.279058" lat="44.563218"><ele>70.578308</ele><time>2020-10-08T00:12:18Z</time><extensions><speed>0.800000</speed><course>58.710938</course><hAcc>5.000000</hAcc><vAcc>3.000000</vAcc></extensions></trkpt>
      <trkpt lon="-123.279046" lat="44.563222"><ele>70.447510</ele><time>2020-10-08T00:12:19Z</time><extensions><speed>0.800000</speed><course>58.007812</course><hAcc>5.000000</hAcc><vAcc>3.000000</vAcc></extensions></trkpt>
      <trkpt lon="-123.279038" lat="44.563225"><ele>70.430191</ele><time>2020-10-08T00:12:20Z</time><extensions><speed>0.780000</speed><course>53.789062</course><hAcc>5.000000</hAcc><vAcc>3.000000</vAcc></extensions></trkpt>
      <trkpt lon="-123.279034" lat="44.563229"><ele>70.383385</ele><time>2020-10-08T00:12:21Z</time><extensions><speed>0.570000</speed><course>41.835938</course><hAcc>5.000000</hAcc><vAcc>3.000000</vAcc></extensions></trkpt>
      <trkpt lon="-123.279034" lat="44.563233"><ele>70.365669</ele><time>2020-10-08T00:12:22Z</time><extensions><speed>0.570000</speed><course>20.390625</course><hAcc>10.000000</hAcc><vAcc>3.000000</vAcc></extensions></trkpt>
      <trkpt lon="-123.279035" lat="44.563237"><ele>70.448471</ele><time>2020-10-08T00:12:23Z</time><extensions><speed>0.520000</speed><course>10.546875</course><hAcc>10.000000</hAcc><vAcc>3.000000</vAcc></extensions></trkpt>
    </trkseg>
  </trk>
</gpx>