<?xml version="1.0" encoding="UTF-8"?>
<gpx version="1.1" creator="Apple Health Export" xmlns="http://www.topografix.com/GPX/1/1" xmlns:xsi="http://www.w3.org/2001/XMLSchema-instance" xsi:schemaLocation="http://www.topografix.com/GPX/1/1 http://www.topografix.com/GPX/1/1/gpx.xsd">
  <metadata>
    <time>2021-02-21T19:24:49Z</time>
  </metadata>
  <trk>
    <name>Route 2021-01-22 1:39pm</name>
    <trkseg>
      <trkpt lon="-123.271163" lat="44.560009"><ele>0.000000</ele><time>2021-01-22T21:39:28Z</time><extensions><speed>-1.000000</speed><course>-1.000000</course><hAcc>0.000000</hAcc><vAcc>-1.000000</vAcc></extensions></trkpt>
      <trkpt lon="-123.271368" lat="44.560133"><ele>0.000000</ele><time>2021-01-22T21:39:28Z</time><extensions><speed>-1.000000</speed><course>-1.000000</course><hAcc>0.000000</hAcc><vAcc>-1.000000</vAcc></extensions></trkpt>
      <trkpt lon="-123.271630" lat="44.560125"><ele>0.000000</ele><time>2021-01-22T21:39:28Z</time><extensions><speed>-1.000000</speed><course>-1.000000</course><hAcc>0.000000</hAcc><vAcc>-1.000000</vAcc></extensions></trkpt>
      <trkpt lon="-123.271743" lat="44.560114"><ele>0.000000</ele><time>2021-01-22T21:39:28Z</time><extensions><speed>-1.000000</speed><course>-1.000000</course><hAcc>0.000000</hAcc><vAcc>-1.000000</vAcc></extensions></trkpt>
      <trkpt lon="-123.272078" lat="44.560123"><ele>0.000000</ele><time>2021-01-22T21:39:28Z</time><extensions><speed>-1.000000</speed><course>-1.000000</course><hAcc>0.000000</hAcc><vAcc>-1.000000</vAcc></extensions></trkpt>
      <trkpt lon="-123.272328" lat="44.560147"><ele>0.000000</ele><time>2021-01-22T21:39:28Z</time><extensions><speed>-1.000000</speed><course>-1.000000</course><hAcc>0.000000</hAcc><vAcc>-1.000000</vAcc></extensions></trkpt>
      <trkpt lon="-123.272568" lat="44.560089"><ele>0.000000</ele><time>2021-01-22T21:39:28Z</time><extensions><speed>-1.000000</speed><course>-1.000000</course><hAcc>0.000000</hAcc><vAcc>-1.000000</vAcc></extensions></trkpt>
      <trkpt lon="-123.272770" lat="44.560074"><ele>0.000000</ele><time>2021-01-22T21:39:28Z</time><extensions><speed>-1.000000</speed><course>-1.000000</course><hAcc>0.000000</hAcc><vAcc>-1.000000</vAcc></extensions></trkpt>
      <trkpt lon="-123.273139" lat="44.560029"><ele>0.000000</ele><time>2021-01-22T21:39:28Z</time><extensions><speed>-1.000000</speed><course>-1.000000</course><hAcc>0.000000</hAcc><vAcc>-1.000000</vAcc></extensions></trkpt>
      <trkpt lon="-123.273482" lat="44.560011"><ele>0.000000</ele><time>2021-01-22T21:39:28Z</time><extensions><speed>-1.000000</speed><course>-1.000000</course><hAcc>0.000000</hAcc><vAcc>-1.000000</vAcc></extensions></trkpt>
      <trkpt lon="-123.273759" lat="44.560017"><ele>0.000000</ele><time>2021-01-22T21:39:28Z</time><extensions><speed>-1.000000</speed><course>-1.000000</course><hAcc>0.000000</hAcc><vAcc>-1.000000</vAcc></extensions></trkpt>
      <trkpt lon="-123.274043" lat="44.560149"><ele>0.000000</ele><time>2021-01-22T21:39:28Z</time><extensions><speed>-1.000000</speed><course>-1.000000</course><hAcc>0.000000</hAcc><vAcc>-1.000000</vAcc></extensions></trkpt>
      <trkpt lon="-123.274140" lat="44.560316"><ele>0.000000</ele><time>2021-01-22T21:39:28Z</time><extensions><speed>-1.000000</speed><course>-1.000000</course><hAcc>0.000000</hAcc><vAcc>-1.000000</vAcc></extensions></trkpt>
      <trkpt lon="-123.274200" lat="44.560572"><ele>0.000000</ele><time>2021-01-22T21:39:28Z</time><extensions><speed>-1.000000</speed><course>-1.000000</course><hAcc>0.000000</hAcc><vAcc>-1.000000</vAcc></extensions></trkpt>
      <trkpt lon="-123.274254" lat="44.560833"><ele>0.000000</ele><time>2021-01-22T21:39:28Z</time><extensions><speed>-1.000000</speed><course>-1.000000</course><hAcc>0.000000</hAcc><vAcc>-1.000000</vAcc></extensions></trkpt>
      <trkpt lon="-123.274339" lat="44.561084"><ele>0.000000</ele><time>2021-01-22T21:39:28Z</time><extensions><speed>-1.000000</speed><course>-1.000000</course><hAcc>0.000000</hAcc><vAcc>-1.000000</vAcc></extensions></trkpt>
      <trkpt lon="-123.274429" lat="44.561311"><ele>0.000000</ele><time>2021-01-22T21:39:28Z</time><extensions><speed>-1.000000</speed><course>-1.000000</course><hAcc>0.000000</hAcc><vAcc>-1.000000</vAcc></extensions></trkpt>
      <trkpt lon="-123.274447" lat="44.561568"><ele>0.000000</ele><time>2021-01-22T21:39:28Z</time><extensions><speed>-1.000000</speed><course>-1.000000</course><hAcc>0.000000</hAcc><vAcc>-1.000000</vAcc></extensions></trkpt>
      <trkpt lon="-123.274541" lat="44.561837"><ele>0.000000</ele><time>2021-01-22T21:39:28Z</time><extensions><speed>-1.000000</speed><course>-1.000000</course><hAcc>0.000000</hAcc><vAcc>-1.000000</vAcc></extensions></trkpt>
      <trkpt lon="-123.274532" lat="44.562012"><ele>0.000000</ele><time>2021-01-22T21:39:28Z</time><extensions><speed>-1.000000</speed><course>-1.000000</course><hAcc>0.000000</hAcc><vAcc>-1.000000</vAcc></extensions></trkpt>
      <trkpt lon="-123.274510" lat="44.562173"><ele>0.000000</ele><time>2021-01-22T21:39:28Z</time><extensions><speed>-1.000000</speed><course>-1.000000</course><hAcc>0.000000</hAcc><vAcc>-1.000000</vAcc></extensions></trkpt>
      <trkpt lon="-123.274402" lat="44.562428"><ele>0.000000</ele><time>2021-01-22T21:39:28Z</time><extensions><speed>-1.000000</speed><course>-1.000000</course><hAcc>0.000000</hAcc><vAcc>-1.000000</vAcc></extensions></trkpt>
      <trkpt lon="-123.274264" lat="44.562677"><ele>0.000000</ele><time>2021-01-22T21:39:28Z</time><extensions><speed>-1.000000</speed><course>-1.000000</course><hAcc>0.000000</hAcc><vAcc>-1.000000</vAcc></extensions></trkpt>
      <trkpt lon="-123.274231" lat="44.562992"><ele>0.000000</ele><time>2021-01-22T21:39:28Z</time><extensions><speed>-1.000000</speed><course>-1.000000</course><hAcc>0.000000</hAcc><vAcc>-1.000000</vAcc></extensions></trkpt>
      <trkpt lon="-123.274220" lat="44.563302"><ele>0.000000</ele><time>2021-01-22T21:39:28Z</time><extensions><speed>-1.000000</speed><course>-1.000000</course><hAcc>0.000000</hAcc><vAcc>-1.000000</vAcc></extensions></trkpt>
      <trkpt lon="-123.274230" lat="44.563541"><ele>0.000000</ele><time>2021-01-22T21:39:28Z</time><extensions><speed>-1.000000</speed><course>-1.000000</course><hAcc>0.000000</hAcc><vAcc>-1.000000</vAcc></extensions></trkpt>
      <trkpt lon="-123.274227" lat="44.563838"><ele>0.000000</ele><time>2021-01-22T21:39:28Z</time><extensions><speed>-1.000000</speed><course>-1.000000</course><hAcc>0.000000</hAcc><vAcc>-1.000000</vAcc></extensions></trkpt>
      <trkpt lon="-123.274206" lat="44.564183"><ele>0.000000</ele><time>2021-01-22T21:39:28Z</time><extensions><speed>-1.000000</speed><course>-1.000000</course><hAcc>0.000000</hAcc><vAcc>-1.000000</vAcc></extensions></trkpt>
      <trkpt lon="-123.274220" lat="44.564416"><ele>0.000000</ele><time>2021-01-22T21:39:28Z</time><extensions><speed>-1.000000</speed><course>-1.000000</course><hAcc>0.000000</hAcc><vAcc>-1.000000</vAcc></extensions></trkpt>
      <trkpt lon="-123.274161" lat="44.564679"><ele>0.000000</ele><time>2021-01-22T21:39:28Z</time><extensions><speed>-1.000000</speed><course>-1.000000</course><hAcc>0.000000</hAcc><vAcc>-1.000000</vAcc></extensions></trkpt>
      <trkpt lon="-123.273972" lat="44.564906"><ele>0.000000</ele><time>2021-01-22T21:39:28Z</time><extensions><speed>-1.000000</speed><course>-1.000000</course><hAcc>0.000000</hAcc><vAcc>-1.000000</vAcc></extensions></trkpt>
      <trkpt lon="-123.273787" lat="44.565126"><ele>0.000000</ele><time>2021-01-22T21:39:28Z</time><extensions><speed>-1.000000</speed><course>-1.000000</course><hAcc>0.000000</hAcc><vAcc>-1.000000</vAcc></extensions></trkpt>
      <trkpt lon="-123.273511" lat="44.565398"><ele>0.000000</ele><time>2021-01-22T21:39:28Z</time><extensions><speed>-1.000000</speed><course>-1.000000</course><hAcc>0.000000</hAcc><vAcc>-1.000000</vAcc></extensions></trkpt>
      <trkpt lon="-123.273327" lat="44.565584"><ele>0.000000</ele><time>2021-01-22T21:39:28Z</time><extensions><speed>-1.000000</speed><course>-1.000000</course><hAcc>0.000000</hAcc><vAcc>-1.000000</vAcc></extensions></trkpt>
      <trkpt lon="-123.273211" lat="44.565745"><ele>0.000000</ele><time>2021-01-22T21:39:28Z</time><extensions><speed>-1.000000</speed><course>-1.000000</course><hAcc>0.000000</hAcc><vAcc>-1.000000</vAcc></extensions></trkpt>
      <trkpt lon="-123.272995" lat="44.566014"><ele>0.000000</ele><time>2021-01-22T21:39:28Z</time><extensions><speed>-1.000000</speed><course>-1.000000</course><hAcc>0.000000</hAcc><vAcc>-1.000000</vAcc></extensions></trkpt>
      <trkpt lon="-123.272886" lat="44.566247"><ele>0.000000</ele><time>2021-01-22T21:39:28Z</time><extensions><speed>-1.000000</speed><course>-1.000000</course><hAcc>0.000000</hAcc><vAcc>-1.000000</vAcc></extensions></trkpt>
      <trkpt lon="-123.272697" lat="44.566548"><ele>0.000000</ele><time>2021-01-22T21:39:28Z</time><extensions><speed>-1.000000</speed><course>-1.000000</course><hAcc>0.000000</hAcc><vAcc>-1.000000</vAcc></extensions></trkpt>
      <trkpt lon="-123.272492" lat="44.566885"><ele>0.000000</ele><time>2021-01-22T21:39:28Z</time><extensions><speed>-1.000000</speed><course>-1.000000</course><hAcc>0.000000</hAcc><vAcc>-1.000000</vAcc></extensions></trkpt>
      <trkpt lon="-123.272356" lat="44.567188"><ele>0.000000</ele><time>2021-01-22T21:39:28Z</time><extensions><speed>-1.000000</speed><course>-1.000000</course><hAcc>0.000000</hAcc><vAcc>-1.000000</vAcc></extensions></trkpt>
      <trkpt lon="-123.272705" lat="44.567281"><ele>0.000000</ele><time>2021-01-22T21:39:28Z</time><extensions><speed>-1.000000</speed><course>-1.000000</course><hAcc>0.000000</hAcc><vAcc>-1.000000</vAcc></extensions></trkpt>
      <trkpt lon="-123.273131" lat="44.567376"><ele>0.000000</ele><time>2021-01-22T21:39:28Z</time><extensions><speed>-1.000000</speed><course>-1.000000</course><hAcc>0.000000</hAcc><vAcc>-1.000000</vAcc></extensions></trkpt>
      <trkpt lon="-123.273460" lat="44.567441"><ele>0.000000</ele><time>2021-01-22T21:39:28Z</time><extensions><speed>-1.000000</speed><course>-1.000000</course><hAcc>0.000000</hAcc><vAcc>-1.000000</vAcc></extensions></trkpt>
      <trkpt lon="-123.273738" lat="44.567511"><ele>0.000000</ele><time>2021-01-22T21:39:28Z</time><extensions><speed>-1.000000</speed><course>-1.000000</course><hAcc>0.000000</hAcc><vAcc>-1.000000</vAcc></extensions></trkpt>
      <trkpt lon="-123.273973" lat="44.567599"><ele>0.000000</ele><time>2021-01-22T21:39:28Z</time><extensions><speed>-1.000000</speed><course>-1.000000</course><hAcc>0.000000</hAcc><vAcc>-1.000000</vAcc></extensions></trkpt>
      <trkpt lon="-123.274454" lat="44.567695"><ele>0.000000</ele><time>2021-01-22T21:39:28Z</time><extensions><speed>-1.000000</speed><course>-1.000000</course><hAcc>0.000000</hAcc><vAcc>-1.000000</vAcc></extensions></trkpt>
      <trkpt lon="-123.274807" lat="44.567779"><ele>0.000000</ele><time>2021-01-22T21:39:28Z</time><extensions><speed>-1.000000</speed><course>-1.000000</course><hAcc>0.000000</hAcc><vAcc>-1.000000</vAcc></extensions></trkpt>
      <trkpt lon="-123.275097" lat="44.567860"><ele>0.000000</ele><time>2021-01-22T21:39:28Z</time><extensions><speed>-1.000000</speed><course>-1.000000</course><hAcc>0.000000</hAcc><vAcc>-1.000000</vAcc></extensions></trkpt>
      <trkpt lon="-123.275440" lat="44.567959"><ele>0.000000</ele><time>2021-01-22T21:39:28Z</time><extensions><speed>-1.000000</speed><course>-1.000000</course><hAcc>0.000000</hAcc><vAcc>-1.000000</vAcc></extensions></trkpt>
      <trkpt lon="-123.275579" lat="44.567980"><ele>0.000000</ele><time>2021-01-22T21:39:28Z</time><extensions><speed>-1.000000</speed><course>-1.000000</course><hAcc>0.000000</hAcc><vAcc>-1.000000</vAcc></extensions></trkpt>
      <trkpt lon="-123.275901" lat="44.568071"><ele>0.000000</ele><time>2021-01-22T21:39:28Z</time><extensions><speed>-1.000000</speed><course>-1.000000</course><hAcc>0.000000</hAcc><vAcc>-1.000000</vAcc></extensions></trkpt>
      <trkpt lon="-123.276124" lat="44.568127"><ele>0.000000</ele><time>2021-01-22T21:39:28Z</time><extensions><speed>-1.000000</speed><course>-1.000000</course><hAcc>0.000000</hAcc><vAcc>-1.000000</vAcc></extensions></trkpt>
      <trkpt lon="-123.276487" lat="44.568239"><ele>0.000000</ele><time>2021-01-22T21:39:28Z</time><extensions><speed>-1.000000</speed><course>-1.000000</course><hAcc>0.000000</hAcc><vAcc>-1.000000</vAcc></extensions></trkpt>
      <trkpt lon="-123.276832" lat="44.568287"><ele>0.000000</ele><time>2021-01-22T21:39:28Z</time><extensions><speed>-1.000000</speed><course>-1.000000</course><hAcc>0.000000</hAcc><vAcc>-1.000000</vAcc></extensions></trkpt>
      <trkpt lon="-123.277175" lat="44.568354"><ele>0.000000</ele><time>2021-01-22T21:39:28Z</time><extensions><speed>-1.000000</speed><course>-1.000000</course><hAcc>0.000000</hAcc><vAcc>-1.000000</vAcc></extensions></trkpt>
      <trkpt lon="-123.277622" lat="44.568459"><ele>0.000000</ele><time>2021-01-22T21:39:28Z</time><extensions><speed>-1.000000</speed><course>-1.000000</course><hAcc>0.000000</hAcc><vAcc>-1.000000</vAcc></extensions></trkpt>
      <trkpt lon="-123.278023" lat="44.568520"><ele>0.000000</ele><time>2021-01-22T21:39:28Z</time><extensions><speed>-1.000000</speed><course>-1.000000</course><hAcc>0.000000</hAcc><vAcc>-1.000000</vAcc></extensions></trkpt>
      <trkpt lon="-123.278263" lat="44.568568"><ele>0.000000</ele><time>2021-01-22T21:39:28Z</time><extensions><speed>-1.000000</speed><course>-1.000000</course><hAcc>0.000000</hAcc><vAcc>-1.000000</vAcc></extensions></trkpt>
      <trkpt lon="-123.278629" lat="44.568661"><ele>0.000000</ele><time>2021-01-22T21:39:28Z</time><extensions><speed>-1.000000</speed><course>-1.000000</course><hAcc>0.000000</hAcc><vAcc>-1.000000</vAcc></extensions></trkpt>
      <trkpt lon="-123.279116" lat="44.568767"><ele>0.000000</ele><time>2021-01-22T21:39:28Z</time><extensions><speed>-1.000000</speed><course>-1.000000</course><hAcc>0.000000</hAcc><vAcc>-1.000000</vAcc></extensions></trkpt>
      <trkpt lon="-123.279358" lat="44.568803"><ele>0.000000</ele><time>2021-01-22T21:39:28Z</time><extensions><speed>-1.000000</speed><course>-1.000000</course><hAcc>0.000000</hAcc><vAcc>-1.000000</vAcc></extensions></trkpt>
      <trkpt lon="-123.279832" lat="44.568886"><ele>0.000000</ele><time>2021-01-22T21:39:28Z</time><extensions><speed>-1.000000</speed><course>-1.000000</course><hAcc>0.000000</hAcc><vAcc>-1.000000</vAcc></extensions></trkpt>
      <trkpt lon="-123.279926" lat="44.568626"><ele>0.000000</ele><time>2021-01-22T21:39:28Z</time><extensions><speed>-1.000000</speed><course>-1.000000</course><hAcc>0.000000</hAcc><vAcc>-1.000000</vAcc></extensions></trkpt>
      <trkpt lon="-123.279918" lat="44.568269"><ele>0.000000</ele><time>2021-01-22T21:39:28Z</time><extensions><speed>-1.000000</speed><course>-1.000000</course><hAcc>0.000000</hAcc><vAcc>-1.000000</vAcc></extensions></trkpt>
      <trkpt lon="-123.279922" lat="44.567907"><ele>0.000000</ele><time>2021-01-22T21:39:28Z</time><extensions><speed>-1.000000</speed><course>-1.000000</course><hAcc>0.000000</hAcc><vAcc>-1.000000</vAcc></extensions></trkpt>
      <trkpt lon="-123.279889" lat="44.567849"><ele>0.000000</ele><time>2021-01-22T21:39:28Z</time><extensions><speed>-1.000000</speed><course>-1.000000</course><hAcc>0.000000</hAcc><vAcc>-1.000000</vAcc></extensions></trkpt>
      <trkpt lon="-123.279896" lat="44.567522"><ele>0.000000</ele><time>2021-01-22T21:39:28Z</time><extensions><speed>-1.000000</speed><course>-1.000000</course><hAcc>0.000000</hAcc><vAcc>-1.000000</vAcc></extensions></trkpt>
      <trkpt lon="-123.279963" lat="44.567296"><ele>0.000000</ele><time>2021-01-22T21:39:28Z</time><extensions><speed>-1.000000</speed><course>-1.000000</course><hAcc>0.000000</hAcc><vAcc>-1.000000</vAcc></extensions></trkpt>
      <trkpt lon="-123.279968" lat="44.567064"><ele>0.000000</ele><time>2021-01-22T21:39:28Z</time><extensions><speed>-1.000000</speed><course>-1.000000</course><hAcc>0.000000</hAcc><vAcc>-1.000000</vAcc></extensions></trkpt>
      <trkpt lon="-123.279976" lat="44.566796"><ele>0.000000</ele><time>2021-01-22T21:39:28Z</time><extensions><speed>-1.000000</speed><course>-1.000000</course><hAcc>0.000000</hAcc><vAcc>-1.000000</vAcc></extensions></trkpt>
      <trkpt lon="-123.279984" lat="44.566476"><ele>0.000000</ele><time>2021-01-22T21:39:28Z</time><extensions><speed>-1.000000</speed><course>-1.000000</course><hAcc>0.000000</hAcc><vAcc>-1.000000</vAcc></extensions></trkpt>
      <trkpt lon="-123.279970" lat="44.566202"><ele>0.000000</ele><time>2021-01-22T21:39:28Z</time><extensions><speed>-1.000000</speed><course>-1.000000</course><hAcc>0.000000</hAcc><vAcc>-1.000000</vAcc></extensions></trkpt>
      <trkpt lon="-123.280028" lat="44.565928"><ele>0.000000</ele><time>2021-01-22T21:39:28Z</time><extensions><speed>-1.000000</speed><course>-1.000000</course><hAcc>0.000000</hAcc><vAcc>-1.000000</vAcc></extensions></trkpt>
      <trkpt lon="-123.279981" lat="44.565695"><ele>0.000000</ele><time>2021-01-22T21:39:28Z</time><extensions><speed>-1.000000</speed><course>-1.000000</course><hAcc>0.000000</hAcc><vAcc>-1.000000</vAcc></extensions></trkpt>
      <trkpt lon="-123.280012" lat="44.565305"><ele>0.000000</ele><time>2021-01-22T21:39:28Z</time><extensions><speed>-1.000000</speed><course>-1.000000</course><hAcc>0.000000</hAcc><vAcc>-1.000000</vAcc></extensions></trkpt>
      <trkpt lon="-123.280007" lat="44.565058"><ele>0.000000</ele><time>2021-01-22T21:39:28Z</time><extensions><speed>-1.000000</speed><course>-1.000000</course><hAcc>0.000000</hAcc><vAcc>-1.000000</vAcc></extensions></trkpt>
      <trkpt lon="-123.280010" lat="44.564798"><ele>0.000000</ele><time>2021-01-22T21:39:28Z</time><extensions><speed>-1.000000</speed><course>-1.000000</course><hAcc>0.000000</hAcc><vAcc>-1.000000</vAcc></extensions></trkpt>
      <trkpt lon="-123.279999" lat="44.564411"><ele>0.000000</ele><time>2021-01-22T21:39:28Z</time><extensions><speed>-1.000000</speed><course>-1.000000</course><hAcc>0.000000</hAcc><vAcc>-1.000000</vAcc></extensions></trkpt>
      <trkpt lon="-123.279966" lat="44.564021"><ele>0.000000</ele><time>2021-01-22T21:39:28Z</time><extensions><speed>-1.000000</speed><course>-1.000000</course><hAcc>0.000000</hAcc><vAcc>-1.000000</vAcc></extensions></trkpt>
      <trkpt lon="-123.279912" lat="44.563656"><ele>0.000000</ele><time>2021-01-22T21:39:28Z</time><extensions><speed>-1.000000</speed><course>-1.000000</course><hAcc>0.000000</hAcc><vAcc>-1.000000</vAcc></extensions></trkpt>
      <trkpt lon="-123.280143" lat="44.563485"><ele>0.000000</ele><time>2021-01-22T21:39:28Z</time><extensions><speed>-1.000000</speed><course>-1.000000</course><hAcc>0.000000</hAcc><vAcc>-1.000000</vAcc></extensions></trkpt>
      <trkpt lon="-123.280325" lat="44.563408"><ele>0.000000</ele><time>2021-01-22T21:39:28Z</time><extensions><speed>-1.000000</speed><course>-1.000000</course><hAcc>0.000000</hAcc><vAcc>-1.000000</vAcc></extensions></trkpt>
      <trkpt lon="-123.280823" lat="44.563392"><ele>0.000000</ele><time>2021-01-22T21:39:28Z</time><extensions><speed>-1.000000</speed><course>-1.000000</course><hAcc>0.000000</hAcc><vAcc>-1.000000</vAcc></extensions></trkpt>
      <trkpt lon="-123.281206" lat="44.563373"><ele>0.000000</ele><time>2021-01-22T21:39:28Z</time><extensions><speed>-1.000000</speed><course>-1.000000</course><hAcc>0.000000</hAcc><vAcc>-1.000000</vAcc></extensions></trkpt>
      <trkpt lon="-123.281361" lat="44.563388"><ele>0.000000</ele><time>2021-01-22T21:39:28Z</time><extensions><speed>-1.000000</speed><course>-1.000000</course><hAcc>0.000000</hAcc><vAcc>-1.000000</vAcc></extensions></trkpt>
      <trkpt lon="-123.281734" lat="44.563391"><ele>0.000000</ele><time>2021-01-22T21:39:28Z</time><extensions><speed>-1.000000</speed><course>-1.000000</course><hAcc>0.000000</hAcc><vAcc>-1.000000</vAcc></extensions></trkpt>
      <trkpt lon="-123.281849" lat="44.563257"><ele>0.000000</ele><time>2021-01-22T21:39:28Z</time><extensions><speed>-1.000000</speed><course>-1.000000</course><hAcc>0.000000</hAcc><vAcc>-1.000000</vAcc></extensions></trkpt>
      <trkpt lon="-123.281863" lat="44.562961"><ele>0.000000</ele><time>2021-01-22T21:39:28Z</time><extensions><speed>-1.000000</speed><course>-1.000000</course><hAcc>0.000000</hAcc><vAcc>-1.000000</vAcc></extensions></trkpt>
      <trkpt lon="-123.281878" lat="44.562556"><ele>0.000000</ele><time>2021-01-22T21:39:28Z</time><extensions><speed>-1.000000</speed><course>-1.000000</course><hAcc>0.000000</hAcc><vAcc>-1.000000</vAcc></extensions></trkpt>
      <trkpt lon="-123.281890" lat="44.562363"><ele>0.000000</ele><time>2021-01-22T21:39:28Z</time><extensions><speed>-1.000000</speed><course>-1.000000</course><hAcc>0.000000</hAcc><vAcc>-1.000000</vAcc></extensions></trkpt>
      <trkpt lon="-123.281807" lat="44.562194"><ele>0.000000</ele><time>2021-01-22T21:39:28Z</time><extensions><speed>-1.000000</speed><course>-1.000000</course><hAcc>0.000000</hAcc><vAcc>-1.000000</vAcc></extensions></trkpt>
      <trkpt lon="-123.281315" lat="44.562193"><ele>0.000000</ele><time>2021-01-22T21:39:28Z</time><extensions><speed>-1.000000</speed><course>-1.000000</course><hAcc>0.000000</hAcc><vAcc>-1.000000</vAcc></extensions></trkpt>
      <trkpt lon="-123.281039" lat="44.562173"><ele>0.000000</ele><time>2021-01-22T21:39:28Z</time><extensions><speed>-1.000000</speed><course>-1.000000</course><hAcc>0.000000</hAcc><vAcc>-1.000000</vAcc></extensions></trkpt>
      <trkpt lon="-123.280499" lat="44.562171"><ele>0.000000</ele><time>2021-01-22T21:39:28Z</time><extensions><speed>-1.000000</speed><course>-1.000000</course><hAcc>0.000000</hAcc><vAcc>-1.000000</vAcc></extensions></trkpt>
      <trkpt lon="-123.280182" lat="44.562204"><ele>0.000000</ele><time>2021-01-22T21:39:28Z</time><extensions><speed>-1.000000</speed><course>-1.000000</course><hAcc>0.000000</hAcc><vAcc>-1.000000</vAcc></extensions></trkpt>
      <trkpt lon="-123.279837" lat="44.562369"><ele>0.000000</ele><time>2021-01-22T21:39:28Z</time><extensions><speed>-1.000000</speed><course>-1.000000</course><hAcc>0.000000</hAcc><vAcc>-1.000000</vAcc></extensions></trkpt>
      <trkpt lon="-123.279805" lat="44.562637"><ele>0.000000</ele><time>2021-01-22T21:39:28Z</time><extensions><speed>-1.000000</speed><course>-1.000000</course><hAcc>0.000000</hAcc><vAcc>-1.000000</vAcc></extensions></trkpt>
      <trkpt lon="-123.279799" lat="44.563031"><ele>0.000000</ele><time>2021-01-22T21:39:28Z</time><extensions><speed>-1.000000</speed><course>-1.000000</course><hAcc>0.000000</hAcc><vAcc>-1.000000</vAcc></extensions></trkpt>
      <trkpt lon="-123.279818" lat="44.563260"><ele>0.000000</ele><time>2021-01-22T21:39:28Z</time><extensions><speed>-1.000000</speed><course>-1.000000</course><hAcc>0.000000</hAcc><vAcc>-1.000000</vAcc></extensions></trkpt>
      <trkpt lon="-123.280127" lat="44.563400"><ele>0.000000</ele><time>2021-01-22T21:39:28Z</time><extensions><speed>-1.000000</speed><course>-1.000000</course><hAcc>0.000000</hAcc><vAcc>-1.000000</vAcc></extensions></trkpt>
      <trkpt lon="-123.280663" lat="44.563408"><ele>0.000000</ele><time>2021-01-22T21:39:28Z</time><extensions><speed>-1.000000</speed><course>-1.000000</course><hAcc>0.000000</hAcc><vAcc>-1.000000</vAcc></extensions></trkpt>
      <trkpt lon="-123.281092" lat="44.563414"><ele>0.000000</ele><time>2021-01-22T21:39:28Z</time><extensions><speed>-1.000000</speed><course>-1.000000</course><hAcc>0.000000</hAcc><vAcc>-1.000000</vAcc></extensions></trkpt>
      <trkpt lon="-123.281586" lat="44.563371"><ele>0.000000</ele><time>2021-01-22T21:39:28Z</time><extensions><speed>-1.000000</speed><course>-1.000000</course><hAcc>0.000000</hAcc><vAcc>-1.000000</vAcc></extensions></trkpt>
      <trkpt lon="-123.281755" lat="44.563355"><ele>0.000000</ele><time>2021-01-22T21:39:28Z</time><extensions><speed>-1.000000</speed><course>-1.000000</course><hAcc>0.000000</hAcc><vAcc>-1.000000</vAcc></extensions></trkpt>
      <trkpt lon="-123.281855" lat="44.563150"><ele>0.000000</ele><time>2021-01-22T21:39:28Z</time><extensions><speed>-1.000000</speed><course>-1.000000</course><hAcc>0.000000</hAcc><vAcc>-1.000000</vAcc></extensions></trkpt>
      <trkpt lon="-123.281860" lat="44.562832"><ele>0.000000</ele><time>2021-01-22T21:39:28Z</time><extensions><speed>-1.000000</speed><course>-1.000000</course><hAcc>0.000000</hAcc><vAcc>-1.000000</vAcc></extensions></trkpt>
      <trkpt lon="-123.281851" lat="44.562530"><ele>0.000000</ele><time>2021-01-22T21:39:28Z</time><extensions><speed>-1.000000</speed><course>-1.000000</course><hAcc>0.000000</hAcc><vAcc>-1.000000</vAcc></extensions></trkpt>
      <trkpt lon="-123.281778" lat="44.562193"><ele>0.000000</ele><time>2021-01-22T21:39:28Z</time><extensions><speed>-1.000000</speed><course>-1.000000</course><hAcc>0.000000</hAcc><vAcc>-1.000000</vAcc></extensions></trkpt>
      <trkpt lon="-123.281618" lat="44.562180"><ele>0.000000</ele><time>2021-01-22T21:39:28Z</time><extensions><speed>-1.000000</speed><course>-1.000000</course><hAcc>0.000000</hAcc><vAcc>-1.000000</vAcc></extensions></trkpt>
      <trkpt lon="-123.281309" lat="44.562180"><ele>0.000000</ele><time>2021-01-22T21:39:28Z</time><extensions><speed>-1.000000</speed><course>-1.000000</course><hAcc>0.000000</hAcc><vAcc>-1.000000</vAcc></extensions></trkpt>
      <trkpt lon="-123.281001" lat="44.562167"><ele>0.000000</ele><time>2021-01-22T21:39:28Z</time><extensions><speed>-1.000000</speed><course>-1.000000</course><hAcc>0.000000</hAcc><vAcc>-1.000000</vAcc></extensions></trkpt>
      <trkpt lon="-123.280730" lat="44.562171"><ele>0.000000</ele><time>2021-01-22T21:39:28Z</time><extensions><speed>-1.000000</speed><course>-1.000000</course><hAcc>0.000000</hAcc><vAcc>-1.000000</vAcc></extensions></trkpt>
      <trkpt lon="-123.280461" lat="44.562169"><ele>0.000000</ele><time>2021-01-22T21:39:28Z</time><extensions><speed>-1.000000</speed><course>-1.000000</course><hAcc>0.000000</hAcc><vAcc>-1.000000</vAcc></extensions></trkpt>
    </trkseg>
  </trk>
</gpx>