<?xml version="1.0" encoding="UTF-8"?>
<gpx version="1.1" creator="Apple Health Export" xmlns="http://www.topografix.com/GPX/1/1" xmlns:xsi="http://www.w3.org/2001/XMLSchema-instance" xsi:schemaLocation="http://www.topografix.com/GPX/1/1 http://www.topografix.com/GPX/1/1/gpx.xsd">
  <metadata>
    <time>2021-02-21T19:24:47Z</time>
  </metadata>
  <trk>
    <name>Route 2020-10-09 8:01pm</name>
    <trkseg>
      <trkpt lon="-123.279676" lat="44.563646"><ele>73.924416</ele><time>2020-10-10T02:55:12Z</time><extensions><speed>3.972252</speed><course>345.694214</course><hAcc>23.998739</hAcc><vAcc>23.396202</vAcc></extensions></trkpt>
      <trkpt lon="-123.279700" lat="44.563709"><ele>74.136848</ele><time>2020-10-10T02:55:13Z</time><extensions><speed>4.198124</speed><course>350.981903</course><hAcc>23.998739</hAcc><vAcc>28.786861</vAcc></extensions></trkpt>
      <trkpt lon="-123.279723" lat="44.563768"><ele>74.423149</ele><time>2020-10-10T02:55:14Z</time><extensions><speed>4.198124</speed><course>346.517029</course><hAcc>15.999160</hAcc><vAcc>24.291576</vAcc></extensions></trkpt>
      <trkpt lon="-123.279694" lat="44.563870"><ele>79.292854</ele><time>2020-10-10T02:55:14Z</time><extensions><speed>3.780000</speed><course>344.179688</course><hAcc>5.000000</hAcc><vAcc>8.000000</vAcc></extensions></trkpt>
      <trkpt lon="-123.279734" lat="44.563892"><ele>84.377998</ele><time>2020-10-10T02:55:15Z</time><extensions><speed>4.650000</speed><course>353.671875</course><hAcc>5.000000</hAcc><vAcc>8.000000</vAcc></extensions></trkpt>
      <trkpt lon="-123.279750" lat="44.563938"><ele>77.599312</ele><time>2020-10-10T02:55:16Z</time><extensions><speed>4.120000</speed><course>347.343750</course><hAcc>10.000000</hAcc><vAcc>4.000000</vAcc></extensions></trkpt>
      <trkpt lon="-123.279766" lat="44.563981"><ele>78.467415</ele><time>2020-10-10T02:55:17Z</time><extensions><speed>4.350000</speed><course>343.476562</course><hAcc>10.000000</hAcc><vAcc>4.000000</vAcc></extensions></trkpt>
      <trkpt lon="-123.279788" lat="44.564016"><ele>77.100838</ele><time>2020-10-10T02:55:18Z</time><extensions><speed>4.120000</speed><course>348.046875</course><hAcc>10.000000</hAcc><vAcc>3.000000</vAcc></extensions></trkpt>
      <trkpt lon="-123.279801" lat="44.564047"><ele>79.449776</ele><time>2020-10-10T02:55:19Z</time><extensions><speed>4.090000</speed><course>349.804688</course><hAcc>10.000000</hAcc><vAcc>3.000000</vAcc></extensions></trkpt>
      <trkpt lon="-123.279811" lat="44.564082"><ele>79.652046</ele><time>2020-10-10T02:55:20Z</time><extensions><speed>4.370000</speed><course>351.210938</course><hAcc>10.000000</hAcc><vAcc>3.000000</vAcc></extensions></trkpt>
      <trkpt lon="-123.279819" lat="44.564117"><ele>80.293037</ele><time>2020-10-10T02:55:21Z</time><extensions><speed>4.220000</speed><course>350.859375</course><hAcc>5.000000</hAcc><vAcc>3.000000</vAcc></extensions></trkpt>
      <trkpt lon="-123.279831" lat="44.564159"><ele>79.647224</ele><time>2020-10-10T02:55:22Z</time><extensions><speed>4.370000</speed><course>350.156250</course><hAcc>5.000000</hAcc><vAcc>3.000000</vAcc></extensions></trkpt>
      <trkpt lon="-123.279839" lat="44.564203"><ele>79.416878</ele><time>2020-10-10T02:55:23Z</time><extensions><speed>4.600000</speed><course>353.671875</course><hAcc>5.000000</hAcc><vAcc>3.000000</vAcc></extensions></trkpt>
      <trkpt lon="-123.279842" lat="44.564245"><ele>79.553780</ele><time>2020-10-10T02:55:24Z</time><extensions><speed>4.770000</speed><course>355.781250</course><hAcc>5.000000</hAcc><vAcc>3.000000</vAcc></extensions></trkpt>
      <trkpt lon="-123.279845" lat="44.564287"><ele>79.374031</ele><time>2020-10-10T02:55:25Z</time><extensions><speed>4.770000</speed><course>358.593750</course><hAcc>5.000000</hAcc><vAcc>3.000000</vAcc></extensions></trkpt>
      <trkpt lon="-123.279840" lat="44.564331"><ele>78.584785</ele><time>2020-10-10T02:55:26Z</time><extensions><speed>4.770000</speed><course>4.570312</course><hAcc>5.000000</hAcc><vAcc>3.000000</vAcc></extensions></trkpt>
      <trkpt lon="-123.279816" lat="44.564388"><ele>77.857796</ele><time>2020-10-10T02:55:27Z</time><extensions><speed>4.860000</speed><course>13.007812</course><hAcc>5.000000</hAcc><vAcc>3.000000</vAcc></extensions></trkpt>
      <trkpt lon="-123.279806" lat="44.564442"><ele>77.665657</ele><time>2020-10-10T02:55:28Z</time><extensions><speed>5.320000</speed><course>4.570312</course><hAcc>5.000000</hAcc><vAcc>3.000000</vAcc></extensions></trkpt>
      <trkpt lon="-123.279805" lat="44.564490"><ele>77.697090</ele><time>2020-10-10T02:55:29Z</time><extensions><speed>5.320000</speed><course>2.812500</course><hAcc>5.000000</hAcc><vAcc>3.000000</vAcc></extensions></trkpt>
      <trkpt lon="-123.279817" lat="44.564532"><ele>78.354500</ele><time>2020-10-10T02:55:30Z</time><extensions><speed>5.320000</speed><course>359.648438</course><hAcc>5.000000</hAcc><vAcc>3.000000</vAcc></extensions></trkpt>
      <trkpt lon="-123.279828" lat="44.564584"><ele>78.305244</ele><time>2020-10-10T02:55:31Z</time><extensions><speed>5.330000</speed><course>354.726562</course><hAcc>5.000000</hAcc><vAcc>3.000000</vAcc></extensions></trkpt>
      <trkpt lon="-123.279833" lat="44.564635"><ele>78.283272</ele><time>2020-10-10T02:55:32Z</time><extensions><speed>5.630000</speed><course>356.484375</course><hAcc>5.000000</hAcc><vAcc>3.000000</vAcc></extensions></trkpt>
      <trkpt lon="-123.279846" lat="44.564685"><ele>78.856331</ele><time>2020-10-10T02:55:33Z</time><extensions><speed>5.630000</speed><course>353.320312</course><hAcc>5.000000</hAcc><vAcc>3.000000</vAcc></extensions></trkpt>
      <trkpt lon="-123.279849" lat="44.564734"><ele>78.727852</ele><time>2020-10-10T02:55:34Z</time><extensions><speed>5.600000</speed><course>358.945312</course><hAcc>5.000000</hAcc><vAcc>3.000000</vAcc></extensions></trkpt>
      <trkpt lon="-123.279878" lat="44.564783"><ele>78.925972</ele><time>2020-10-10T02:55:35Z</time><extensions><speed>5.260000</speed><course>1.406250</course><hAcc>5.000000</hAcc><vAcc>3.000000</vAcc></extensions></trkpt>
      <trkpt lon="-123.279871" lat="44.564814"><ele>79.435371</ele><time>2020-10-10T02:55:36Z</time><extensions><speed>4.370000</speed><course>9.140625</course><hAcc>5.000000</hAcc><vAcc>3.000000</vAcc></extensions></trkpt>
      <trkpt lon="-123.279874" lat="44.564855"><ele>79.770210</ele><time>2020-10-10T02:55:37Z</time><extensions><speed>4.600000</speed><course>357.187500</course><hAcc>5.000000</hAcc><vAcc>3.000000</vAcc></extensions></trkpt>
      <trkpt lon="-123.279887" lat="44.564903"><ele>79.148140</ele><time>2020-10-10T02:55:38Z</time><extensions><speed>4.380000</speed><course>356.835938</course><hAcc>5.000000</hAcc><vAcc>3.000000</vAcc></extensions></trkpt>
      <trkpt lon="-123.279906" lat="44.564940"><ele>79.027718</ele><time>2020-10-10T02:55:39Z</time><extensions><speed>4.380000</speed><course>348.750000</course><hAcc>5.000000</hAcc><vAcc>3.000000</vAcc></extensions></trkpt>
      <trkpt lon="-123.279921" lat="44.564999"><ele>79.358528</ele><time>2020-10-10T02:55:40Z</time><extensions><speed>4.380000</speed><course>348.750000</course><hAcc>5.000000</hAcc><vAcc>3.000000</vAcc></extensions></trkpt>
      <trkpt lon="-123.279900" lat="44.565060"><ele>79.118538</ele><time>2020-10-10T02:55:41Z</time><extensions><speed>4.610000</speed><course>1.757812</course><hAcc>5.000000</hAcc><vAcc>3.000000</vAcc></extensions></trkpt>
      <trkpt lon="-123.279917" lat="44.565103"><ele>78.870430</ele><time>2020-10-10T02:55:42Z</time><extensions><speed>5.170000</speed><course>358.945312</course><hAcc>5.000000</hAcc><vAcc>3.000000</vAcc></extensions></trkpt>
      <trkpt lon="-123.279922" lat="44.565151"><ele>79.057137</ele><time>2020-10-10T02:55:43Z</time><extensions><speed>4.970000</speed><course>2.109375</course><hAcc>5.000000</hAcc><vAcc>3.000000</vAcc></extensions></trkpt>
      <trkpt lon="-123.279915" lat="44.565193"><ele>79.153999</ele><time>2020-10-10T02:55:44Z</time><extensions><speed>4.970000</speed><course>5.625000</course><hAcc>5.000000</hAcc><vAcc>3.000000</vAcc></extensions></trkpt>
      <trkpt lon="-123.279910" lat="44.565235"><ele>78.698250</ele><time>2020-10-10T02:55:45Z</time><extensions><speed>4.960000</speed><course>2.460938</course><hAcc>5.000000</hAcc><vAcc>3.000000</vAcc></extensions></trkpt>
      <trkpt lon="-123.279904" lat="44.565274"><ele>78.515633</ele><time>2020-10-10T02:55:46Z</time><extensions><speed>4.670000</speed><course>0.000000</course><hAcc>5.000000</hAcc><vAcc>3.000000</vAcc></extensions></trkpt>
      <trkpt lon="-123.279883" lat="44.565319"><ele>79.168159</ele><time>2020-10-10T02:55:47Z</time><extensions><speed>4.670000</speed><course>11.953125</course><hAcc>5.000000</hAcc><vAcc>3.000000</vAcc></extensions></trkpt>
      <trkpt lon="-123.279857" lat="44.565372"><ele>79.035347</ele><time>2020-10-10T02:55:48Z</time><extensions><speed>4.670000</speed><course>4.570312</course><hAcc>5.000000</hAcc><vAcc>3.000000</vAcc></extensions></trkpt>
      <trkpt lon="-123.279854" lat="44.565403"><ele>78.629341</ele><time>2020-10-10T02:55:49Z</time><extensions><speed>4.560000</speed><course>15.117188</course><hAcc>5.000000</hAcc><vAcc>4.000000</vAcc></extensions></trkpt>
      <trkpt lon="-123.279840" lat="44.565440"><ele>78.651314</ele><time>2020-10-10T02:55:50Z</time><extensions><speed>4.210000</speed><course>15.117188</course><hAcc>5.000000</hAcc><vAcc>4.000000</vAcc></extensions></trkpt>
      <trkpt lon="-123.279829" lat="44.565484"><ele>78.314034</ele><time>2020-10-10T02:55:51Z</time><extensions><speed>4.370000</speed><course>13.710938</course><hAcc>5.000000</hAcc><vAcc>3.000000</vAcc></extensions></trkpt>
      <trkpt lon="-123.279816" lat="44.565522"><ele>78.358589</ele><time>2020-10-10T02:55:52Z</time><extensions><speed>4.370000</speed><course>13.710938</course><hAcc>5.000000</hAcc><vAcc>3.000000</vAcc></extensions></trkpt>
      <trkpt lon="-123.279804" lat="44.565562"><ele>78.485054</ele><time>2020-10-10T02:55:53Z</time><extensions><speed>4.370000</speed><course>5.273438</course><hAcc>5.000000</hAcc><vAcc>4.000000</vAcc></extensions></trkpt>
      <trkpt lon="-123.279801" lat="44.565610"><ele>78.222603</ele><time>2020-10-10T02:55:54Z</time><extensions><speed>4.070000</speed><course>354.726562</course><hAcc>5.000000</hAcc><vAcc>4.000000</vAcc></extensions></trkpt>
      <trkpt lon="-123.279802" lat="44.565658"><ele>78.313972</ele><time>2020-10-10T02:55:55Z</time><extensions><speed>4.990000</speed><course>1.406250</course><hAcc>5.000000</hAcc><vAcc>4.000000</vAcc></extensions></trkpt>
      <trkpt lon="-123.279805" lat="44.565726"><ele>78.424812</ele><time>2020-10-10T02:55:56Z</time><extensions><speed>4.990000</speed><course>1.054688</course><hAcc>5.000000</hAcc><vAcc>4.000000</vAcc></extensions></trkpt>
      <trkpt lon="-123.279821" lat="44.565772"><ele>78.425972</ele><time>2020-10-10T02:55:57Z</time><extensions><speed>4.990000</speed><course>355.429688</course><hAcc>5.000000</hAcc><vAcc>4.000000</vAcc></extensions></trkpt>
      <trkpt lon="-123.279816" lat="44.565806"><ele>78.473518</ele><time>2020-10-10T02:55:58Z</time><extensions><speed>4.660000</speed><course>355.429688</course><hAcc>5.000000</hAcc><vAcc>4.000000</vAcc></extensions></trkpt>
      <trkpt lon="-123.279820" lat="44.565845"><ele>78.496773</ele><time>2020-10-10T02:55:59Z</time><extensions><speed>4.350000</speed><course>355.781250</course><hAcc>10.000000</hAcc><vAcc>4.000000</vAcc></extensions></trkpt>
      <trkpt lon="-123.279837" lat="44.565878"><ele>78.443367</ele><time>2020-10-10T02:56:00Z</time><extensions><speed>4.410000</speed><course>350.507812</course><hAcc>5.000000</hAcc><vAcc>4.000000</vAcc></extensions></trkpt>
      <trkpt lon="-123.279847" lat="44.565917"><ele>78.466743</ele><time>2020-10-10T02:56:01Z</time><extensions><speed>4.400000</speed><course>350.507812</course><hAcc>10.000000</hAcc><vAcc>4.000000</vAcc></extensions></trkpt>
      <trkpt lon="-123.279844" lat="44.565929"><ele>78.943794</ele><time>2020-10-10T02:56:02Z</time><extensions><speed>4.400000</speed><course>350.156250</course><hAcc>5.000000</hAcc><vAcc>4.000000</vAcc></extensions></trkpt>
      <trkpt lon="-123.279853" lat="44.565963"><ele>79.004646</ele><time>2020-10-10T02:56:03Z</time><extensions><speed>3.720000</speed><course>349.804688</course><hAcc>10.000000</hAcc><vAcc>4.000000</vAcc></extensions></trkpt>
      <trkpt lon="-123.279851" lat="44.565994"><ele>79.214973</ele><time>2020-10-10T02:56:04Z</time><extensions><speed>3.720000</speed><course>346.640625</course><hAcc>5.000000</hAcc><vAcc>4.000000</vAcc></extensions></trkpt>
      <trkpt lon="-123.279869" lat="44.566039"><ele>79.196968</ele><time>2020-10-10T02:56:05Z</time><extensions><speed>3.720000</speed><course>359.648438</course><hAcc>5.000000</hAcc><vAcc>4.000000</vAcc></extensions></trkpt>
      <trkpt lon="-123.279852" lat="44.566074"><ele>79.458504</ele><time>2020-10-10T02:56:06Z</time><extensions><speed>4.160000</speed><course>1.757812</course><hAcc>5.000000</hAcc><vAcc>4.000000</vAcc></extensions></trkpt>
      <trkpt lon="-123.279871" lat="44.566098"><ele>79.261971</ele><time>2020-10-10T02:56:07Z</time><extensions><speed>4.160000</speed><course>2.812500</course><hAcc>5.000000</hAcc><vAcc>4.000000</vAcc></extensions></trkpt>
      <trkpt lon="-123.279875" lat="44.566135"><ele>78.894234</ele><time>2020-10-10T02:56:08Z</time><extensions><speed>4.150000</speed><course>5.273438</course><hAcc>5.000000</hAcc><vAcc>4.000000</vAcc></extensions></trkpt>
      <trkpt lon="-123.279875" lat="44.566173"><ele>78.918587</ele><time>2020-10-10T02:56:09Z</time><extensions><speed>4.150000</speed><course>4.570312</course><hAcc>5.000000</hAcc><vAcc>4.000000</vAcc></extensions></trkpt>
      <trkpt lon="-123.279874" lat="44.566214"><ele>79.111336</ele><time>2020-10-10T02:56:10Z</time><extensions><speed>4.150000</speed><course>2.812500</course><hAcc>5.000000</hAcc><vAcc>4.000000</vAcc></extensions></trkpt>
      <trkpt lon="-123.279875" lat="44.566258"><ele>79.173935</ele><time>2020-10-10T02:56:11Z</time><extensions><speed>4.820000</speed><course>1.054688</course><hAcc>5.000000</hAcc><vAcc>4.000000</vAcc></extensions></trkpt>
      <trkpt lon="-123.279874" lat="44.566303"><ele>79.217834</ele><time>2020-10-10T02:56:12Z</time><extensions><speed>4.820000</speed><course>2.460938</course><hAcc>5.000000</hAcc><vAcc>4.000000</vAcc></extensions></trkpt>
      <trkpt lon="-123.279882" lat="44.566392"><ele>79.235077</ele><time>2020-10-10T02:56:13Z</time><extensions><speed>6.350000</speed><course>4.218750</course><hAcc>5.000000</hAcc><vAcc>4.000000</vAcc></extensions></trkpt>
      <trkpt lon="-123.279876" lat="44.566449"><ele>79.217812</ele><time>2020-10-10T02:56:14Z</time><extensions><speed>6.350000</speed><course>4.218750</course><hAcc>10.000000</hAcc><vAcc>4.000000</vAcc></extensions></trkpt>
      <trkpt lon="-123.279892" lat="44.566501"><ele>79.345581</ele><time>2020-10-10T02:56:15Z</time><extensions><speed>6.350000</speed><course>0.351562</course><hAcc>5.000000</hAcc><vAcc>4.000000</vAcc></extensions></trkpt>
      <trkpt lon="-123.279876" lat="44.566546"><ele>79.138107</ele><time>2020-10-10T02:56:16Z</time><extensions><speed>5.660000</speed><course>0.703125</course><hAcc>5.000000</hAcc><vAcc>4.000000</vAcc></extensions></trkpt>
      <trkpt lon="-123.279875" lat="44.566597"><ele>79.352806</ele><time>2020-10-10T02:56:17Z</time><extensions><speed>5.670000</speed><course>0.703125</course><hAcc>5.000000</hAcc><vAcc>4.000000</vAcc></extensions></trkpt>
      <trkpt lon="-123.279885" lat="44.566674"><ele>79.361366</ele><time>2020-10-10T02:56:18Z</time><extensions><speed>5.670000</speed><course>358.242188</course><hAcc>5.000000</hAcc><vAcc>4.000000</vAcc></extensions></trkpt>
      <trkpt lon="-123.279880" lat="44.566732"><ele>79.669136</ele><time>2020-10-10T02:56:19Z</time><extensions><speed>5.670000</speed><course>1.054688</course><hAcc>5.000000</hAcc><vAcc>4.000000</vAcc></extensions></trkpt>
      <trkpt lon="-123.279879" lat="44.566792"><ele>79.694839</ele><time>2020-10-10T02:56:20Z</time><extensions><speed>5.920000</speed><course>2.109375</course><hAcc>5.000000</hAcc><vAcc>4.000000</vAcc></extensions></trkpt>
      <trkpt lon="-123.279825" lat="44.566836"><ele>79.678154</ele><time>2020-10-10T02:56:21Z</time><extensions><speed>5.990000</speed><course>4.570312</course><hAcc>5.000000</hAcc><vAcc>4.000000</vAcc></extensions></trkpt>
      <trkpt lon="-123.279819" lat="44.566892"><ele>79.564651</ele><time>2020-10-10T02:56:22Z</time><extensions><speed>6.190000</speed><course>4.570312</course><hAcc>10.000000</hAcc><vAcc>4.000000</vAcc></extensions></trkpt>
      <trkpt lon="-123.279843" lat="44.566960"><ele>79.362434</ele><time>2020-10-10T02:56:23Z</time><extensions><speed>6.830000</speed><course>1.054688</course><hAcc>5.000000</hAcc><vAcc>4.000000</vAcc></extensions></trkpt>
      <trkpt lon="-123.279840" lat="44.567005"><ele>79.639679</ele><time>2020-10-10T02:56:24Z</time><extensions><speed>6.830000</speed><course>2.109375</course><hAcc>5.000000</hAcc><vAcc>4.000000</vAcc></extensions></trkpt>
      <trkpt lon="-123.279837" lat="44.567066"><ele>80.033485</ele><time>2020-10-10T02:56:25Z</time><extensions><speed>6.870000</speed><course>2.109375</course><hAcc>5.000000</hAcc><vAcc>4.000000</vAcc></extensions></trkpt>
      <trkpt lon="-123.279813" lat="44.567113"><ele>80.434425</ele><time>2020-10-10T02:56:26Z</time><extensions><speed>6.870000</speed><course>8.437500</course><hAcc>5.000000</hAcc><vAcc>4.000000</vAcc></extensions></trkpt>
      <trkpt lon="-123.279825" lat="44.567161"><ele>80.262611</ele><time>2020-10-10T02:56:27Z</time><extensions><speed>5.170000</speed><course>3.164062</course><hAcc>5.000000</hAcc><vAcc>4.000000</vAcc></extensions></trkpt>
      <trkpt lon="-123.279852" lat="44.567213"><ele>80.147354</ele><time>2020-10-10T02:56:28Z</time><extensions><speed>5.360000</speed><course>358.593750</course><hAcc>5.000000</hAcc><vAcc>4.000000</vAcc></extensions></trkpt>
      <trkpt lon="-123.279838" lat="44.567260"><ele>80.269516</ele><time>2020-10-10T02:56:29Z</time><extensions><speed>5.360000</speed><course>12.656250</course><hAcc>5.000000</hAcc><vAcc>4.000000</vAcc></extensions></trkpt>
      <trkpt lon="-123.279845" lat="44.567320"><ele>80.256363</ele><time>2020-10-10T02:56:30Z</time><extensions><speed>5.650000</speed><course>1.054688</course><hAcc>5.000000</hAcc><vAcc>4.000000</vAcc></extensions></trkpt>
      <trkpt lon="-123.279847" lat="44.567377"><ele>80.173737</ele><time>2020-10-10T02:56:31Z</time><extensions><speed>5.650000</speed><course>3.164062</course><hAcc>5.000000</hAcc><vAcc>4.000000</vAcc></extensions></trkpt>
      <trkpt lon="-123.279834" lat="44.567430"><ele>80.239120</ele><time>2020-10-10T02:56:32Z</time><extensions><speed>5.630000</speed><course>4.921875</course><hAcc>10.000000</hAcc><vAcc>4.000000</vAcc></extensions></trkpt>
      <trkpt lon="-123.279828" lat="44.567481"><ele>79.739525</ele><time>2020-10-10T02:56:33Z</time><extensions><speed>5.630000</speed><course>4.921875</course><hAcc>10.000000</hAcc><vAcc>4.000000</vAcc></extensions></trkpt>
      <trkpt lon="-123.279836" lat="44.567540"><ele>79.789101</ele><time>2020-10-10T02:56:34Z</time><extensions><speed>5.630000</speed><course>1.406250</course><hAcc>10.000000</hAcc><vAcc>4.000000</vAcc></extensions></trkpt>
      <trkpt lon="-123.279859" lat="44.567562"><ele>79.579239</ele><time>2020-10-10T02:56:35Z</time><extensions><speed>5.050000</speed><course>350.156250</course><hAcc>10.000000</hAcc><vAcc>4.000000</vAcc></extensions></trkpt>
      <trkpt lon="-123.279887" lat="44.567604"><ele>79.764328</ele><time>2020-10-10T02:56:36Z</time><extensions><speed>3.500000</speed><course>345.234375</course><hAcc>10.000000</hAcc><vAcc>4.000000</vAcc></extensions></trkpt>
      <trkpt lon="-123.279921" lat="44.567653"><ele>79.858871</ele><time>2020-10-10T02:56:37Z</time><extensions><speed>4.770000</speed><course>352.265625</course><hAcc>10.000000</hAcc><vAcc>4.000000</vAcc></extensions></trkpt>
      <trkpt lon="-123.279932" lat="44.567734"><ele>79.977699</ele><time>2020-10-10T02:56:38Z</time><extensions><speed>4.770000</speed><course>350.156250</course><hAcc>10.000000</hAcc><vAcc>4.000000</vAcc></extensions></trkpt>
      <trkpt lon="-123.279944" lat="44.567782"><ele>79.923820</ele><time>2020-10-10T02:56:39Z</time><extensions><speed>5.440000</speed><course>350.156250</course><hAcc>10.000000</hAcc><vAcc>4.000000</vAcc></extensions></trkpt>
      <trkpt lon="-123.279911" lat="44.567859"><ele>79.656021</ele><time>2020-10-10T02:56:40Z</time><extensions><speed>5.440000</speed><course>1.406250</course><hAcc>10.000000</hAcc><vAcc>4.000000</vAcc></extensions></trkpt>
      <trkpt lon="-123.279892" lat="44.567905"><ele>79.883949</ele><time>2020-10-10T02:56:41Z</time><extensions><speed>6.180000</speed><course>2.812500</course><hAcc>10.000000</hAcc><vAcc>4.000000</vAcc></extensions></trkpt>
      <trkpt lon="-123.279873" lat="44.567945"><ele>79.770302</ele><time>2020-10-10T02:56:42Z</time><extensions><speed>6.180000</speed><course>1.054688</course><hAcc>5.000000</hAcc><vAcc>4.000000</vAcc></extensions></trkpt>
      <trkpt lon="-123.279876" lat="44.567972"><ele>79.409615</ele><time>2020-10-10T02:56:43Z</time><extensions><speed>5.340000</speed><course>1.054688</course><hAcc>5.000000</hAcc><vAcc>4.000000</vAcc></extensions></trkpt>
      <trkpt lon="-123.279888" lat="44.568038"><ele>79.417885</ele><time>2020-10-10T02:56:44Z</time><extensions><speed>5.300000</speed><course>358.242188</course><hAcc>5.000000</hAcc><vAcc>4.000000</vAcc></extensions></trkpt>
      <trkpt lon="-123.279890" lat="44.568085"><ele>79.230865</ele><time>2020-10-10T02:56:45Z</time><extensions><speed>5.300000</speed><course>358.242188</course><hAcc>5.000000</hAcc><vAcc>4.000000</vAcc></extensions></trkpt>
      <trkpt lon="-123.279870" lat="44.568138"><ele>79.055946</ele><time>2020-10-10T02:56:46Z</time><extensions><speed>5.660000</speed><course>357.539062</course><hAcc>5.000000</hAcc><vAcc>4.000000</vAcc></extensions></trkpt>
      <trkpt lon="-123.279865" lat="44.568181"><ele>79.143333</ele><time>2020-10-10T02:56:47Z</time><extensions><speed>5.660000</speed><course>357.539062</course><hAcc>5.000000</hAcc><vAcc>4.000000</vAcc></extensions></trkpt>
      <trkpt lon="-123.279883" lat="44.568228"><ele>79.148567</ele><time>2020-10-10T02:56:48Z</time><extensions><speed>4.700000</speed><course>355.078125</course><hAcc>10.000000</hAcc><vAcc>4.000000</vAcc></extensions></trkpt>
      <trkpt lon="-123.279880" lat="44.568297"><ele>78.881607</ele><time>2020-10-10T02:56:49Z</time><extensions><speed>4.700000</speed><course>355.781250</course><hAcc>5.000000</hAcc><vAcc>4.000000</vAcc></extensions></trkpt>
      <trkpt lon="-123.279888" lat="44.568333"><ele>78.918144</ele><time>2020-10-10T02:56:50Z</time><extensions><speed>5.680000</speed><course>356.835938</course><hAcc>5.000000</hAcc><vAcc>4.000000</vAcc></extensions></trkpt>
      <trkpt lon="-123.279892" lat="44.568385"><ele>78.757172</ele><time>2020-10-10T02:56:51Z</time><extensions><speed>5.680000</speed><course>356.484375</course><hAcc>5.000000</hAcc><vAcc>4.000000</vAcc></extensions></trkpt>
      <trkpt lon="-123.279902" lat="44.568418"><ele>78.774605</ele><time>2020-10-10T02:56:52Z</time><extensions><speed>5.680000</speed><course>355.078125</course><hAcc>5.000000</hAcc><vAcc>4.000000</vAcc></extensions></trkpt>
      <trkpt lon="-123.279917" lat="44.568473"><ele>78.938004</ele><time>2020-10-10T02:56:53Z</time><extensions><speed>5.680000</speed><course>358.593750</course><hAcc>5.000000</hAcc><vAcc>4.000000</vAcc></extensions></trkpt>
      <trkpt lon="-123.279914" lat="44.568520"><ele>78.760216</ele><time>2020-10-10T02:56:54Z</time><extensions><speed>5.730000</speed><course>358.945312</course><hAcc>5.000000</hAcc><vAcc>4.000000</vAcc></extensions></trkpt>
      <trkpt lon="-123.279925" lat="44.568567"><ele>78.803772</ele><time>2020-10-10T02:56:55Z</time><extensions><speed>5.430000</speed><course>355.078125</course><hAcc>5.000000</hAcc><vAcc>4.000000</vAcc></extensions></trkpt>
      <trkpt lon="-123.279932" lat="44.568615"><ele>78.604736</ele><time>2020-10-10T02:56:56Z</time><extensions><speed>5.430000</speed><course>354.726562</course><hAcc>10.000000</hAcc><vAcc>4.000000</vAcc></extensions></trkpt>
      <trkpt lon="-123.279966" lat="44.568665"><ele>78.618523</ele><time>2020-10-10T02:56:57Z</time><extensions><speed>5.430000</speed><course>358.593750</course><hAcc>5.000000</hAcc><vAcc>4.000000</vAcc></extensions></trkpt>
      <trkpt lon="-123.279963" lat="44.568709"><ele>78.607002</ele><time>2020-10-10T02:56:58Z</time><extensions><speed>5.430000</speed><course>0.000000</course><hAcc>5.000000</hAcc><vAcc>3.000000</vAcc></extensions></trkpt>
      <trkpt lon="-123.279963" lat="44.568760"><ele>78.684052</ele><time>2020-10-10T02:56:59Z</time><extensions><speed>5.670000</speed><course>0.000000</course><hAcc>5.000000</hAcc><vAcc>4.000000</vAcc></extensions></trkpt>
      <trkpt lon="-123.279967" lat="44.568811"><ele>78.537491</ele><time>2020-10-10T02:57:00Z</time><extensions><speed>5.680000</speed><course>0.351562</course><hAcc>5.000000</hAcc><vAcc>3.000000</vAcc></extensions></trkpt>
      <trkpt lon="-123.279978" lat="44.568863"><ele>78.552963</ele><time>2020-10-10T02:57:01Z</time><extensions><speed>5.680000</speed><course>357.890625</course><hAcc>5.000000</hAcc><vAcc>3.000000</vAcc></extensions></trkpt>
      <trkpt lon="-123.279985" lat="44.568924"><ele>78.986320</ele><time>2020-10-10T02:57:02Z</time><extensions><speed>5.620000</speed><course>357.890625</course><hAcc>5.000000</hAcc><vAcc>3.000000</vAcc></extensions></trkpt>
      <trkpt lon="-123.279997" lat="44.568964"><ele>79.261543</ele><time>2020-10-10T02:57:03Z</time><extensions><speed>5.450000</speed><course>348.750000</course><hAcc>5.000000</hAcc><vAcc>3.000000</vAcc></extensions></trkpt>
      <trkpt lon="-123.280022" lat="44.569014"><ele>79.555115</ele><time>2020-10-10T02:57:04Z</time><extensions><speed>5.450000</speed><course>338.554688</course><hAcc>5.000000</hAcc><vAcc>3.000000</vAcc></extensions></trkpt>
      <trkpt lon="-123.280069" lat="44.569049"><ele>79.646980</ele><time>2020-10-10T02:57:05Z</time><extensions><speed>5.360000</speed><course>325.898438</course><hAcc>5.000000</hAcc><vAcc>3.000000</vAcc></extensions></trkpt>
      <trkpt lon="-123.280107" lat="44.569089"><ele>79.956886</ele><time>2020-10-10T02:57:06Z</time><extensions><speed>5.360000</speed><course>325.898438</course><hAcc>5.000000</hAcc><vAcc>3.000000</vAcc></extensions></trkpt>
      <trkpt lon="-123.280147" lat="44.569131"><ele>80.220757</ele><time>2020-10-10T02:57:07Z</time><extensions><speed>5.350000</speed><course>323.437500</course><hAcc>5.000000</hAcc><vAcc>3.000000</vAcc></extensions></trkpt>
      <trkpt lon="-123.280185" lat="44.569169"><ele>80.075630</ele><time>2020-10-10T02:57:08Z</time><extensions><speed>5.220000</speed><course>323.437500</course><hAcc>5.000000</hAcc><vAcc>3.000000</vAcc></extensions></trkpt>
      <trkpt lon="-123.280247" lat="44.569216"><ele>80.331459</ele><time>2020-10-10T02:57:09Z</time><extensions><speed>6.780000</speed><course>311.835938</course><hAcc>5.000000</hAcc><vAcc>3.000000</vAcc></extensions></trkpt>
      <trkpt lon="-123.280303" lat="44.569261"><ele>79.396645</ele><time>2020-10-10T02:57:10Z</time><extensions><speed>6.780000</speed><course>319.921875</course><hAcc>5.000000</hAcc><vAcc>3.000000</vAcc></extensions></trkpt>
      <trkpt lon="-123.280334" lat="44.569298"><ele>79.208092</ele><time>2020-10-10T02:57:11Z</time><extensions><speed>5.170000</speed><course>327.656250</course><hAcc>5.000000</hAcc><vAcc>3.000000</vAcc></extensions></trkpt>
      <trkpt lon="-123.280362" lat="44.569332"><ele>78.920189</ele><time>2020-10-10T02:57:12Z</time><extensions><speed>4.870000</speed><course>323.789062</course><hAcc>5.000000</hAcc><vAcc>4.000000</vAcc></extensions></trkpt>
      <trkpt lon="-123.280398" lat="44.569360"><ele>78.875656</ele><time>2020-10-10T02:57:13Z</time><extensions><speed>4.580000</speed><course>319.570312</course><hAcc>5.000000</hAcc><vAcc>4.000000</vAcc></extensions></trkpt>
      <trkpt lon="-123.280441" lat="44.569394"><ele>79.099808</ele><time>2020-10-10T02:57:14Z</time><extensions><speed>4.960000</speed><course>312.890625</course><hAcc>5.000000</hAcc><vAcc>4.000000</vAcc></extensions></trkpt>
      <trkpt lon="-123.280484" lat="44.569431"><ele>78.945427</ele><time>2020-10-10T02:57:15Z</time><extensions><speed>4.960000</speed><course>321.328125</course><hAcc>5.000000</hAcc><vAcc>4.000000</vAcc></extensions></trkpt>
      <trkpt lon="-123.280534" lat="44.569465"><ele>79.038895</ele><time>2020-10-10T02:57:16Z</time><extensions><speed>4.960000</speed><course>316.757812</course><hAcc>5.000000</hAcc><vAcc>4.000000</vAcc></extensions></trkpt>
      <trkpt lon="-123.280566" lat="44.569492"><ele>79.019585</ele><time>2020-10-10T02:57:17Z</time><extensions><speed>4.900000</speed><course>314.648438</course><hAcc>5.000000</hAcc><vAcc>4.000000</vAcc></extensions></trkpt>
      <trkpt lon="-123.280619" lat="44.569530"><ele>78.913177</ele><time>2020-10-10T02:57:18Z</time><extensions><speed>5.010000</speed><course>315.703125</course><hAcc>5.000000</hAcc><vAcc>3.000000</vAcc></extensions></trkpt>
      <trkpt lon="-123.280666" lat="44.569557"><ele>78.965538</ele><time>2020-10-10T02:57:19Z</time><extensions><speed>5.010000</speed><course>318.164062</course><hAcc>5.000000</hAcc><vAcc>3.000000</vAcc></extensions></trkpt>
      <trkpt lon="-123.280705" lat="44.569586"><ele>79.075432</ele><time>2020-10-10T02:57:20Z</time><extensions><speed>4.780000</speed><course>317.812500</course><hAcc>5.000000</hAcc><vAcc>3.000000</vAcc></extensions></trkpt>
      <trkpt lon="-123.280750" lat="44.569616"><ele>79.001183</ele><time>2020-10-10T02:57:21Z</time><extensions><speed>4.760000</speed><course>320.273438</course><hAcc>5.000000</hAcc><vAcc>3.000000</vAcc></extensions></trkpt>
      <trkpt lon="-123.280795" lat="44.569651"><ele>79.109756</ele><time>2020-10-10T02:57:22Z</time><extensions><speed>4.720000</speed><course>318.515625</course><hAcc>5.000000</hAcc><vAcc>3.000000</vAcc></extensions></trkpt>
      <trkpt lon="-123.280832" lat="44.569682"><ele>79.312386</ele><time>2020-10-10T02:57:23Z</time><extensions><speed>4.540000</speed><course>318.515625</course><hAcc>5.000000</hAcc><vAcc>3.000000</vAcc></extensions></trkpt>
      <trkpt lon="-123.280858" lat="44.569719"><ele>79.183014</ele><time>2020-10-10T02:57:24Z</time><extensions><speed>4.540000</speed><course>313.593750</course><hAcc>5.000000</hAcc><vAcc>4.000000</vAcc></extensions></trkpt>
      <trkpt lon="-123.280886" lat="44.569742"><ele>79.126968</ele><time>2020-10-10T02:57:25Z</time><extensions><speed>3.410000</speed><course>311.132812</course><hAcc>5.000000</hAcc><vAcc>4.000000</vAcc></extensions></trkpt>
      <trkpt lon="-123.280933" lat="44.569765"><ele>79.079010</ele><time>2020-10-10T02:57:26Z</time><extensions><speed>3.410000</speed><course>315.351562</course><hAcc>5.000000</hAcc><vAcc>4.000000</vAcc></extensions></trkpt>
      <trkpt lon="-123.280959" lat="44.569796"><ele>79.020622</ele><time>2020-10-10T02:57:27Z</time><extensions><speed>4.020000</speed><course>325.898438</course><hAcc>5.000000</hAcc><vAcc>4.000000</vAcc></extensions></trkpt>
      <trkpt lon="-123.280987" lat="44.569833"><ele>78.754959</ele><time>2020-10-10T02:57:28Z</time><extensions><speed>4.130000</speed><course>322.031250</course><hAcc>5.000000</hAcc><vAcc>4.000000</vAcc></extensions></trkpt>
      <trkpt lon="-123.281022" lat="44.569867"><ele>78.921043</ele><time>2020-10-10T02:57:29Z</time><extensions><speed>4.130000</speed><course>320.976562</course><hAcc>5.000000</hAcc><vAcc>4.000000</vAcc></extensions></trkpt>
      <trkpt lon="-123.281061" lat="44.569894"><ele>78.741699</ele><time>2020-10-10T02:57:30Z</time><extensions><speed>4.130000</speed><course>315.351562</course><hAcc>5.000000</hAcc><vAcc>4.000000</vAcc></extensions></trkpt>
      <trkpt lon="-123.281098" lat="44.569917"><ele>78.809837</ele><time>2020-10-10T02:57:31Z</time><extensions><speed>3.990000</speed><course>316.757812</course><hAcc>5.000000</hAcc><vAcc>3.000000</vAcc></extensions></trkpt>
      <trkpt lon="-123.281137" lat="44.569940"><ele>79.016060</ele><time>2020-10-10T02:57:32Z</time><extensions><speed>4.000000</speed><course>316.054688</course><hAcc>5.000000</hAcc><vAcc>3.000000</vAcc></extensions></trkpt>
      <trkpt lon="-123.281174" lat="44.569973"><ele>79.028351</ele><time>2020-10-10T02:57:33Z</time><extensions><speed>4.000000</speed><course>316.406250</course><hAcc>5.000000</hAcc><vAcc>3.000000</vAcc></extensions></trkpt>
      <trkpt lon="-123.281205" lat="44.570001"><ele>78.832214</ele><time>2020-10-10T02:57:34Z</time><extensions><speed>4.010000</speed><course>320.625000</course><hAcc>5.000000</hAcc><vAcc>3.000000</vAcc></extensions></trkpt>
      <trkpt lon="-123.281232" lat="44.570041"><ele>78.783684</ele><time>2020-10-10T02:57:35Z</time><extensions><speed>4.150000</speed><course>322.031250</course><hAcc>5.000000</hAcc><vAcc>3.000000</vAcc></extensions></trkpt>
      <trkpt lon="-123.281266" lat="44.570071"><ele>78.756035</ele><time>2020-10-10T02:57:36Z</time><extensions><speed>4.140000</speed><course>319.921875</course><hAcc>5.000000</hAcc><vAcc>3.000000</vAcc></extensions></trkpt>
      <trkpt lon="-123.281310" lat="44.570098"><ele>78.737930</ele><time>2020-10-10T02:57:37Z</time><extensions><speed>4.690000</speed><course>312.539062</course><hAcc>5.000000</hAcc><vAcc>3.000000</vAcc></extensions></trkpt>
      <trkpt lon="-123.281352" lat="44.570122"><ele>78.905724</ele><time>2020-10-10T02:57:38Z</time><extensions><speed>4.140000</speed><course>311.484375</course><hAcc>5.000000</hAcc><vAcc>3.000000</vAcc></extensions></trkpt>
      <trkpt lon="-123.281387" lat="44.570143"><ele>78.901031</ele><time>2020-10-10T02:57:39Z</time><extensions><speed>4.090000</speed><course>313.242188</course><hAcc>5.000000</hAcc><vAcc>3.000000</vAcc></extensions></trkpt>
      <trkpt lon="-123.281414" lat="44.570163"><ele>79.136139</ele><time>2020-10-10T02:57:40Z</time><extensions><speed>3.500000</speed><course>314.648438</course><hAcc>5.000000</hAcc><vAcc>3.000000</vAcc></extensions></trkpt>
      <trkpt lon="-123.281444" lat="44.570187"><ele>78.915047</ele><time>2020-10-10T02:57:41Z</time><extensions><speed>3.570000</speed><course>319.218750</course><hAcc>5.000000</hAcc><vAcc>3.000000</vAcc></extensions></trkpt>
      <trkpt lon="-123.281468" lat="44.570213"><ele>78.844986</ele><time>2020-10-10T02:57:42Z</time><extensions><speed>3.570000</speed><course>330.117188</course><hAcc>5.000000</hAcc><vAcc>3.000000</vAcc></extensions></trkpt>
      <trkpt lon="-123.281491" lat="44.570242"><ele>78.975746</ele><time>2020-10-10T02:57:43Z</time><extensions><speed>3.570000</speed><course>324.843750</course><hAcc>5.000000</hAcc><vAcc>3.000000</vAcc></extensions></trkpt>
      <trkpt lon="-123.281522" lat="44.570271"><ele>78.762367</ele><time>2020-10-10T02:57:44Z</time><extensions><speed>3.700000</speed><course>318.164062</course><hAcc>5.000000</hAcc><vAcc>3.000000</vAcc></extensions></trkpt>
      <trkpt lon="-123.281556" lat="44.570302"><ele>78.759666</ele><time>2020-10-10T02:57:45Z</time><extensions><speed>3.850000</speed><course>327.304688</course><hAcc>5.000000</hAcc><vAcc>3.000000</vAcc></extensions></trkpt>
      <trkpt lon="-123.281590" lat="44.570328"><ele>78.743866</ele><time>2020-10-10T02:57:46Z</time><extensions><speed>3.870000</speed><course>318.867188</course><hAcc>5.000000</hAcc><vAcc>3.000000</vAcc></extensions></trkpt>
      <trkpt lon="-123.281627" lat="44.570356"><ele>78.636459</ele><time>2020-10-10T02:57:47Z</time><extensions><speed>4.080000</speed><course>322.382812</course><hAcc>5.000000</hAcc><vAcc>3.000000</vAcc></extensions></trkpt>
      <trkpt lon="-123.281666" lat="44.570385"><ele>78.596008</ele><time>2020-10-10T02:57:48Z</time><extensions><speed>4.080000</speed><course>320.625000</course><hAcc>5.000000</hAcc><vAcc>3.000000</vAcc></extensions></trkpt>
      <trkpt lon="-123.281704" lat="44.570418"><ele>78.424072</ele><time>2020-10-10T02:57:49Z</time><extensions><speed>4.080000</speed><course>322.734375</course><hAcc>5.000000</hAcc><vAcc>3.000000</vAcc></extensions></trkpt>
      <trkpt lon="-123.281741" lat="44.570452"><ele>78.310036</ele><time>2020-10-10T02:57:50Z</time><extensions><speed>4.190000</speed><course>326.250000</course><hAcc>5.000000</hAcc><vAcc>3.000000</vAcc></extensions></trkpt>
      <trkpt lon="-123.281784" lat="44.570483"><ele>78.208908</ele><time>2020-10-10T02:57:51Z</time><extensions><speed>4.340000</speed><course>315.000000</course><hAcc>5.000000</hAcc><vAcc>3.000000</vAcc></extensions></trkpt>
      <trkpt lon="-123.281825" lat="44.570514"><ele>78.624634</ele><time>2020-10-10T02:57:52Z</time><extensions><speed>4.360000</speed><course>318.164062</course><hAcc>5.000000</hAcc><vAcc>3.000000</vAcc></extensions></trkpt>
      <trkpt lon="-123.281864" lat="44.570547"><ele>78.409508</ele><time>2020-10-10T02:57:53Z</time><extensions><speed>4.360000</speed><course>331.171875</course><hAcc>5.000000</hAcc><vAcc>3.000000</vAcc></extensions></trkpt>
      <trkpt lon="-123.281889" lat="44.570585"><ele>78.344841</ele><time>2020-10-10T02:57:54Z</time><extensions><speed>4.420000</speed><course>349.101562</course><hAcc>5.000000</hAcc><vAcc>3.000000</vAcc></extensions></trkpt>
      <trkpt lon="-123.281918" lat="44.570623"><ele>78.495209</ele><time>2020-10-10T02:57:55Z</time><extensions><speed>4.500000</speed><course>328.710938</course><hAcc>5.000000</hAcc><vAcc>3.000000</vAcc></extensions></trkpt>
      <trkpt lon="-123.281964" lat="44.570652"><ele>78.319382</ele><time>2020-10-10T02:57:56Z</time><extensions><speed>4.700000</speed><course>309.375000</course><hAcc>5.000000</hAcc><vAcc>3.000000</vAcc></extensions></trkpt>
      <trkpt lon="-123.282006" lat="44.570682"><ele>78.212967</ele><time>2020-10-10T02:57:57Z</time><extensions><speed>4.700000</speed><course>328.359375</course><hAcc>5.000000</hAcc><vAcc>3.000000</vAcc></extensions></trkpt>
      <trkpt lon="-123.282042" lat="44.570711"><ele>77.986404</ele><time>2020-10-10T02:57:58Z</time><extensions><speed>4.290000</speed><course>319.570312</course><hAcc>5.000000</hAcc><vAcc>3.000000</vAcc></extensions></trkpt>
      <trkpt lon="-123.282077" lat="44.570741"><ele>77.768791</ele><time>2020-10-10T02:57:59Z</time><extensions><speed>4.250000</speed><course>323.437500</course><hAcc>5.000000</hAcc><vAcc>3.000000</vAcc></extensions></trkpt>
      <trkpt lon="-123.282113" lat="44.570771"><ele>78.088425</ele><time>2020-10-10T02:58:00Z</time><extensions><speed>4.250000</speed><course>319.921875</course><hAcc>5.000000</hAcc><vAcc>3.000000</vAcc></extensions></trkpt>
      <trkpt lon="-123.282144" lat="44.570794"><ele>78.167175</ele><time>2020-10-10T02:58:01Z</time><extensions><speed>2.650000</speed><course>313.945312</course><hAcc>5.000000</hAcc><vAcc>3.000000</vAcc></extensions></trkpt>
      <trkpt lon="-123.282171" lat="44.570812"><ele>78.287148</ele><time>2020-10-10T02:58:02Z</time><extensions><speed>2.990000</speed><course>304.101562</course><hAcc>5.000000</hAcc><vAcc>4.000000</vAcc></extensions></trkpt>
      <trkpt lon="-123.282210" lat="44.570845"><ele>78.355125</ele><time>2020-10-10T02:58:03Z</time><extensions><speed>2.990000</speed><course>318.515625</course><hAcc>5.000000</hAcc><vAcc>4.000000</vAcc></extensions></trkpt>
      <trkpt lon="-123.282254" lat="44.570879"><ele>78.544952</ele><time>2020-10-10T02:58:04Z</time><extensions><speed>4.490000</speed><course>309.023438</course><hAcc>5.000000</hAcc><vAcc>4.000000</vAcc></extensions></trkpt>
      <trkpt lon="-123.282300" lat="44.570910"><ele>78.799103</ele><time>2020-10-10T02:58:05Z</time><extensions><speed>4.790000</speed><course>303.750000</course><hAcc>5.000000</hAcc><vAcc>4.000000</vAcc></extensions></trkpt>
      <trkpt lon="-123.282339" lat="44.570940"><ele>78.649887</ele><time>2020-10-10T02:58:06Z</time><extensions><speed>4.530000</speed><course>321.679688</course><hAcc>5.000000</hAcc><vAcc>4.000000</vAcc></extensions></trkpt>
      <trkpt lon="-123.282375" lat="44.570971"><ele>78.336609</ele><time>2020-10-10T02:58:07Z</time><extensions><speed>4.540000</speed><course>317.812500</course><hAcc>5.000000</hAcc><vAcc>4.000000</vAcc></extensions></trkpt>
      <trkpt lon="-123.282414" lat="44.570997"><ele>78.415932</ele><time>2020-10-10T02:58:08Z</time><extensions><speed>4.530000</speed><course>295.664062</course><hAcc>5.000000</hAcc><vAcc>4.000000</vAcc></extensions></trkpt>
      <trkpt lon="-123.282455" lat="44.571017"><ele>78.473732</ele><time>2020-10-10T02:58:09Z</time><extensions><speed>3.870000</speed><course>299.179688</course><hAcc>5.000000</hAcc><vAcc>4.000000</vAcc></extensions></trkpt>
      <trkpt lon="-123.282496" lat="44.571043"><ele>78.080940</ele><time>2020-10-10T02:58:10Z</time><extensions><speed>4.510000</speed><course>311.132812</course><hAcc>5.000000</hAcc><vAcc>4.000000</vAcc></extensions></trkpt>
      <trkpt lon="-123.282535" lat="44.571096"><ele>78.224045</ele><time>2020-10-10T02:58:11Z</time><extensions><speed>5.000000</speed><course>315.000000</course><hAcc>5.000000</hAcc><vAcc>3.000000</vAcc></extensions></trkpt>
      <trkpt lon="-123.282577" lat="44.571132"><ele>78.140678</ele><time>2020-10-10T02:58:12Z</time><extensions><speed>4.610000</speed><course>318.164062</course><hAcc>5.000000</hAcc><vAcc>3.000000</vAcc></extensions></trkpt>
      <trkpt lon="-123.282628" lat="44.571171"><ele>78.151169</ele><time>2020-10-10T02:58:13Z</time><extensions><speed>5.000000</speed><course>322.382812</course><hAcc>5.000000</hAcc><vAcc>3.000000</vAcc></extensions></trkpt>
      <trkpt lon="-123.282666" lat="44.571211"><ele>78.229645</ele><time>2020-10-10T02:58:14Z</time><extensions><speed>4.730000</speed><course>328.359375</course><hAcc>5.000000</hAcc><vAcc>3.000000</vAcc></extensions></trkpt>
      <trkpt lon="-123.282707" lat="44.571251"><ele>78.116302</ele><time>2020-10-10T02:58:15Z</time><extensions><speed>4.870000</speed><course>325.546875</course><hAcc>5.000000</hAcc><vAcc>3.000000</vAcc></extensions></trkpt>
      <trkpt lon="-123.282749" lat="44.571276"><ele>78.362610</ele><time>2020-10-10T02:58:16Z</time><extensions><speed>4.870000</speed><course>307.617188</course><hAcc>5.000000</hAcc><vAcc>3.000000</vAcc></extensions></trkpt>
      <trkpt lon="-123.282799" lat="44.571313"><ele>78.515808</ele><time>2020-10-10T02:58:17Z</time><extensions><speed>4.870000</speed><course>325.195312</course><hAcc>5.000000</hAcc><vAcc>3.000000</vAcc></extensions></trkpt>
      <trkpt lon="-123.282830" lat="44.571354"><ele>78.088913</ele><time>2020-10-10T02:58:18Z</time><extensions><speed>5.030000</speed><course>329.414062</course><hAcc>5.000000</hAcc><vAcc>3.000000</vAcc></extensions></trkpt>
      <trkpt lon="-123.282874" lat="44.571405"><ele>79.165466</ele><time>2020-10-10T02:58:19Z</time><extensions><speed>5.170000</speed><course>325.195312</course><hAcc>5.000000</hAcc><vAcc>3.000000</vAcc></extensions></trkpt>
      <trkpt lon="-123.282917" lat="44.571447"><ele>79.058365</ele><time>2020-10-10T02:58:20Z</time><extensions><speed>5.410000</speed><course>325.898438</course><hAcc>5.000000</hAcc><vAcc>3.000000</vAcc></extensions></trkpt>
      <trkpt lon="-123.282948" lat="44.571484"><ele>79.323669</ele><time>2020-10-10T02:58:21Z</time><extensions><speed>5.410000</speed><course>326.250000</course><hAcc>5.000000</hAcc><vAcc>3.000000</vAcc></extensions></trkpt>
      <trkpt lon="-123.282990" lat="44.571523"><ele>78.988121</ele><time>2020-10-10T02:58:22Z</time><extensions><speed>5.410000</speed><course>326.953125</course><hAcc>5.000000</hAcc><vAcc>3.000000</vAcc></extensions></trkpt>
      <trkpt lon="-123.283032" lat="44.571570"><ele>79.057617</ele><time>2020-10-10T02:58:23Z</time><extensions><speed>6.130000</speed><course>326.953125</course><hAcc>5.000000</hAcc><vAcc>3.000000</vAcc></extensions></trkpt>
      <trkpt lon="-123.283095" lat="44.571618"><ele>79.273361</ele><time>2020-10-10T02:58:24Z</time><extensions><speed>6.930000</speed><course>320.976562</course><hAcc>5.000000</hAcc><vAcc>3.000000</vAcc></extensions></trkpt>
      <trkpt lon="-123.283152" lat="44.571671"><ele>79.448433</ele><time>2020-10-10T02:58:25Z</time><extensions><speed>7.090000</speed><course>322.734375</course><hAcc>5.000000</hAcc><vAcc>3.000000</vAcc></extensions></trkpt>
      <trkpt lon="-123.283199" lat="44.571724"><ele>79.486992</ele><time>2020-10-10T02:58:26Z</time><extensions><speed>7.090000</speed><course>325.195312</course><hAcc>5.000000</hAcc><vAcc>3.000000</vAcc></extensions></trkpt>
      <trkpt lon="-123.283256" lat="44.571784"><ele>79.761673</ele><time>2020-10-10T02:58:27Z</time><extensions><speed>7.780000</speed><course>330.117188</course><hAcc>5.000000</hAcc><vAcc>3.000000</vAcc></extensions></trkpt>
      <trkpt lon="-123.283310" lat="44.571852"><ele>79.962830</ele><time>2020-10-10T02:58:28Z</time><extensions><speed>8.680000</speed><course>330.468750</course><hAcc>5.000000</hAcc><vAcc>3.000000</vAcc></extensions></trkpt>
      <trkpt lon="-123.283327" lat="44.571935"><ele>80.056816</ele><time>2020-10-10T02:58:29Z</time><extensions><speed>8.970000</speed><course>346.289062</course><hAcc>5.000000</hAcc><vAcc>3.000000</vAcc></extensions></trkpt>
      <trkpt lon="-123.283319" lat="44.572008"><ele>80.068199</ele><time>2020-10-10T02:58:30Z</time><extensions><speed>8.490000</speed><course>356.132812</course><hAcc>5.000000</hAcc><vAcc>3.000000</vAcc></extensions></trkpt>
      <trkpt lon="-123.283324" lat="44.572084"><ele>80.026527</ele><time>2020-10-10T02:58:31Z</time><extensions><speed>8.480000</speed><course>356.484375</course><hAcc>5.000000</hAcc><vAcc>3.000000</vAcc></extensions></trkpt>
      <trkpt lon="-123.283312" lat="44.572188"><ele>80.994980</ele><time>2020-10-10T02:58:32Z</time><extensions><speed>9.680000</speed><course>358.945312</course><hAcc>5.000000</hAcc><vAcc>3.000000</vAcc></extensions></trkpt>
      <trkpt lon="-123.283328" lat="44.572286"><ele>80.697388</ele><time>2020-10-10T02:58:33Z</time><extensions><speed>9.740000</speed><course>359.648438</course><hAcc>5.000000</hAcc><vAcc>3.000000</vAcc></extensions></trkpt>
      <trkpt lon="-123.283413" lat="44.572410"><ele>80.321312</ele><time>2020-10-10T02:58:34Z</time><extensions><speed>10.780000</speed><course>356.484375</course><hAcc>5.000000</hAcc><vAcc>3.000000</vAcc></extensions></trkpt>
      <trkpt lon="-123.283400" lat="44.572510"><ele>80.723053</ele><time>2020-10-10T02:58:35Z</time><extensions><speed>10.910000</speed><course>2.109375</course><hAcc>5.000000</hAcc><vAcc>3.000000</vAcc></extensions></trkpt>
      <trkpt lon="-123.283387" lat="44.572607"><ele>81.498848</ele><time>2020-10-10T02:58:36Z</time><extensions><speed>10.760000</speed><course>1.054688</course><hAcc>5.000000</hAcc><vAcc>3.000000</vAcc></extensions></trkpt>
      <trkpt lon="-123.283394" lat="44.572699"><ele>80.663551</ele><time>2020-10-10T02:58:37Z</time><extensions><speed>10.570000</speed><course>1.406250</course><hAcc>5.000000</hAcc><vAcc>3.000000</vAcc></extensions></trkpt>
      <trkpt lon="-123.283378" lat="44.572796"><ele>79.709953</ele><time>2020-10-10T02:58:38Z</time><extensions><speed>10.490000</speed><course>4.218750</course><hAcc>5.000000</hAcc><vAcc>3.000000</vAcc></extensions></trkpt>
      <trkpt lon="-123.283366" lat="44.572885"><ele>79.393097</ele><time>2020-10-10T02:58:39Z</time><extensions><speed>10.100000</speed><course>4.570312</course><hAcc>5.000000</hAcc><vAcc>3.000000</vAcc></extensions></trkpt>
      <trkpt lon="-123.283367" lat="44.572985"><ele>79.481529</ele><time>2020-10-10T02:58:40Z</time><extensions><speed>10.310000</speed><course>2.460938</course><hAcc>5.000000</hAcc><vAcc>3.000000</vAcc></extensions></trkpt>
      <trkpt lon="-123.283357" lat="44.573072"><ele>78.389366</ele><time>2020-10-10T02:58:41Z</time><extensions><speed>10.210000</speed><course>1.757812</course><hAcc>5.000000</hAcc><vAcc>3.000000</vAcc></extensions></trkpt>
      <trkpt lon="-123.283356" lat="44.573167"><ele>78.964432</ele><time>2020-10-10T02:58:42Z</time><extensions><speed>9.740000</speed><course>0.351562</course><hAcc>5.000000</hAcc><vAcc>3.000000</vAcc></extensions></trkpt>
      <trkpt lon="-123.283364" lat="44.573252"><ele>78.652840</ele><time>2020-10-10T02:58:43Z</time><extensions><speed>9.660000</speed><course>359.296875</course><hAcc>5.000000</hAcc><vAcc>3.000000</vAcc></extensions></trkpt>
      <trkpt lon="-123.283333" lat="44.573322"><ele>79.119453</ele><time>2020-10-10T02:58:44Z</time><extensions><speed>9.440000</speed><course>4.570312</course><hAcc>5.000000</hAcc><vAcc>4.000000</vAcc></extensions></trkpt>
      <trkpt lon="-123.283350" lat="44.573404"><ele>77.622299</ele><time>2020-10-10T02:58:45Z</time><extensions><speed>9.530000</speed><course>7.031250</course><hAcc>5.000000</hAcc><vAcc>4.000000</vAcc></extensions></trkpt>
      <trkpt lon="-123.283335" lat="44.573479"><ele>77.839226</ele><time>2020-10-10T02:58:46Z</time><extensions><speed>9.190000</speed><course>4.570312</course><hAcc>5.000000</hAcc><vAcc>4.000000</vAcc></extensions></trkpt>
      <trkpt lon="-123.283357" lat="44.573564"><ele>78.119164</ele><time>2020-10-10T02:58:47Z</time><extensions><speed>9.090000</speed><course>4.921875</course><hAcc>5.000000</hAcc><vAcc>4.000000</vAcc></extensions></trkpt>
      <trkpt lon="-123.283336" lat="44.573653"><ele>77.494812</ele><time>2020-10-10T02:58:48Z</time><extensions><speed>9.590000</speed><course>5.273438</course><hAcc>5.000000</hAcc><vAcc>4.000000</vAcc></extensions></trkpt>
      <trkpt lon="-123.283320" lat="44.573735"><ele>77.536568</ele><time>2020-10-10T02:58:49Z</time><extensions><speed>9.470000</speed><course>3.515625</course><hAcc>5.000000</hAcc><vAcc>4.000000</vAcc></extensions></trkpt>
      <trkpt lon="-123.283298" lat="44.573805"><ele>78.542618</ele><time>2020-10-10T02:58:50Z</time><extensions><speed>9.020000</speed><course>3.515625</course><hAcc>5.000000</hAcc><vAcc>4.000000</vAcc></extensions></trkpt>
      <trkpt lon="-123.283284" lat="44.573884"><ele>78.587227</ele><time>2020-10-10T02:58:51Z</time><extensions><speed>9.010000</speed><course>5.625000</course><hAcc>5.000000</hAcc><vAcc>3.000000</vAcc></extensions></trkpt>
      <trkpt lon="-123.283306" lat="44.573958"><ele>78.218369</ele><time>2020-10-10T02:58:52Z</time><extensions><speed>7.730000</speed><course>0.703125</course><hAcc>5.000000</hAcc><vAcc>4.000000</vAcc></extensions></trkpt>
      <trkpt lon="-123.283307" lat="44.574045"><ele>79.098633</ele><time>2020-10-10T02:58:53Z</time><extensions><speed>7.650000</speed><course>0.351562</course><hAcc>5.000000</hAcc><vAcc>3.000000</vAcc></extensions></trkpt>
      <trkpt lon="-123.283309" lat="44.574109"><ele>79.563210</ele><time>2020-10-10T02:58:54Z</time><extensions><speed>7.170000</speed><course>2.812500</course><hAcc>5.000000</hAcc><vAcc>3.000000</vAcc></extensions></trkpt>
      <trkpt lon="-123.283299" lat="44.574161"><ele>79.350670</ele><time>2020-10-10T02:58:55Z</time><extensions><speed>6.610000</speed><course>2.460938</course><hAcc>5.000000</hAcc><vAcc>4.000000</vAcc></extensions></trkpt>
      <trkpt lon="-123.283294" lat="44.574226"><ele>78.870117</ele><time>2020-10-10T02:58:56Z</time><extensions><speed>6.470000</speed><course>2.812500</course><hAcc>5.000000</hAcc><vAcc>4.000000</vAcc></extensions></trkpt>
      <trkpt lon="-123.283297" lat="44.574282"><ele>78.967308</ele><time>2020-10-10T02:58:57Z</time><extensions><speed>6.230000</speed><course>3.164062</course><hAcc>5.000000</hAcc><vAcc>4.000000</vAcc></extensions></trkpt>
      <trkpt lon="-123.283292" lat="44.574329"><ele>79.050667</ele><time>2020-10-10T02:58:58Z</time><extensions><speed>5.980000</speed><course>3.867188</course><hAcc>5.000000</hAcc><vAcc>4.000000</vAcc></extensions></trkpt>
      <trkpt lon="-123.283277" lat="44.574375"><ele>78.914948</ele><time>2020-10-10T02:58:59Z</time><extensions><speed>5.760000</speed><course>4.570312</course><hAcc>5.000000</hAcc><vAcc>3.000000</vAcc></extensions></trkpt>
      <trkpt lon="-123.283328" lat="44.574436"><ele>79.121567</ele><time>2020-10-10T02:59:00Z</time><extensions><speed>6.050000</speed><course>356.835938</course><hAcc>5.000000</hAcc><vAcc>3.000000</vAcc></extensions></trkpt>
      <trkpt lon="-123.283320" lat="44.574486"><ele>78.954842</ele><time>2020-10-10T02:59:01Z</time><extensions><speed>5.930000</speed><course>358.945312</course><hAcc>5.000000</hAcc><vAcc>3.000000</vAcc></extensions></trkpt>
      <trkpt lon="-123.283300" lat="44.574529"><ele>78.979904</ele><time>2020-10-10T02:59:02Z</time><extensions><speed>5.710000</speed><course>2.812500</course><hAcc>5.000000</hAcc><vAcc>3.000000</vAcc></extensions></trkpt>
      <trkpt lon="-123.283292" lat="44.574587"><ele>78.867500</ele><time>2020-10-10T02:59:03Z</time><extensions><speed>5.960000</speed><course>5.976562</course><hAcc>5.000000</hAcc><vAcc>3.000000</vAcc></extensions></trkpt>
      <trkpt lon="-123.283293" lat="44.574646"><ele>78.692665</ele><time>2020-10-10T02:59:04Z</time><extensions><speed>5.860000</speed><course>4.570312</course><hAcc>5.000000</hAcc><vAcc>3.000000</vAcc></extensions></trkpt>
      <trkpt lon="-123.283278" lat="44.574698"><ele>78.202835</ele><time>2020-10-10T02:59:05Z</time><extensions><speed>5.900000</speed><course>4.921875</course><hAcc>5.000000</hAcc><vAcc>3.000000</vAcc></extensions></trkpt>
      <trkpt lon="-123.283267" lat="44.574769"><ele>78.142693</ele><time>2020-10-10T02:59:06Z</time><extensions><speed>6.100000</speed><course>358.945312</course><hAcc>5.000000</hAcc><vAcc>3.000000</vAcc></extensions></trkpt>
      <trkpt lon="-123.283251" lat="44.574815"><ele>78.186852</ele><time>2020-10-10T02:59:07Z</time><extensions><speed>6.100000</speed><course>358.242188</course><hAcc>5.000000</hAcc><vAcc>3.000000</vAcc></extensions></trkpt>
      <trkpt lon="-123.283261" lat="44.574885"><ele>77.949440</ele><time>2020-10-10T02:59:08Z</time><extensions><speed>5.830000</speed><course>5.273438</course><hAcc>5.000000</hAcc><vAcc>3.000000</vAcc></extensions></trkpt>
      <trkpt lon="-123.283247" lat="44.574936"><ele>77.976013</ele><time>2020-10-10T02:59:09Z</time><extensions><speed>5.830000</speed><course>3.867188</course><hAcc>5.000000</hAcc><vAcc>3.000000</vAcc></extensions></trkpt>
      <trkpt lon="-123.283243" lat="44.574992"><ele>77.536842</ele><time>2020-10-10T02:59:10Z</time><extensions><speed>6.060000</speed><course>16.523438</course><hAcc>5.000000</hAcc><vAcc>3.000000</vAcc></extensions></trkpt>
      <trkpt lon="-123.283234" lat="44.575046"><ele>77.123665</ele><time>2020-10-10T02:59:11Z</time><extensions><speed>6.060000</speed><course>12.304688</course><hAcc>5.000000</hAcc><vAcc>3.000000</vAcc></extensions></trkpt>
      <trkpt lon="-123.283234" lat="44.575103"><ele>76.551468</ele><time>2020-10-10T02:59:12Z</time><extensions><speed>6.060000</speed><course>14.062500</course><hAcc>5.000000</hAcc><vAcc>3.000000</vAcc></extensions></trkpt>
      <trkpt lon="-123.283216" lat="44.575152"><ele>76.190186</ele><time>2020-10-10T02:59:13Z</time><extensions><speed>6.350000</speed><course>8.437500</course><hAcc>5.000000</hAcc><vAcc>3.000000</vAcc></extensions></trkpt>
      <trkpt lon="-123.283212" lat="44.575215"><ele>76.034081</ele><time>2020-10-10T02:59:14Z</time><extensions><speed>6.500000</speed><course>3.515625</course><hAcc>5.000000</hAcc><vAcc>3.000000</vAcc></extensions></trkpt>
      <trkpt lon="-123.283204" lat="44.575261"><ele>76.057648</ele><time>2020-10-10T02:59:15Z</time><extensions><speed>6.170000</speed><course>2.812500</course><hAcc>5.000000</hAcc><vAcc>3.000000</vAcc></extensions></trkpt>
      <trkpt lon="-123.283182" lat="44.575315"><ele>76.104027</ele><time>2020-10-10T02:59:16Z</time><extensions><speed>6.340000</speed><course>5.625000</course><hAcc>5.000000</hAcc><vAcc>3.000000</vAcc></extensions></trkpt>
      <trkpt lon="-123.283160" lat="44.575365"><ele>75.988152</ele><time>2020-10-10T02:59:17Z</time><extensions><speed>6.300000</speed><course>1.054688</course><hAcc>5.000000</hAcc><vAcc>3.000000</vAcc></extensions></trkpt>
      <trkpt lon="-123.283219" lat="44.575469"><ele>75.865280</ele><time>2020-10-10T02:59:18Z</time><extensions><speed>6.340000</speed><course>354.023438</course><hAcc>5.000000</hAcc><vAcc>3.000000</vAcc></extensions></trkpt>
      <trkpt lon="-123.283210" lat="44.575534"><ele>76.008919</ele><time>2020-10-10T02:59:19Z</time><extensions><speed>7.110000</speed><course>355.078125</course><hAcc>5.000000</hAcc><vAcc>3.000000</vAcc></extensions></trkpt>
      <trkpt lon="-123.283205" lat="44.575590"><ele>75.902954</ele><time>2020-10-10T02:59:20Z</time><extensions><speed>7.110000</speed><course>350.507812</course><hAcc>5.000000</hAcc><vAcc>3.000000</vAcc></extensions></trkpt>
      <trkpt lon="-123.283218" lat="44.575658"><ele>75.661514</ele><time>2020-10-10T02:59:21Z</time><extensions><speed>6.780000</speed><course>343.125000</course><hAcc>5.000000</hAcc><vAcc>3.000000</vAcc></extensions></trkpt>
      <trkpt lon="-123.283202" lat="44.575709"><ele>75.728271</ele><time>2020-10-10T02:59:22Z</time><extensions><speed>6.640000</speed><course>359.296875</course><hAcc>5.000000</hAcc><vAcc>3.000000</vAcc></extensions></trkpt>
      <trkpt lon="-123.283207" lat="44.575742"><ele>76.036003</ele><time>2020-10-10T02:59:23Z</time><extensions><speed>5.960000</speed><course>359.648438</course><hAcc>5.000000</hAcc><vAcc>3.000000</vAcc></extensions></trkpt>
      <trkpt lon="-123.283177" lat="44.575819"><ele>76.229607</ele><time>2020-10-10T02:59:24Z</time><extensions><speed>7.090000</speed><course>10.546875</course><hAcc>5.000000</hAcc><vAcc>3.000000</vAcc></extensions></trkpt>
      <trkpt lon="-123.283184" lat="44.575884"><ele>76.366692</ele><time>2020-10-10T02:59:25Z</time><extensions><speed>7.090000</speed><course>358.593750</course><hAcc>5.000000</hAcc><vAcc>3.000000</vAcc></extensions></trkpt>
      <trkpt lon="-123.283181" lat="44.575945"><ele>76.326431</ele><time>2020-10-10T02:59:26Z</time><extensions><speed>7.300000</speed><course>358.945312</course><hAcc>5.000000</hAcc><vAcc>3.000000</vAcc></extensions></trkpt>
      <trkpt lon="-123.283156" lat="44.576011"><ele>75.901634</ele><time>2020-10-10T02:59:27Z</time><extensions><speed>7.000000</speed><course>2.812500</course><hAcc>5.000000</hAcc><vAcc>3.000000</vAcc></extensions></trkpt>
      <trkpt lon="-123.283163" lat="44.576073"><ele>75.758804</ele><time>2020-10-10T02:59:28Z</time><extensions><speed>6.740000</speed><course>3.515625</course><hAcc>5.000000</hAcc><vAcc>3.000000</vAcc></extensions></trkpt>
      <trkpt lon="-123.283165" lat="44.576120"><ele>75.358597</ele><time>2020-10-10T02:59:29Z</time><extensions><speed>6.490000</speed><course>1.757812</course><hAcc>10.000000</hAcc><vAcc>3.000000</vAcc></extensions></trkpt>
      <trkpt lon="-123.283156" lat="44.576183"><ele>75.396103</ele><time>2020-10-10T02:59:30Z</time><extensions><speed>6.390000</speed><course>3.515625</course><hAcc>10.000000</hAcc><vAcc>3.000000</vAcc></extensions></trkpt>
      <trkpt lon="-123.283145" lat="44.576244"><ele>75.293884</ele><time>2020-10-10T02:59:31Z</time><extensions><speed>6.310000</speed><course>4.218750</course><hAcc>10.000000</hAcc><vAcc>3.000000</vAcc></extensions></trkpt>
      <trkpt lon="-123.283148" lat="44.576286"><ele>75.390862</ele><time>2020-10-10T02:59:32Z</time><extensions><speed>5.650000</speed><course>357.890625</course><hAcc>10.000000</hAcc><vAcc>3.000000</vAcc></extensions></trkpt>
      <trkpt lon="-123.283139" lat="44.576336"><ele>75.261543</ele><time>2020-10-10T02:59:33Z</time><extensions><speed>5.840000</speed><course>0.000000</course><hAcc>10.000000</hAcc><vAcc>3.000000</vAcc></extensions></trkpt>
      <trkpt lon="-123.283125" lat="44.576413"><ele>75.238083</ele><time>2020-10-10T02:59:34Z</time><extensions><speed>7.310000</speed><course>3.164062</course><hAcc>10.000000</hAcc><vAcc>3.000000</vAcc></extensions></trkpt>
      <trkpt lon="-123.283110" lat="44.576469"><ele>75.200172</ele><time>2020-10-10T02:59:35Z</time><extensions><speed>5.840000</speed><course>7.382812</course><hAcc>10.000000</hAcc><vAcc>3.000000</vAcc></extensions></trkpt>
      <trkpt lon="-123.283109" lat="44.576512"><ele>75.109390</ele><time>2020-10-10T02:59:36Z</time><extensions><speed>5.690000</speed><course>357.539062</course><hAcc>10.000000</hAcc><vAcc>3.000000</vAcc></extensions></trkpt>
      <trkpt lon="-123.283124" lat="44.576528"><ele>75.168861</ele><time>2020-10-10T02:59:37Z</time><extensions><speed>4.530000</speed><course>341.718750</course><hAcc>10.000000</hAcc><vAcc>3.000000</vAcc></extensions></trkpt>
      <trkpt lon="-123.283159" lat="44.576539"><ele>75.631302</ele><time>2020-10-10T02:59:38Z</time><extensions><speed>2.000000</speed><course>300.585938</course><hAcc>10.000000</hAcc><vAcc>3.000000</vAcc></extensions></trkpt>
      <trkpt lon="-123.283219" lat="44.576534"><ele>75.625534</ele><time>2020-10-10T02:59:39Z</time><extensions><speed>2.410000</speed><course>266.484375</course><hAcc>10.000000</hAcc><vAcc>3.000000</vAcc></extensions></trkpt>
      <trkpt lon="-123.283268" lat="44.576532"><ele>75.603706</ele><time>2020-10-10T02:59:40Z</time><extensions><speed>2.190000</speed><course>257.695312</course><hAcc>10.000000</hAcc><vAcc>3.000000</vAcc></extensions></trkpt>
      <trkpt lon="-123.283284" lat="44.576536"><ele>75.614906</ele><time>2020-10-10T02:59:41Z</time><extensions><speed>2.190000</speed><course>272.812500</course><hAcc>10.000000</hAcc><vAcc>3.000000</vAcc></extensions></trkpt>
      <trkpt lon="-123.283284" lat="44.576534"><ele>75.565346</ele><time>2020-10-10T02:59:42Z</time><extensions><speed>1.900000</speed><course>268.945312</course><hAcc>10.000000</hAcc><vAcc>3.000000</vAcc></extensions></trkpt>
      <trkpt lon="-123.283293" lat="44.576541"><ele>75.618477</ele><time>2020-10-10T02:59:43Z</time><extensions><speed>0.680000</speed><course>291.445312</course><hAcc>10.000000</hAcc><vAcc>3.000000</vAcc></extensions></trkpt>
      <trkpt lon="-123.283298" lat="44.576535"><ele>75.611755</ele><time>2020-10-10T02:59:44Z</time><extensions><speed>0.680000</speed><course>349.453125</course><hAcc>10.000000</hAcc><vAcc>3.000000</vAcc></extensions></trkpt>
      <trkpt lon="-123.283320" lat="44.576540"><ele>75.503983</ele><time>2020-10-10T02:59:45Z</time><extensions><speed>0.680000</speed><course>307.968750</course><hAcc>10.000000</hAcc><vAcc>3.000000</vAcc></extensions></trkpt>
      <trkpt lon="-123.283357" lat="44.576549"><ele>75.433784</ele><time>2020-10-10T02:59:46Z</time><extensions><speed>1.240000</speed><course>299.882812</course><hAcc>10.000000</hAcc><vAcc>4.000000</vAcc></extensions></trkpt>
      <trkpt lon="-123.283381" lat="44.576551"><ele>75.708656</ele><time>2020-10-10T02:59:47Z</time><extensions><speed>1.120000</speed><course>288.281250</course><hAcc>10.000000</hAcc><vAcc>4.000000</vAcc></extensions></trkpt>
      <trkpt lon="-123.283403" lat="44.576551"><ele>75.563904</ele><time>2020-10-10T02:59:48Z</time><extensions><speed>1.550000</speed><course>274.218750</course><hAcc>10.000000</hAcc><vAcc>4.000000</vAcc></extensions></trkpt>
      <trkpt lon="-123.283425" lat="44.576549"><ele>75.668907</ele><time>2020-10-10T02:59:49Z</time><extensions><speed>1.120000</speed><course>259.804688</course><hAcc>10.000000</hAcc><vAcc>4.000000</vAcc></extensions></trkpt>
      <trkpt lon="-123.283442" lat="44.576548"><ele>75.656998</ele><time>2020-10-10T02:59:50Z</time><extensions><speed>0.870000</speed><course>252.070312</course><hAcc>10.000000</hAcc><vAcc>4.000000</vAcc></extensions></trkpt>
      <trkpt lon="-123.283459" lat="44.576545"><ele>75.516350</ele><time>2020-10-10T02:59:51Z</time><extensions><speed>0.710000</speed><course>256.640625</course><hAcc>10.000000</hAcc><vAcc>4.000000</vAcc></extensions></trkpt>
      <trkpt lon="-123.283469" lat="44.576545"><ele>75.550285</ele><time>2020-10-10T02:59:52Z</time><extensions><speed>0.710000</speed><course>270.703125</course><hAcc>10.000000</hAcc><vAcc>4.000000</vAcc></extensions></trkpt>
      <trkpt lon="-123.283487" lat="44.576536"><ele>75.613991</ele><time>2020-10-10T02:59:53Z</time><extensions><speed>0.710000</speed><course>246.445312</course><hAcc>10.000000</hAcc><vAcc>4.000000</vAcc></extensions></trkpt>
      <trkpt lon="-123.283497" lat="44.576532"><ele>76.033089</ele><time>2020-10-10T02:59:54Z</time><extensions><speed>0.870000</speed><course>235.546875</course><hAcc>10.000000</hAcc><vAcc>4.000000</vAcc></extensions></trkpt>
      <trkpt lon="-123.283495" lat="44.576528"><ele>75.624588</ele><time>2020-10-10T02:59:55Z</time><extensions><speed>0.590000</speed><course>111.445312</course><hAcc>10.000000</hAcc><vAcc>4.000000</vAcc></extensions></trkpt>
      <trkpt lon="-123.283487" lat="44.576527"><ele>75.571739</ele><time>2020-10-10T02:59:56Z</time><extensions><speed>0.590000</speed><course>72.773438</course><hAcc>10.000000</hAcc><vAcc>4.000000</vAcc></extensions></trkpt>
      <trkpt lon="-123.283483" lat="44.576529"><ele>75.889435</ele><time>2020-10-10T02:59:57Z</time><extensions><speed>0.230000</speed><course>112.148438</course><hAcc>10.000000</hAcc><vAcc>4.000000</vAcc></extensions></trkpt>
      <trkpt lon="-123.283477" lat="44.576528"><ele>75.792694</ele><time>2020-10-10T02:59:58Z</time><extensions><speed>0.390000</speed><course>133.593750</course><hAcc>10.000000</hAcc><vAcc>4.000000</vAcc></extensions></trkpt>
      <trkpt lon="-123.283472" lat="44.576523"><ele>75.859123</ele><time>2020-10-10T02:59:59Z</time><extensions><speed>0.520000</speed><course>156.445312</course><hAcc>10.000000</hAcc><vAcc>4.000000</vAcc></extensions></trkpt>
      <trkpt lon="-123.283469" lat="44.576510"><ele>75.939720</ele><time>2020-10-10T03:00:00Z</time><extensions><speed>1.390000</speed><course>165.234375</course><hAcc>10.000000</hAcc><vAcc>4.000000</vAcc></extensions></trkpt>
      <trkpt lon="-123.283463" lat="44.576505"><ele>75.794281</ele><time>2020-10-10T03:00:01Z</time><extensions><speed>1.390000</speed><course>155.390625</course><hAcc>10.000000</hAcc><vAcc>4.000000</vAcc></extensions></trkpt>
      <trkpt lon="-123.283458" lat="44.576505"><ele>75.832222</ele><time>2020-10-10T03:00:02Z</time><extensions><speed>0.830000</speed><course>123.046875</course><hAcc>10.000000</hAcc><vAcc>4.000000</vAcc></extensions></trkpt>
      <trkpt lon="-123.283452" lat="44.576508"><ele>75.762192</ele><time>2020-10-10T03:00:03Z</time><extensions><speed>0.500000</speed><course>44.296875</course><hAcc>10.000000</hAcc><vAcc>4.000000</vAcc></extensions></trkpt>
      <trkpt lon="-123.283444" lat="44.576510"><ele>75.855293</ele><time>2020-10-10T03:00:04Z</time><extensions><speed>0.500000</speed><course>63.632812</course><hAcc>10.000000</hAcc><vAcc>4.000000</vAcc></extensions></trkpt>
      <trkpt lon="-123.283444" lat="44.576510"><ele>75.841011</ele><time>2020-10-10T03:00:05Z</time><extensions><speed>0.000000</speed><course>88.945312</course><hAcc>10.000000</hAcc><vAcc>4.000000</vAcc></extensions></trkpt>
      <trkpt lon="-123.283443" lat="44.576511"><ele>75.834732</ele><time>2020-10-10T03:00:06Z</time><extensions><speed>0.150000</speed><course>136.757812</course><hAcc>10.000000</hAcc><vAcc>4.000000</vAcc></extensions></trkpt>
      <trkpt lon="-123.283437" lat="44.576508"><ele>75.760262</ele><time>2020-10-10T03:00:07Z</time><extensions><speed>0.150000</speed><course>126.210938</course><hAcc>10.000000</hAcc><vAcc>4.000000</vAcc></extensions></trkpt>
      <trkpt lon="-123.283434" lat="44.576507"><ele>75.874481</ele><time>2020-10-10T03:00:08Z</time><extensions><speed>0.450000</speed><course>126.210938</course><hAcc>10.000000</hAcc><vAcc>4.000000</vAcc></extensions></trkpt>
      <trkpt lon="-123.283429" lat="44.576505"><ele>76.002403</ele><time>2020-10-10T03:00:09Z</time><extensions><speed>0.360000</speed><course>120.234375</course><hAcc>10.000000</hAcc><vAcc>4.000000</vAcc></extensions></trkpt>
      <trkpt lon="-123.283431" lat="44.576504"><ele>76.458130</ele><time>2020-10-10T03:00:10Z</time><extensions><speed>0.550000</speed><course>163.476562</course><hAcc>10.000000</hAcc><vAcc>4.000000</vAcc></extensions></trkpt>
      <trkpt lon="-123.283437" lat="44.576507"><ele>76.425575</ele><time>2020-10-10T03:00:11Z</time><extensions><speed>0.550000</speed><course>284.414062</course><hAcc>10.000000</hAcc><vAcc>4.000000</vAcc></extensions></trkpt>
      <trkpt lon="-123.283451" lat="44.576514"><ele>76.348007</ele><time>2020-10-10T03:00:12Z</time><extensions><speed>0.660000</speed><course>298.828125</course><hAcc>10.000000</hAcc><vAcc>4.000000</vAcc></extensions></trkpt>
      <trkpt lon="-123.283460" lat="44.576517"><ele>76.330544</ele><time>2020-10-10T03:00:13Z</time><extensions><speed>0.660000</speed><course>302.695312</course><hAcc>10.000000</hAcc><vAcc>4.000000</vAcc></extensions></trkpt>
      <trkpt lon="-123.283464" lat="44.576519"><ele>76.276772</ele><time>2020-10-10T03:00:14Z</time><extensions><speed>0.440000</speed><course>290.390625</course><hAcc>10.000000</hAcc><vAcc>4.000000</vAcc></extensions></trkpt>
      <trkpt lon="-123.283469" lat="44.576520"><ele>76.354805</ele><time>2020-10-10T03:00:15Z</time><extensions><speed>0.690000</speed><course>269.296875</course><hAcc>10.000000</hAcc><vAcc>4.000000</vAcc></extensions></trkpt>
      <trkpt lon="-123.283475" lat="44.576520"><ele>76.298546</ele><time>2020-10-10T03:00:16Z</time><extensions><speed>0.500000</speed><course>262.265625</course><hAcc>10.000000</hAcc><vAcc>4.000000</vAcc></extensions></trkpt>
      <trkpt lon="-123.283471" lat="44.576510"><ele>76.270309</ele><time>2020-10-10T03:00:17Z</time><extensions><speed>0.690000</speed><course>222.187500</course><hAcc>10.000000</hAcc><vAcc>4.000000</vAcc></extensions></trkpt>
      <trkpt lon="-123.283461" lat="44.576496"><ele>76.057579</ele><time>2020-10-10T03:00:18Z</time><extensions><speed>0.820000</speed><course>158.554688</course><hAcc>10.000000</hAcc><vAcc>4.000000</vAcc></extensions></trkpt>
      <trkpt lon="-123.283448" lat="44.576485"><ele>76.101448</ele><time>2020-10-10T03:00:19Z</time><extensions><speed>0.510000</speed><course>138.515625</course><hAcc>10.000000</hAcc><vAcc>4.000000</vAcc></extensions></trkpt>
      <trkpt lon="-123.283435" lat="44.576476"><ele>76.034866</ele><time>2020-10-10T03:00:20Z</time><extensions><speed>0.510000</speed><course>126.914062</course><hAcc>10.000000</hAcc><vAcc>4.000000</vAcc></extensions></trkpt>
      <trkpt lon="-123.283428" lat="44.576472"><ele>76.235390</ele><time>2020-10-10T03:00:21Z</time><extensions><speed>0.440000</speed><course>118.828125</course><hAcc>10.000000</hAcc><vAcc>4.000000</vAcc></extensions></trkpt>
      <trkpt lon="-123.283426" lat="44.576472"><ele>76.261871</ele><time>2020-10-10T03:00:22Z</time><extensions><speed>0.180000</speed><course>93.164062</course><hAcc>10.000000</hAcc><vAcc>4.000000</vAcc></extensions></trkpt>
      <trkpt lon="-123.283426" lat="44.576472"><ele>76.239563</ele><time>2020-10-10T03:00:23Z</time><extensions><speed>0.000000</speed><course>54.140625</course><hAcc>10.000000</hAcc><vAcc>4.000000</vAcc></extensions></trkpt>
      <trkpt lon="-123.283432" lat="44.576470"><ele>76.233765</ele><time>2020-10-10T03:00:24Z</time><extensions><speed>0.150000</speed><course>248.906250</course><hAcc>10.000000</hAcc><vAcc>4.000000</vAcc></extensions></trkpt>
      <trkpt lon="-123.283444" lat="44.576467"><ele>76.164062</ele><time>2020-10-10T03:00:25Z</time><extensions><speed>0.150000</speed><course>263.671875</course><hAcc>10.000000</hAcc><vAcc>4.000000</vAcc></extensions></trkpt>
      <trkpt lon="-123.283444" lat="44.576467"><ele>76.192612</ele><time>2020-10-10T03:00:26Z</time><extensions><speed>0.000000</speed><course>273.164062</course><hAcc>10.000000</hAcc><vAcc>4.000000</vAcc></extensions></trkpt>
      <trkpt lon="-123.283444" lat="44.576467"><ele>76.258064</ele><time>2020-10-10T03:00:27Z</time><extensions><speed>0.000000</speed><course>265.078125</course><hAcc>10.000000</hAcc><vAcc>4.000000</vAcc></extensions></trkpt>
      <trkpt lon="-123.283444" lat="44.576467"><ele>76.208412</ele><time>2020-10-10T03:00:28Z</time><extensions><speed>0.000000</speed><course>93.164062</course><hAcc>10.000000</hAcc><vAcc>4.000000</vAcc></extensions></trkpt>
      <trkpt lon="-123.283444" lat="44.576467"><ele>76.416344</ele><time>2020-10-10T03:00:29Z</time><extensions><speed>0.000000</speed><course>73.125000</course><hAcc>10.000000</hAcc><vAcc>4.000000</vAcc></extensions></trkpt>
      <trkpt lon="-123.283444" lat="44.576467"><ele>76.459579</ele><time>2020-10-10T03:00:30Z</time><extensions><speed>0.000000</speed><course>73.125000</course><hAcc>10.000000</hAcc><vAcc>4.000000</vAcc></extensions></trkpt>
      <trkpt lon="-123.283444" lat="44.576467"><ele>76.423767</ele><time>2020-10-10T03:00:31Z</time><extensions><speed>0.000000</speed><course>73.125000</course><hAcc>10.000000</hAcc><vAcc>4.000000</vAcc></extensions></trkpt>
      <trkpt lon="-123.283444" lat="44.576467"><ele>76.502525</ele><time>2020-10-10T03:00:32Z</time><extensions><speed>0.000000</speed><course>73.125000</course><hAcc>10.000000</hAcc><vAcc>4.000000</vAcc></extensions></trkpt>
      <trkpt lon="-123.283444" lat="44.576467"><ele>76.524506</ele><time>2020-10-10T03:00:33Z</time><extensions><speed>0.000000</speed><course>73.125000</course><hAcc>10.000000</hAcc><vAcc>4.000000</vAcc></extensions></trkpt>
      <trkpt lon="-123.283444" lat="44.576467"><ele>76.397438</ele><time>2020-10-10T03:00:34Z</time><extensions><speed>0.000000</speed><course>73.125000</course><hAcc>10.000000</hAcc><vAcc>4.000000</vAcc></extensions></trkpt>
      <trkpt lon="-123.283444" lat="44.576467"><ele>76.379578</ele><time>2020-10-10T03:00:35Z</time><extensions><speed>0.000000</speed><course>73.125000</course><hAcc>10.000000</hAcc><vAcc>4.000000</vAcc></extensions></trkpt>
      <trkpt lon="-123.283444" lat="44.576467"><ele>76.407661</ele><time>2020-10-10T03:00:36Z</time><extensions><speed>0.000000</speed><course>73.125000</course><hAcc>10.000000</hAcc><vAcc>4.000000</vAcc></extensions></trkpt>
      <trkpt lon="-123.283444" lat="44.576467"><ele>76.381531</ele><time>2020-10-10T03:00:37Z</time><extensions><speed>0.000000</speed><course>73.125000</course><hAcc>10.000000</hAcc><vAcc>4.000000</vAcc></extensions></trkpt>
      <trkpt lon="-123.283444" lat="44.576467"><ele>76.413033</ele><time>2020-10-10T03:00:38Z</time><extensions><speed>0.000000</speed><course>73.125000</course><hAcc>10.000000</hAcc><vAcc>4.000000</vAcc></extensions></trkpt>
      <trkpt lon="-123.283444" lat="44.576467"><ele>76.355225</ele><time>2020-10-10T03:00:39Z</time><extensions><speed>0.000000</speed><course>73.125000</course><hAcc>10.000000</hAcc><vAcc>4.000000</vAcc></extensions></trkpt>
      <trkpt lon="-123.283444" lat="44.576467"><ele>76.279121</ele><time>2020-10-10T03:00:40Z</time><extensions><speed>0.000000</speed><course>73.125000</course><hAcc>10.000000</hAcc><vAcc>4.000000</vAcc></extensions></trkpt>
      <trkpt lon="-123.283444" lat="44.576467"><ele>76.316681</ele><time>2020-10-10T03:00:41Z</time><extensions><speed>0.000000</speed><course>73.125000</course><hAcc>10.000000</hAcc><vAcc>3.000000</vAcc></extensions></trkpt>
      <trkpt lon="-123.283444" lat="44.576467"><ele>76.334892</ele><time>2020-10-10T03:00:42Z</time><extensions><speed>0.000000</speed><course>73.125000</course><hAcc>10.000000</hAcc><vAcc>4.000000</vAcc></extensions></trkpt>
      <trkpt lon="-123.283444" lat="44.576467"><ele>76.313148</ele><time>2020-10-10T03:00:43Z</time><extensions><speed>0.000000</speed><course>73.125000</course><hAcc>10.000000</hAcc><vAcc>3.000000</vAcc></extensions></trkpt>
      <trkpt lon="-123.283444" lat="44.576467"><ele>76.319122</ele><time>2020-10-10T03:00:44Z</time><extensions><speed>0.000000</speed><course>73.125000</course><hAcc>10.000000</hAcc><vAcc>3.000000</vAcc></extensions></trkpt>
      <trkpt lon="-123.283444" lat="44.576467"><ele>76.258606</ele><time>2020-10-10T03:00:45Z</time><extensions><speed>0.000000</speed><course>73.125000</course><hAcc>10.000000</hAcc><vAcc>3.000000</vAcc></extensions></trkpt>
      <trkpt lon="-123.283444" lat="44.576467"><ele>76.209991</ele><time>2020-10-10T03:00:46Z</time><extensions><speed>0.000000</speed><course>73.125000</course><hAcc>10.000000</hAcc><vAcc>3.000000</vAcc></extensions></trkpt>
      <trkpt lon="-123.283444" lat="44.576467"><ele>76.207054</ele><time>2020-10-10T03:00:47Z</time><extensions><speed>0.000000</speed><course>73.125000</course><hAcc>10.000000</hAcc><vAcc>3.000000</vAcc></extensions></trkpt>
      <trkpt lon="-123.283444" lat="44.576467"><ele>75.934837</ele><time>2020-10-10T03:00:48Z</time><extensions><speed>0.000000</speed><course>73.125000</course><hAcc>10.000000</hAcc><vAcc>3.000000</vAcc></extensions></trkpt>
      <trkpt lon="-123.283444" lat="44.576467"><ele>75.884331</ele><time>2020-10-10T03:00:49Z</time><extensions><speed>0.000000</speed><course>73.125000</course><hAcc>10.000000</hAcc><vAcc>3.000000</vAcc></extensions></trkpt>
      <trkpt lon="-123.283444" lat="44.576467"><ele>75.708839</ele><time>2020-10-10T03:00:50Z</time><extensions><speed>0.000000</speed><course>73.125000</course><hAcc>10.000000</hAcc><vAcc>3.000000</vAcc></extensions></trkpt>
      <trkpt lon="-123.283444" lat="44.576467"><ele>75.686172</ele><time>2020-10-10T03:00:51Z</time><extensions><speed>0.000000</speed><course>73.125000</course><hAcc>10.000000</hAcc><vAcc>3.000000</vAcc></extensions></trkpt>
      <trkpt lon="-123.283444" lat="44.576467"><ele>76.038116</ele><time>2020-10-10T03:00:52Z</time><extensions><speed>0.000000</speed><course>73.125000</course><hAcc>10.000000</hAcc><vAcc>3.000000</vAcc></extensions></trkpt>
      <trkpt lon="-123.283444" lat="44.576467"><ele>76.096512</ele><time>2020-10-10T03:00:53Z</time><extensions><speed>0.000000</speed><course>73.125000</course><hAcc>10.000000</hAcc><vAcc>3.000000</vAcc></extensions></trkpt>
      <trkpt lon="-123.283444" lat="44.576467"><ele>75.805847</ele><time>2020-10-10T03:00:54Z</time><extensions><speed>0.000000</speed><course>73.125000</course><hAcc>10.000000</hAcc><vAcc>4.000000</vAcc></extensions></trkpt>
      <trkpt lon="-123.283444" lat="44.576467"><ele>75.818352</ele><time>2020-10-10T03:00:55Z</time><extensions><speed>0.000000</speed><course>-1.000000</course><hAcc>10.000000</hAcc><vAcc>4.000000</vAcc></extensions></trkpt>
      <trkpt lon="-123.283444" lat="44.576467"><ele>75.644600</ele><time>2020-10-10T03:00:56Z</time><extensions><speed>0.000000</speed><course>-1.000000</course><hAcc>10.000000</hAcc><vAcc>4.000000</vAcc></extensions></trkpt>
      <trkpt lon="-123.283444" lat="44.576467"><ele>75.801361</ele><time>2020-10-10T03:00:57Z</time><extensions><speed>0.000000</speed><course>-1.000000</course><hAcc>10.000000</hAcc><vAcc>4.000000</vAcc></extensions></trkpt>
      <trkpt lon="-123.283444" lat="44.576467"><ele>75.782524</ele><time>2020-10-10T03:00:58Z</time><extensions><speed>0.000000</speed><course>-1.000000</course><hAcc>10.000000</hAcc><vAcc>4.000000</vAcc></extensions></trkpt>
      <trkpt lon="-123.283444" lat="44.576467"><ele>75.869705</ele><time>2020-10-10T03:00:59Z</time><extensions><speed>0.000000</speed><course>-1.000000</course><hAcc>10.000000</hAcc><vAcc>4.000000</vAcc></extensions></trkpt>
      <trkpt lon="-123.283444" lat="44.576467"><ele>75.810570</ele><time>2020-10-10T03:01:00Z</time><extensions><speed>0.000000</speed><course>-1.000000</course><hAcc>10.000000</hAcc><vAcc>4.000000</vAcc></extensions></trkpt>
      <trkpt lon="-123.283444" lat="44.576467"><ele>75.826675</ele><time>2020-10-10T03:01:01Z</time><extensions><speed>0.000000</speed><course>-1.000000</course><hAcc>10.000000</hAcc><vAcc>4.000000</vAcc></extensions></trkpt>
      <trkpt lon="-123.283455" lat="44.576450"><ele>75.872803</ele><time>2020-10-10T03:01:02Z</time><extensions><speed>0.300000</speed><course>138.515625</course><hAcc>10.000000</hAcc><vAcc>4.000000</vAcc></extensions></trkpt>
      <trkpt lon="-123.283455" lat="44.576446"><ele>75.959312</ele><time>2020-10-10T03:01:03Z</time><extensions><speed>0.300000</speed><course>181.757812</course><hAcc>10.000000</hAcc><vAcc>4.000000</vAcc></extensions></trkpt>
      <trkpt lon="-123.283461" lat="44.576442"><ele>75.928146</ele><time>2020-10-10T03:01:04Z</time><extensions><speed>0.390000</speed><course>206.718750</course><hAcc>10.000000</hAcc><vAcc>4.000000</vAcc></extensions></trkpt>
      <trkpt lon="-123.283465" lat="44.576439"><ele>75.970177</ele><time>2020-10-10T03:01:05Z</time><extensions><speed>0.200000</speed><course>222.539062</course><hAcc>10.000000</hAcc><vAcc>4.000000</vAcc></extensions></trkpt>
      <trkpt lon="-123.283471" lat="44.576439"><ele>75.913803</ele><time>2020-10-10T03:01:06Z</time><extensions><speed>0.200000</speed><course>235.546875</course><hAcc>10.000000</hAcc><vAcc>4.000000</vAcc></extensions></trkpt>
      <trkpt lon="-123.283475" lat="44.576440"><ele>75.883286</ele><time>2020-10-10T03:01:07Z</time><extensions><speed>0.150000</speed><course>262.617188</course><hAcc>10.000000</hAcc><vAcc>4.000000</vAcc></extensions></trkpt>
      <trkpt lon="-123.283483" lat="44.576430"><ele>75.906273</ele><time>2020-10-10T03:01:08Z</time><extensions><speed>0.200000</speed><course>208.476562</course><hAcc>10.000000</hAcc><vAcc>4.000000</vAcc></extensions></trkpt>
      <trkpt lon="-123.283510" lat="44.576412"><ele>75.888367</ele><time>2020-10-10T03:01:09Z</time><extensions><speed>0.760000</speed><course>223.242188</course><hAcc>10.000000</hAcc><vAcc>4.000000</vAcc></extensions></trkpt>
      <trkpt lon="-123.283531" lat="44.576410"><ele>75.880867</ele><time>2020-10-10T03:01:10Z</time><extensions><speed>1.120000</speed><course>244.335938</course><hAcc>10.000000</hAcc><vAcc>4.000000</vAcc></extensions></trkpt>
      <trkpt lon="-123.283520" lat="44.576412"><ele>75.938850</ele><time>2020-10-10T03:01:11Z</time><extensions><speed>0.210000</speed><course>236.250000</course><hAcc>10.000000</hAcc><vAcc>4.000000</vAcc></extensions></trkpt>
      <trkpt lon="-123.283535" lat="44.576425"><ele>75.901070</ele><time>2020-10-10T03:01:12Z</time><extensions><speed>0.580000</speed><course>295.664062</course><hAcc>10.000000</hAcc><vAcc>4.000000</vAcc></extensions></trkpt>
      <trkpt lon="-123.283540" lat="44.576435"><ele>75.879547</ele><time>2020-10-10T03:01:13Z</time><extensions><speed>0.480000</speed><course>304.453125</course><hAcc>10.000000</hAcc><vAcc>4.000000</vAcc></extensions></trkpt>
      <trkpt lon="-123.283534" lat="44.576454"><ele>75.798332</ele><time>2020-10-10T03:01:14Z</time><extensions><speed>0.460000</speed><course>310.429688</course><hAcc>10.000000</hAcc><vAcc>4.000000</vAcc></extensions></trkpt>
      <trkpt lon="-123.283522" lat="44.576457"><ele>75.861862</ele><time>2020-10-10T03:01:15Z</time><extensions><speed>0.460000</speed><course>11.953125</course><hAcc>10.000000</hAcc><vAcc>4.000000</vAcc></extensions></trkpt>
      <trkpt lon="-123.283508" lat="44.576453"><ele>75.917442</ele><time>2020-10-10T03:01:16Z</time><extensions><speed>0.270000</speed><course>23.554688</course><hAcc>10.000000</hAcc><vAcc>4.000000</vAcc></extensions></trkpt>
      <trkpt lon="-123.283481" lat="44.576470"><ele>75.851875</ele><time>2020-10-10T03:01:17Z</time><extensions><speed>0.270000</speed><course>352.968750</course><hAcc>10.000000</hAcc><vAcc>4.000000</vAcc></extensions></trkpt>
      <trkpt lon="-123.283465" lat="44.576479"><ele>75.853386</ele><time>2020-10-10T03:01:18Z</time><extensions><speed>0.350000</speed><course>329.062500</course><hAcc>10.000000</hAcc><vAcc>4.000000</vAcc></extensions></trkpt>
      <trkpt lon="-123.283449" lat="44.576478"><ele>75.779388</ele><time>2020-10-10T03:01:19Z</time><extensions><speed>0.470000</speed><course>277.734375</course><hAcc>10.000000</hAcc><vAcc>4.000000</vAcc></extensions></trkpt>
      <trkpt lon="-123.283435" lat="44.576478"><ele>75.753975</ele><time>2020-10-10T03:01:20Z</time><extensions><speed>0.470000</speed><course>229.570312</course><hAcc>10.000000</hAcc><vAcc>4.000000</vAcc></extensions></trkpt>
      <trkpt lon="-123.283423" lat="44.576470"><ele>75.973602</ele><time>2020-10-10T03:01:21Z</time><extensions><speed>0.470000</speed><course>154.687500</course><hAcc>10.000000</hAcc><vAcc>4.000000</vAcc></extensions></trkpt>
      <trkpt lon="-123.283417" lat="44.576473"><ele>75.881226</ele><time>2020-10-10T03:01:22Z</time><extensions><speed>0.240000</speed><course>125.859375</course><hAcc>10.000000</hAcc><vAcc>4.000000</vAcc></extensions></trkpt>
      <trkpt lon="-123.283419" lat="44.576466"><ele>75.692703</ele><time>2020-10-10T03:01:23Z</time><extensions><speed>0.430000</speed><course>180.000000</course><hAcc>10.000000</hAcc><vAcc>4.000000</vAcc></extensions></trkpt>
      <trkpt lon="-123.283424" lat="44.576457"><ele>75.780197</ele><time>2020-10-10T03:01:24Z</time><extensions><speed>0.670000</speed><course>187.382812</course><hAcc>10.000000</hAcc><vAcc>4.000000</vAcc></extensions></trkpt>
      <trkpt lon="-123.283430" lat="44.576455"><ele>75.777954</ele><time>2020-10-10T03:01:25Z</time><extensions><speed>0.160000</speed><course>212.695312</course><hAcc>10.000000</hAcc><vAcc>4.000000</vAcc></extensions></trkpt>
      <trkpt lon="-123.283430" lat="44.576455"><ele>75.854691</ele><time>2020-10-10T03:01:26Z</time><extensions><speed>0.000000</speed><course>340.312500</course><hAcc>10.000000</hAcc><vAcc>4.000000</vAcc></extensions></trkpt>
    </trkseg>
  </trk>
</gpx>