<?xml version="1.0" encoding="UTF-8"?>
<gpx version="1.1" creator="Apple Health Export" xmlns="http://www.topografix.com/GPX/1/1" xmlns:xsi="http://www.w3.org/2001/XMLSchema-instance" xsi:schemaLocation="http://www.topografix.com/GPX/1/1 http://www.topografix.com/GPX/1/1/gpx.xsd">
  <metadata>
    <time>2021-02-21T19:24:48Z</time>
  </metadata>
  <trk>
    <name>Route 2020-12-14 2:30pm</name>
    <trkseg>
      <trkpt lon="-123.270855" lat="44.559972"><ele>70.163155</ele><time>2020-12-14T22:25:48Z</time><extensions><speed>4.270000</speed><course>335.390625</course><hAcc>6.206157</hAcc><vAcc>3.000000</vAcc></extensions></trkpt>
      <trkpt lon="-123.270855" lat="44.559972"><ele>70.163155</ele><time>2020-12-14T22:25:49Z</time><extensions><speed>4.270000</speed><course>335.390625</course><hAcc>6.206157</hAcc><vAcc>3.000000</vAcc></extensions></trkpt>
      <trkpt lon="-123.270934" lat="44.560073"><ele>68.947639</ele><time>2020-12-14T22:25:50Z</time><extensions><speed>4.630000</speed><course>336.796875</course><hAcc>5.145898</hAcc><vAcc>4.000000</vAcc></extensions></trkpt>
      <trkpt lon="-123.270976" lat="44.560116"><ele>69.258369</ele><time>2020-12-14T22:25:51Z</time><extensions><speed>4.690000</speed><course>339.960938</course><hAcc>5.190461</hAcc><vAcc>4.000000</vAcc></extensions></trkpt>
      <trkpt lon="-123.271015" lat="44.560149"><ele>67.382637</ele><time>2020-12-14T22:25:52Z</time><extensions><speed>4.630000</speed><course>329.765625</course><hAcc>4.066185</hAcc><vAcc>4.000000</vAcc></extensions></trkpt>
      <trkpt lon="-123.271057" lat="44.560169"><ele>66.893684</ele><time>2020-12-14T22:25:53Z</time><extensions><speed>3.410000</speed><course>315.703125</course><hAcc>3.993866</hAcc><vAcc>4.000000</vAcc></extensions></trkpt>
      <trkpt lon="-123.271194" lat="44.560156"><ele>67.099251</ele><time>2020-12-14T22:25:54Z</time><extensions><speed>4.930000</speed><course>266.835938</course><hAcc>3.824026</hAcc><vAcc>4.000000</vAcc></extensions></trkpt>
      <trkpt lon="-123.271230" lat="44.560185"><ele>70.398201</ele><time>2020-12-14T22:25:55Z</time><extensions><speed>5.200000</speed><course>288.984375</course><hAcc>5.041233</hAcc><vAcc>3.000000</vAcc></extensions></trkpt>
      <trkpt lon="-123.271310" lat="44.560180"><ele>70.287361</ele><time>2020-12-14T22:25:56Z</time><extensions><speed>5.200000</speed><course>268.242188</course><hAcc>3.882514</hAcc><vAcc>3.000000</vAcc></extensions></trkpt>
      <trkpt lon="-123.271416" lat="44.560179"><ele>68.502632</ele><time>2020-12-14T22:25:57Z</time><extensions><speed>5.620000</speed><course>266.484375</course><hAcc>3.809060</hAcc><vAcc>3.000000</vAcc></extensions></trkpt>
      <trkpt lon="-123.271487" lat="44.560176"><ele>68.502632</ele><time>2020-12-14T22:25:58Z</time><extensions><speed>5.620000</speed><course>266.484314</course><hAcc>4.635497</hAcc><vAcc>3.512365</vAcc></extensions></trkpt>
      <trkpt lon="-123.271591" lat="44.560154"><ele>68.337410</ele><time>2020-12-14T22:25:59Z</time><extensions><speed>6.370000</speed><course>263.671814</course><hAcc>4.729002</hAcc><vAcc>3.385420</vAcc></extensions></trkpt>
      <trkpt lon="-123.271679" lat="44.560158"><ele>67.622017</ele><time>2020-12-14T22:26:00Z</time><extensions><speed>6.370000</speed><course>261.210876</course><hAcc>4.592040</hAcc><vAcc>3.568993</vAcc></extensions></trkpt>
      <trkpt lon="-123.271756" lat="44.560152"><ele>67.010262</ele><time>2020-12-14T22:26:01Z</time><extensions><speed>6.330000</speed><course>262.968689</course><hAcc>4.643367</hAcc><vAcc>3.501954</vAcc></extensions></trkpt>
      <trkpt lon="-123.271832" lat="44.560152"><ele>66.873665</ele><time>2020-12-14T22:26:02Z</time><extensions><speed>6.250000</speed><course>266.132751</course><hAcc>4.747736</hAcc><vAcc>3.359097</vAcc></extensions></trkpt>
      <trkpt lon="-123.271897" lat="44.560138"><ele>67.056709</ele><time>2020-12-14T22:26:03Z</time><extensions><speed>5.510000</speed><course>260.859314</course><hAcc>4.960510</hAcc><vAcc>3.080333</vAcc></extensions></trkpt>
      <trkpt lon="-123.271965" lat="44.560166"><ele>67.368904</ele><time>2020-12-14T22:26:04Z</time><extensions><speed>5.510000</speed><course>279.140564</course><hAcc>5.426857</hAcc><vAcc>3.000000</vAcc></extensions></trkpt>
      <trkpt lon="-123.272014" lat="44.560141"><ele>68.503365</ele><time>2020-12-14T22:26:05Z</time><extensions><speed>5.460000</speed><course>255.937454</course><hAcc>6.186504</hAcc><vAcc>3.000000</vAcc></extensions></trkpt>
      <trkpt lon="-123.272083" lat="44.560173"><ele>68.049141</ele><time>2020-12-14T22:26:06Z</time><extensions><speed>5.320000</speed><course>277.734314</course><hAcc>5.412164</hAcc><vAcc>3.000000</vAcc></extensions></trkpt>
      <trkpt lon="-123.272141" lat="44.560182"><ele>68.418709</ele><time>2020-12-14T22:26:07Z</time><extensions><speed>4.950000</speed><course>283.710907</course><hAcc>5.662024</hAcc><vAcc>3.000000</vAcc></extensions></trkpt>
      <trkpt lon="-123.272212" lat="44.560135"><ele>68.069038</ele><time>2020-12-14T22:26:08Z</time><extensions><speed>4.990000</speed><course>259.453094</course><hAcc>5.018073</hAcc><vAcc>3.046476</vAcc></extensions></trkpt>
      <trkpt lon="-123.272280" lat="44.560123"><ele>68.305428</ele><time>2020-12-14T22:26:09Z</time><extensions><speed>4.950000</speed><course>261.562469</course><hAcc>5.118077</hAcc><vAcc>3.018285</vAcc></extensions></trkpt>
      <trkpt lon="-123.272333" lat="44.560097"><ele>68.638252</ele><time>2020-12-14T22:26:10Z</time><extensions><speed>4.930000</speed><course>255.585892</course><hAcc>5.199730</hAcc><vAcc>3.000000</vAcc></extensions></trkpt>
      <trkpt lon="-123.272399" lat="44.560089"><ele>68.642097</ele><time>2020-12-14T22:26:11Z</time><extensions><speed>4.930000</speed><course>259.101532</course><hAcc>6.094383</hAcc><vAcc>3.000000</vAcc></extensions></trkpt>
      <trkpt lon="-123.272463" lat="44.560071"><ele>68.993965</ele><time>2020-12-14T22:26:12Z</time><extensions><speed>4.940000</speed><course>258.749969</course><hAcc>6.101029</hAcc><vAcc>3.000000</vAcc></extensions></trkpt>
      <trkpt lon="-123.272516" lat="44.560063"><ele>68.795723</ele><time>2020-12-14T22:26:13Z</time><extensions><speed>4.930000</speed><course>259.453094</course><hAcc>6.769024</hAcc><vAcc>3.000000</vAcc></extensions></trkpt>
      <trkpt lon="-123.272565" lat="44.560034"><ele>68.460823</ele><time>2020-12-14T22:26:14Z</time><extensions><speed>4.630000</speed><course>252.421829</course><hAcc>7.271606</hAcc><vAcc>3.000000</vAcc></extensions></trkpt>
      <trkpt lon="-123.272601" lat="44.560043"><ele>67.590096</ele><time>2020-12-14T22:26:15Z</time><extensions><speed>3.770000</speed><course>251.367157</course><hAcc>5.554424</hAcc><vAcc>3.000000</vAcc></extensions></trkpt>
      <trkpt lon="-123.272676" lat="44.560038"><ele>67.004158</ele><time>2020-12-14T22:26:16Z</time><extensions><speed>5.160000</speed><course>258.046844</course><hAcc>5.413646</hAcc><vAcc>3.000000</vAcc></extensions></trkpt>
      <trkpt lon="-123.272716" lat="44.560024"><ele>66.771187</ele><time>2020-12-14T22:26:17Z</time><extensions><speed>4.500000</speed><course>260.859344</course><hAcc>4.893191</hAcc><vAcc>3.143441</vAcc></extensions></trkpt>
      <trkpt lon="-123.272766" lat="44.560090"><ele>70.101807</ele><time>2020-12-14T22:26:18Z</time><extensions><speed>4.084818</speed><course>263.800446</course><hAcc>4.874104</hAcc><vAcc>3.172955</vAcc></extensions></trkpt>
      <trkpt lon="-123.272830" lat="44.560095"><ele>70.022720</ele><time>2020-12-14T22:26:19Z</time><extensions><speed>4.459909</speed><course>263.917725</course><hAcc>4.825396</hAcc><vAcc>3.246551</vAcc></extensions></trkpt>
      <trkpt lon="-123.272890" lat="44.560097"><ele>69.933823</ele><time>2020-12-14T22:26:20Z</time><extensions><speed>4.300428</speed><course>262.130676</course><hAcc>4.820634</hAcc><vAcc>3.253617</vAcc></extensions></trkpt>
      <trkpt lon="-123.272936" lat="44.560092"><ele>69.824203</ele><time>2020-12-14T22:26:21Z</time><extensions><speed>4.105186</speed><course>267.059967</course><hAcc>4.823795</hAcc><vAcc>3.248930</vAcc></extensions></trkpt>
      <trkpt lon="-123.272985" lat="44.560079"><ele>70.020111</ele><time>2020-12-14T22:26:22Z</time><extensions><speed>4.266282</speed><course>259.707886</course><hAcc>4.835468</hAcc><vAcc>3.231530</vAcc></extensions></trkpt>
      <trkpt lon="-123.273027" lat="44.560055"><ele>69.253700</ele><time>2020-12-14T22:26:23Z</time><extensions><speed>4.031080</speed><course>261.536255</course><hAcc>4.802208</hAcc><vAcc>3.280752</vAcc></extensions></trkpt>
      <trkpt lon="-123.273071" lat="44.560051"><ele>69.517822</ele><time>2020-12-14T22:26:24Z</time><extensions><speed>3.730402</speed><course>261.795837</course><hAcc>4.820272</hAcc><vAcc>3.254153</vAcc></extensions></trkpt>
      <trkpt lon="-123.273115" lat="44.560075"><ele>69.510300</ele><time>2020-12-14T22:26:25Z</time><extensions><speed>3.924993</speed><course>282.866119</course><hAcc>4.857184</hAcc><vAcc>3.198797</vAcc></extensions></trkpt>
      <trkpt lon="-123.273175" lat="44.560053"><ele>70.481964</ele><time>2020-12-14T22:26:26Z</time><extensions><speed>4.241738</speed><course>267.914673</course><hAcc>4.858395</hAcc><vAcc>3.196957</vAcc></extensions></trkpt>
      <trkpt lon="-123.273235" lat="44.560036"><ele>70.047478</ele><time>2020-12-14T22:26:27Z</time><extensions><speed>4.170295</speed><course>262.991516</course><hAcc>4.830833</hAcc><vAcc>3.238455</vAcc></extensions></trkpt>
      <trkpt lon="-123.273312" lat="44.560016"><ele>68.864471</ele><time>2020-12-14T22:26:28Z</time><extensions><speed>4.861824</speed><course>258.426514</course><hAcc>4.816305</hAcc><vAcc>3.260022</vAcc></extensions></trkpt>
      <trkpt lon="-123.273387" lat="44.560001"><ele>69.467888</ele><time>2020-12-14T22:26:29Z</time><extensions><speed>5.689266</speed><course>256.623108</course><hAcc>4.816466</hAcc><vAcc>3.259784</vAcc></extensions></trkpt>
      <trkpt lon="-123.273464" lat="44.559994"><ele>69.021004</ele><time>2020-12-14T22:26:30Z</time><extensions><speed>5.808897</speed><course>260.592926</course><hAcc>4.856141</hAcc><vAcc>3.200380</vAcc></extensions></trkpt>
      <trkpt lon="-123.273529" lat="44.560006"><ele>68.872154</ele><time>2020-12-14T22:26:31Z</time><extensions><speed>5.215905</speed><course>271.462402</course><hAcc>4.819826</hAcc><vAcc>3.254815</vAcc></extensions></trkpt>
      <trkpt lon="-123.273601" lat="44.559989"><ele>68.941216</ele><time>2020-12-14T22:26:32Z</time><extensions><speed>5.329329</speed><course>265.222229</course><hAcc>4.807721</hAcc><vAcc>3.272669</vAcc></extensions></trkpt>
      <trkpt lon="-123.273660" lat="44.559981"><ele>68.903374</ele><time>2020-12-14T22:26:33Z</time><extensions><speed>4.964990</speed><course>262.487793</course><hAcc>4.797355</hAcc><vAcc>3.287844</vAcc></extensions></trkpt>
      <trkpt lon="-123.273716" lat="44.559974"><ele>68.767776</ele><time>2020-12-14T22:26:34Z</time><extensions><speed>4.675580</speed><course>260.544128</course><hAcc>4.788208</hAcc><vAcc>3.301152</vAcc></extensions></trkpt>
      <trkpt lon="-123.273788" lat="44.559959"><ele>69.090492</ele><time>2020-12-14T22:26:35Z</time><extensions><speed>5.205414</speed><course>261.334717</course><hAcc>4.787180</hAcc><vAcc>3.302641</vAcc></extensions></trkpt>
      <trkpt lon="-123.273839" lat="44.559957"><ele>69.477699</ele><time>2020-12-14T22:26:36Z</time><extensions><speed>4.450400</speed><course>266.064301</course><hAcc>4.778039</hAcc><vAcc>3.315854</vAcc></extensions></trkpt>
      <trkpt lon="-123.273901" lat="44.559956"><ele>68.951324</ele><time>2020-12-14T22:26:37Z</time><extensions><speed>4.633538</speed><course>274.612549</course><hAcc>4.787548</hAcc><vAcc>3.302109</vAcc></extensions></trkpt>
      <trkpt lon="-123.273941" lat="44.559980"><ele>68.629936</ele><time>2020-12-14T22:26:38Z</time><extensions><speed>4.276994</speed><course>300.734467</course><hAcc>4.813329</hAcc><vAcc>3.264415</vAcc></extensions></trkpt>
      <trkpt lon="-123.273953" lat="44.560005"><ele>69.506271</ele><time>2020-12-14T22:26:39Z</time><extensions><speed>3.620867</speed><course>324.122498</course><hAcc>4.803706</hAcc><vAcc>3.278559</vAcc></extensions></trkpt>
      <trkpt lon="-123.273930" lat="44.560050"><ele>69.127975</ele><time>2020-12-14T22:26:40Z</time><extensions><speed>3.970782</speed><course>355.884186</course><hAcc>4.770875</hAcc><vAcc>3.326152</vAcc></extensions></trkpt>
      <trkpt lon="-123.273946" lat="44.560105"><ele>69.481453</ele><time>2020-12-14T22:26:41Z</time><extensions><speed>5.435493</speed><course>352.325165</course><hAcc>4.760933</hAcc><vAcc>3.340368</vAcc></extensions></trkpt>
      <trkpt lon="-123.273945" lat="44.560138"><ele>68.987892</ele><time>2020-12-14T22:26:42Z</time><extensions><speed>4.728753</speed><course>355.308075</course><hAcc>4.761693</hAcc><vAcc>3.339284</vAcc></extensions></trkpt>
      <trkpt lon="-123.273966" lat="44.560196"><ele>69.946907</ele><time>2020-12-14T22:26:43Z</time><extensions><speed>5.823658</speed><course>348.530426</course><hAcc>4.753665</hAcc><vAcc>3.350702</vAcc></extensions></trkpt>
      <trkpt lon="-123.273977" lat="44.560247"><ele>69.340851</ele><time>2020-12-14T22:26:44Z</time><extensions><speed>5.910163</speed><course>349.307648</course><hAcc>4.757933</hAcc><vAcc>3.344640</vAcc></extensions></trkpt>
      <trkpt lon="-123.273989" lat="44.560292"><ele>69.755104</ele><time>2020-12-14T22:26:45Z</time><extensions><speed>5.739089</speed><course>347.263245</course><hAcc>4.767510</hAcc><vAcc>3.330974</vAcc></extensions></trkpt>
      <trkpt lon="-123.273994" lat="44.560336"><ele>70.159531</ele><time>2020-12-14T22:26:46Z</time><extensions><speed>5.416427</speed><course>348.909088</course><hAcc>4.781071</hAcc><vAcc>3.311480</vAcc></extensions></trkpt>
      <trkpt lon="-123.273999" lat="44.560384"><ele>69.747482</ele><time>2020-12-14T22:26:47Z</time><extensions><speed>5.374601</speed><course>352.613373</course><hAcc>4.777970</hAcc><vAcc>3.315952</vAcc></extensions></trkpt>
      <trkpt lon="-123.274000" lat="44.560431"><ele>69.387512</ele><time>2020-12-14T22:26:48Z</time><extensions><speed>5.271357</speed><course>356.038208</course><hAcc>4.799310</hAcc><vAcc>3.284991</vAcc></extensions></trkpt>
      <trkpt lon="-123.273994" lat="44.560473"><ele>69.632713</ele><time>2020-12-14T22:26:49Z</time><extensions><speed>5.141973</speed><course>0.719286</course><hAcc>4.809193</hAcc><vAcc>3.270504</vAcc></extensions></trkpt>
      <trkpt lon="-123.273988" lat="44.560506"><ele>69.863434</ele><time>2020-12-14T22:26:50Z</time><extensions><speed>4.442704</speed><course>2.191958</course><hAcc>4.850006</hAcc><vAcc>3.209670</vAcc></extensions></trkpt>
      <trkpt lon="-123.274019" lat="44.560556"><ele>69.526054</ele><time>2020-12-14T22:26:51Z</time><extensions><speed>4.838513</speed><course>349.384949</course><hAcc>4.882082</hAcc><vAcc>3.160667</vAcc></extensions></trkpt>
      <trkpt lon="-123.274025" lat="44.560609"><ele>70.009750</ele><time>2020-12-14T22:26:52Z</time><extensions><speed>5.518730</speed><course>351.333679</course><hAcc>4.832198</hAcc><vAcc>3.236418</vAcc></extensions></trkpt>
      <trkpt lon="-123.274021" lat="44.560656"><ele>69.141472</ele><time>2020-12-14T22:26:53Z</time><extensions><speed>5.350892</speed><course>356.287903</course><hAcc>4.832193</hAcc><vAcc>3.236425</vAcc></extensions></trkpt>
      <trkpt lon="-123.274041" lat="44.560712"><ele>70.292732</ele><time>2020-12-14T22:26:54Z</time><extensions><speed>5.953320</speed><course>354.433228</course><hAcc>4.827340</hAcc><vAcc>3.243660</vAcc></extensions></trkpt>
      <trkpt lon="-123.274064" lat="44.560758"><ele>69.945183</ele><time>2020-12-14T22:26:55Z</time><extensions><speed>5.606714</speed><course>345.143036</course><hAcc>4.824709</hAcc><vAcc>3.247572</vAcc></extensions></trkpt>
      <trkpt lon="-123.274069" lat="44.560806"><ele>70.130882</ele><time>2020-12-14T22:26:56Z</time><extensions><speed>5.406823</speed><course>348.309784</course><hAcc>4.845370</hAcc><vAcc>3.216664</vAcc></extensions></trkpt>
      <trkpt lon="-123.274060" lat="44.560856"><ele>69.380341</ele><time>2020-12-14T22:26:57Z</time><extensions><speed>5.402404</speed><course>356.201080</course><hAcc>4.863461</hAcc><vAcc>3.189245</vAcc></extensions></trkpt>
      <trkpt lon="-123.274058" lat="44.560900"><ele>69.639816</ele><time>2020-12-14T22:26:58Z</time><extensions><speed>5.189762</speed><course>358.417297</course><hAcc>4.862293</hAcc><vAcc>3.191025</vAcc></extensions></trkpt>
      <trkpt lon="-123.274046" lat="44.560935"><ele>69.175903</ele><time>2020-12-14T22:26:59Z</time><extensions><speed>4.781597</speed><course>2.152727</course><hAcc>4.846738</hAcc><vAcc>3.214603</vAcc></extensions></trkpt>
      <trkpt lon="-123.274086" lat="44.560989"><ele>69.831696</ele><time>2020-12-14T22:27:00Z</time><extensions><speed>4.939307</speed><course>355.540527</course><hAcc>4.827456</hAcc><vAcc>3.243486</vAcc></extensions></trkpt>
      <trkpt lon="-123.274099" lat="44.561041"><ele>69.557693</ele><time>2020-12-14T22:27:01Z</time><extensions><speed>5.228854</speed><course>352.848663</course><hAcc>4.894280</hAcc><vAcc>3.141745</vAcc></extensions></trkpt>
      <trkpt lon="-123.274110" lat="44.561092"><ele>69.363503</ele><time>2020-12-14T22:27:02Z</time><extensions><speed>5.432466</speed><course>350.600586</course><hAcc>4.869581</hAcc><vAcc>3.179893</vAcc></extensions></trkpt>
      <trkpt lon="-123.274145" lat="44.561141"><ele>69.573097</ele><time>2020-12-14T22:27:03Z</time><extensions><speed>5.448817</speed><course>343.119843</course><hAcc>4.850331</hAcc><vAcc>3.209178</vAcc></extensions></trkpt>
      <trkpt lon="-123.274150" lat="44.561186"><ele>68.713608</ele><time>2020-12-14T22:27:04Z</time><extensions><speed>5.281145</speed><course>347.966888</course><hAcc>4.866179</hAcc><vAcc>3.185096</vAcc></extensions></trkpt>
      <trkpt lon="-123.274151" lat="44.561228"><ele>69.746414</ele><time>2020-12-14T22:27:05Z</time><extensions><speed>4.995128</speed><course>353.613922</course><hAcc>4.847731</hAcc><vAcc>3.213105</vAcc></extensions></trkpt>
      <trkpt lon="-123.274157" lat="44.561273"><ele>69.912407</ele><time>2020-12-14T22:27:06Z</time><extensions><speed>4.965636</speed><course>353.594513</course><hAcc>4.838702</hAcc><vAcc>3.226685</vAcc></extensions></trkpt>
      <trkpt lon="-123.274176" lat="44.561311"><ele>69.925354</ele><time>2020-12-14T22:27:07Z</time><extensions><speed>4.484721</speed><course>347.937958</course><hAcc>4.824821</hAcc><vAcc>3.247405</vAcc></extensions></trkpt>
      <trkpt lon="-123.274199" lat="44.561353"><ele>69.553062</ele><time>2020-12-14T22:27:08Z</time><extensions><speed>4.472683</speed><course>344.164398</course><hAcc>4.846310</hAcc><vAcc>3.215248</vAcc></extensions></trkpt>
      <trkpt lon="-123.274219" lat="44.561396"><ele>69.330254</ele><time>2020-12-14T22:27:09Z</time><extensions><speed>4.557550</speed><course>344.558807</course><hAcc>4.832012</hAcc><vAcc>3.236695</vAcc></extensions></trkpt>
      <trkpt lon="-123.274247" lat="44.561436"><ele>69.323471</ele><time>2020-12-14T22:27:10Z</time><extensions><speed>4.478698</speed><course>341.678802</course><hAcc>4.870115</hAcc><vAcc>3.179075</vAcc></extensions></trkpt>
      <trkpt lon="-123.274262" lat="44.561484"><ele>69.095444</ele><time>2020-12-14T22:27:11Z</time><extensions><speed>4.766323</speed><course>346.102142</course><hAcc>4.823883</hAcc><vAcc>3.248799</vAcc></extensions></trkpt>
      <trkpt lon="-123.274276" lat="44.561518"><ele>70.236557</ele><time>2020-12-14T22:27:12Z</time><extensions><speed>4.354722</speed><course>344.812256</course><hAcc>4.884209</hAcc><vAcc>3.157378</vAcc></extensions></trkpt>
      <trkpt lon="-123.274258" lat="44.561558"><ele>69.175240</ele><time>2020-12-14T22:27:13Z</time><extensions><speed>4.391879</speed><course>356.151276</course><hAcc>4.823168</hAcc><vAcc>3.249860</vAcc></extensions></trkpt>
      <trkpt lon="-123.274247" lat="44.561590"><ele>70.012894</ele><time>2020-12-14T22:27:14Z</time><extensions><speed>4.142320</speed><course>358.090057</course><hAcc>4.821996</hAcc><vAcc>3.251598</vAcc></extensions></trkpt>
      <trkpt lon="-123.274235" lat="44.561638"><ele>70.025146</ele><time>2020-12-14T22:27:15Z</time><extensions><speed>4.467064</speed><course>0.296726</course><hAcc>4.784694</hAcc><vAcc>3.306243</vAcc></extensions></trkpt>
      <trkpt lon="-123.274238" lat="44.561676"><ele>70.153412</ele><time>2020-12-14T22:27:16Z</time><extensions><speed>4.352305</speed><course>359.938171</course><hAcc>4.789167</hAcc><vAcc>3.299760</vAcc></extensions></trkpt>
      <trkpt lon="-123.274237" lat="44.561718"><ele>69.879166</ele><time>2020-12-14T22:27:17Z</time><extensions><speed>4.367673</speed><course>1.908618</course><hAcc>4.764513</hAcc><vAcc>3.335258</vAcc></extensions></trkpt>
      <trkpt lon="-123.274252" lat="44.561763"><ele>69.924767</ele><time>2020-12-14T22:27:18Z</time><extensions><speed>4.379515</speed><course>359.529968</course><hAcc>4.760716</hAcc><vAcc>3.340677</vAcc></extensions></trkpt>
      <trkpt lon="-123.274265" lat="44.561798"><ele>69.391991</ele><time>2020-12-14T22:27:19Z</time><extensions><speed>4.049997</speed><course>356.306854</course><hAcc>4.760923</hAcc><vAcc>3.340382</vAcc></extensions></trkpt>
      <trkpt lon="-123.274291" lat="44.561836"><ele>70.226494</ele><time>2020-12-14T22:27:20Z</time><extensions><speed>4.184594</speed><course>344.800201</course><hAcc>4.761508</hAcc><vAcc>3.339547</vAcc></extensions></trkpt>
      <trkpt lon="-123.274323" lat="44.561872"><ele>69.104187</ele><time>2020-12-14T22:27:21Z</time><extensions><speed>4.112905</speed><course>334.686035</course><hAcc>4.750122</hAcc><vAcc>3.355724</vAcc></extensions></trkpt>
      <trkpt lon="-123.274366" lat="44.561903"><ele>70.260376</ele><time>2020-12-14T22:27:22Z</time><extensions><speed>4.256902</speed><course>319.909058</course><hAcc>4.756947</hAcc><vAcc>3.346041</vAcc></extensions></trkpt>
      <trkpt lon="-123.274427" lat="44.561926"><ele>68.596519</ele><time>2020-12-14T22:27:23Z</time><extensions><speed>4.476563</speed><course>307.519714</course><hAcc>4.752800</hAcc><vAcc>3.351929</vAcc></extensions></trkpt>
      <trkpt lon="-123.274485" lat="44.561947"><ele>68.391708</ele><time>2020-12-14T22:27:24Z</time><extensions><speed>4.698095</speed><course>301.446960</course><hAcc>4.742249</hAcc><vAcc>3.366840</vAcc></extensions></trkpt>
      <trkpt lon="-123.274542" lat="44.561963"><ele>69.285057</ele><time>2020-12-14T22:27:25Z</time><extensions><speed>4.527359</speed><course>295.534149</course><hAcc>4.740900</hAcc><vAcc>3.368739</vAcc></extensions></trkpt>
      <trkpt lon="-123.274583" lat="44.561978"><ele>68.718224</ele><time>2020-12-14T22:27:26Z</time><extensions><speed>3.948843</speed><course>293.358429</course><hAcc>4.746925</hAcc><vAcc>3.360244</vAcc></extensions></trkpt>
      <trkpt lon="-123.274660" lat="44.561985"><ele>70.022102</ele><time>2020-12-14T22:27:27Z</time><extensions><speed>4.637025</speed><course>284.894409</course><hAcc>4.740143</hAcc><vAcc>3.369805</vAcc></extensions></trkpt>
      <trkpt lon="-123.274740" lat="44.561980"><ele>69.430313</ele><time>2020-12-14T22:27:28Z</time><extensions><speed>5.102768</speed><course>273.302490</course><hAcc>4.745286</hAcc><vAcc>3.362559</vAcc></extensions></trkpt>
      <trkpt lon="-123.274801" lat="44.561979"><ele>69.333687</ele><time>2020-12-14T22:27:29Z</time><extensions><speed>4.879982</speed><course>271.934143</course><hAcc>4.748330</hAcc><vAcc>3.358258</vAcc></extensions></trkpt>
      <trkpt lon="-123.274866" lat="44.561975"><ele>69.905769</ele><time>2020-12-14T22:27:30Z</time><extensions><speed>4.871787</speed><course>267.257538</course><hAcc>4.750251</hAcc><vAcc>3.355541</vAcc></extensions></trkpt>
      <trkpt lon="-123.274935" lat="44.561972"><ele>68.445259</ele><time>2020-12-14T22:27:31Z</time><extensions><speed>5.102488</speed><course>265.081421</course><hAcc>4.756226</hAcc><vAcc>3.347067</vAcc></extensions></trkpt>
      <trkpt lon="-123.274998" lat="44.561971"><ele>69.459473</ele><time>2020-12-14T22:27:32Z</time><extensions><speed>5.044865</speed><course>266.795624</course><hAcc>4.771809</hAcc><vAcc>3.324812</vAcc></extensions></trkpt>
      <trkpt lon="-123.275058" lat="44.561972"><ele>68.794434</ele><time>2020-12-14T22:27:33Z</time><extensions><speed>4.857813</speed><course>269.157806</course><hAcc>4.759148</hAcc><vAcc>3.342910</vAcc></extensions></trkpt>
      <trkpt lon="-123.275119" lat="44.561972"><ele>69.246918</ele><time>2020-12-14T22:27:34Z</time><extensions><speed>4.725261</speed><course>268.396790</course><hAcc>4.756780</hAcc><vAcc>3.346279</vAcc></extensions></trkpt>
      <trkpt lon="-123.275176" lat="44.561971"><ele>69.834709</ele><time>2020-12-14T22:27:35Z</time><extensions><speed>4.619013</speed><course>266.994385</course><hAcc>4.767252</hAcc><vAcc>3.331343</vAcc></extensions></trkpt>
      <trkpt lon="-123.275236" lat="44.561965"><ele>69.157036</ele><time>2020-12-14T22:27:36Z</time><extensions><speed>4.747835</speed><course>262.706390</course><hAcc>4.762641</hAcc><vAcc>3.337932</vAcc></extensions></trkpt>
      <trkpt lon="-123.275305" lat="44.561966"><ele>69.039246</ele><time>2020-12-14T22:27:37Z</time><extensions><speed>5.061755</speed><course>270.478943</course><hAcc>4.765079</hAcc><vAcc>3.334450</vAcc></extensions></trkpt>
      <trkpt lon="-123.275362" lat="44.561961"><ele>69.305130</ele><time>2020-12-14T22:27:38Z</time><extensions><speed>4.788228</speed><course>264.017639</course><hAcc>4.761073</hAcc><vAcc>3.340168</vAcc></extensions></trkpt>
      <trkpt lon="-123.275437" lat="44.561962"><ele>69.640457</ele><time>2020-12-14T22:27:39Z</time><extensions><speed>5.450813</speed><course>267.502411</course><hAcc>4.757373</hAcc><vAcc>3.345435</vAcc></extensions></trkpt>
      <trkpt lon="-123.275502" lat="44.561956"><ele>69.222580</ele><time>2020-12-14T22:27:40Z</time><extensions><speed>5.280795</speed><course>265.426239</course><hAcc>4.760780</hAcc><vAcc>3.340585</vAcc></extensions></trkpt>
      <trkpt lon="-123.275583" lat="44.561961"><ele>69.712189</ele><time>2020-12-14T22:27:41Z</time><extensions><speed>5.949712</speed><course>270.166901</course><hAcc>4.759897</hAcc><vAcc>3.341843</vAcc></extensions></trkpt>
      <trkpt lon="-123.275640" lat="44.561953"><ele>69.784645</ele><time>2020-12-14T22:27:42Z</time><extensions><speed>5.209649</speed><course>264.952667</course><hAcc>4.757580</hAcc><vAcc>3.345140</vAcc></extensions></trkpt>
      <trkpt lon="-123.275712" lat="44.561948"><ele>69.630859</ele><time>2020-12-14T22:27:43Z</time><extensions><speed>5.366625</speed><course>264.516083</course><hAcc>4.773160</hAcc><vAcc>3.322873</vAcc></extensions></trkpt>
      <trkpt lon="-123.275788" lat="44.561949"><ele>69.795586</ele><time>2020-12-14T22:27:44Z</time><extensions><speed>5.728584</speed><course>268.065979</course><hAcc>4.757668</hAcc><vAcc>3.345016</vAcc></extensions></trkpt>
      <trkpt lon="-123.275857" lat="44.561947"><ele>69.128647</ele><time>2020-12-14T22:27:45Z</time><extensions><speed>5.485473</speed><course>268.229675</course><hAcc>4.761279</hAcc><vAcc>3.339875</vAcc></extensions></trkpt>
      <trkpt lon="-123.275932" lat="44.561949"><ele>69.025131</ele><time>2020-12-14T22:27:46Z</time><extensions><speed>5.730215</speed><course>269.754364</course><hAcc>4.757175</hAcc><vAcc>3.345717</vAcc></extensions></trkpt>
      <trkpt lon="-123.275995" lat="44.561943"><ele>69.506348</ele><time>2020-12-14T22:27:47Z</time><extensions><speed>5.331107</speed><course>268.130310</course><hAcc>4.766109</hAcc><vAcc>3.332977</vAcc></extensions></trkpt>
      <trkpt lon="-123.276059" lat="44.561943"><ele>69.268326</ele><time>2020-12-14T22:27:48Z</time><extensions><speed>5.163847</speed><course>269.072144</course><hAcc>4.801325</hAcc><vAcc>3.282044</vAcc></extensions></trkpt>
      <trkpt lon="-123.276099" lat="44.561938"><ele>69.990227</ele><time>2020-12-14T22:27:49Z</time><extensions><speed>4.539062</speed><course>263.577576</course><hAcc>4.815597</hAcc><vAcc>3.261068</vAcc></extensions></trkpt>
      <trkpt lon="-123.276187" lat="44.561937"><ele>69.987434</ele><time>2020-12-14T22:27:50Z</time><extensions><speed>5.586400</speed><course>265.068817</course><hAcc>4.825213</hAcc><vAcc>3.246822</vAcc></extensions></trkpt>
      <trkpt lon="-123.276264" lat="44.561934"><ele>70.339096</ele><time>2020-12-14T22:27:51Z</time><extensions><speed>5.769890</speed><course>267.341888</course><hAcc>4.864472</hAcc><vAcc>3.187702</vAcc></extensions></trkpt>
      <trkpt lon="-123.276346" lat="44.561939"><ele>70.439339</ele><time>2020-12-14T22:27:52Z</time><extensions><speed>6.234984</speed><course>270.335327</course><hAcc>4.828378</hAcc><vAcc>3.242114</vAcc></extensions></trkpt>
      <trkpt lon="-123.276416" lat="44.561936"><ele>70.140862</ele><time>2020-12-14T22:27:53Z</time><extensions><speed>5.975390</speed><course>267.762451</course><hAcc>4.842965</hAcc><vAcc>3.220284</vAcc></extensions></trkpt>
      <trkpt lon="-123.276495" lat="44.561935"><ele>70.363846</ele><time>2020-12-14T22:27:54Z</time><extensions><speed>6.107475</speed><course>268.584351</course><hAcc>4.855036</hAcc><vAcc>3.202057</vAcc></extensions></trkpt>
      <trkpt lon="-123.276575" lat="44.561941"><ele>71.153038</ele><time>2020-12-14T22:27:55Z</time><extensions><speed>6.189160</speed><course>271.644440</course><hAcc>4.848769</hAcc><vAcc>3.211539</vAcc></extensions></trkpt>
      <trkpt lon="-123.276654" lat="44.561938"><ele>70.142075</ele><time>2020-12-14T22:27:56Z</time><extensions><speed>6.128288</speed><course>269.772095</course><hAcc>4.859647</hAcc><vAcc>3.195054</vAcc></extensions></trkpt>
      <trkpt lon="-123.276734" lat="44.561946"><ele>70.357071</ele><time>2020-12-14T22:27:57Z</time><extensions><speed>6.211260</speed><course>273.210114</course><hAcc>4.871653</hAcc><vAcc>3.176717</vAcc></extensions></trkpt>
      <trkpt lon="-123.276817" lat="44.561948"><ele>70.447952</ele><time>2020-12-14T22:27:58Z</time><extensions><speed>6.599391</speed><course>272.787537</course><hAcc>4.875564</hAcc><vAcc>3.170712</vAcc></extensions></trkpt>
      <trkpt lon="-123.276895" lat="44.561941"><ele>70.268562</ele><time>2020-12-14T22:27:59Z</time><extensions><speed>6.209445</speed><course>267.761871</course><hAcc>4.798465</hAcc><vAcc>3.286224</vAcc></extensions></trkpt>
      <trkpt lon="-123.276984" lat="44.561939"><ele>71.058884</ele><time>2020-12-14T22:28:00Z</time><extensions><speed>6.416744</speed><course>269.033813</course><hAcc>4.796420</hAcc><vAcc>3.289208</vAcc></extensions></trkpt>
      <trkpt lon="-123.277058" lat="44.561940"><ele>70.586815</ele><time>2020-12-14T22:28:01Z</time><extensions><speed>5.948171</speed><course>271.069641</course><hAcc>4.806262</hAcc><vAcc>3.274810</vAcc></extensions></trkpt>
      <trkpt lon="-123.277133" lat="44.561944"><ele>70.756035</ele><time>2020-12-14T22:28:02Z</time><extensions><speed>5.863895</speed><course>271.144989</course><hAcc>4.781808</hAcc><vAcc>3.310416</vAcc></extensions></trkpt>
      <trkpt lon="-123.277216" lat="44.561956"><ele>70.909492</ele><time>2020-12-14T22:28:03Z</time><extensions><speed>6.242503</speed><course>274.800659</course><hAcc>4.776133</hAcc><vAcc>3.318599</vAcc></extensions></trkpt>
      <trkpt lon="-123.277289" lat="44.561957"><ele>70.375511</ele><time>2020-12-14T22:28:04Z</time><extensions><speed>6.031773</speed><course>272.454865</course><hAcc>4.795375</hAcc><vAcc>3.290731</vAcc></extensions></trkpt>
      <trkpt lon="-123.277353" lat="44.561952"><ele>70.537376</ele><time>2020-12-14T22:28:05Z</time><extensions><speed>5.549014</speed><course>268.258484</course><hAcc>4.788856</hAcc><vAcc>3.300211</vAcc></extensions></trkpt>
      <trkpt lon="-123.277429" lat="44.561950"><ele>70.763603</ele><time>2020-12-14T22:28:06Z</time><extensions><speed>5.781414</speed><course>268.144165</course><hAcc>4.796461</hAcc><vAcc>3.289148</vAcc></extensions></trkpt>
      <trkpt lon="-123.277497" lat="44.561944"><ele>70.972176</ele><time>2020-12-14T22:28:07Z</time><extensions><speed>5.511450</speed><course>265.477020</course><hAcc>4.795738</hAcc><vAcc>3.290202</vAcc></extensions></trkpt>
      <trkpt lon="-123.277567" lat="44.561940"><ele>70.402176</ele><time>2020-12-14T22:28:08Z</time><extensions><speed>5.471872</speed><course>266.969055</course><hAcc>4.780340</hAcc><vAcc>3.312534</vAcc></extensions></trkpt>
      <trkpt lon="-123.277627" lat="44.561950"><ele>71.231346</ele><time>2020-12-14T22:28:09Z</time><extensions><speed>4.947338</speed><course>270.358643</course><hAcc>4.785945</hAcc><vAcc>3.304432</vAcc></extensions></trkpt>
      <trkpt lon="-123.277702" lat="44.561956"><ele>70.941925</ele><time>2020-12-14T22:28:10Z</time><extensions><speed>5.279531</speed><course>273.598694</course><hAcc>4.771781</hAcc><vAcc>3.324852</vAcc></extensions></trkpt>
      <trkpt lon="-123.277770" lat="44.561960"><ele>71.774048</ele><time>2020-12-14T22:28:11Z</time><extensions><speed>5.417253</speed><course>273.402222</course><hAcc>4.775676</hAcc><vAcc>3.319255</vAcc></extensions></trkpt>
      <trkpt lon="-123.277832" lat="44.561965"><ele>71.362663</ele><time>2020-12-14T22:28:12Z</time><extensions><speed>5.150784</speed><course>273.137878</course><hAcc>4.762390</hAcc><vAcc>3.338290</vAcc></extensions></trkpt>
      <trkpt lon="-123.277912" lat="44.561967"><ele>70.930504</ele><time>2020-12-14T22:28:13Z</time><extensions><speed>5.937025</speed><course>271.774994</course><hAcc>4.800991</hAcc><vAcc>3.282534</vAcc></extensions></trkpt>
      <trkpt lon="-123.277980" lat="44.561972"><ele>70.839508</ele><time>2020-12-14T22:28:14Z</time><extensions><speed>5.738015</speed><course>275.060883</course><hAcc>4.862089</hAcc><vAcc>3.191336</vAcc></extensions></trkpt>
      <trkpt lon="-123.278035" lat="44.561965"><ele>70.823708</ele><time>2020-12-14T22:28:15Z</time><extensions><speed>5.076806</speed><course>271.755096</course><hAcc>4.807113</hAcc><vAcc>3.273561</vAcc></extensions></trkpt>
      <trkpt lon="-123.278096" lat="44.561965"><ele>70.859810</ele><time>2020-12-14T22:28:16Z</time><extensions><speed>4.924786</speed><course>271.765259</course><hAcc>4.759808</hAcc><vAcc>3.341970</vAcc></extensions></trkpt>
      <trkpt lon="-123.278155" lat="44.561966"><ele>71.604729</ele><time>2020-12-14T22:28:17Z</time><extensions><speed>4.642465</speed><course>271.983002</course><hAcc>4.769128</hAcc><vAcc>3.328656</vAcc></extensions></trkpt>
      <trkpt lon="-123.278220" lat="44.561963"><ele>70.876221</ele><time>2020-12-14T22:28:18Z</time><extensions><speed>4.786820</speed><course>270.280945</course><hAcc>4.760683</hAcc><vAcc>3.340724</vAcc></extensions></trkpt>
      <trkpt lon="-123.278275" lat="44.561964"><ele>70.894165</ele><time>2020-12-14T22:28:19Z</time><extensions><speed>4.732682</speed><course>271.584351</course><hAcc>4.774243</hAcc><vAcc>3.321316</vAcc></extensions></trkpt>
      <trkpt lon="-123.278332" lat="44.561966"><ele>70.957253</ele><time>2020-12-14T22:28:20Z</time><extensions><speed>4.741704</speed><course>275.205688</course><hAcc>4.791885</hAcc><vAcc>3.295811</vAcc></extensions></trkpt>
      <trkpt lon="-123.278400" lat="44.561968"><ele>71.267952</ele><time>2020-12-14T22:28:21Z</time><extensions><speed>4.960133</speed><course>276.219391</course><hAcc>4.789323</hAcc><vAcc>3.299533</vAcc></extensions></trkpt>
      <trkpt lon="-123.278465" lat="44.561982"><ele>71.104851</ele><time>2020-12-14T22:28:22Z</time><extensions><speed>5.255627</speed><course>277.919006</course><hAcc>4.771107</hAcc><vAcc>3.325819</vAcc></extensions></trkpt>
      <trkpt lon="-123.278517" lat="44.561983"><ele>70.913307</ele><time>2020-12-14T22:28:23Z</time><extensions><speed>4.617514</speed><course>277.021118</course><hAcc>4.769555</hAcc><vAcc>3.328045</vAcc></extensions></trkpt>
      <trkpt lon="-123.278599" lat="44.561981"><ele>71.182144</ele><time>2020-12-14T22:28:24Z</time><extensions><speed>5.508112</speed><course>273.655640</course><hAcc>4.763039</hAcc><vAcc>3.337363</vAcc></extensions></trkpt>
      <trkpt lon="-123.278665" lat="44.561986"><ele>71.263763</ele><time>2020-12-14T22:28:25Z</time><extensions><speed>5.452154</speed><course>275.113800</course><hAcc>4.754260</hAcc><vAcc>3.349858</vAcc></extensions></trkpt>
      <trkpt lon="-123.278734" lat="44.561993"><ele>70.781174</ele><time>2020-12-14T22:28:26Z</time><extensions><speed>5.440136</speed><course>277.832977</course><hAcc>4.762385</hAcc><vAcc>3.338297</vAcc></extensions></trkpt>
      <trkpt lon="-123.278806" lat="44.562013"><ele>71.071899</ele><time>2020-12-14T22:28:27Z</time><extensions><speed>5.933599</speed><course>288.093414</course><hAcc>4.757854</hAcc><vAcc>3.344751</vAcc></extensions></trkpt>
      <trkpt lon="-123.278862" lat="44.562034"><ele>71.201881</ele><time>2020-12-14T22:28:28Z</time><extensions><speed>5.379260</speed><course>293.956207</course><hAcc>4.763392</hAcc><vAcc>3.336859</vAcc></extensions></trkpt>
      <trkpt lon="-123.278923" lat="44.562063"><ele>70.937111</ele><time>2020-12-14T22:28:29Z</time><extensions><speed>5.629644</speed><course>301.291718</course><hAcc>4.762620</hAcc><vAcc>3.337961</vAcc></extensions></trkpt>
      <trkpt lon="-123.278977" lat="44.562099"><ele>70.936981</ele><time>2020-12-14T22:28:30Z</time><extensions><speed>5.749943</speed><course>310.113586</course><hAcc>4.764663</hAcc><vAcc>3.335044</vAcc></extensions></trkpt>
      <trkpt lon="-123.279022" lat="44.562132"><ele>70.821114</ele><time>2020-12-14T22:28:31Z</time><extensions><speed>5.455372</speed><course>314.252014</course><hAcc>4.762190</hAcc><vAcc>3.338575</vAcc></extensions></trkpt>
      <trkpt lon="-123.279061" lat="44.562171"><ele>70.648079</ele><time>2020-12-14T22:28:32Z</time><extensions><speed>5.323816</speed><course>321.577942</course><hAcc>4.760529</hAcc><vAcc>3.340943</vAcc></extensions></trkpt>
      <trkpt lon="-123.279089" lat="44.562211"><ele>71.254128</ele><time>2020-12-14T22:28:33Z</time><extensions><speed>5.198342</speed><course>329.310303</course><hAcc>4.764888</hAcc><vAcc>3.334723</vAcc></extensions></trkpt>
      <trkpt lon="-123.279107" lat="44.562253"><ele>70.865166</ele><time>2020-12-14T22:28:34Z</time><extensions><speed>5.121453</speed><course>336.830414</course><hAcc>4.773266</hAcc><vAcc>3.322720</vAcc></extensions></trkpt>
      <trkpt lon="-123.279133" lat="44.562302"><ele>71.042252</ele><time>2020-12-14T22:28:35Z</time><extensions><speed>5.469367</speed><course>338.189301</course><hAcc>4.776374</hAcc><vAcc>3.318251</vAcc></extensions></trkpt>
      <trkpt lon="-123.279152" lat="44.562348"><ele>71.392708</ele><time>2020-12-14T22:28:36Z</time><extensions><speed>5.405992</speed><course>336.423584</course><hAcc>4.767111</hAcc><vAcc>3.331544</vAcc></extensions></trkpt>
      <trkpt lon="-123.279185" lat="44.562394"><ele>70.762344</ele><time>2020-12-14T22:28:37Z</time><extensions><speed>5.481641</speed><course>333.378021</course><hAcc>4.768840</hAcc><vAcc>3.329069</vAcc></extensions></trkpt>
      <trkpt lon="-123.279227" lat="44.562430"><ele>71.164574</ele><time>2020-12-14T22:28:38Z</time><extensions><speed>5.154984</speed><course>321.283569</course><hAcc>4.753087</hAcc><vAcc>3.351523</vAcc></extensions></trkpt>
      <trkpt lon="-123.279283" lat="44.562467"><ele>71.477295</ele><time>2020-12-14T22:28:39Z</time><extensions><speed>5.475017</speed><course>311.249176</course><hAcc>4.761027</hAcc><vAcc>3.340233</vAcc></extensions></trkpt>
      <trkpt lon="-123.279337" lat="44.562489"><ele>71.745865</ele><time>2020-12-14T22:28:40Z</time><extensions><speed>5.065019</speed><course>302.645569</course><hAcc>4.754148</hAcc><vAcc>3.350017</vAcc></extensions></trkpt>
      <trkpt lon="-123.279407" lat="44.562510"><ele>71.207336</ele><time>2020-12-14T22:28:41Z</time><extensions><speed>5.470100</speed><course>298.693268</course><hAcc>4.755291</hAcc><vAcc>3.348393</vAcc></extensions></trkpt>
      <trkpt lon="-123.279439" lat="44.562546"><ele>71.138115</ele><time>2020-12-14T22:28:42Z</time><extensions><speed>5.024598</speed><course>319.165649</course><hAcc>4.758321</hAcc><vAcc>3.344087</vAcc></extensions></trkpt>
      <trkpt lon="-123.279452" lat="44.562590"><ele>71.285622</ele><time>2020-12-14T22:28:43Z</time><extensions><speed>4.792979</speed><course>340.953949</course><hAcc>4.766864</hAcc><vAcc>3.331898</vAcc></extensions></trkpt>
      <trkpt lon="-123.279454" lat="44.562634"><ele>71.167068</ele><time>2020-12-14T22:28:44Z</time><extensions><speed>4.786877</speed><course>350.763977</course><hAcc>4.790014</hAcc><vAcc>3.298530</vAcc></extensions></trkpt>
      <trkpt lon="-123.279448" lat="44.562673"><ele>71.365097</ele><time>2020-12-14T22:28:45Z</time><extensions><speed>4.676024</speed><course>353.445984</course><hAcc>4.770360</hAcc><vAcc>3.326890</vAcc></extensions></trkpt>
      <trkpt lon="-123.279440" lat="44.562715"><ele>71.654106</ele><time>2020-12-14T22:28:46Z</time><extensions><speed>5.033326</speed><course>358.992218</course><hAcc>4.769009</hAcc><vAcc>3.328827</vAcc></extensions></trkpt>
      <trkpt lon="-123.279453" lat="44.562766"><ele>71.266663</ele><time>2020-12-14T22:28:47Z</time><extensions><speed>5.340544</speed><course>352.911560</course><hAcc>4.759365</hAcc><vAcc>3.342601</vAcc></extensions></trkpt>
      <trkpt lon="-123.279450" lat="44.562816"><ele>71.598808</ele><time>2020-12-14T22:28:48Z</time><extensions><speed>5.654963</speed><course>0.490501</course><hAcc>4.758976</hAcc><vAcc>3.343154</vAcc></extensions></trkpt>
      <trkpt lon="-123.279450" lat="44.562857"><ele>71.820488</ele><time>2020-12-14T22:28:49Z</time><extensions><speed>4.959200</speed><course>358.988190</course><hAcc>4.758996</hAcc><vAcc>3.343126</vAcc></extensions></trkpt>
      <trkpt lon="-123.279440" lat="44.562913"><ele>72.003181</ele><time>2020-12-14T22:28:50Z</time><extensions><speed>5.612821</speed><course>2.076045</course><hAcc>4.750059</hAcc><vAcc>3.355812</vAcc></extensions></trkpt>
      <trkpt lon="-123.279445" lat="44.562959"><ele>71.503952</ele><time>2020-12-14T22:28:51Z</time><extensions><speed>5.373845</speed><course>359.254852</course><hAcc>4.747805</hAcc><vAcc>3.359001</vAcc></extensions></trkpt>
      <trkpt lon="-123.279447" lat="44.563006"><ele>71.751152</ele><time>2020-12-14T22:28:52Z</time><extensions><speed>4.953516</speed><course>2.011108</course><hAcc>4.746840</hAcc><vAcc>3.360364</vAcc></extensions></trkpt>
      <trkpt lon="-123.279446" lat="44.563052"><ele>71.133858</ele><time>2020-12-14T22:28:53Z</time><extensions><speed>4.910650</speed><course>2.132201</course><hAcc>4.748328</hAcc><vAcc>3.358262</vAcc></extensions></trkpt>
      <trkpt lon="-123.279436" lat="44.563092"><ele>71.662598</ele><time>2020-12-14T22:28:54Z</time><extensions><speed>4.728534</speed><course>4.756536</course><hAcc>4.777270</hAcc><vAcc>3.316961</vAcc></extensions></trkpt>
      <trkpt lon="-123.279440" lat="44.563124"><ele>71.797501</ele><time>2020-12-14T22:28:55Z</time><extensions><speed>4.278281</speed><course>358.090637</course><hAcc>4.771739</hAcc><vAcc>3.324913</vAcc></extensions></trkpt>
      <trkpt lon="-123.279435" lat="44.563152"><ele>72.164040</ele><time>2020-12-14T22:28:56Z</time><extensions><speed>3.697763</speed><course>6.100087</course><hAcc>4.775448</hAcc><vAcc>3.319584</vAcc></extensions></trkpt>
      <trkpt lon="-123.279438" lat="44.563186"><ele>71.824799</ele><time>2020-12-14T22:28:57Z</time><extensions><speed>3.642611</speed><course>3.797025</course><hAcc>4.759678</hAcc><vAcc>3.342156</vAcc></extensions></trkpt>
      <trkpt lon="-123.279431" lat="44.563216"><ele>71.791206</ele><time>2020-12-14T22:28:58Z</time><extensions><speed>3.461467</speed><course>8.425742</course><hAcc>4.767904</hAcc><vAcc>3.330409</vAcc></extensions></trkpt>
      <trkpt lon="-123.279428" lat="44.563240"><ele>71.822357</ele><time>2020-12-14T22:28:59Z</time><extensions><speed>3.108776</speed><course>8.980871</course><hAcc>4.753920</hAcc><vAcc>3.350340</vAcc></extensions></trkpt>
      <trkpt lon="-123.279426" lat="44.563266"><ele>72.142197</ele><time>2020-12-14T22:29:00Z</time><extensions><speed>2.865150</speed><course>8.250098</course><hAcc>4.758319</hAcc><vAcc>3.344090</vAcc></extensions></trkpt>
      <trkpt lon="-123.279428" lat="44.563289"><ele>72.131447</ele><time>2020-12-14T22:29:01Z</time><extensions><speed>2.569298</speed><course>1.857848</course><hAcc>4.771060</hAcc><vAcc>3.325886</vAcc></extensions></trkpt>
      <trkpt lon="-123.279418" lat="44.563296"><ele>72.243240</ele><time>2020-12-14T22:29:02Z</time><extensions><speed>1.706139</speed><course>16.581882</course><hAcc>4.771816</hAcc><vAcc>3.324802</vAcc></extensions></trkpt>
      <trkpt lon="-123.279404" lat="44.563304"><ele>72.026680</ele><time>2020-12-14T22:29:03Z</time><extensions><speed>1.451156</speed><course>24.343987</course><hAcc>4.773771</hAcc><vAcc>3.321995</vAcc></extensions></trkpt>
      <trkpt lon="-123.279411" lat="44.563315"><ele>71.779984</ele><time>2020-12-14T22:29:04Z</time><extensions><speed>1.165426</speed><course>5.315596</course><hAcc>4.749328</hAcc><vAcc>3.356847</vAcc></extensions></trkpt>
      <trkpt lon="-123.279412" lat="44.563292"><ele>72.313667</ele><time>2020-12-14T22:29:05Z</time><extensions><speed>0.630064</speed><course>163.706512</course><hAcc>4.730626</hAcc><vAcc>3.383151</vAcc></extensions></trkpt>
      <trkpt lon="-123.279412" lat="44.563300"><ele>71.902725</ele><time>2020-12-14T22:29:06Z</time><extensions><speed>0.000000</speed><course>167.651016</course><hAcc>4.741100</hAcc><vAcc>3.368457</vAcc></extensions></trkpt>
      <trkpt lon="-123.279415" lat="44.563295"><ele>72.213356</ele><time>2020-12-14T22:29:07Z</time><extensions><speed>0.000000</speed><course>196.947128</course><hAcc>4.815802</hAcc><vAcc>3.260765</vAcc></extensions></trkpt>
      <trkpt lon="-123.279425" lat="44.563299"><ele>72.578224</ele><time>2020-12-14T22:29:08Z</time><extensions><speed>0.000000</speed><course>196.947128</course><hAcc>4.767901</hAcc><vAcc>3.330413</vAcc></extensions></trkpt>
      <trkpt lon="-123.279429" lat="44.563298"><ele>72.262802</ele><time>2020-12-14T22:29:09Z</time><extensions><speed>0.000000</speed><course>196.947128</course><hAcc>4.749034</hAcc><vAcc>3.357263</vAcc></extensions></trkpt>
      <trkpt lon="-123.279430" lat="44.563298"><ele>72.353584</ele><time>2020-12-14T22:29:10Z</time><extensions><speed>0.000000</speed><course>196.947128</course><hAcc>4.744027</hAcc><vAcc>3.364334</vAcc></extensions></trkpt>
      <trkpt lon="-123.279433" lat="44.563299"><ele>72.361000</ele><time>2020-12-14T22:29:11Z</time><extensions><speed>0.000000</speed><course>196.947128</course><hAcc>4.743177</hAcc><vAcc>3.365532</vAcc></extensions></trkpt>
      <trkpt lon="-123.279441" lat="44.563302"><ele>72.483559</ele><time>2020-12-14T22:29:12Z</time><extensions><speed>0.000000</speed><course>196.947128</course><hAcc>4.737960</hAcc><vAcc>3.372873</vAcc></extensions></trkpt>
      <trkpt lon="-123.279453" lat="44.563303"><ele>72.586517</ele><time>2020-12-14T22:29:13Z</time><extensions><speed>0.000000</speed><course>196.947113</course><hAcc>4.741140</hAcc><vAcc>3.368401</vAcc></extensions></trkpt>
      <trkpt lon="-123.279462" lat="44.563302"><ele>72.736763</ele><time>2020-12-14T22:29:14Z</time><extensions><speed>0.000000</speed><course>196.947113</course><hAcc>4.726835</hAcc><vAcc>3.388446</vAcc></extensions></trkpt>
      <trkpt lon="-123.279466" lat="44.563302"><ele>72.548904</ele><time>2020-12-14T22:29:15Z</time><extensions><speed>0.000000</speed><course>196.947113</course><hAcc>4.723896</hAcc><vAcc>3.392542</vAcc></extensions></trkpt>
      <trkpt lon="-123.279466" lat="44.563303"><ele>72.653069</ele><time>2020-12-14T22:29:16Z</time><extensions><speed>0.000000</speed><course>196.947113</course><hAcc>4.728103</hAcc><vAcc>3.386676</vAcc></extensions></trkpt>
      <trkpt lon="-123.279462" lat="44.563303"><ele>72.448631</ele><time>2020-12-14T22:29:17Z</time><extensions><speed>0.000000</speed><course>196.947113</course><hAcc>4.730371</hAcc><vAcc>3.383509</vAcc></extensions></trkpt>
      <trkpt lon="-123.279462" lat="44.563303"><ele>72.346687</ele><time>2020-12-14T22:29:18Z</time><extensions><speed>0.000000</speed><course>196.947113</course><hAcc>4.729512</hAcc><vAcc>3.384708</vAcc></extensions></trkpt>
      <trkpt lon="-123.279467" lat="44.563302"><ele>72.236412</ele><time>2020-12-14T22:29:19Z</time><extensions><speed>0.000000</speed><course>196.947113</course><hAcc>4.733825</hAcc><vAcc>3.378675</vAcc></extensions></trkpt>
      <trkpt lon="-123.279467" lat="44.563306"><ele>72.262756</ele><time>2020-12-14T22:29:20Z</time><extensions><speed>0.000000</speed><course>196.947113</course><hAcc>4.735656</hAcc><vAcc>3.376108</vAcc></extensions></trkpt>
      <trkpt lon="-123.279467" lat="44.563307"><ele>72.118073</ele><time>2020-12-14T22:29:21Z</time><extensions><speed>0.000000</speed><course>196.947113</course><hAcc>4.741436</hAcc><vAcc>3.367984</vAcc></extensions></trkpt>
      <trkpt lon="-123.279466" lat="44.563308"><ele>72.162109</ele><time>2020-12-14T22:29:22Z</time><extensions><speed>0.000000</speed><course>196.947113</course><hAcc>4.732749</hAcc><vAcc>3.380181</vAcc></extensions></trkpt>
      <trkpt lon="-123.279461" lat="44.563308"><ele>71.747368</ele><time>2020-12-14T22:29:23Z</time><extensions><speed>0.000000</speed><course>196.947113</course><hAcc>4.740150</hAcc><vAcc>3.369795</vAcc></extensions></trkpt>
      <trkpt lon="-123.279462" lat="44.563307"><ele>72.021538</ele><time>2020-12-14T22:29:24Z</time><extensions><speed>0.000000</speed><course>196.947113</course><hAcc>4.738925</hAcc><vAcc>3.371517</vAcc></extensions></trkpt>
      <trkpt lon="-123.279461" lat="44.563307"><ele>72.363846</ele><time>2020-12-14T22:29:25Z</time><extensions><speed>0.000000</speed><course>196.947113</course><hAcc>4.752078</hAcc><vAcc>3.352952</vAcc></extensions></trkpt>
      <trkpt lon="-123.279462" lat="44.563306"><ele>72.451324</ele><time>2020-12-14T22:29:26Z</time><extensions><speed>0.000000</speed><course>196.947113</course><hAcc>4.751318</hAcc><vAcc>3.354030</vAcc></extensions></trkpt>
      <trkpt lon="-123.279462" lat="44.563306"><ele>72.692940</ele><time>2020-12-14T22:29:27Z</time><extensions><speed>0.000000</speed><course>196.947113</course><hAcc>4.726091</hAcc><vAcc>3.389484</vAcc></extensions></trkpt>
      <trkpt lon="-123.279463" lat="44.563305"><ele>72.807167</ele><time>2020-12-14T22:29:28Z</time><extensions><speed>0.000000</speed><course>196.947113</course><hAcc>4.726542</hAcc><vAcc>3.388855</vAcc></extensions></trkpt>
      <trkpt lon="-123.279455" lat="44.563305"><ele>72.527939</ele><time>2020-12-14T22:29:29Z</time><extensions><speed>0.000000</speed><course>196.947113</course><hAcc>4.736972</hAcc><vAcc>3.374260</vAcc></extensions></trkpt>
      <trkpt lon="-123.279458" lat="44.563303"><ele>72.551201</ele><time>2020-12-14T22:29:30Z</time><extensions><speed>0.000000</speed><course>196.947113</course><hAcc>4.727152</hAcc><vAcc>3.388004</vAcc></extensions></trkpt>
      <trkpt lon="-123.279457" lat="44.563302"><ele>72.547287</ele><time>2020-12-14T22:29:31Z</time><extensions><speed>0.000000</speed><course>196.947113</course><hAcc>4.719203</hAcc><vAcc>3.399067</vAcc></extensions></trkpt>
      <trkpt lon="-123.279457" lat="44.563301"><ele>72.582367</ele><time>2020-12-14T22:29:32Z</time><extensions><speed>0.000000</speed><course>196.947113</course><hAcc>4.722304</hAcc><vAcc>3.394757</vAcc></extensions></trkpt>
      <trkpt lon="-123.279455" lat="44.563301"><ele>72.230255</ele><time>2020-12-14T22:29:33Z</time><extensions><speed>0.000000</speed><course>196.947113</course><hAcc>4.717529</hAcc><vAcc>3.401390</vAcc></extensions></trkpt>
      <trkpt lon="-123.279452" lat="44.563300"><ele>72.403465</ele><time>2020-12-14T22:29:34Z</time><extensions><speed>0.000000</speed><course>196.947113</course><hAcc>4.719589</hAcc><vAcc>3.398531</vAcc></extensions></trkpt>
      <trkpt lon="-123.279453" lat="44.563299"><ele>72.534233</ele><time>2020-12-14T22:29:35Z</time><extensions><speed>0.000000</speed><course>196.947113</course><hAcc>4.716345</hAcc><vAcc>3.403033</vAcc></extensions></trkpt>
      <trkpt lon="-123.279453" lat="44.563294"><ele>73.126732</ele><time>2020-12-14T22:29:36Z</time><extensions><speed>0.000000</speed><course>196.947113</course><hAcc>4.715655</hAcc><vAcc>3.403988</vAcc></extensions></trkpt>
      <trkpt lon="-123.279447" lat="44.563290"><ele>73.138138</ele><time>2020-12-14T22:29:37Z</time><extensions><speed>0.000000</speed><course>196.947113</course><hAcc>4.722867</hAcc><vAcc>3.393976</vAcc></extensions></trkpt>
      <trkpt lon="-123.279451" lat="44.563290"><ele>73.246147</ele><time>2020-12-14T22:29:38Z</time><extensions><speed>0.000000</speed><course>196.947113</course><hAcc>4.723979</hAcc><vAcc>3.392427</vAcc></extensions></trkpt>
      <trkpt lon="-123.279456" lat="44.563290"><ele>73.340935</ele><time>2020-12-14T22:29:39Z</time><extensions><speed>0.000000</speed><course>196.947113</course><hAcc>4.735705</hAcc><vAcc>3.376038</vAcc></extensions></trkpt>
      <trkpt lon="-123.279462" lat="44.563291"><ele>73.434380</ele><time>2020-12-14T22:29:40Z</time><extensions><speed>0.000000</speed><course>196.947113</course><hAcc>4.730635</hAcc><vAcc>3.383139</vAcc></extensions></trkpt>
      <trkpt lon="-123.279463" lat="44.563289"><ele>72.913445</ele><time>2020-12-14T22:29:41Z</time><extensions><speed>0.539699</speed><course>213.502899</course><hAcc>4.730515</hAcc><vAcc>3.383307</vAcc></extensions></trkpt>
      <trkpt lon="-123.279476" lat="44.563293"><ele>72.169594</ele><time>2020-12-14T22:29:42Z</time><extensions><speed>0.754237</speed><course>253.673859</course><hAcc>4.724396</hAcc><vAcc>3.391846</vAcc></extensions></trkpt>
      <trkpt lon="-123.279487" lat="44.563282"><ele>72.521751</ele><time>2020-12-14T22:29:43Z</time><extensions><speed>1.063577</speed><course>223.097321</course><hAcc>4.728468</hAcc><vAcc>3.386167</vAcc></extensions></trkpt>
      <trkpt lon="-123.279494" lat="44.563273"><ele>72.529198</ele><time>2020-12-14T22:29:44Z</time><extensions><speed>1.175152</speed><course>208.831268</course><hAcc>4.732345</hAcc><vAcc>3.380746</vAcc></extensions></trkpt>
      <trkpt lon="-123.279515" lat="44.563258"><ele>73.053635</ele><time>2020-12-14T22:29:45Z</time><extensions><speed>1.917455</speed><course>217.524628</course><hAcc>4.744283</hAcc><vAcc>3.363973</vAcc></extensions></trkpt>
      <trkpt lon="-123.279518" lat="44.563240"><ele>72.435806</ele><time>2020-12-14T22:29:46Z</time><extensions><speed>2.136169</speed><course>208.426590</course><hAcc>4.745740</hAcc><vAcc>3.361917</vAcc></extensions></trkpt>
      <trkpt lon="-123.279500" lat="44.563237"><ele>73.036285</ele><time>2020-12-14T22:29:47Z</time><extensions><speed>1.355029</speed><course>179.957687</course><hAcc>4.738565</hAcc><vAcc>3.372023</vAcc></extensions></trkpt>
      <trkpt lon="-123.279504" lat="44.563218"><ele>73.200142</ele><time>2020-12-14T22:29:48Z</time><extensions><speed>1.784347</speed><course>186.358154</course><hAcc>4.738666</hAcc><vAcc>3.371881</vAcc></extensions></trkpt>
      <trkpt lon="-123.279495" lat="44.563212"><ele>72.790031</ele><time>2020-12-14T22:29:49Z</time><extensions><speed>1.054630</speed><course>169.849976</course><hAcc>4.740874</hAcc><vAcc>3.368776</vAcc></extensions></trkpt>
      <trkpt lon="-123.279475" lat="44.563209"><ele>72.145363</ele><time>2020-12-14T22:29:50Z</time><extensions><speed>0.833983</speed><course>125.819611</course><hAcc>4.736687</hAcc><vAcc>3.374660</vAcc></extensions></trkpt>
      <trkpt lon="-123.279460" lat="44.563208"><ele>71.697029</ele><time>2020-12-14T22:29:51Z</time><extensions><speed>0.662437</speed><course>119.529686</course><hAcc>4.745495</hAcc><vAcc>3.362263</vAcc></extensions></trkpt>
      <trkpt lon="-123.279435" lat="44.563197"><ele>72.785706</ele><time>2020-12-14T22:29:52Z</time><extensions><speed>1.199197</speed><course>120.433693</course><hAcc>4.734828</hAcc><vAcc>3.377269</vAcc></extensions></trkpt>
      <trkpt lon="-123.279417" lat="44.563191"><ele>72.200287</ele><time>2020-12-14T22:29:53Z</time><extensions><speed>1.276158</speed><course>118.741150</course><hAcc>4.729113</hAcc><vAcc>3.385266</vAcc></extensions></trkpt>
      <trkpt lon="-123.279392" lat="44.563186"><ele>72.414268</ele><time>2020-12-14T22:29:54Z</time><extensions><speed>1.563565</speed><course>108.429260</course><hAcc>4.747224</hAcc><vAcc>3.359821</vAcc></extensions></trkpt>
      <trkpt lon="-123.279375" lat="44.563184"><ele>72.499031</ele><time>2020-12-14T22:29:55Z</time><extensions><speed>1.435899</speed><course>103.579826</course><hAcc>4.726520</hAcc><vAcc>3.388886</vAcc></extensions></trkpt>
      <trkpt lon="-123.279363" lat="44.563172"><ele>72.004814</ele><time>2020-12-14T22:29:56Z</time><extensions><speed>1.223613</speed><course>125.259048</course><hAcc>4.727828</hAcc><vAcc>3.387061</vAcc></extensions></trkpt>
      <trkpt lon="-123.279351" lat="44.563184"><ele>71.292801</ele><time>2020-12-14T22:29:57Z</time><extensions><speed>0.722480</speed><course>68.841278</course><hAcc>4.729811</hAcc><vAcc>3.384291</vAcc></extensions></trkpt>
      <trkpt lon="-123.279324" lat="44.563179"><ele>72.103943</ele><time>2020-12-14T22:29:58Z</time><extensions><speed>1.487700</speed><course>90.913582</course><hAcc>4.735373</hAcc><vAcc>3.376503</vAcc></extensions></trkpt>
      <trkpt lon="-123.279309" lat="44.563178"><ele>72.119675</ele><time>2020-12-14T22:29:59Z</time><extensions><speed>1.309838</speed><course>93.099098</course><hAcc>4.726315</hAcc><vAcc>3.389172</vAcc></extensions></trkpt>
      <trkpt lon="-123.279292" lat="44.563172"><ele>72.722343</ele><time>2020-12-14T22:30:00Z</time><extensions><speed>1.432034</speed><course>100.873505</course><hAcc>4.728189</hAcc><vAcc>3.386556</vAcc></extensions></trkpt>
      <trkpt lon="-123.279257" lat="44.563169"><ele>73.347404</ele><time>2020-12-14T22:30:01Z</time><extensions><speed>1.985145</speed><course>100.153656</course><hAcc>4.728837</hAcc><vAcc>3.385652</vAcc></extensions></trkpt>
      <trkpt lon="-123.279242" lat="44.563169"><ele>72.648605</ele><time>2020-12-14T22:30:02Z</time><extensions><speed>1.510543</speed><course>98.880318</course><hAcc>4.731352</hAcc><vAcc>3.382136</vAcc></extensions></trkpt>
      <trkpt lon="-123.279224" lat="44.563172"><ele>71.975220</ele><time>2020-12-14T22:30:03Z</time><extensions><speed>1.274354</speed><course>86.666405</course><hAcc>4.733078</hAcc><vAcc>3.379721</vAcc></extensions></trkpt>
      <trkpt lon="-123.279221" lat="44.563179"><ele>71.641983</ele><time>2020-12-14T22:30:04Z</time><extensions><speed>0.572279</speed><course>49.045185</course><hAcc>4.739242</hAcc><vAcc>3.371071</vAcc></extensions></trkpt>
      <trkpt lon="-123.279207" lat="44.563181"><ele>71.193771</ele><time>2020-12-14T22:30:05Z</time><extensions><speed>0.767020</speed><course>52.357136</course><hAcc>4.747096</hAcc><vAcc>3.360002</vAcc></extensions></trkpt>
      <trkpt lon="-123.279189" lat="44.563175"><ele>71.486870</ele><time>2020-12-14T22:30:06Z</time><extensions><speed>0.952869</speed><course>79.503357</course><hAcc>4.741610</hAcc><vAcc>3.367740</vAcc></extensions></trkpt>
      <trkpt lon="-123.279161" lat="44.563178"><ele>71.747047</ele><time>2020-12-14T22:30:07Z</time><extensions><speed>1.488288</speed><course>75.702003</course><hAcc>4.751211</hAcc><vAcc>3.354181</vAcc></extensions></trkpt>
      <trkpt lon="-123.279143" lat="44.563184"><ele>72.013802</ele><time>2020-12-14T22:30:08Z</time><extensions><speed>1.669020</speed><course>63.576824</course><hAcc>4.770761</hAcc><vAcc>3.326316</vAcc></extensions></trkpt>
      <trkpt lon="-123.279129" lat="44.563188"><ele>72.219398</ele><time>2020-12-14T22:30:09Z</time><extensions><speed>1.585117</speed><course>61.657192</course><hAcc>4.805367</hAcc><vAcc>3.276124</vAcc></extensions></trkpt>
      <trkpt lon="-123.279150" lat="44.563188"><ele>72.145256</ele><time>2020-12-14T22:30:10Z</time><extensions><speed>0.620463</speed><course>37.308846</course><hAcc>4.838550</hAcc><vAcc>3.226914</vAcc></extensions></trkpt>
      <trkpt lon="-123.279155" lat="44.563184"><ele>72.319023</ele><time>2020-12-14T22:30:11Z</time><extensions><speed>0.000000</speed><course>35.336487</course><hAcc>4.938546</hAcc><vAcc>3.071694</vAcc></extensions></trkpt>
      <trkpt lon="-123.279154" lat="44.563175"><ele>72.465584</ele><time>2020-12-14T22:30:12Z</time><extensions><speed>0.000000</speed><course>35.336491</course><hAcc>5.058989</hAcc><vAcc>2.869002</vAcc></extensions></trkpt>
      <trkpt lon="-123.279162" lat="44.563173"><ele>72.700165</ele><time>2020-12-14T22:30:13Z</time><extensions><speed>0.000000</speed><course>35.336483</course><hAcc>5.506050</hAcc><vAcc>2.148582</vAcc></extensions></trkpt>
      <trkpt lon="-123.279163" lat="44.563173"><ele>72.594948</ele><time>2020-12-14T22:30:14Z</time><extensions><speed>0.000000</speed><course>35.336483</course><hAcc>7.445087</hAcc><vAcc>1.192296</vAcc></extensions></trkpt>
      <trkpt lon="-123.279161" lat="44.563173"><ele>72.354958</ele><time>2020-12-14T22:30:15Z</time><extensions><speed>0.000000</speed><course>35.336487</course><hAcc>10.270152</hAcc><vAcc>1.228773</vAcc></extensions></trkpt>
      <trkpt lon="-123.279175" lat="44.563190"><ele>72.941429</ele><time>2020-12-14T22:30:16Z</time><extensions><speed>0.000000</speed><course>35.336468</course><hAcc>13.791081</hAcc><vAcc>1.205037</vAcc></extensions></trkpt>
      <trkpt lon="-123.279177" lat="44.563195"><ele>72.959686</ele><time>2020-12-14T22:30:17Z</time><extensions><speed>0.000000</speed><course>35.336464</course><hAcc>17.584932</hAcc><vAcc>1.378032</vAcc></extensions></trkpt>
      <trkpt lon="-123.279147" lat="44.563192"><ele>72.822510</ele><time>2020-12-14T22:30:18Z</time><extensions><speed>0.000000</speed><course>35.336494</course><hAcc>19.658234</hAcc><vAcc>1.368776</vAcc></extensions></trkpt>
      <trkpt lon="-123.279098" lat="44.563209"><ele>72.387688</ele><time>2020-12-14T22:30:19Z</time><extensions><speed>1.960477</speed><course>51.141876</course><hAcc>21.754723</hAcc><vAcc>1.309254</vAcc></extensions></trkpt>
      <trkpt lon="-123.279121" lat="44.563217"><ele>72.692734</ele><time>2020-12-14T22:30:20Z</time><extensions><speed>0.000000</speed><course>48.463436</course><hAcc>26.033009</hAcc><vAcc>1.321486</vAcc></extensions></trkpt>
      <trkpt lon="-123.279101" lat="44.563220"><ele>72.652290</ele><time>2020-12-14T22:30:21Z</time><extensions><speed>0.000000</speed><course>48.463451</course><hAcc>30.051268</hAcc><vAcc>1.306569</vAcc></extensions></trkpt>
      <trkpt lon="-123.279078" lat="44.563229"><ele>72.788612</ele><time>2020-12-14T22:30:22Z</time><extensions><speed>0.000000</speed><course>48.463467</course><hAcc>35.575645</hAcc><vAcc>1.342848</vAcc></extensions></trkpt>
      <trkpt lon="-123.279056" lat="44.563241"><ele>73.166412</ele><time>2020-12-14T22:30:23Z</time><extensions><speed>0.000000</speed><course>48.463482</course><hAcc>40.684757</hAcc><vAcc>1.288780</vAcc></extensions></trkpt>
      <trkpt lon="-123.279038" lat="44.563249"><ele>73.335670</ele><time>2020-12-14T22:30:24Z</time><extensions><speed>0.000000</speed><course>48.463497</course><hAcc>46.369316</hAcc><vAcc>1.266958</vAcc></extensions></trkpt>
      <trkpt lon="-123.278935" lat="44.563201"><ele>72.119881</ele><time>2020-12-14T22:30:27Z</time><extensions><speed>1.080000</speed><course>-1.000000</course><hAcc>48.823288</hAcc><vAcc>4.000000</vAcc></extensions></trkpt>
    </trkseg>
  </trk>
</gpx>