<?xml version="1.0" encoding="UTF-8"?>
<gpx version="1.1" creator="Apple Health Export" xmlns="http://www.topografix.com/GPX/1/1" xmlns:xsi="http://www.w3.org/2001/XMLSchema-instance" xsi:schemaLocation="http://www.topografix.com/GPX/1/1 http://www.topografix.com/GPX/1/1/gpx.xsd">
  <metadata>
    <time>2021-02-21T19:24:49Z</time>
  </metadata>
  <trk>
    <name>Route 2021-02-06 3:29pm</name>
    <trkseg>
      <trkpt lon="-123.271265" lat="44.560301"><ele>0.000000</ele><time>2021-02-06T23:29:13Z</time><extensions><speed>-1.000000</speed><course>-1.000000</course><hAcc>0.000000</hAcc><vAcc>-1.000000</vAcc></extensions></trkpt>
      <trkpt lon="-123.271384" lat="44.560231"><ele>0.000000</ele><time>2021-02-06T23:29:13Z</time><extensions><speed>-1.000000</speed><course>-1.000000</course><hAcc>0.000000</hAcc><vAcc>-1.000000</vAcc></extensions></trkpt>
      <trkpt lon="-123.271678" lat="44.560167"><ele>0.000000</ele><time>2021-02-06T23:29:13Z</time><extensions><speed>-1.000000</speed><course>-1.000000</course><hAcc>0.000000</hAcc><vAcc>-1.000000</vAcc></extensions></trkpt>
      <trkpt lon="-123.271974" lat="44.560115"><ele>0.000000</ele><time>2021-02-06T23:29:13Z</time><extensions><speed>-1.000000</speed><course>-1.000000</course><hAcc>0.000000</hAcc><vAcc>-1.000000</vAcc></extensions></trkpt>
      <trkpt lon="-123.272347" lat="44.560105"><ele>0.000000</ele><time>2021-02-06T23:29:13Z</time><extensions><speed>-1.000000</speed><course>-1.000000</course><hAcc>0.000000</hAcc><vAcc>-1.000000</vAcc></extensions></trkpt>
      <trkpt lon="-123.272728" lat="44.560062"><ele>0.000000</ele><time>2021-02-06T23:29:13Z</time><extensions><speed>-1.000000</speed><course>-1.000000</course><hAcc>0.000000</hAcc><vAcc>-1.000000</vAcc></extensions></trkpt>
      <trkpt lon="-123.272953" lat="44.560046"><ele>0.000000</ele><time>2021-02-06T23:29:13Z</time><extensions><speed>-1.000000</speed><course>-1.000000</course><hAcc>0.000000</hAcc><vAcc>-1.000000</vAcc></extensions></trkpt>
      <trkpt lon="-123.273259" lat="44.560038"><ele>0.000000</ele><time>2021-02-06T23:29:13Z</time><extensions><speed>-1.000000</speed><course>-1.000000</course><hAcc>0.000000</hAcc><vAcc>-1.000000</vAcc></extensions></trkpt>
      <trkpt lon="-123.273675" lat="44.559932"><ele>0.000000</ele><time>2021-02-06T23:29:13Z</time><extensions><speed>-1.000000</speed><course>-1.000000</course><hAcc>0.000000</hAcc><vAcc>-1.000000</vAcc></extensions></trkpt>
      <trkpt lon="-123.274108" lat="44.559923"><ele>0.000000</ele><time>2021-02-06T23:29:13Z</time><extensions><speed>-1.000000</speed><course>-1.000000</course><hAcc>0.000000</hAcc><vAcc>-1.000000</vAcc></extensions></trkpt>
      <trkpt lon="-123.274579" lat="44.559902"><ele>0.000000</ele><time>2021-02-06T23:29:13Z</time><extensions><speed>-1.000000</speed><course>-1.000000</course><hAcc>0.000000</hAcc><vAcc>-1.000000</vAcc></extensions></trkpt>
      <trkpt lon="-123.274822" lat="44.559876"><ele>0.000000</ele><time>2021-02-06T23:29:13Z</time><extensions><speed>-1.000000</speed><course>-1.000000</course><hAcc>0.000000</hAcc><vAcc>-1.000000</vAcc></extensions></trkpt>
      <trkpt lon="-123.275340" lat="44.559846"><ele>0.000000</ele><time>2021-02-06T23:29:13Z</time><extensions><speed>-1.000000</speed><course>-1.000000</course><hAcc>0.000000</hAcc><vAcc>-1.000000</vAcc></extensions></trkpt>
      <trkpt lon="-123.275682" lat="44.559793"><ele>0.000000</ele><time>2021-02-06T23:29:13Z</time><extensions><speed>-1.000000</speed><course>-1.000000</course><hAcc>0.000000</hAcc><vAcc>-1.000000</vAcc></extensions></trkpt>
      <trkpt lon="-123.276000" lat="44.559747"><ele>0.000000</ele><time>2021-02-06T23:29:13Z</time><extensions><speed>-1.000000</speed><course>-1.000000</course><hAcc>0.000000</hAcc><vAcc>-1.000000</vAcc></extensions></trkpt>
      <trkpt lon="-123.276354" lat="44.559657"><ele>0.000000</ele><time>2021-02-06T23:29:13Z</time><extensions><speed>-1.000000</speed><course>-1.000000</course><hAcc>0.000000</hAcc><vAcc>-1.000000</vAcc></extensions></trkpt>
      <trkpt lon="-123.276780" lat="44.559526"><ele>0.000000</ele><time>2021-02-06T23:29:13Z</time><extensions><speed>-1.000000</speed><course>-1.000000</course><hAcc>0.000000</hAcc><vAcc>-1.000000</vAcc></extensions></trkpt>
      <trkpt lon="-123.277082" lat="44.559385"><ele>0.000000</ele><time>2021-02-06T23:29:13Z</time><extensions><speed>-1.000000</speed><course>-1.000000</course><hAcc>0.000000</hAcc><vAcc>-1.000000</vAcc></extensions></trkpt>
      <trkpt lon="-123.277477" lat="44.559210"><ele>0.000000</ele><time>2021-02-06T23:29:13Z</time><extensions><speed>-1.000000</speed><course>-1.000000</course><hAcc>0.000000</hAcc><vAcc>-1.000000</vAcc></extensions></trkpt>
      <trkpt lon="-123.277753" lat="44.559017"><ele>0.000000</ele><time>2021-02-06T23:29:13Z</time><extensions><speed>-1.000000</speed><course>-1.000000</course><hAcc>0.000000</hAcc><vAcc>-1.000000</vAcc></extensions></trkpt>
      <trkpt lon="-123.278096" lat="44.558804"><ele>0.000000</ele><time>2021-02-06T23:29:13Z</time><extensions><speed>-1.000000</speed><course>-1.000000</course><hAcc>0.000000</hAcc><vAcc>-1.000000</vAcc></extensions></trkpt>
      <trkpt lon="-123.278402" lat="44.558648"><ele>0.000000</ele><time>2021-02-06T23:29:13Z</time><extensions><speed>-1.000000</speed><course>-1.000000</course><hAcc>0.000000</hAcc><vAcc>-1.000000</vAcc></extensions></trkpt>
      <trkpt lon="-123.278763" lat="44.558452"><ele>0.000000</ele><time>2021-02-06T23:29:13Z</time><extensions><speed>-1.000000</speed><course>-1.000000</course><hAcc>0.000000</hAcc><vAcc>-1.000000</vAcc></extensions></trkpt>
      <trkpt lon="-123.278864" lat="44.558390"><ele>0.000000</ele><time>2021-02-06T23:29:13Z</time><extensions><speed>-1.000000</speed><course>-1.000000</course><hAcc>0.000000</hAcc><vAcc>-1.000000</vAcc></extensions></trkpt>
      <trkpt lon="-123.279052" lat="44.558297"><ele>0.000000</ele><time>2021-02-06T23:29:13Z</time><extensions><speed>-1.000000</speed><course>-1.000000</course><hAcc>0.000000</hAcc><vAcc>-1.000000</vAcc></extensions></trkpt>
      <trkpt lon="-123.279360" lat="44.558156"><ele>0.000000</ele><time>2021-02-06T23:29:13Z</time><extensions><speed>-1.000000</speed><course>-1.000000</course><hAcc>0.000000</hAcc><vAcc>-1.000000</vAcc></extensions></trkpt>
      <trkpt lon="-123.279650" lat="44.557996"><ele>0.000000</ele><time>2021-02-06T23:29:13Z</time><extensions><speed>-1.000000</speed><course>-1.000000</course><hAcc>0.000000</hAcc><vAcc>-1.000000</vAcc></extensions></trkpt>
      <trkpt lon="-123.280026" lat="44.557822"><ele>0.000000</ele><time>2021-02-06T23:29:13Z</time><extensions><speed>-1.000000</speed><course>-1.000000</course><hAcc>0.000000</hAcc><vAcc>-1.000000</vAcc></extensions></trkpt>
      <trkpt lon="-123.280312" lat="44.557688"><ele>0.000000</ele><time>2021-02-06T23:29:13Z</time><extensions><speed>-1.000000</speed><course>-1.000000</course><hAcc>0.000000</hAcc><vAcc>-1.000000</vAcc></extensions></trkpt>
      <trkpt lon="-123.280672" lat="44.557510"><ele>0.000000</ele><time>2021-02-06T23:29:13Z</time><extensions><speed>-1.000000</speed><course>-1.000000</course><hAcc>0.000000</hAcc><vAcc>-1.000000</vAcc></extensions></trkpt>
      <trkpt lon="-123.280966" lat="44.557380"><ele>0.000000</ele><time>2021-02-06T23:29:13Z</time><extensions><speed>-1.000000</speed><course>-1.000000</course><hAcc>0.000000</hAcc><vAcc>-1.000000</vAcc></extensions></trkpt>
      <trkpt lon="-123.281350" lat="44.557229"><ele>0.000000</ele><time>2021-02-06T23:29:13Z</time><extensions><speed>-1.000000</speed><course>-1.000000</course><hAcc>0.000000</hAcc><vAcc>-1.000000</vAcc></extensions></trkpt>
      <trkpt lon="-123.281645" lat="44.557101"><ele>0.000000</ele><time>2021-02-06T23:29:13Z</time><extensions><speed>-1.000000</speed><course>-1.000000</course><hAcc>0.000000</hAcc><vAcc>-1.000000</vAcc></extensions></trkpt>
      <trkpt lon="-123.282054" lat="44.557002"><ele>0.000000</ele><time>2021-02-06T23:29:13Z</time><extensions><speed>-1.000000</speed><course>-1.000000</course><hAcc>0.000000</hAcc><vAcc>-1.000000</vAcc></extensions></trkpt>
      <trkpt lon="-123.282375" lat="44.556959"><ele>0.000000</ele><time>2021-02-06T23:29:13Z</time><extensions><speed>-1.000000</speed><course>-1.000000</course><hAcc>0.000000</hAcc><vAcc>-1.000000</vAcc></extensions></trkpt>
      <trkpt lon="-123.282830" lat="44.556909"><ele>0.000000</ele><time>2021-02-06T23:29:13Z</time><extensions><speed>-1.000000</speed><course>-1.000000</course><hAcc>0.000000</hAcc><vAcc>-1.000000</vAcc></extensions></trkpt>
      <trkpt lon="-123.283215" lat="44.556932"><ele>0.000000</ele><time>2021-02-06T23:29:13Z</time><extensions><speed>-1.000000</speed><course>-1.000000</course><hAcc>0.000000</hAcc><vAcc>-1.000000</vAcc></extensions></trkpt>
      <trkpt lon="-123.283663" lat="44.556953"><ele>0.000000</ele><time>2021-02-06T23:29:13Z</time><extensions><speed>-1.000000</speed><course>-1.000000</course><hAcc>0.000000</hAcc><vAcc>-1.000000</vAcc></extensions></trkpt>
      <trkpt lon="-123.284015" lat="44.556971"><ele>0.000000</ele><time>2021-02-06T23:29:13Z</time><extensions><speed>-1.000000</speed><course>-1.000000</course><hAcc>0.000000</hAcc><vAcc>-1.000000</vAcc></extensions></trkpt>
      <trkpt lon="-123.284482" lat="44.556979"><ele>0.000000</ele><time>2021-02-06T23:29:13Z</time><extensions><speed>-1.000000</speed><course>-1.000000</course><hAcc>0.000000</hAcc><vAcc>-1.000000</vAcc></extensions></trkpt>
      <trkpt lon="-123.284864" lat="44.556952"><ele>0.000000</ele><time>2021-02-06T23:29:13Z</time><extensions><speed>-1.000000</speed><course>-1.000000</course><hAcc>0.000000</hAcc><vAcc>-1.000000</vAcc></extensions></trkpt>
      <trkpt lon="-123.285300" lat="44.556962"><ele>0.000000</ele><time>2021-02-06T23:29:13Z</time><extensions><speed>-1.000000</speed><course>-1.000000</course><hAcc>0.000000</hAcc><vAcc>-1.000000</vAcc></extensions></trkpt>
      <trkpt lon="-123.285657" lat="44.556956"><ele>0.000000</ele><time>2021-02-06T23:29:13Z</time><extensions><speed>-1.000000</speed><course>-1.000000</course><hAcc>0.000000</hAcc><vAcc>-1.000000</vAcc></extensions></trkpt>
      <trkpt lon="-123.286126" lat="44.556958"><ele>0.000000</ele><time>2021-02-06T23:29:13Z</time><extensions><speed>-1.000000</speed><course>-1.000000</course><hAcc>0.000000</hAcc><vAcc>-1.000000</vAcc></extensions></trkpt>
      <trkpt lon="-123.286489" lat="44.556963"><ele>0.000000</ele><time>2021-02-06T23:29:13Z</time><extensions><speed>-1.000000</speed><course>-1.000000</course><hAcc>0.000000</hAcc><vAcc>-1.000000</vAcc></extensions></trkpt>
      <trkpt lon="-123.286943" lat="44.556965"><ele>0.000000</ele><time>2021-02-06T23:29:13Z</time><extensions><speed>-1.000000</speed><course>-1.000000</course><hAcc>0.000000</hAcc><vAcc>-1.000000</vAcc></extensions></trkpt>
      <trkpt lon="-123.287322" lat="44.556964"><ele>0.000000</ele><time>2021-02-06T23:29:13Z</time><extensions><speed>-1.000000</speed><course>-1.000000</course><hAcc>0.000000</hAcc><vAcc>-1.000000</vAcc></extensions></trkpt>
      <trkpt lon="-123.287459" lat="44.556968"><ele>0.000000</ele><time>2021-02-06T23:29:13Z</time><extensions><speed>-1.000000</speed><course>-1.000000</course><hAcc>0.000000</hAcc><vAcc>-1.000000</vAcc></extensions></trkpt>
      <trkpt lon="-123.287765" lat="44.556964"><ele>0.000000</ele><time>2021-02-06T23:29:13Z</time><extensions><speed>-1.000000</speed><course>-1.000000</course><hAcc>0.000000</hAcc><vAcc>-1.000000</vAcc></extensions></trkpt>
      <trkpt lon="-123.288253" lat="44.556970"><ele>0.000000</ele><time>2021-02-06T23:29:13Z</time><extensions><speed>-1.000000</speed><course>-1.000000</course><hAcc>0.000000</hAcc><vAcc>-1.000000</vAcc></extensions></trkpt>
      <trkpt lon="-123.288543" lat="44.556975"><ele>0.000000</ele><time>2021-02-06T23:29:13Z</time><extensions><speed>-1.000000</speed><course>-1.000000</course><hAcc>0.000000</hAcc><vAcc>-1.000000</vAcc></extensions></trkpt>
      <trkpt lon="-123.289027" lat="44.557009"><ele>0.000000</ele><time>2021-02-06T23:29:13Z</time><extensions><speed>-1.000000</speed><course>-1.000000</course><hAcc>0.000000</hAcc><vAcc>-1.000000</vAcc></extensions></trkpt>
      <trkpt lon="-123.289352" lat="44.557015"><ele>0.000000</ele><time>2021-02-06T23:29:13Z</time><extensions><speed>-1.000000</speed><course>-1.000000</course><hAcc>0.000000</hAcc><vAcc>-1.000000</vAcc></extensions></trkpt>
      <trkpt lon="-123.289568" lat="44.557180"><ele>0.000000</ele><time>2021-02-06T23:29:13Z</time><extensions><speed>-1.000000</speed><course>-1.000000</course><hAcc>0.000000</hAcc><vAcc>-1.000000</vAcc></extensions></trkpt>
      <trkpt lon="-123.289562" lat="44.557427"><ele>0.000000</ele><time>2021-02-06T23:29:13Z</time><extensions><speed>-1.000000</speed><course>-1.000000</course><hAcc>0.000000</hAcc><vAcc>-1.000000</vAcc></extensions></trkpt>
      <trkpt lon="-123.289553" lat="44.557751"><ele>0.000000</ele><time>2021-02-06T23:29:13Z</time><extensions><speed>-1.000000</speed><course>-1.000000</course><hAcc>0.000000</hAcc><vAcc>-1.000000</vAcc></extensions></trkpt>
      <trkpt lon="-123.289562" lat="44.558006"><ele>0.000000</ele><time>2021-02-06T23:29:13Z</time><extensions><speed>-1.000000</speed><course>-1.000000</course><hAcc>0.000000</hAcc><vAcc>-1.000000</vAcc></extensions></trkpt>
      <trkpt lon="-123.289575" lat="44.558296"><ele>0.000000</ele><time>2021-02-06T23:29:13Z</time><extensions><speed>-1.000000</speed><course>-1.000000</course><hAcc>0.000000</hAcc><vAcc>-1.000000</vAcc></extensions></trkpt>
      <trkpt lon="-123.289583" lat="44.558545"><ele>0.000000</ele><time>2021-02-06T23:29:13Z</time><extensions><speed>-1.000000</speed><course>-1.000000</course><hAcc>0.000000</hAcc><vAcc>-1.000000</vAcc></extensions></trkpt>
      <trkpt lon="-123.289571" lat="44.558860"><ele>0.000000</ele><time>2021-02-06T23:29:13Z</time><extensions><speed>-1.000000</speed><course>-1.000000</course><hAcc>0.000000</hAcc><vAcc>-1.000000</vAcc></extensions></trkpt>
      <trkpt lon="-123.289601" lat="44.559106"><ele>0.000000</ele><time>2021-02-06T23:29:13Z</time><extensions><speed>-1.000000</speed><course>-1.000000</course><hAcc>0.000000</hAcc><vAcc>-1.000000</vAcc></extensions></trkpt>
      <trkpt lon="-123.289606" lat="44.559394"><ele>0.000000</ele><time>2021-02-06T23:29:13Z</time><extensions><speed>-1.000000</speed><course>-1.000000</course><hAcc>0.000000</hAcc><vAcc>-1.000000</vAcc></extensions></trkpt>
      <trkpt lon="-123.289605" lat="44.559626"><ele>0.000000</ele><time>2021-02-06T23:29:13Z</time><extensions><speed>-1.000000</speed><course>-1.000000</course><hAcc>0.000000</hAcc><vAcc>-1.000000</vAcc></extensions></trkpt>
      <trkpt lon="-123.289617" lat="44.559871"><ele>0.000000</ele><time>2021-02-06T23:29:13Z</time><extensions><speed>-1.000000</speed><course>-1.000000</course><hAcc>0.000000</hAcc><vAcc>-1.000000</vAcc></extensions></trkpt>
      <trkpt lon="-123.289586" lat="44.560183"><ele>0.000000</ele><time>2021-02-06T23:29:13Z</time><extensions><speed>-1.000000</speed><course>-1.000000</course><hAcc>0.000000</hAcc><vAcc>-1.000000</vAcc></extensions></trkpt>
      <trkpt lon="-123.289628" lat="44.560417"><ele>0.000000</ele><time>2021-02-06T23:29:13Z</time><extensions><speed>-1.000000</speed><course>-1.000000</course><hAcc>0.000000</hAcc><vAcc>-1.000000</vAcc></extensions></trkpt>
      <trkpt lon="-123.289637" lat="44.560770"><ele>0.000000</ele><time>2021-02-06T23:29:13Z</time><extensions><speed>-1.000000</speed><course>-1.000000</course><hAcc>0.000000</hAcc><vAcc>-1.000000</vAcc></extensions></trkpt>
      <trkpt lon="-123.289605" lat="44.561026"><ele>0.000000</ele><time>2021-02-06T23:29:13Z</time><extensions><speed>-1.000000</speed><course>-1.000000</course><hAcc>0.000000</hAcc><vAcc>-1.000000</vAcc></extensions></trkpt>
      <trkpt lon="-123.289607" lat="44.561345"><ele>0.000000</ele><time>2021-02-06T23:29:13Z</time><extensions><speed>-1.000000</speed><course>-1.000000</course><hAcc>0.000000</hAcc><vAcc>-1.000000</vAcc></extensions></trkpt>
      <trkpt lon="-123.289616" lat="44.561595"><ele>0.000000</ele><time>2021-02-06T23:29:13Z</time><extensions><speed>-1.000000</speed><course>-1.000000</course><hAcc>0.000000</hAcc><vAcc>-1.000000</vAcc></extensions></trkpt>
      <trkpt lon="-123.289616" lat="44.561662"><ele>0.000000</ele><time>2021-02-06T23:29:13Z</time><extensions><speed>-1.000000</speed><course>-1.000000</course><hAcc>0.000000</hAcc><vAcc>-1.000000</vAcc></extensions></trkpt>
      <trkpt lon="-123.289613" lat="44.561764"><ele>0.000000</ele><time>2021-02-06T23:29:13Z</time><extensions><speed>-1.000000</speed><course>-1.000000</course><hAcc>0.000000</hAcc><vAcc>-1.000000</vAcc></extensions></trkpt>
      <trkpt lon="-123.289588" lat="44.562019"><ele>0.000000</ele><time>2021-02-06T23:29:13Z</time><extensions><speed>-1.000000</speed><course>-1.000000</course><hAcc>0.000000</hAcc><vAcc>-1.000000</vAcc></extensions></trkpt>
      <trkpt lon="-123.289585" lat="44.562359"><ele>0.000000</ele><time>2021-02-06T23:29:13Z</time><extensions><speed>-1.000000</speed><course>-1.000000</course><hAcc>0.000000</hAcc><vAcc>-1.000000</vAcc></extensions></trkpt>
      <trkpt lon="-123.289584" lat="44.562598"><ele>0.000000</ele><time>2021-02-06T23:29:13Z</time><extensions><speed>-1.000000</speed><course>-1.000000</course><hAcc>0.000000</hAcc><vAcc>-1.000000</vAcc></extensions></trkpt>
      <trkpt lon="-123.289589" lat="44.562913"><ele>0.000000</ele><time>2021-02-06T23:29:13Z</time><extensions><speed>-1.000000</speed><course>-1.000000</course><hAcc>0.000000</hAcc><vAcc>-1.000000</vAcc></extensions></trkpt>
      <trkpt lon="-123.289583" lat="44.563162"><ele>0.000000</ele><time>2021-02-06T23:29:13Z</time><extensions><speed>-1.000000</speed><course>-1.000000</course><hAcc>0.000000</hAcc><vAcc>-1.000000</vAcc></extensions></trkpt>
      <trkpt lon="-123.289584" lat="44.563377"><ele>0.000000</ele><time>2021-02-06T23:29:13Z</time><extensions><speed>-1.000000</speed><course>-1.000000</course><hAcc>0.000000</hAcc><vAcc>-1.000000</vAcc></extensions></trkpt>
      <trkpt lon="-123.289600" lat="44.563697"><ele>0.000000</ele><time>2021-02-06T23:29:13Z</time><extensions><speed>-1.000000</speed><course>-1.000000</course><hAcc>0.000000</hAcc><vAcc>-1.000000</vAcc></extensions></trkpt>
      <trkpt lon="-123.289591" lat="44.563896"><ele>0.000000</ele><time>2021-02-06T23:29:13Z</time><extensions><speed>-1.000000</speed><course>-1.000000</course><hAcc>0.000000</hAcc><vAcc>-1.000000</vAcc></extensions></trkpt>
      <trkpt lon="-123.289590" lat="44.564235"><ele>0.000000</ele><time>2021-02-06T23:29:13Z</time><extensions><speed>-1.000000</speed><course>-1.000000</course><hAcc>0.000000</hAcc><vAcc>-1.000000</vAcc></extensions></trkpt>
      <trkpt lon="-123.289586" lat="44.564486"><ele>0.000000</ele><time>2021-02-06T23:29:13Z</time><extensions><speed>-1.000000</speed><course>-1.000000</course><hAcc>0.000000</hAcc><vAcc>-1.000000</vAcc></extensions></trkpt>
      <trkpt lon="-123.289587" lat="44.564799"><ele>0.000000</ele><time>2021-02-06T23:29:13Z</time><extensions><speed>-1.000000</speed><course>-1.000000</course><hAcc>0.000000</hAcc><vAcc>-1.000000</vAcc></extensions></trkpt>
      <trkpt lon="-123.289642" lat="44.565041"><ele>0.000000</ele><time>2021-02-06T23:29:13Z</time><extensions><speed>-1.000000</speed><course>-1.000000</course><hAcc>0.000000</hAcc><vAcc>-1.000000</vAcc></extensions></trkpt>
      <trkpt lon="-123.289654" lat="44.565348"><ele>0.000000</ele><time>2021-02-06T23:29:13Z</time><extensions><speed>-1.000000</speed><course>-1.000000</course><hAcc>0.000000</hAcc><vAcc>-1.000000</vAcc></extensions></trkpt>
      <trkpt lon="-123.289649" lat="44.565602"><ele>0.000000</ele><time>2021-02-06T23:29:13Z</time><extensions><speed>-1.000000</speed><course>-1.000000</course><hAcc>0.000000</hAcc><vAcc>-1.000000</vAcc></extensions></trkpt>
      <trkpt lon="-123.289607" lat="44.565900"><ele>0.000000</ele><time>2021-02-06T23:29:13Z</time><extensions><speed>-1.000000</speed><course>-1.000000</course><hAcc>0.000000</hAcc><vAcc>-1.000000</vAcc></extensions></trkpt>
      <trkpt lon="-123.289628" lat="44.566126"><ele>0.000000</ele><time>2021-02-06T23:29:13Z</time><extensions><speed>-1.000000</speed><course>-1.000000</course><hAcc>0.000000</hAcc><vAcc>-1.000000</vAcc></extensions></trkpt>
      <trkpt lon="-123.289619" lat="44.566437"><ele>0.000000</ele><time>2021-02-06T23:29:13Z</time><extensions><speed>-1.000000</speed><course>-1.000000</course><hAcc>0.000000</hAcc><vAcc>-1.000000</vAcc></extensions></trkpt>
      <trkpt lon="-123.289614" lat="44.566671"><ele>0.000000</ele><time>2021-02-06T23:29:13Z</time><extensions><speed>-1.000000</speed><course>-1.000000</course><hAcc>0.000000</hAcc><vAcc>-1.000000</vAcc></extensions></trkpt>
      <trkpt lon="-123.289650" lat="44.566980"><ele>0.000000</ele><time>2021-02-06T23:29:13Z</time><extensions><speed>-1.000000</speed><course>-1.000000</course><hAcc>0.000000</hAcc><vAcc>-1.000000</vAcc></extensions></trkpt>
      <trkpt lon="-123.289662" lat="44.567243"><ele>0.000000</ele><time>2021-02-06T23:29:13Z</time><extensions><speed>-1.000000</speed><course>-1.000000</course><hAcc>0.000000</hAcc><vAcc>-1.000000</vAcc></extensions></trkpt>
      <trkpt lon="-123.289659" lat="44.567565"><ele>0.000000</ele><time>2021-02-06T23:29:13Z</time><extensions><speed>-1.000000</speed><course>-1.000000</course><hAcc>0.000000</hAcc><vAcc>-1.000000</vAcc></extensions></trkpt>
      <trkpt lon="-123.289657" lat="44.567841"><ele>0.000000</ele><time>2021-02-06T23:29:13Z</time><extensions><speed>-1.000000</speed><course>-1.000000</course><hAcc>0.000000</hAcc><vAcc>-1.000000</vAcc></extensions></trkpt>
      <trkpt lon="-123.289652" lat="44.567911"><ele>0.000000</ele><time>2021-02-06T23:29:13Z</time><extensions><speed>-1.000000</speed><course>-1.000000</course><hAcc>0.000000</hAcc><vAcc>-1.000000</vAcc></extensions></trkpt>
      <trkpt lon="-123.289622" lat="44.568121"><ele>0.000000</ele><time>2021-02-06T23:29:13Z</time><extensions><speed>-1.000000</speed><course>-1.000000</course><hAcc>0.000000</hAcc><vAcc>-1.000000</vAcc></extensions></trkpt>
      <trkpt lon="-123.289625" lat="44.568445"><ele>0.000000</ele><time>2021-02-06T23:29:13Z</time><extensions><speed>-1.000000</speed><course>-1.000000</course><hAcc>0.000000</hAcc><vAcc>-1.000000</vAcc></extensions></trkpt>
      <trkpt lon="-123.289631" lat="44.568693"><ele>0.000000</ele><time>2021-02-06T23:29:13Z</time><extensions><speed>-1.000000</speed><course>-1.000000</course><hAcc>0.000000</hAcc><vAcc>-1.000000</vAcc></extensions></trkpt>
      <trkpt lon="-123.289639" lat="44.569018"><ele>0.000000</ele><time>2021-02-06T23:29:13Z</time><extensions><speed>-1.000000</speed><course>-1.000000</course><hAcc>0.000000</hAcc><vAcc>-1.000000</vAcc></extensions></trkpt>
      <trkpt lon="-123.289647" lat="44.569269"><ele>0.000000</ele><time>2021-02-06T23:29:13Z</time><extensions><speed>-1.000000</speed><course>-1.000000</course><hAcc>0.000000</hAcc><vAcc>-1.000000</vAcc></extensions></trkpt>
      <trkpt lon="-123.289648" lat="44.569570"><ele>0.000000</ele><time>2021-02-06T23:29:13Z</time><extensions><speed>-1.000000</speed><course>-1.000000</course><hAcc>0.000000</hAcc><vAcc>-1.000000</vAcc></extensions></trkpt>
      <trkpt lon="-123.289674" lat="44.569830"><ele>0.000000</ele><time>2021-02-06T23:29:13Z</time><extensions><speed>-1.000000</speed><course>-1.000000</course><hAcc>0.000000</hAcc><vAcc>-1.000000</vAcc></extensions></trkpt>
      <trkpt lon="-123.289683" lat="44.570151"><ele>0.000000</ele><time>2021-02-06T23:29:13Z</time><extensions><speed>-1.000000</speed><course>-1.000000</course><hAcc>0.000000</hAcc><vAcc>-1.000000</vAcc></extensions></trkpt>
      <trkpt lon="-123.289649" lat="44.570411"><ele>0.000000</ele><time>2021-02-06T23:29:13Z</time><extensions><speed>-1.000000</speed><course>-1.000000</course><hAcc>0.000000</hAcc><vAcc>-1.000000</vAcc></extensions></trkpt>
      <trkpt lon="-123.289655" lat="44.570742"><ele>0.000000</ele><time>2021-02-06T23:29:13Z</time><extensions><speed>-1.000000</speed><course>-1.000000</course><hAcc>0.000000</hAcc><vAcc>-1.000000</vAcc></extensions></trkpt>
      <trkpt lon="-123.289642" lat="44.571004"><ele>0.000000</ele><time>2021-02-06T23:29:13Z</time><extensions><speed>-1.000000</speed><course>-1.000000</course><hAcc>0.000000</hAcc><vAcc>-1.000000</vAcc></extensions></trkpt>
      <trkpt lon="-123.289636" lat="44.571334"><ele>0.000000</ele><time>2021-02-06T23:29:13Z</time><extensions><speed>-1.000000</speed><course>-1.000000</course><hAcc>0.000000</hAcc><vAcc>-1.000000</vAcc></extensions></trkpt>
      <trkpt lon="-123.289638" lat="44.571559"><ele>0.000000</ele><time>2021-02-06T23:29:13Z</time><extensions><speed>-1.000000</speed><course>-1.000000</course><hAcc>0.000000</hAcc><vAcc>-1.000000</vAcc></extensions></trkpt>
      <trkpt lon="-123.289277" lat="44.571653"><ele>0.000000</ele><time>2021-02-06T23:29:13Z</time><extensions><speed>-1.000000</speed><course>-1.000000</course><hAcc>0.000000</hAcc><vAcc>-1.000000</vAcc></extensions></trkpt>
      <trkpt lon="-123.288964" lat="44.571644"><ele>0.000000</ele><time>2021-02-06T23:29:13Z</time><extensions><speed>-1.000000</speed><course>-1.000000</course><hAcc>0.000000</hAcc><vAcc>-1.000000</vAcc></extensions></trkpt>
      <trkpt lon="-123.288510" lat="44.571655"><ele>0.000000</ele><time>2021-02-06T23:29:13Z</time><extensions><speed>-1.000000</speed><course>-1.000000</course><hAcc>0.000000</hAcc><vAcc>-1.000000</vAcc></extensions></trkpt>
      <trkpt lon="-123.288195" lat="44.571662"><ele>0.000000</ele><time>2021-02-06T23:29:13Z</time><extensions><speed>-1.000000</speed><course>-1.000000</course><hAcc>0.000000</hAcc><vAcc>-1.000000</vAcc></extensions></trkpt>
      <trkpt lon="-123.287744" lat="44.571669"><ele>0.000000</ele><time>2021-02-06T23:29:13Z</time><extensions><speed>-1.000000</speed><course>-1.000000</course><hAcc>0.000000</hAcc><vAcc>-1.000000</vAcc></extensions></trkpt>
      <trkpt lon="-123.287472" lat="44.571688"><ele>0.000000</ele><time>2021-02-06T23:29:13Z</time><extensions><speed>-1.000000</speed><course>-1.000000</course><hAcc>0.000000</hAcc><vAcc>-1.000000</vAcc></extensions></trkpt>
      <trkpt lon="-123.287011" lat="44.571687"><ele>0.000000</ele><time>2021-02-06T23:29:13Z</time><extensions><speed>-1.000000</speed><course>-1.000000</course><hAcc>0.000000</hAcc><vAcc>-1.000000</vAcc></extensions></trkpt>
      <trkpt lon="-123.286634" lat="44.571687"><ele>0.000000</ele><time>2021-02-06T23:29:13Z</time><extensions><speed>-1.000000</speed><course>-1.000000</course><hAcc>0.000000</hAcc><vAcc>-1.000000</vAcc></extensions></trkpt>
      <trkpt lon="-123.286277" lat="44.571724"><ele>0.000000</ele><time>2021-02-06T23:29:13Z</time><extensions><speed>-1.000000</speed><course>-1.000000</course><hAcc>0.000000</hAcc><vAcc>-1.000000</vAcc></extensions></trkpt>
      <trkpt lon="-123.286123" lat="44.571699"><ele>0.000000</ele><time>2021-02-06T23:29:13Z</time><extensions><speed>-1.000000</speed><course>-1.000000</course><hAcc>0.000000</hAcc><vAcc>-1.000000</vAcc></extensions></trkpt>
      <trkpt lon="-123.285780" lat="44.571686"><ele>0.000000</ele><time>2021-02-06T23:29:13Z</time><extensions><speed>-1.000000</speed><course>-1.000000</course><hAcc>0.000000</hAcc><vAcc>-1.000000</vAcc></extensions></trkpt>
      <trkpt lon="-123.285444" lat="44.571678"><ele>0.000000</ele><time>2021-02-06T23:29:13Z</time><extensions><speed>-1.000000</speed><course>-1.000000</course><hAcc>0.000000</hAcc><vAcc>-1.000000</vAcc></extensions></trkpt>
      <trkpt lon="-123.284996" lat="44.571680"><ele>0.000000</ele><time>2021-02-06T23:29:13Z</time><extensions><speed>-1.000000</speed><course>-1.000000</course><hAcc>0.000000</hAcc><vAcc>-1.000000</vAcc></extensions></trkpt>
      <trkpt lon="-123.284625" lat="44.571688"><ele>0.000000</ele><time>2021-02-06T23:29:13Z</time><extensions><speed>-1.000000</speed><course>-1.000000</course><hAcc>0.000000</hAcc><vAcc>-1.000000</vAcc></extensions></trkpt>
      <trkpt lon="-123.284168" lat="44.571688"><ele>0.000000</ele><time>2021-02-06T23:29:13Z</time><extensions><speed>-1.000000</speed><course>-1.000000</course><hAcc>0.000000</hAcc><vAcc>-1.000000</vAcc></extensions></trkpt>
      <trkpt lon="-123.283848" lat="44.571690"><ele>0.000000</ele><time>2021-02-06T23:29:13Z</time><extensions><speed>-1.000000</speed><course>-1.000000</course><hAcc>0.000000</hAcc><vAcc>-1.000000</vAcc></extensions></trkpt>
      <trkpt lon="-123.283388" lat="44.571617"><ele>0.000000</ele><time>2021-02-06T23:29:13Z</time><extensions><speed>-1.000000</speed><course>-1.000000</course><hAcc>0.000000</hAcc><vAcc>-1.000000</vAcc></extensions></trkpt>
      <trkpt lon="-123.283124" lat="44.571463"><ele>0.000000</ele><time>2021-02-06T23:29:13Z</time><extensions><speed>-1.000000</speed><course>-1.000000</course><hAcc>0.000000</hAcc><vAcc>-1.000000</vAcc></extensions></trkpt>
      <trkpt lon="-123.282858" lat="44.571206"><ele>0.000000</ele><time>2021-02-06T23:29:13Z</time><extensions><speed>-1.000000</speed><course>-1.000000</course><hAcc>0.000000</hAcc><vAcc>-1.000000</vAcc></extensions></trkpt>
      <trkpt lon="-123.282638" lat="44.571046"><ele>0.000000</ele><time>2021-02-06T23:29:13Z</time><extensions><speed>-1.000000</speed><course>-1.000000</course><hAcc>0.000000</hAcc><vAcc>-1.000000</vAcc></extensions></trkpt>
      <trkpt lon="-123.282376" lat="44.570806"><ele>0.000000</ele><time>2021-02-06T23:29:13Z</time><extensions><speed>-1.000000</speed><course>-1.000000</course><hAcc>0.000000</hAcc><vAcc>-1.000000</vAcc></extensions></trkpt>
      <trkpt lon="-123.282128" lat="44.570615"><ele>0.000000</ele><time>2021-02-06T23:29:13Z</time><extensions><speed>-1.000000</speed><course>-1.000000</course><hAcc>0.000000</hAcc><vAcc>-1.000000</vAcc></extensions></trkpt>
      <trkpt lon="-123.281843" lat="44.570384"><ele>0.000000</ele><time>2021-02-06T23:29:13Z</time><extensions><speed>-1.000000</speed><course>-1.000000</course><hAcc>0.000000</hAcc><vAcc>-1.000000</vAcc></extensions></trkpt>
      <trkpt lon="-123.281611" lat="44.570201"><ele>0.000000</ele><time>2021-02-06T23:29:13Z</time><extensions><speed>-1.000000</speed><course>-1.000000</course><hAcc>0.000000</hAcc><vAcc>-1.000000</vAcc></extensions></trkpt>
      <trkpt lon="-123.281307" lat="44.569951"><ele>0.000000</ele><time>2021-02-06T23:29:13Z</time><extensions><speed>-1.000000</speed><course>-1.000000</course><hAcc>0.000000</hAcc><vAcc>-1.000000</vAcc></extensions></trkpt>
      <trkpt lon="-123.281095" lat="44.569779"><ele>0.000000</ele><time>2021-02-06T23:29:13Z</time><extensions><speed>-1.000000</speed><course>-1.000000</course><hAcc>0.000000</hAcc><vAcc>-1.000000</vAcc></extensions></trkpt>
      <trkpt lon="-123.280819" lat="44.569547"><ele>0.000000</ele><time>2021-02-06T23:29:13Z</time><extensions><speed>-1.000000</speed><course>-1.000000</course><hAcc>0.000000</hAcc><vAcc>-1.000000</vAcc></extensions></trkpt>
      <trkpt lon="-123.280597" lat="44.569376"><ele>0.000000</ele><time>2021-02-06T23:29:13Z</time><extensions><speed>-1.000000</speed><course>-1.000000</course><hAcc>0.000000</hAcc><vAcc>-1.000000</vAcc></extensions></trkpt>
      <trkpt lon="-123.280284" lat="44.569097"><ele>0.000000</ele><time>2021-02-06T23:29:13Z</time><extensions><speed>-1.000000</speed><course>-1.000000</course><hAcc>0.000000</hAcc><vAcc>-1.000000</vAcc></extensions></trkpt>
      <trkpt lon="-123.280092" lat="44.568929"><ele>0.000000</ele><time>2021-02-06T23:29:13Z</time><extensions><speed>-1.000000</speed><course>-1.000000</course><hAcc>0.000000</hAcc><vAcc>-1.000000</vAcc></extensions></trkpt>
      <trkpt lon="-123.280063" lat="44.568588"><ele>0.000000</ele><time>2021-02-06T23:29:13Z</time><extensions><speed>-1.000000</speed><course>-1.000000</course><hAcc>0.000000</hAcc><vAcc>-1.000000</vAcc></extensions></trkpt>
      <trkpt lon="-123.280064" lat="44.568392"><ele>0.000000</ele><time>2021-02-06T23:29:13Z</time><extensions><speed>-1.000000</speed><course>-1.000000</course><hAcc>0.000000</hAcc><vAcc>-1.000000</vAcc></extensions></trkpt>
      <trkpt lon="-123.280042" lat="44.568190"><ele>0.000000</ele><time>2021-02-06T23:29:13Z</time><extensions><speed>-1.000000</speed><course>-1.000000</course><hAcc>0.000000</hAcc><vAcc>-1.000000</vAcc></extensions></trkpt>
      <trkpt lon="-123.280022" lat="44.567961"><ele>0.000000</ele><time>2021-02-06T23:29:13Z</time><extensions><speed>-1.000000</speed><course>-1.000000</course><hAcc>0.000000</hAcc><vAcc>-1.000000</vAcc></extensions></trkpt>
      <trkpt lon="-123.279962" lat="44.567696"><ele>0.000000</ele><time>2021-02-06T23:29:13Z</time><extensions><speed>-1.000000</speed><course>-1.000000</course><hAcc>0.000000</hAcc><vAcc>-1.000000</vAcc></extensions></trkpt>
      <trkpt lon="-123.279967" lat="44.567389"><ele>0.000000</ele><time>2021-02-06T23:29:13Z</time><extensions><speed>-1.000000</speed><course>-1.000000</course><hAcc>0.000000</hAcc><vAcc>-1.000000</vAcc></extensions></trkpt>
      <trkpt lon="-123.279985" lat="44.567131"><ele>0.000000</ele><time>2021-02-06T23:29:13Z</time><extensions><speed>-1.000000</speed><course>-1.000000</course><hAcc>0.000000</hAcc><vAcc>-1.000000</vAcc></extensions></trkpt>
      <trkpt lon="-123.279999" lat="44.566794"><ele>0.000000</ele><time>2021-02-06T23:29:13Z</time><extensions><speed>-1.000000</speed><course>-1.000000</course><hAcc>0.000000</hAcc><vAcc>-1.000000</vAcc></extensions></trkpt>
      <trkpt lon="-123.280038" lat="44.566544"><ele>0.000000</ele><time>2021-02-06T23:29:13Z</time><extensions><speed>-1.000000</speed><course>-1.000000</course><hAcc>0.000000</hAcc><vAcc>-1.000000</vAcc></extensions></trkpt>
      <trkpt lon="-123.280049" lat="44.566291"><ele>0.000000</ele><time>2021-02-06T23:29:13Z</time><extensions><speed>-1.000000</speed><course>-1.000000</course><hAcc>0.000000</hAcc><vAcc>-1.000000</vAcc></extensions></trkpt>
      <trkpt lon="-123.280091" lat="44.566086"><ele>0.000000</ele><time>2021-02-06T23:29:13Z</time><extensions><speed>-1.000000</speed><course>-1.000000</course><hAcc>0.000000</hAcc><vAcc>-1.000000</vAcc></extensions></trkpt>
      <trkpt lon="-123.279983" lat="44.565748"><ele>0.000000</ele><time>2021-02-06T23:29:13Z</time><extensions><speed>-1.000000</speed><course>-1.000000</course><hAcc>0.000000</hAcc><vAcc>-1.000000</vAcc></extensions></trkpt>
      <trkpt lon="-123.279990" lat="44.565482"><ele>0.000000</ele><time>2021-02-06T23:29:13Z</time><extensions><speed>-1.000000</speed><course>-1.000000</course><hAcc>0.000000</hAcc><vAcc>-1.000000</vAcc></extensions></trkpt>
      <trkpt lon="-123.279992" lat="44.565144"><ele>0.000000</ele><time>2021-02-06T23:29:13Z</time><extensions><speed>-1.000000</speed><course>-1.000000</course><hAcc>0.000000</hAcc><vAcc>-1.000000</vAcc></extensions></trkpt>
      <trkpt lon="-123.279989" lat="44.564927"><ele>0.000000</ele><time>2021-02-06T23:29:13Z</time><extensions><speed>-1.000000</speed><course>-1.000000</course><hAcc>0.000000</hAcc><vAcc>-1.000000</vAcc></extensions></trkpt>
      <trkpt lon="-123.279979" lat="44.564552"><ele>0.000000</ele><time>2021-02-06T23:29:13Z</time><extensions><speed>-1.000000</speed><course>-1.000000</course><hAcc>0.000000</hAcc><vAcc>-1.000000</vAcc></extensions></trkpt>
      <trkpt lon="-123.279987" lat="44.564266"><ele>0.000000</ele><time>2021-02-06T23:29:13Z</time><extensions><speed>-1.000000</speed><course>-1.000000</course><hAcc>0.000000</hAcc><vAcc>-1.000000</vAcc></extensions></trkpt>
      <trkpt lon="-123.279903" lat="44.563925"><ele>0.000000</ele><time>2021-02-06T23:29:13Z</time><extensions><speed>-1.000000</speed><course>-1.000000</course><hAcc>0.000000</hAcc><vAcc>-1.000000</vAcc></extensions></trkpt>
      <trkpt lon="-123.279874" lat="44.563630"><ele>0.000000</ele><time>2021-02-06T23:29:13Z</time><extensions><speed>-1.000000</speed><course>-1.000000</course><hAcc>0.000000</hAcc><vAcc>-1.000000</vAcc></extensions></trkpt>
      <trkpt lon="-123.280227" lat="44.563462"><ele>0.000000</ele><time>2021-02-06T23:29:13Z</time><extensions><speed>-1.000000</speed><course>-1.000000</course><hAcc>0.000000</hAcc><vAcc>-1.000000</vAcc></extensions></trkpt>
      <trkpt lon="-123.280532" lat="44.563355"><ele>0.000000</ele><time>2021-02-06T23:29:13Z</time><extensions><speed>-1.000000</speed><course>-1.000000</course><hAcc>0.000000</hAcc><vAcc>-1.000000</vAcc></extensions></trkpt>
      <trkpt lon="-123.280953" lat="44.563381"><ele>0.000000</ele><time>2021-02-06T23:29:13Z</time><extensions><speed>-1.000000</speed><course>-1.000000</course><hAcc>0.000000</hAcc><vAcc>-1.000000</vAcc></extensions></trkpt>
      <trkpt lon="-123.281334" lat="44.563372"><ele>0.000000</ele><time>2021-02-06T23:29:13Z</time><extensions><speed>-1.000000</speed><course>-1.000000</course><hAcc>0.000000</hAcc><vAcc>-1.000000</vAcc></extensions></trkpt>
      <trkpt lon="-123.281811" lat="44.563296"><ele>0.000000</ele><time>2021-02-06T23:29:13Z</time><extensions><speed>-1.000000</speed><course>-1.000000</course><hAcc>0.000000</hAcc><vAcc>-1.000000</vAcc></extensions></trkpt>
      <trkpt lon="-123.281844" lat="44.563026"><ele>0.000000</ele><time>2021-02-06T23:29:13Z</time><extensions><speed>-1.000000</speed><course>-1.000000</course><hAcc>0.000000</hAcc><vAcc>-1.000000</vAcc></extensions></trkpt>
      <trkpt lon="-123.281849" lat="44.562760"><ele>0.000000</ele><time>2021-02-06T23:29:13Z</time><extensions><speed>-1.000000</speed><course>-1.000000</course><hAcc>0.000000</hAcc><vAcc>-1.000000</vAcc></extensions></trkpt>
      <trkpt lon="-123.281893" lat="44.562348"><ele>0.000000</ele><time>2021-02-06T23:29:13Z</time><extensions><speed>-1.000000</speed><course>-1.000000</course><hAcc>0.000000</hAcc><vAcc>-1.000000</vAcc></extensions></trkpt>
      <trkpt lon="-123.281651" lat="44.562165"><ele>0.000000</ele><time>2021-02-06T23:29:13Z</time><extensions><speed>-1.000000</speed><course>-1.000000</course><hAcc>0.000000</hAcc><vAcc>-1.000000</vAcc></extensions></trkpt>
      <trkpt lon="-123.281173" lat="44.562166"><ele>0.000000</ele><time>2021-02-06T23:29:13Z</time><extensions><speed>-1.000000</speed><course>-1.000000</course><hAcc>0.000000</hAcc><vAcc>-1.000000</vAcc></extensions></trkpt>
      <trkpt lon="-123.280758" lat="44.562162"><ele>0.000000</ele><time>2021-02-06T23:29:13Z</time><extensions><speed>-1.000000</speed><course>-1.000000</course><hAcc>0.000000</hAcc><vAcc>-1.000000</vAcc></extensions></trkpt>
      <trkpt lon="-123.280474" lat="44.562161"><ele>0.000000</ele><time>2021-02-06T23:29:13Z</time><extensions><speed>-1.000000</speed><course>-1.000000</course><hAcc>0.000000</hAcc><vAcc>-1.000000</vAcc></extensions></trkpt>
    </trkseg>
  </trk>
</gpx>