<?xml version="1.0" encoding="UTF-8"?>
<gpx version="1.1" creator="Apple Health Export" xmlns="http://www.topografix.com/GPX/1/1" xmlns:xsi="http://www.w3.org/2001/XMLSchema-instance" xsi:schemaLocation="http://www.topografix.com/GPX/1/1 http://www.topografix.com/GPX/1/1/gpx.xsd">
  <metadata>
    <time>2021-02-21T19:24:48Z</time>
  </metadata>
  <trk>
    <name>Route 2020-12-25 2:21pm</name>
    <trkseg>
      <trkpt lon="-123.271193" lat="44.560206"><ele>0.000000</ele><time>2020-12-25T22:21:24Z</time><extensions><speed>-1.000000</speed><course>-1.000000</course><hAcc>0.000000</hAcc><vAcc>-1.000000</vAcc></extensions></trkpt>
      <trkpt lon="-123.271715" lat="44.560189"><ele>0.000000</ele><time>2020-12-25T22:21:24Z</time><extensions><speed>-1.000000</speed><course>-1.000000</course><hAcc>0.000000</hAcc><vAcc>-1.000000</vAcc></extensions></trkpt>
      <trkpt lon="-123.272115" lat="44.560151"><ele>0.000000</ele><time>2020-12-25T22:21:24Z</time><extensions><speed>-1.000000</speed><course>-1.000000</course><hAcc>0.000000</hAcc><vAcc>-1.000000</vAcc></extensions></trkpt>
      <trkpt lon="-123.272497" lat="44.560105"><ele>0.000000</ele><time>2020-12-25T22:21:24Z</time><extensions><speed>-1.000000</speed><course>-1.000000</course><hAcc>0.000000</hAcc><vAcc>-1.000000</vAcc></extensions></trkpt>
      <trkpt lon="-123.272858" lat="44.560061"><ele>0.000000</ele><time>2020-12-25T22:21:24Z</time><extensions><speed>-1.000000</speed><course>-1.000000</course><hAcc>0.000000</hAcc><vAcc>-1.000000</vAcc></extensions></trkpt>
      <trkpt lon="-123.272961" lat="44.560051"><ele>0.000000</ele><time>2020-12-25T22:21:24Z</time><extensions><speed>-1.000000</speed><course>-1.000000</course><hAcc>0.000000</hAcc><vAcc>-1.000000</vAcc></extensions></trkpt>
      <trkpt lon="-123.273213" lat="44.560028"><ele>0.000000</ele><time>2020-12-25T22:21:24Z</time><extensions><speed>-1.000000</speed><course>-1.000000</course><hAcc>0.000000</hAcc><vAcc>-1.000000</vAcc></extensions></trkpt>
      <trkpt lon="-123.273344" lat="44.560010"><ele>0.000000</ele><time>2020-12-25T22:21:24Z</time><extensions><speed>-1.000000</speed><course>-1.000000</course><hAcc>0.000000</hAcc><vAcc>-1.000000</vAcc></extensions></trkpt>
      <trkpt lon="-123.273662" lat="44.559977"><ele>0.000000</ele><time>2020-12-25T22:21:24Z</time><extensions><speed>-1.000000</speed><course>-1.000000</course><hAcc>0.000000</hAcc><vAcc>-1.000000</vAcc></extensions></trkpt>
      <trkpt lon="-123.274005" lat="44.559940"><ele>0.000000</ele><time>2020-12-25T22:21:24Z</time><extensions><speed>-1.000000</speed><course>-1.000000</course><hAcc>0.000000</hAcc><vAcc>-1.000000</vAcc></extensions></trkpt>
      <trkpt lon="-123.274379" lat="44.559910"><ele>0.000000</ele><time>2020-12-25T22:21:24Z</time><extensions><speed>-1.000000</speed><course>-1.000000</course><hAcc>0.000000</hAcc><vAcc>-1.000000</vAcc></extensions></trkpt>
      <trkpt lon="-123.274858" lat="44.559877"><ele>0.000000</ele><time>2020-12-25T22:21:24Z</time><extensions><speed>-1.000000</speed><course>-1.000000</course><hAcc>0.000000</hAcc><vAcc>-1.000000</vAcc></extensions></trkpt>
      <trkpt lon="-123.275315" lat="44.559853"><ele>0.000000</ele><time>2020-12-25T22:21:24Z</time><extensions><speed>-1.000000</speed><course>-1.000000</course><hAcc>0.000000</hAcc><vAcc>-1.000000</vAcc></extensions></trkpt>
      <trkpt lon="-123.275643" lat="44.559806"><ele>0.000000</ele><time>2020-12-25T22:21:24Z</time><extensions><speed>-1.000000</speed><course>-1.000000</course><hAcc>0.000000</hAcc><vAcc>-1.000000</vAcc></extensions></trkpt>
      <trkpt lon="-123.276058" lat="44.559726"><ele>0.000000</ele><time>2020-12-25T22:21:24Z</time><extensions><speed>-1.000000</speed><course>-1.000000</course><hAcc>0.000000</hAcc><vAcc>-1.000000</vAcc></extensions></trkpt>
      <trkpt lon="-123.276181" lat="44.559688"><ele>0.000000</ele><time>2020-12-25T22:21:24Z</time><extensions><speed>-1.000000</speed><course>-1.000000</course><hAcc>0.000000</hAcc><vAcc>-1.000000</vAcc></extensions></trkpt>
      <trkpt lon="-123.276249" lat="44.559668"><ele>0.000000</ele><time>2020-12-25T22:21:24Z</time><extensions><speed>-1.000000</speed><course>-1.000000</course><hAcc>0.000000</hAcc><vAcc>-1.000000</vAcc></extensions></trkpt>
      <trkpt lon="-123.276577" lat="44.559576"><ele>0.000000</ele><time>2020-12-25T22:21:24Z</time><extensions><speed>-1.000000</speed><course>-1.000000</course><hAcc>0.000000</hAcc><vAcc>-1.000000</vAcc></extensions></trkpt>
      <trkpt lon="-123.276970" lat="44.559441"><ele>0.000000</ele><time>2020-12-25T22:21:24Z</time><extensions><speed>-1.000000</speed><course>-1.000000</course><hAcc>0.000000</hAcc><vAcc>-1.000000</vAcc></extensions></trkpt>
      <trkpt lon="-123.277157" lat="44.559369"><ele>0.000000</ele><time>2020-12-25T22:21:24Z</time><extensions><speed>-1.000000</speed><course>-1.000000</course><hAcc>0.000000</hAcc><vAcc>-1.000000</vAcc></extensions></trkpt>
      <trkpt lon="-123.277543" lat="44.559174"><ele>0.000000</ele><time>2020-12-25T22:21:24Z</time><extensions><speed>-1.000000</speed><course>-1.000000</course><hAcc>0.000000</hAcc><vAcc>-1.000000</vAcc></extensions></trkpt>
      <trkpt lon="-123.277912" lat="44.558976"><ele>0.000000</ele><time>2020-12-25T22:21:24Z</time><extensions><speed>-1.000000</speed><course>-1.000000</course><hAcc>0.000000</hAcc><vAcc>-1.000000</vAcc></extensions></trkpt>
      <trkpt lon="-123.278181" lat="44.558805"><ele>0.000000</ele><time>2020-12-25T22:21:24Z</time><extensions><speed>-1.000000</speed><course>-1.000000</course><hAcc>0.000000</hAcc><vAcc>-1.000000</vAcc></extensions></trkpt>
      <trkpt lon="-123.278529" lat="44.558613"><ele>0.000000</ele><time>2020-12-25T22:21:24Z</time><extensions><speed>-1.000000</speed><course>-1.000000</course><hAcc>0.000000</hAcc><vAcc>-1.000000</vAcc></extensions></trkpt>
      <trkpt lon="-123.278852" lat="44.558439"><ele>0.000000</ele><time>2020-12-25T22:21:24Z</time><extensions><speed>-1.000000</speed><course>-1.000000</course><hAcc>0.000000</hAcc><vAcc>-1.000000</vAcc></extensions></trkpt>
      <trkpt lon="-123.279230" lat="44.558211"><ele>0.000000</ele><time>2020-12-25T22:21:24Z</time><extensions><speed>-1.000000</speed><course>-1.000000</course><hAcc>0.000000</hAcc><vAcc>-1.000000</vAcc></extensions></trkpt>
      <trkpt lon="-123.279536" lat="44.558053"><ele>0.000000</ele><time>2020-12-25T22:21:24Z</time><extensions><speed>-1.000000</speed><course>-1.000000</course><hAcc>0.000000</hAcc><vAcc>-1.000000</vAcc></extensions></trkpt>
      <trkpt lon="-123.279914" lat="44.557875"><ele>0.000000</ele><time>2020-12-25T22:21:24Z</time><extensions><speed>-1.000000</speed><course>-1.000000</course><hAcc>0.000000</hAcc><vAcc>-1.000000</vAcc></extensions></trkpt>
      <trkpt lon="-123.280304" lat="44.557695"><ele>0.000000</ele><time>2020-12-25T22:21:24Z</time><extensions><speed>-1.000000</speed><course>-1.000000</course><hAcc>0.000000</hAcc><vAcc>-1.000000</vAcc></extensions></trkpt>
      <trkpt lon="-123.280658" lat="44.557524"><ele>0.000000</ele><time>2020-12-25T22:21:24Z</time><extensions><speed>-1.000000</speed><course>-1.000000</course><hAcc>0.000000</hAcc><vAcc>-1.000000</vAcc></extensions></trkpt>
      <trkpt lon="-123.280966" lat="44.557390"><ele>0.000000</ele><time>2020-12-25T22:21:24Z</time><extensions><speed>-1.000000</speed><course>-1.000000</course><hAcc>0.000000</hAcc><vAcc>-1.000000</vAcc></extensions></trkpt>
      <trkpt lon="-123.281149" lat="44.557309"><ele>0.000000</ele><time>2020-12-25T22:21:24Z</time><extensions><speed>-1.000000</speed><course>-1.000000</course><hAcc>0.000000</hAcc><vAcc>-1.000000</vAcc></extensions></trkpt>
      <trkpt lon="-123.281460" lat="44.557160"><ele>0.000000</ele><time>2020-12-25T22:21:24Z</time><extensions><speed>-1.000000</speed><course>-1.000000</course><hAcc>0.000000</hAcc><vAcc>-1.000000</vAcc></extensions></trkpt>
      <trkpt lon="-123.281807" lat="44.557094"><ele>0.000000</ele><time>2020-12-25T22:21:24Z</time><extensions><speed>-1.000000</speed><course>-1.000000</course><hAcc>0.000000</hAcc><vAcc>-1.000000</vAcc></extensions></trkpt>
      <trkpt lon="-123.282232" lat="44.557006"><ele>0.000000</ele><time>2020-12-25T22:21:24Z</time><extensions><speed>-1.000000</speed><course>-1.000000</course><hAcc>0.000000</hAcc><vAcc>-1.000000</vAcc></extensions></trkpt>
      <trkpt lon="-123.282553" lat="44.556957"><ele>0.000000</ele><time>2020-12-25T22:21:24Z</time><extensions><speed>-1.000000</speed><course>-1.000000</course><hAcc>0.000000</hAcc><vAcc>-1.000000</vAcc></extensions></trkpt>
      <trkpt lon="-123.282914" lat="44.556930"><ele>0.000000</ele><time>2020-12-25T22:21:24Z</time><extensions><speed>-1.000000</speed><course>-1.000000</course><hAcc>0.000000</hAcc><vAcc>-1.000000</vAcc></extensions></trkpt>
      <trkpt lon="-123.283386" lat="44.556940"><ele>0.000000</ele><time>2020-12-25T22:21:24Z</time><extensions><speed>-1.000000</speed><course>-1.000000</course><hAcc>0.000000</hAcc><vAcc>-1.000000</vAcc></extensions></trkpt>
      <trkpt lon="-123.283759" lat="44.556947"><ele>0.000000</ele><time>2020-12-25T22:21:24Z</time><extensions><speed>-1.000000</speed><course>-1.000000</course><hAcc>0.000000</hAcc><vAcc>-1.000000</vAcc></extensions></trkpt>
      <trkpt lon="-123.284175" lat="44.556976"><ele>0.000000</ele><time>2020-12-25T22:21:24Z</time><extensions><speed>-1.000000</speed><course>-1.000000</course><hAcc>0.000000</hAcc><vAcc>-1.000000</vAcc></extensions></trkpt>
      <trkpt lon="-123.284593" lat="44.557037"><ele>0.000000</ele><time>2020-12-25T22:21:24Z</time><extensions><speed>-1.000000</speed><course>-1.000000</course><hAcc>0.000000</hAcc><vAcc>-1.000000</vAcc></extensions></trkpt>
      <trkpt lon="-123.284942" lat="44.556981"><ele>0.000000</ele><time>2020-12-25T22:21:24Z</time><extensions><speed>-1.000000</speed><course>-1.000000</course><hAcc>0.000000</hAcc><vAcc>-1.000000</vAcc></extensions></trkpt>
      <trkpt lon="-123.285392" lat="44.556967"><ele>0.000000</ele><time>2020-12-25T22:21:24Z</time><extensions><speed>-1.000000</speed><course>-1.000000</course><hAcc>0.000000</hAcc><vAcc>-1.000000</vAcc></extensions></trkpt>
      <trkpt lon="-123.285859" lat="44.556964"><ele>0.000000</ele><time>2020-12-25T22:21:24Z</time><extensions><speed>-1.000000</speed><course>-1.000000</course><hAcc>0.000000</hAcc><vAcc>-1.000000</vAcc></extensions></trkpt>
      <trkpt lon="-123.286290" lat="44.556978"><ele>0.000000</ele><time>2020-12-25T22:21:24Z</time><extensions><speed>-1.000000</speed><course>-1.000000</course><hAcc>0.000000</hAcc><vAcc>-1.000000</vAcc></extensions></trkpt>
      <trkpt lon="-123.286633" lat="44.556969"><ele>0.000000</ele><time>2020-12-25T22:21:24Z</time><extensions><speed>-1.000000</speed><course>-1.000000</course><hAcc>0.000000</hAcc><vAcc>-1.000000</vAcc></extensions></trkpt>
      <trkpt lon="-123.287089" lat="44.556966"><ele>0.000000</ele><time>2020-12-25T22:21:24Z</time><extensions><speed>-1.000000</speed><course>-1.000000</course><hAcc>0.000000</hAcc><vAcc>-1.000000</vAcc></extensions></trkpt>
      <trkpt lon="-123.287521" lat="44.556961"><ele>0.000000</ele><time>2020-12-25T22:21:24Z</time><extensions><speed>-1.000000</speed><course>-1.000000</course><hAcc>0.000000</hAcc><vAcc>-1.000000</vAcc></extensions></trkpt>
      <trkpt lon="-123.287940" lat="44.556960"><ele>0.000000</ele><time>2020-12-25T22:21:24Z</time><extensions><speed>-1.000000</speed><course>-1.000000</course><hAcc>0.000000</hAcc><vAcc>-1.000000</vAcc></extensions></trkpt>
      <trkpt lon="-123.288276" lat="44.556969"><ele>0.000000</ele><time>2020-12-25T22:21:24Z</time><extensions><speed>-1.000000</speed><course>-1.000000</course><hAcc>0.000000</hAcc><vAcc>-1.000000</vAcc></extensions></trkpt>
      <trkpt lon="-123.288676" lat="44.556984"><ele>0.000000</ele><time>2020-12-25T22:21:24Z</time><extensions><speed>-1.000000</speed><course>-1.000000</course><hAcc>0.000000</hAcc><vAcc>-1.000000</vAcc></extensions></trkpt>
      <trkpt lon="-123.289112" lat="44.556989"><ele>0.000000</ele><time>2020-12-25T22:21:24Z</time><extensions><speed>-1.000000</speed><course>-1.000000</course><hAcc>0.000000</hAcc><vAcc>-1.000000</vAcc></extensions></trkpt>
      <trkpt lon="-123.289496" lat="44.557000"><ele>0.000000</ele><time>2020-12-25T22:21:24Z</time><extensions><speed>-1.000000</speed><course>-1.000000</course><hAcc>0.000000</hAcc><vAcc>-1.000000</vAcc></extensions></trkpt>
      <trkpt lon="-123.289501" lat="44.557176"><ele>0.000000</ele><time>2020-12-25T22:21:24Z</time><extensions><speed>-1.000000</speed><course>-1.000000</course><hAcc>0.000000</hAcc><vAcc>-1.000000</vAcc></extensions></trkpt>
      <trkpt lon="-123.289500" lat="44.557361"><ele>0.000000</ele><time>2020-12-25T22:21:24Z</time><extensions><speed>-1.000000</speed><course>-1.000000</course><hAcc>0.000000</hAcc><vAcc>-1.000000</vAcc></extensions></trkpt>
      <trkpt lon="-123.289504" lat="44.557576"><ele>0.000000</ele><time>2020-12-25T22:21:24Z</time><extensions><speed>-1.000000</speed><course>-1.000000</course><hAcc>0.000000</hAcc><vAcc>-1.000000</vAcc></extensions></trkpt>
      <trkpt lon="-123.289559" lat="44.557914"><ele>0.000000</ele><time>2020-12-25T22:21:24Z</time><extensions><speed>-1.000000</speed><course>-1.000000</course><hAcc>0.000000</hAcc><vAcc>-1.000000</vAcc></extensions></trkpt>
      <trkpt lon="-123.289577" lat="44.558225"><ele>0.000000</ele><time>2020-12-25T22:21:24Z</time><extensions><speed>-1.000000</speed><course>-1.000000</course><hAcc>0.000000</hAcc><vAcc>-1.000000</vAcc></extensions></trkpt>
      <trkpt lon="-123.289585" lat="44.558445"><ele>0.000000</ele><time>2020-12-25T22:21:24Z</time><extensions><speed>-1.000000</speed><course>-1.000000</course><hAcc>0.000000</hAcc><vAcc>-1.000000</vAcc></extensions></trkpt>
      <trkpt lon="-123.289618" lat="44.558759"><ele>0.000000</ele><time>2020-12-25T22:21:24Z</time><extensions><speed>-1.000000</speed><course>-1.000000</course><hAcc>0.000000</hAcc><vAcc>-1.000000</vAcc></extensions></trkpt>
      <trkpt lon="-123.289626" lat="44.559021"><ele>0.000000</ele><time>2020-12-25T22:21:24Z</time><extensions><speed>-1.000000</speed><course>-1.000000</course><hAcc>0.000000</hAcc><vAcc>-1.000000</vAcc></extensions></trkpt>
      <trkpt lon="-123.289627" lat="44.559341"><ele>0.000000</ele><time>2020-12-25T22:21:24Z</time><extensions><speed>-1.000000</speed><course>-1.000000</course><hAcc>0.000000</hAcc><vAcc>-1.000000</vAcc></extensions></trkpt>
      <trkpt lon="-123.289633" lat="44.559641"><ele>0.000000</ele><time>2020-12-25T22:21:24Z</time><extensions><speed>-1.000000</speed><course>-1.000000</course><hAcc>0.000000</hAcc><vAcc>-1.000000</vAcc></extensions></trkpt>
      <trkpt lon="-123.289633" lat="44.559847"><ele>0.000000</ele><time>2020-12-25T22:21:24Z</time><extensions><speed>-1.000000</speed><course>-1.000000</course><hAcc>0.000000</hAcc><vAcc>-1.000000</vAcc></extensions></trkpt>
      <trkpt lon="-123.289610" lat="44.560151"><ele>0.000000</ele><time>2020-12-25T22:21:24Z</time><extensions><speed>-1.000000</speed><course>-1.000000</course><hAcc>0.000000</hAcc><vAcc>-1.000000</vAcc></extensions></trkpt>
      <trkpt lon="-123.289634" lat="44.560472"><ele>0.000000</ele><time>2020-12-25T22:21:24Z</time><extensions><speed>-1.000000</speed><course>-1.000000</course><hAcc>0.000000</hAcc><vAcc>-1.000000</vAcc></extensions></trkpt>
      <trkpt lon="-123.289674" lat="44.560802"><ele>0.000000</ele><time>2020-12-25T22:21:24Z</time><extensions><speed>-1.000000</speed><course>-1.000000</course><hAcc>0.000000</hAcc><vAcc>-1.000000</vAcc></extensions></trkpt>
      <trkpt lon="-123.289649" lat="44.560995"><ele>0.000000</ele><time>2020-12-25T22:21:24Z</time><extensions><speed>-1.000000</speed><course>-1.000000</course><hAcc>0.000000</hAcc><vAcc>-1.000000</vAcc></extensions></trkpt>
      <trkpt lon="-123.289630" lat="44.561312"><ele>0.000000</ele><time>2020-12-25T22:21:24Z</time><extensions><speed>-1.000000</speed><course>-1.000000</course><hAcc>0.000000</hAcc><vAcc>-1.000000</vAcc></extensions></trkpt>
      <trkpt lon="-123.289626" lat="44.561604"><ele>0.000000</ele><time>2020-12-25T22:21:24Z</time><extensions><speed>-1.000000</speed><course>-1.000000</course><hAcc>0.000000</hAcc><vAcc>-1.000000</vAcc></extensions></trkpt>
      <trkpt lon="-123.289614" lat="44.561910"><ele>0.000000</ele><time>2020-12-25T22:21:24Z</time><extensions><speed>-1.000000</speed><course>-1.000000</course><hAcc>0.000000</hAcc><vAcc>-1.000000</vAcc></extensions></trkpt>
      <trkpt lon="-123.289673" lat="44.562242"><ele>0.000000</ele><time>2020-12-25T22:21:24Z</time><extensions><speed>-1.000000</speed><course>-1.000000</course><hAcc>0.000000</hAcc><vAcc>-1.000000</vAcc></extensions></trkpt>
      <trkpt lon="-123.289664" lat="44.562437"><ele>0.000000</ele><time>2020-12-25T22:21:24Z</time><extensions><speed>-1.000000</speed><course>-1.000000</course><hAcc>0.000000</hAcc><vAcc>-1.000000</vAcc></extensions></trkpt>
      <trkpt lon="-123.289666" lat="44.562752"><ele>0.000000</ele><time>2020-12-25T22:21:24Z</time><extensions><speed>-1.000000</speed><course>-1.000000</course><hAcc>0.000000</hAcc><vAcc>-1.000000</vAcc></extensions></trkpt>
      <trkpt lon="-123.289671" lat="44.563073"><ele>0.000000</ele><time>2020-12-25T22:21:24Z</time><extensions><speed>-1.000000</speed><course>-1.000000</course><hAcc>0.000000</hAcc><vAcc>-1.000000</vAcc></extensions></trkpt>
      <trkpt lon="-123.289655" lat="44.563145"><ele>0.000000</ele><time>2020-12-25T22:21:24Z</time><extensions><speed>-1.000000</speed><course>-1.000000</course><hAcc>0.000000</hAcc><vAcc>-1.000000</vAcc></extensions></trkpt>
      <trkpt lon="-123.289614" lat="44.563240"><ele>0.000000</ele><time>2020-12-25T22:21:24Z</time><extensions><speed>-1.000000</speed><course>-1.000000</course><hAcc>0.000000</hAcc><vAcc>-1.000000</vAcc></extensions></trkpt>
      <trkpt lon="-123.289605" lat="44.563513"><ele>0.000000</ele><time>2020-12-25T22:21:24Z</time><extensions><speed>-1.000000</speed><course>-1.000000</course><hAcc>0.000000</hAcc><vAcc>-1.000000</vAcc></extensions></trkpt>
      <trkpt lon="-123.289589" lat="44.563841"><ele>0.000000</ele><time>2020-12-25T22:21:24Z</time><extensions><speed>-1.000000</speed><course>-1.000000</course><hAcc>0.000000</hAcc><vAcc>-1.000000</vAcc></extensions></trkpt>
      <trkpt lon="-123.289597" lat="44.564035"><ele>0.000000</ele><time>2020-12-25T22:21:24Z</time><extensions><speed>-1.000000</speed><course>-1.000000</course><hAcc>0.000000</hAcc><vAcc>-1.000000</vAcc></extensions></trkpt>
      <trkpt lon="-123.289591" lat="44.564342"><ele>0.000000</ele><time>2020-12-25T22:21:24Z</time><extensions><speed>-1.000000</speed><course>-1.000000</course><hAcc>0.000000</hAcc><vAcc>-1.000000</vAcc></extensions></trkpt>
      <trkpt lon="-123.289606" lat="44.564632"><ele>0.000000</ele><time>2020-12-25T22:21:24Z</time><extensions><speed>-1.000000</speed><course>-1.000000</course><hAcc>0.000000</hAcc><vAcc>-1.000000</vAcc></extensions></trkpt>
      <trkpt lon="-123.289594" lat="44.564905"><ele>0.000000</ele><time>2020-12-25T22:21:24Z</time><extensions><speed>-1.000000</speed><course>-1.000000</course><hAcc>0.000000</hAcc><vAcc>-1.000000</vAcc></extensions></trkpt>
      <trkpt lon="-123.289656" lat="44.565210"><ele>0.000000</ele><time>2020-12-25T22:21:24Z</time><extensions><speed>-1.000000</speed><course>-1.000000</course><hAcc>0.000000</hAcc><vAcc>-1.000000</vAcc></extensions></trkpt>
      <trkpt lon="-123.289664" lat="44.565429"><ele>0.000000</ele><time>2020-12-25T22:21:24Z</time><extensions><speed>-1.000000</speed><course>-1.000000</course><hAcc>0.000000</hAcc><vAcc>-1.000000</vAcc></extensions></trkpt>
      <trkpt lon="-123.289641" lat="44.565770"><ele>0.000000</ele><time>2020-12-25T22:21:24Z</time><extensions><speed>-1.000000</speed><course>-1.000000</course><hAcc>0.000000</hAcc><vAcc>-1.000000</vAcc></extensions></trkpt>
      <trkpt lon="-123.289631" lat="44.566055"><ele>0.000000</ele><time>2020-12-25T22:21:24Z</time><extensions><speed>-1.000000</speed><course>-1.000000</course><hAcc>0.000000</hAcc><vAcc>-1.000000</vAcc></extensions></trkpt>
      <trkpt lon="-123.289628" lat="44.566337"><ele>0.000000</ele><time>2020-12-25T22:21:24Z</time><extensions><speed>-1.000000</speed><course>-1.000000</course><hAcc>0.000000</hAcc><vAcc>-1.000000</vAcc></extensions></trkpt>
      <trkpt lon="-123.289622" lat="44.566632"><ele>0.000000</ele><time>2020-12-25T22:21:24Z</time><extensions><speed>-1.000000</speed><course>-1.000000</course><hAcc>0.000000</hAcc><vAcc>-1.000000</vAcc></extensions></trkpt>
      <trkpt lon="-123.289624" lat="44.566853"><ele>0.000000</ele><time>2020-12-25T22:21:24Z</time><extensions><speed>-1.000000</speed><course>-1.000000</course><hAcc>0.000000</hAcc><vAcc>-1.000000</vAcc></extensions></trkpt>
      <trkpt lon="-123.289638" lat="44.567205"><ele>0.000000</ele><time>2020-12-25T22:21:24Z</time><extensions><speed>-1.000000</speed><course>-1.000000</course><hAcc>0.000000</hAcc><vAcc>-1.000000</vAcc></extensions></trkpt>
      <trkpt lon="-123.289635" lat="44.567491"><ele>0.000000</ele><time>2020-12-25T22:21:24Z</time><extensions><speed>-1.000000</speed><course>-1.000000</course><hAcc>0.000000</hAcc><vAcc>-1.000000</vAcc></extensions></trkpt>
      <trkpt lon="-123.289631" lat="44.567779"><ele>0.000000</ele><time>2020-12-25T22:21:24Z</time><extensions><speed>-1.000000</speed><course>-1.000000</course><hAcc>0.000000</hAcc><vAcc>-1.000000</vAcc></extensions></trkpt>
      <trkpt lon="-123.289648" lat="44.568087"><ele>0.000000</ele><time>2020-12-25T22:21:24Z</time><extensions><speed>-1.000000</speed><course>-1.000000</course><hAcc>0.000000</hAcc><vAcc>-1.000000</vAcc></extensions></trkpt>
      <trkpt lon="-123.289652" lat="44.568308"><ele>0.000000</ele><time>2020-12-25T22:21:24Z</time><extensions><speed>-1.000000</speed><course>-1.000000</course><hAcc>0.000000</hAcc><vAcc>-1.000000</vAcc></extensions></trkpt>
      <trkpt lon="-123.289654" lat="44.568604"><ele>0.000000</ele><time>2020-12-25T22:21:24Z</time><extensions><speed>-1.000000</speed><course>-1.000000</course><hAcc>0.000000</hAcc><vAcc>-1.000000</vAcc></extensions></trkpt>
      <trkpt lon="-123.289651" lat="44.568938"><ele>0.000000</ele><time>2020-12-25T22:21:24Z</time><extensions><speed>-1.000000</speed><course>-1.000000</course><hAcc>0.000000</hAcc><vAcc>-1.000000</vAcc></extensions></trkpt>
      <trkpt lon="-123.289654" lat="44.569005"><ele>0.000000</ele><time>2020-12-25T22:21:24Z</time><extensions><speed>-1.000000</speed><course>-1.000000</course><hAcc>0.000000</hAcc><vAcc>-1.000000</vAcc></extensions></trkpt>
      <trkpt lon="-123.289672" lat="44.569295"><ele>0.000000</ele><time>2020-12-25T22:21:24Z</time><extensions><speed>-1.000000</speed><course>-1.000000</course><hAcc>0.000000</hAcc><vAcc>-1.000000</vAcc></extensions></trkpt>
      <trkpt lon="-123.289662" lat="44.569575"><ele>0.000000</ele><time>2020-12-25T22:21:24Z</time><extensions><speed>-1.000000</speed><course>-1.000000</course><hAcc>0.000000</hAcc><vAcc>-1.000000</vAcc></extensions></trkpt>
      <trkpt lon="-123.289677" lat="44.569813"><ele>0.000000</ele><time>2020-12-25T22:21:24Z</time><extensions><speed>-1.000000</speed><course>-1.000000</course><hAcc>0.000000</hAcc><vAcc>-1.000000</vAcc></extensions></trkpt>
      <trkpt lon="-123.289676" lat="44.570116"><ele>0.000000</ele><time>2020-12-25T22:21:24Z</time><extensions><speed>-1.000000</speed><course>-1.000000</course><hAcc>0.000000</hAcc><vAcc>-1.000000</vAcc></extensions></trkpt>
      <trkpt lon="-123.289660" lat="44.570414"><ele>0.000000</ele><time>2020-12-25T22:21:24Z</time><extensions><speed>-1.000000</speed><course>-1.000000</course><hAcc>0.000000</hAcc><vAcc>-1.000000</vAcc></extensions></trkpt>
      <trkpt lon="-123.289667" lat="44.570731"><ele>0.000000</ele><time>2020-12-25T22:21:24Z</time><extensions><speed>-1.000000</speed><course>-1.000000</course><hAcc>0.000000</hAcc><vAcc>-1.000000</vAcc></extensions></trkpt>
      <trkpt lon="-123.289665" lat="44.571021"><ele>0.000000</ele><time>2020-12-25T22:21:24Z</time><extensions><speed>-1.000000</speed><course>-1.000000</course><hAcc>0.000000</hAcc><vAcc>-1.000000</vAcc></extensions></trkpt>
      <trkpt lon="-123.289651" lat="44.571313"><ele>0.000000</ele><time>2020-12-25T22:21:24Z</time><extensions><speed>-1.000000</speed><course>-1.000000</course><hAcc>0.000000</hAcc><vAcc>-1.000000</vAcc></extensions></trkpt>
      <trkpt lon="-123.289636" lat="44.571533"><ele>0.000000</ele><time>2020-12-25T22:21:24Z</time><extensions><speed>-1.000000</speed><course>-1.000000</course><hAcc>0.000000</hAcc><vAcc>-1.000000</vAcc></extensions></trkpt>
      <trkpt lon="-123.289346" lat="44.571672"><ele>0.000000</ele><time>2020-12-25T22:21:24Z</time><extensions><speed>-1.000000</speed><course>-1.000000</course><hAcc>0.000000</hAcc><vAcc>-1.000000</vAcc></extensions></trkpt>
      <trkpt lon="-123.288890" lat="44.571653"><ele>0.000000</ele><time>2020-12-25T22:21:24Z</time><extensions><speed>-1.000000</speed><course>-1.000000</course><hAcc>0.000000</hAcc><vAcc>-1.000000</vAcc></extensions></trkpt>
      <trkpt lon="-123.288484" lat="44.571680"><ele>0.000000</ele><time>2020-12-25T22:21:24Z</time><extensions><speed>-1.000000</speed><course>-1.000000</course><hAcc>0.000000</hAcc><vAcc>-1.000000</vAcc></extensions></trkpt>
      <trkpt lon="-123.288042" lat="44.571669"><ele>0.000000</ele><time>2020-12-25T22:21:24Z</time><extensions><speed>-1.000000</speed><course>-1.000000</course><hAcc>0.000000</hAcc><vAcc>-1.000000</vAcc></extensions></trkpt>
      <trkpt lon="-123.287567" lat="44.571670"><ele>0.000000</ele><time>2020-12-25T22:21:24Z</time><extensions><speed>-1.000000</speed><course>-1.000000</course><hAcc>0.000000</hAcc><vAcc>-1.000000</vAcc></extensions></trkpt>
      <trkpt lon="-123.287239" lat="44.571675"><ele>0.000000</ele><time>2020-12-25T22:21:24Z</time><extensions><speed>-1.000000</speed><course>-1.000000</course><hAcc>0.000000</hAcc><vAcc>-1.000000</vAcc></extensions></trkpt>
      <trkpt lon="-123.286799" lat="44.571672"><ele>0.000000</ele><time>2020-12-25T22:21:24Z</time><extensions><speed>-1.000000</speed><course>-1.000000</course><hAcc>0.000000</hAcc><vAcc>-1.000000</vAcc></extensions></trkpt>
      <trkpt lon="-123.286380" lat="44.571679"><ele>0.000000</ele><time>2020-12-25T22:21:24Z</time><extensions><speed>-1.000000</speed><course>-1.000000</course><hAcc>0.000000</hAcc><vAcc>-1.000000</vAcc></extensions></trkpt>
      <trkpt lon="-123.285914" lat="44.571686"><ele>0.000000</ele><time>2020-12-25T22:21:24Z</time><extensions><speed>-1.000000</speed><course>-1.000000</course><hAcc>0.000000</hAcc><vAcc>-1.000000</vAcc></extensions></trkpt>
      <trkpt lon="-123.285477" lat="44.571691"><ele>0.000000</ele><time>2020-12-25T22:21:24Z</time><extensions><speed>-1.000000</speed><course>-1.000000</course><hAcc>0.000000</hAcc><vAcc>-1.000000</vAcc></extensions></trkpt>
      <trkpt lon="-123.285035" lat="44.571680"><ele>0.000000</ele><time>2020-12-25T22:21:24Z</time><extensions><speed>-1.000000</speed><course>-1.000000</course><hAcc>0.000000</hAcc><vAcc>-1.000000</vAcc></extensions></trkpt>
      <trkpt lon="-123.284905" lat="44.571692"><ele>0.000000</ele><time>2020-12-25T22:21:24Z</time><extensions><speed>-1.000000</speed><course>-1.000000</course><hAcc>0.000000</hAcc><vAcc>-1.000000</vAcc></extensions></trkpt>
      <trkpt lon="-123.284695" lat="44.571691"><ele>0.000000</ele><time>2020-12-25T22:21:24Z</time><extensions><speed>-1.000000</speed><course>-1.000000</course><hAcc>0.000000</hAcc><vAcc>-1.000000</vAcc></extensions></trkpt>
      <trkpt lon="-123.284247" lat="44.571690"><ele>0.000000</ele><time>2020-12-25T22:21:24Z</time><extensions><speed>-1.000000</speed><course>-1.000000</course><hAcc>0.000000</hAcc><vAcc>-1.000000</vAcc></extensions></trkpt>
      <trkpt lon="-123.283824" lat="44.571700"><ele>0.000000</ele><time>2020-12-25T22:21:24Z</time><extensions><speed>-1.000000</speed><course>-1.000000</course><hAcc>0.000000</hAcc><vAcc>-1.000000</vAcc></extensions></trkpt>
      <trkpt lon="-123.283340" lat="44.571683"><ele>0.000000</ele><time>2020-12-25T22:21:24Z</time><extensions><speed>-1.000000</speed><course>-1.000000</course><hAcc>0.000000</hAcc><vAcc>-1.000000</vAcc></extensions></trkpt>
      <trkpt lon="-123.282879" lat="44.571650"><ele>0.000000</ele><time>2020-12-25T22:21:24Z</time><extensions><speed>-1.000000</speed><course>-1.000000</course><hAcc>0.000000</hAcc><vAcc>-1.000000</vAcc></extensions></trkpt>
      <trkpt lon="-123.282521" lat="44.571660"><ele>0.000000</ele><time>2020-12-25T22:21:24Z</time><extensions><speed>-1.000000</speed><course>-1.000000</course><hAcc>0.000000</hAcc><vAcc>-1.000000</vAcc></extensions></trkpt>
      <trkpt lon="-123.282076" lat="44.571661"><ele>0.000000</ele><time>2020-12-25T22:21:24Z</time><extensions><speed>-1.000000</speed><course>-1.000000</course><hAcc>0.000000</hAcc><vAcc>-1.000000</vAcc></extensions></trkpt>
      <trkpt lon="-123.281675" lat="44.571668"><ele>0.000000</ele><time>2020-12-25T22:21:24Z</time><extensions><speed>-1.000000</speed><course>-1.000000</course><hAcc>0.000000</hAcc><vAcc>-1.000000</vAcc></extensions></trkpt>
      <trkpt lon="-123.281207" lat="44.571687"><ele>0.000000</ele><time>2020-12-25T22:21:24Z</time><extensions><speed>-1.000000</speed><course>-1.000000</course><hAcc>0.000000</hAcc><vAcc>-1.000000</vAcc></extensions></trkpt>
      <trkpt lon="-123.280778" lat="44.571696"><ele>0.000000</ele><time>2020-12-25T22:21:24Z</time><extensions><speed>-1.000000</speed><course>-1.000000</course><hAcc>0.000000</hAcc><vAcc>-1.000000</vAcc></extensions></trkpt>
      <trkpt lon="-123.280437" lat="44.571721"><ele>0.000000</ele><time>2020-12-25T22:21:24Z</time><extensions><speed>-1.000000</speed><course>-1.000000</course><hAcc>0.000000</hAcc><vAcc>-1.000000</vAcc></extensions></trkpt>
      <trkpt lon="-123.280014" lat="44.571725"><ele>0.000000</ele><time>2020-12-25T22:21:24Z</time><extensions><speed>-1.000000</speed><course>-1.000000</course><hAcc>0.000000</hAcc><vAcc>-1.000000</vAcc></extensions></trkpt>
      <trkpt lon="-123.279614" lat="44.571735"><ele>0.000000</ele><time>2020-12-25T22:21:24Z</time><extensions><speed>-1.000000</speed><course>-1.000000</course><hAcc>0.000000</hAcc><vAcc>-1.000000</vAcc></extensions></trkpt>
      <trkpt lon="-123.279252" lat="44.571718"><ele>0.000000</ele><time>2020-12-25T22:21:24Z</time><extensions><speed>-1.000000</speed><course>-1.000000</course><hAcc>0.000000</hAcc><vAcc>-1.000000</vAcc></extensions></trkpt>
      <trkpt lon="-123.278771" lat="44.571710"><ele>0.000000</ele><time>2020-12-25T22:21:24Z</time><extensions><speed>-1.000000</speed><course>-1.000000</course><hAcc>0.000000</hAcc><vAcc>-1.000000</vAcc></extensions></trkpt>
      <trkpt lon="-123.278355" lat="44.571654"><ele>0.000000</ele><time>2020-12-25T22:21:24Z</time><extensions><speed>-1.000000</speed><course>-1.000000</course><hAcc>0.000000</hAcc><vAcc>-1.000000</vAcc></extensions></trkpt>
      <trkpt lon="-123.277907" lat="44.571598"><ele>0.000000</ele><time>2020-12-25T22:21:24Z</time><extensions><speed>-1.000000</speed><course>-1.000000</course><hAcc>0.000000</hAcc><vAcc>-1.000000</vAcc></extensions></trkpt>
      <trkpt lon="-123.277457" lat="44.571536"><ele>0.000000</ele><time>2020-12-25T22:21:24Z</time><extensions><speed>-1.000000</speed><course>-1.000000</course><hAcc>0.000000</hAcc><vAcc>-1.000000</vAcc></extensions></trkpt>
      <trkpt lon="-123.277102" lat="44.571486"><ele>0.000000</ele><time>2020-12-25T22:21:24Z</time><extensions><speed>-1.000000</speed><course>-1.000000</course><hAcc>0.000000</hAcc><vAcc>-1.000000</vAcc></extensions></trkpt>
      <trkpt lon="-123.276644" lat="44.571427"><ele>0.000000</ele><time>2020-12-25T22:21:24Z</time><extensions><speed>-1.000000</speed><course>-1.000000</course><hAcc>0.000000</hAcc><vAcc>-1.000000</vAcc></extensions></trkpt>
      <trkpt lon="-123.276124" lat="44.571363"><ele>0.000000</ele><time>2020-12-25T22:21:24Z</time><extensions><speed>-1.000000</speed><course>-1.000000</course><hAcc>0.000000</hAcc><vAcc>-1.000000</vAcc></extensions></trkpt>
      <trkpt lon="-123.276034" lat="44.571354"><ele>0.000000</ele><time>2020-12-25T22:21:24Z</time><extensions><speed>-1.000000</speed><course>-1.000000</course><hAcc>0.000000</hAcc><vAcc>-1.000000</vAcc></extensions></trkpt>
      <trkpt lon="-123.275540" lat="44.571290"><ele>0.000000</ele><time>2020-12-25T22:21:24Z</time><extensions><speed>-1.000000</speed><course>-1.000000</course><hAcc>0.000000</hAcc><vAcc>-1.000000</vAcc></extensions></trkpt>
      <trkpt lon="-123.275239" lat="44.571174"><ele>0.000000</ele><time>2020-12-25T22:21:24Z</time><extensions><speed>-1.000000</speed><course>-1.000000</course><hAcc>0.000000</hAcc><vAcc>-1.000000</vAcc></extensions></trkpt>
      <trkpt lon="-123.275106" lat="44.570941"><ele>0.000000</ele><time>2020-12-25T22:21:24Z</time><extensions><speed>-1.000000</speed><course>-1.000000</course><hAcc>0.000000</hAcc><vAcc>-1.000000</vAcc></extensions></trkpt>
      <trkpt lon="-123.275063" lat="44.570623"><ele>0.000000</ele><time>2020-12-25T22:21:24Z</time><extensions><speed>-1.000000</speed><course>-1.000000</course><hAcc>0.000000</hAcc><vAcc>-1.000000</vAcc></extensions></trkpt>
      <trkpt lon="-123.274973" lat="44.570338"><ele>0.000000</ele><time>2020-12-25T22:21:24Z</time><extensions><speed>-1.000000</speed><course>-1.000000</course><hAcc>0.000000</hAcc><vAcc>-1.000000</vAcc></extensions></trkpt>
      <trkpt lon="-123.274623" lat="44.570186"><ele>0.000000</ele><time>2020-12-25T22:21:24Z</time><extensions><speed>-1.000000</speed><course>-1.000000</course><hAcc>0.000000</hAcc><vAcc>-1.000000</vAcc></extensions></trkpt>
      <trkpt lon="-123.274240" lat="44.570079"><ele>0.000000</ele><time>2020-12-25T22:21:24Z</time><extensions><speed>-1.000000</speed><course>-1.000000</course><hAcc>0.000000</hAcc><vAcc>-1.000000</vAcc></extensions></trkpt>
      <trkpt lon="-123.273942" lat="44.569917"><ele>0.000000</ele><time>2020-12-25T22:21:24Z</time><extensions><speed>-1.000000</speed><course>-1.000000</course><hAcc>0.000000</hAcc><vAcc>-1.000000</vAcc></extensions></trkpt>
      <trkpt lon="-123.273603" lat="44.569717"><ele>0.000000</ele><time>2020-12-25T22:21:24Z</time><extensions><speed>-1.000000</speed><course>-1.000000</course><hAcc>0.000000</hAcc><vAcc>-1.000000</vAcc></extensions></trkpt>
      <trkpt lon="-123.273333" lat="44.569651"><ele>0.000000</ele><time>2020-12-25T22:21:24Z</time><extensions><speed>-1.000000</speed><course>-1.000000</course><hAcc>0.000000</hAcc><vAcc>-1.000000</vAcc></extensions></trkpt>
      <trkpt lon="-123.272895" lat="44.569523"><ele>0.000000</ele><time>2020-12-25T22:21:24Z</time><extensions><speed>-1.000000</speed><course>-1.000000</course><hAcc>0.000000</hAcc><vAcc>-1.000000</vAcc></extensions></trkpt>
      <trkpt lon="-123.272496" lat="44.569433"><ele>0.000000</ele><time>2020-12-25T22:21:24Z</time><extensions><speed>-1.000000</speed><course>-1.000000</course><hAcc>0.000000</hAcc><vAcc>-1.000000</vAcc></extensions></trkpt>
      <trkpt lon="-123.272400" lat="44.569237"><ele>0.000000</ele><time>2020-12-25T22:21:24Z</time><extensions><speed>-1.000000</speed><course>-1.000000</course><hAcc>0.000000</hAcc><vAcc>-1.000000</vAcc></extensions></trkpt>
      <trkpt lon="-123.272518" lat="44.568933"><ele>0.000000</ele><time>2020-12-25T22:21:24Z</time><extensions><speed>-1.000000</speed><course>-1.000000</course><hAcc>0.000000</hAcc><vAcc>-1.000000</vAcc></extensions></trkpt>
      <trkpt lon="-123.272589" lat="44.568633"><ele>0.000000</ele><time>2020-12-25T22:21:24Z</time><extensions><speed>-1.000000</speed><course>-1.000000</course><hAcc>0.000000</hAcc><vAcc>-1.000000</vAcc></extensions></trkpt>
      <trkpt lon="-123.272463" lat="44.568445"><ele>0.000000</ele><time>2020-12-25T22:21:24Z</time><extensions><speed>-1.000000</speed><course>-1.000000</course><hAcc>0.000000</hAcc><vAcc>-1.000000</vAcc></extensions></trkpt>
      <trkpt lon="-123.272081" lat="44.568322"><ele>0.000000</ele><time>2020-12-25T22:21:24Z</time><extensions><speed>-1.000000</speed><course>-1.000000</course><hAcc>0.000000</hAcc><vAcc>-1.000000</vAcc></extensions></trkpt>
      <trkpt lon="-123.271848" lat="44.568162"><ele>0.000000</ele><time>2020-12-25T22:21:24Z</time><extensions><speed>-1.000000</speed><course>-1.000000</course><hAcc>0.000000</hAcc><vAcc>-1.000000</vAcc></extensions></trkpt>
      <trkpt lon="-123.271989" lat="44.567886"><ele>0.000000</ele><time>2020-12-25T22:21:24Z</time><extensions><speed>-1.000000</speed><course>-1.000000</course><hAcc>0.000000</hAcc><vAcc>-1.000000</vAcc></extensions></trkpt>
      <trkpt lon="-123.272143" lat="44.567568"><ele>0.000000</ele><time>2020-12-25T22:21:24Z</time><extensions><speed>-1.000000</speed><course>-1.000000</course><hAcc>0.000000</hAcc><vAcc>-1.000000</vAcc></extensions></trkpt>
      <trkpt lon="-123.272169" lat="44.567519"><ele>0.000000</ele><time>2020-12-25T22:21:24Z</time><extensions><speed>-1.000000</speed><course>-1.000000</course><hAcc>0.000000</hAcc><vAcc>-1.000000</vAcc></extensions></trkpt>
      <trkpt lon="-123.272286" lat="44.567271"><ele>0.000000</ele><time>2020-12-25T22:21:24Z</time><extensions><speed>-1.000000</speed><course>-1.000000</course><hAcc>0.000000</hAcc><vAcc>-1.000000</vAcc></extensions></trkpt>
      <trkpt lon="-123.272496" lat="44.566919"><ele>0.000000</ele><time>2020-12-25T22:21:24Z</time><extensions><speed>-1.000000</speed><course>-1.000000</course><hAcc>0.000000</hAcc><vAcc>-1.000000</vAcc></extensions></trkpt>
      <trkpt lon="-123.272653" lat="44.566538"><ele>0.000000</ele><time>2020-12-25T22:21:24Z</time><extensions><speed>-1.000000</speed><course>-1.000000</course><hAcc>0.000000</hAcc><vAcc>-1.000000</vAcc></extensions></trkpt>
      <trkpt lon="-123.272844" lat="44.566221"><ele>0.000000</ele><time>2020-12-25T22:21:24Z</time><extensions><speed>-1.000000</speed><course>-1.000000</course><hAcc>0.000000</hAcc><vAcc>-1.000000</vAcc></extensions></trkpt>
      <trkpt lon="-123.273023" lat="44.565920"><ele>0.000000</ele><time>2020-12-25T22:21:24Z</time><extensions><speed>-1.000000</speed><course>-1.000000</course><hAcc>0.000000</hAcc><vAcc>-1.000000</vAcc></extensions></trkpt>
      <trkpt lon="-123.273290" lat="44.565623"><ele>0.000000</ele><time>2020-12-25T22:21:24Z</time><extensions><speed>-1.000000</speed><course>-1.000000</course><hAcc>0.000000</hAcc><vAcc>-1.000000</vAcc></extensions></trkpt>
      <trkpt lon="-123.273471" lat="44.565441"><ele>0.000000</ele><time>2020-12-25T22:21:24Z</time><extensions><speed>-1.000000</speed><course>-1.000000</course><hAcc>0.000000</hAcc><vAcc>-1.000000</vAcc></extensions></trkpt>
      <trkpt lon="-123.273738" lat="44.565170"><ele>0.000000</ele><time>2020-12-25T22:21:24Z</time><extensions><speed>-1.000000</speed><course>-1.000000</course><hAcc>0.000000</hAcc><vAcc>-1.000000</vAcc></extensions></trkpt>
      <trkpt lon="-123.273963" lat="44.564932"><ele>0.000000</ele><time>2020-12-25T22:21:24Z</time><extensions><speed>-1.000000</speed><course>-1.000000</course><hAcc>0.000000</hAcc><vAcc>-1.000000</vAcc></extensions></trkpt>
      <trkpt lon="-123.274211" lat="44.564691"><ele>0.000000</ele><time>2020-12-25T22:21:24Z</time><extensions><speed>-1.000000</speed><course>-1.000000</course><hAcc>0.000000</hAcc><vAcc>-1.000000</vAcc></extensions></trkpt>
      <trkpt lon="-123.274258" lat="44.564574"><ele>0.000000</ele><time>2020-12-25T22:21:24Z</time><extensions><speed>-1.000000</speed><course>-1.000000</course><hAcc>0.000000</hAcc><vAcc>-1.000000</vAcc></extensions></trkpt>
      <trkpt lon="-123.274273" lat="44.564300"><ele>0.000000</ele><time>2020-12-25T22:21:24Z</time><extensions><speed>-1.000000</speed><course>-1.000000</course><hAcc>0.000000</hAcc><vAcc>-1.000000</vAcc></extensions></trkpt>
      <trkpt lon="-123.274266" lat="44.563959"><ele>0.000000</ele><time>2020-12-25T22:21:24Z</time><extensions><speed>-1.000000</speed><course>-1.000000</course><hAcc>0.000000</hAcc><vAcc>-1.000000</vAcc></extensions></trkpt>
      <trkpt lon="-123.274256" lat="44.563721"><ele>0.000000</ele><time>2020-12-25T22:21:24Z</time><extensions><speed>-1.000000</speed><course>-1.000000</course><hAcc>0.000000</hAcc><vAcc>-1.000000</vAcc></extensions></trkpt>
      <trkpt lon="-123.274240" lat="44.563391"><ele>0.000000</ele><time>2020-12-25T22:21:24Z</time><extensions><speed>-1.000000</speed><course>-1.000000</course><hAcc>0.000000</hAcc><vAcc>-1.000000</vAcc></extensions></trkpt>
      <trkpt lon="-123.274262" lat="44.563106"><ele>0.000000</ele><time>2020-12-25T22:21:24Z</time><extensions><speed>-1.000000</speed><course>-1.000000</course><hAcc>0.000000</hAcc><vAcc>-1.000000</vAcc></extensions></trkpt>
      <trkpt lon="-123.274198" lat="44.562820"><ele>0.000000</ele><time>2020-12-25T22:21:24Z</time><extensions><speed>-1.000000</speed><course>-1.000000</course><hAcc>0.000000</hAcc><vAcc>-1.000000</vAcc></extensions></trkpt>
      <trkpt lon="-123.274176" lat="44.562471"><ele>0.000000</ele><time>2020-12-25T22:21:24Z</time><extensions><speed>-1.000000</speed><course>-1.000000</course><hAcc>0.000000</hAcc><vAcc>-1.000000</vAcc></extensions></trkpt>
      <trkpt lon="-123.274240" lat="44.562281"><ele>0.000000</ele><time>2020-12-25T22:21:24Z</time><extensions><speed>-1.000000</speed><course>-1.000000</course><hAcc>0.000000</hAcc><vAcc>-1.000000</vAcc></extensions></trkpt>
      <trkpt lon="-123.274279" lat="44.562047"><ele>0.000000</ele><time>2020-12-25T22:21:24Z</time><extensions><speed>-1.000000</speed><course>-1.000000</course><hAcc>0.000000</hAcc><vAcc>-1.000000</vAcc></extensions></trkpt>
      <trkpt lon="-123.274289" lat="44.561814"><ele>0.000000</ele><time>2020-12-25T22:21:24Z</time><extensions><speed>-1.000000</speed><course>-1.000000</course><hAcc>0.000000</hAcc><vAcc>-1.000000</vAcc></extensions></trkpt>
      <trkpt lon="-123.274280" lat="44.561725"><ele>0.000000</ele><time>2020-12-25T22:21:24Z</time><extensions><speed>-1.000000</speed><course>-1.000000</course><hAcc>0.000000</hAcc><vAcc>-1.000000</vAcc></extensions></trkpt>
      <trkpt lon="-123.274219" lat="44.561445"><ele>0.000000</ele><time>2020-12-25T22:21:24Z</time><extensions><speed>-1.000000</speed><course>-1.000000</course><hAcc>0.000000</hAcc><vAcc>-1.000000</vAcc></extensions></trkpt>
      <trkpt lon="-123.274218" lat="44.561134"><ele>0.000000</ele><time>2020-12-25T22:21:24Z</time><extensions><speed>-1.000000</speed><course>-1.000000</course><hAcc>0.000000</hAcc><vAcc>-1.000000</vAcc></extensions></trkpt>
      <trkpt lon="-123.274147" lat="44.560895"><ele>0.000000</ele><time>2020-12-25T22:21:24Z</time><extensions><speed>-1.000000</speed><course>-1.000000</course><hAcc>0.000000</hAcc><vAcc>-1.000000</vAcc></extensions></trkpt>
      <trkpt lon="-123.274089" lat="44.560739"><ele>0.000000</ele><time>2020-12-25T22:21:24Z</time><extensions><speed>-1.000000</speed><course>-1.000000</course><hAcc>0.000000</hAcc><vAcc>-1.000000</vAcc></extensions></trkpt>
      <trkpt lon="-123.274071" lat="44.560583"><ele>0.000000</ele><time>2020-12-25T22:21:24Z</time><extensions><speed>-1.000000</speed><course>-1.000000</course><hAcc>0.000000</hAcc><vAcc>-1.000000</vAcc></extensions></trkpt>
      <trkpt lon="-123.274002" lat="44.560259"><ele>0.000000</ele><time>2020-12-25T22:21:24Z</time><extensions><speed>-1.000000</speed><course>-1.000000</course><hAcc>0.000000</hAcc><vAcc>-1.000000</vAcc></extensions></trkpt>
      <trkpt lon="-123.273724" lat="44.560012"><ele>0.000000</ele><time>2020-12-25T22:21:24Z</time><extensions><speed>-1.000000</speed><course>-1.000000</course><hAcc>0.000000</hAcc><vAcc>-1.000000</vAcc></extensions></trkpt>
      <trkpt lon="-123.273460" lat="44.560021"><ele>0.000000</ele><time>2020-12-25T22:21:24Z</time><extensions><speed>-1.000000</speed><course>-1.000000</course><hAcc>0.000000</hAcc><vAcc>-1.000000</vAcc></extensions></trkpt>
      <trkpt lon="-123.272951" lat="44.560013"><ele>0.000000</ele><time>2020-12-25T22:21:24Z</time><extensions><speed>-1.000000</speed><course>-1.000000</course><hAcc>0.000000</hAcc><vAcc>-1.000000</vAcc></extensions></trkpt>
      <trkpt lon="-123.272517" lat="44.560005"><ele>0.000000</ele><time>2020-12-25T22:21:24Z</time><extensions><speed>-1.000000</speed><course>-1.000000</course><hAcc>0.000000</hAcc><vAcc>-1.000000</vAcc></extensions></trkpt>
      <trkpt lon="-123.272420" lat="44.559982"><ele>0.000000</ele><time>2020-12-25T22:21:24Z</time><extensions><speed>-1.000000</speed><course>-1.000000</course><hAcc>0.000000</hAcc><vAcc>-1.000000</vAcc></extensions></trkpt>
      <trkpt lon="-123.272006" lat="44.559974"><ele>0.000000</ele><time>2020-12-25T22:21:24Z</time><extensions><speed>-1.000000</speed><course>-1.000000</course><hAcc>0.000000</hAcc><vAcc>-1.000000</vAcc></extensions></trkpt>
      <trkpt lon="-123.271794" lat="44.559997"><ele>0.000000</ele><time>2020-12-25T22:21:24Z</time><extensions><speed>-1.000000</speed><course>-1.000000</course><hAcc>0.000000</hAcc><vAcc>-1.000000</vAcc></extensions></trkpt>
      <trkpt lon="-123.271476" lat="44.560053"><ele>0.000000</ele><time>2020-12-25T22:21:24Z</time><extensions><speed>-1.000000</speed><course>-1.000000</course><hAcc>0.000000</hAcc><vAcc>-1.000000</vAcc></extensions></trkpt>
      <trkpt lon="-123.271128" lat="44.559992"><ele>0.000000</ele><time>2020-12-25T22:21:24Z</time><extensions><speed>-1.000000</speed><course>-1.000000</course><hAcc>0.000000</hAcc><vAcc>-1.000000</vAcc></extensions></trkpt>
      <trkpt lon="-123.270973" lat="44.559733"><ele>0.000000</ele><time>2020-12-25T22:21:24Z</time><extensions><speed>-1.000000</speed><course>-1.000000</course><hAcc>0.000000</hAcc><vAcc>-1.000000</vAcc></extensions></trkpt>
      <trkpt lon="-123.270913" lat="44.559551"><ele>0.000000</ele><time>2020-12-25T22:21:24Z</time><extensions><speed>-1.000000</speed><course>-1.000000</course><hAcc>0.000000</hAcc><vAcc>-1.000000</vAcc></extensions></trkpt>
      <trkpt lon="-123.270846" lat="44.559238"><ele>0.000000</ele><time>2020-12-25T22:21:24Z</time><extensions><speed>-1.000000</speed><course>-1.000000</course><hAcc>0.000000</hAcc><vAcc>-1.000000</vAcc></extensions></trkpt>
      <trkpt lon="-123.270716" lat="44.558927"><ele>0.000000</ele><time>2020-12-25T22:21:24Z</time><extensions><speed>-1.000000</speed><course>-1.000000</course><hAcc>0.000000</hAcc><vAcc>-1.000000</vAcc></extensions></trkpt>
      <trkpt lon="-123.270685" lat="44.558844"><ele>0.000000</ele><time>2020-12-25T22:21:24Z</time><extensions><speed>-1.000000</speed><course>-1.000000</course><hAcc>0.000000</hAcc><vAcc>-1.000000</vAcc></extensions></trkpt>
      <trkpt lon="-123.270661" lat="44.558607"><ele>0.000000</ele><time>2020-12-25T22:21:24Z</time><extensions><speed>-1.000000</speed><course>-1.000000</course><hAcc>0.000000</hAcc><vAcc>-1.000000</vAcc></extensions></trkpt>
      <trkpt lon="-123.270391" lat="44.558253"><ele>0.000000</ele><time>2020-12-25T22:21:24Z</time><extensions><speed>-1.000000</speed><course>-1.000000</course><hAcc>0.000000</hAcc><vAcc>-1.000000</vAcc></extensions></trkpt>
      <trkpt lon="-123.270173" lat="44.558252"><ele>0.000000</ele><time>2020-12-25T22:21:24Z</time><extensions><speed>-1.000000</speed><course>-1.000000</course><hAcc>0.000000</hAcc><vAcc>-1.000000</vAcc></extensions></trkpt>
      <trkpt lon="-123.269672" lat="44.558247"><ele>0.000000</ele><time>2020-12-25T22:21:24Z</time><extensions><speed>-1.000000</speed><course>-1.000000</course><hAcc>0.000000</hAcc><vAcc>-1.000000</vAcc></extensions></trkpt>
      <trkpt lon="-123.269447" lat="44.558216"><ele>0.000000</ele><time>2020-12-25T22:21:24Z</time><extensions><speed>-1.000000</speed><course>-1.000000</course><hAcc>0.000000</hAcc><vAcc>-1.000000</vAcc></extensions></trkpt>
      <trkpt lon="-123.269373" lat="44.558201"><ele>0.000000</ele><time>2020-12-25T22:21:24Z</time><extensions><speed>-1.000000</speed><course>-1.000000</course><hAcc>0.000000</hAcc><vAcc>-1.000000</vAcc></extensions></trkpt>
      <trkpt lon="-123.268946" lat="44.558122"><ele>0.000000</ele><time>2020-12-25T22:21:24Z</time><extensions><speed>-1.000000</speed><course>-1.000000</course><hAcc>0.000000</hAcc><vAcc>-1.000000</vAcc></extensions></trkpt>
      <trkpt lon="-123.268786" lat="44.558259"><ele>0.000000</ele><time>2020-12-25T22:21:24Z</time><extensions><speed>-1.000000</speed><course>-1.000000</course><hAcc>0.000000</hAcc><vAcc>-1.000000</vAcc></extensions></trkpt>
      <trkpt lon="-123.268761" lat="44.558346"><ele>0.000000</ele><time>2020-12-25T22:21:24Z</time><extensions><speed>-1.000000</speed><course>-1.000000</course><hAcc>0.000000</hAcc><vAcc>-1.000000</vAcc></extensions></trkpt>
      <trkpt lon="-123.268655" lat="44.558496"><ele>0.000000</ele><time>2020-12-25T22:21:24Z</time><extensions><speed>-1.000000</speed><course>-1.000000</course><hAcc>0.000000</hAcc><vAcc>-1.000000</vAcc></extensions></trkpt>
      <trkpt lon="-123.268521" lat="44.558753"><ele>0.000000</ele><time>2020-12-25T22:21:24Z</time><extensions><speed>-1.000000</speed><course>-1.000000</course><hAcc>0.000000</hAcc><vAcc>-1.000000</vAcc></extensions></trkpt>
      <trkpt lon="-123.268393" lat="44.558973"><ele>0.000000</ele><time>2020-12-25T22:21:24Z</time><extensions><speed>-1.000000</speed><course>-1.000000</course><hAcc>0.000000</hAcc><vAcc>-1.000000</vAcc></extensions></trkpt>
      <trkpt lon="-123.268357" lat="44.559049"><ele>0.000000</ele><time>2020-12-25T22:21:24Z</time><extensions><speed>-1.000000</speed><course>-1.000000</course><hAcc>0.000000</hAcc><vAcc>-1.000000</vAcc></extensions></trkpt>
    </trkseg>
  </trk>
</gpx>