<?xml version="1.0" encoding="UTF-8"?>
<gpx version="1.1" creator="Apple Health Export" xmlns="http://www.topografix.com/GPX/1/1" xmlns:xsi="http://www.w3.org/2001/XMLSchema-instance" xsi:schemaLocation="http://www.topografix.com/GPX/1/1 http://www.topografix.com/GPX/1/1/gpx.xsd">
  <metadata>
    <time>2021-02-21T19:24:47Z</time>
  </metadata>
  <trk>
    <name>Route 2020-10-08 3:55pm</name>
    <trkseg>
      <trkpt lon="-123.279397" lat="44.563080"><ele>74.063179</ele><time>2020-10-08T22:50:09Z</time><extensions><speed>0.560000</speed><course>313.945312</course><hAcc>10.000000</hAcc><vAcc>12.000000</vAcc></extensions></trkpt>
      <trkpt lon="-123.279400" lat="44.563085"><ele>74.520638</ele><time>2020-10-08T22:50:10Z</time><extensions><speed>0.560000</speed><course>313.945312</course><hAcc>10.000000</hAcc><vAcc>12.000000</vAcc></extensions></trkpt>
      <trkpt lon="-123.279253" lat="44.563187"><ele>73.358139</ele><time>2020-10-08T22:50:18Z</time><extensions><speed>1.569921</speed><course>296.351044</course><hAcc>7.999580</hAcc><vAcc>2.400000</vAcc></extensions></trkpt>
      <trkpt lon="-123.279256" lat="44.563184"><ele>73.131348</ele><time>2020-10-08T22:50:19Z</time><extensions><speed>1.151398</speed><course>285.286438</course><hAcc>7.999580</hAcc><vAcc>2.400000</vAcc></extensions></trkpt>
      <trkpt lon="-123.279269" lat="44.563181"><ele>73.273720</ele><time>2020-10-08T22:50:20Z</time><extensions><speed>1.067767</speed><course>285.344238</course><hAcc>7.999580</hAcc><vAcc>2.400000</vAcc></extensions></trkpt>
      <trkpt lon="-123.279290" lat="44.563179"><ele>73.142227</ele><time>2020-10-08T22:50:21Z</time><extensions><speed>0.847632</speed><course>278.687195</course><hAcc>7.999580</hAcc><vAcc>2.400000</vAcc></extensions></trkpt>
      <trkpt lon="-123.279313" lat="44.563181"><ele>73.074799</ele><time>2020-10-08T22:50:22Z</time><extensions><speed>1.172449</speed><course>278.713348</course><hAcc>7.999580</hAcc><vAcc>2.400000</vAcc></extensions></trkpt>
      <trkpt lon="-123.279330" lat="44.563180"><ele>73.105652</ele><time>2020-10-08T22:50:23Z</time><extensions><speed>1.172449</speed><course>281.188263</course><hAcc>7.999580</hAcc><vAcc>2.400000</vAcc></extensions></trkpt>
      <trkpt lon="-123.279351" lat="44.563182"><ele>73.094330</ele><time>2020-10-08T22:50:24Z</time><extensions><speed>1.369072</speed><course>291.320618</course><hAcc>7.999580</hAcc><vAcc>2.400000</vAcc></extensions></trkpt>
      <trkpt lon="-123.279378" lat="44.563188"><ele>73.372993</ele><time>2020-10-08T22:50:25Z</time><extensions><speed>1.915438</speed><course>285.975006</course><hAcc>7.999580</hAcc><vAcc>2.400000</vAcc></extensions></trkpt>
      <trkpt lon="-123.279403" lat="44.563195"><ele>72.817825</ele><time>2020-10-08T22:50:26Z</time><extensions><speed>1.915438</speed><course>295.566528</course><hAcc>5.999685</hAcc><vAcc>2.400000</vAcc></extensions></trkpt>
      <trkpt lon="-123.279420" lat="44.563203"><ele>73.068176</ele><time>2020-10-08T22:50:27Z</time><extensions><speed>1.815663</speed><course>327.819397</course><hAcc>5.999685</hAcc><vAcc>2.400000</vAcc></extensions></trkpt>
      <trkpt lon="-123.279429" lat="44.563216"><ele>73.415474</ele><time>2020-10-08T22:50:28Z</time><extensions><speed>1.815663</speed><course>316.475403</course><hAcc>5.999685</hAcc><vAcc>2.400000</vAcc></extensions></trkpt>
      <trkpt lon="-123.279447" lat="44.563233"><ele>73.188263</ele><time>2020-10-08T22:50:29Z</time><extensions><speed>1.321844</speed><course>332.108154</course><hAcc>5.999685</hAcc><vAcc>2.400000</vAcc></extensions></trkpt>
      <trkpt lon="-123.279455" lat="44.563246"><ele>72.737022</ele><time>2020-10-08T22:50:30Z</time><extensions><speed>1.321844</speed><course>338.750488</course><hAcc>5.999685</hAcc><vAcc>2.400000</vAcc></extensions></trkpt>
      <trkpt lon="-123.279460" lat="44.563256"><ele>72.741379</ele><time>2020-10-08T22:50:31Z</time><extensions><speed>1.018265</speed><course>349.407196</course><hAcc>5.999685</hAcc><vAcc>2.400000</vAcc></extensions></trkpt>
      <trkpt lon="-123.279465" lat="44.563266"><ele>72.853500</ele><time>2020-10-08T22:50:32Z</time><extensions><speed>1.018265</speed><course>338.862366</course><hAcc>5.999685</hAcc><vAcc>2.400000</vAcc></extensions></trkpt>
      <trkpt lon="-123.279332" lat="44.563323"><ele>72.032356</ele><time>2020-10-08T22:50:39Z</time><extensions><speed>0.850000</speed><course>11.953125</course><hAcc>5.000000</hAcc><vAcc>6.000000</vAcc></extensions></trkpt>
      <trkpt lon="-123.279342" lat="44.563329"><ele>70.662300</ele><time>2020-10-08T22:50:40Z</time><extensions><speed>0.850000</speed><course>33.750000</course><hAcc>5.000000</hAcc><vAcc>3.000000</vAcc></extensions></trkpt>
      <trkpt lon="-123.279342" lat="44.563329"><ele>71.583015</ele><time>2020-10-08T22:50:41Z</time><extensions><speed>0.000000</speed><course>33.750000</course><hAcc>5.000000</hAcc><vAcc>4.000000</vAcc></extensions></trkpt>
      <trkpt lon="-123.279342" lat="44.563329"><ele>71.309090</ele><time>2020-10-08T22:50:42Z</time><extensions><speed>0.000000</speed><course>33.750000</course><hAcc>5.000000</hAcc><vAcc>4.000000</vAcc></extensions></trkpt>
      <trkpt lon="-123.279342" lat="44.563329"><ele>70.756294</ele><time>2020-10-08T22:50:43Z</time><extensions><speed>0.000000</speed><course>33.750000</course><hAcc>5.000000</hAcc><vAcc>3.000000</vAcc></extensions></trkpt>
      <trkpt lon="-123.279342" lat="44.563329"><ele>70.491463</ele><time>2020-10-08T22:50:44Z</time><extensions><speed>0.000000</speed><course>33.750000</course><hAcc>5.000000</hAcc><vAcc>3.000000</vAcc></extensions></trkpt>
      <trkpt lon="-123.279342" lat="44.563329"><ele>70.458382</ele><time>2020-10-08T22:50:45Z</time><extensions><speed>0.000000</speed><course>33.750000</course><hAcc>5.000000</hAcc><vAcc>3.000000</vAcc></extensions></trkpt>
      <trkpt lon="-123.279342" lat="44.563329"><ele>70.677925</ele><time>2020-10-08T22:50:46Z</time><extensions><speed>0.000000</speed><course>33.750000</course><hAcc>5.000000</hAcc><vAcc>3.000000</vAcc></extensions></trkpt>
      <trkpt lon="-123.279381" lat="44.563339"><ele>69.972237</ele><time>2020-10-08T22:50:47Z</time><extensions><speed>0.210000</speed><course>233.789062</course><hAcc>5.000000</hAcc><vAcc>3.000000</vAcc></extensions></trkpt>
      <trkpt lon="-123.279381" lat="44.563339"><ele>70.133980</ele><time>2020-10-08T22:50:48Z</time><extensions><speed>0.000000</speed><course>33.750000</course><hAcc>5.000000</hAcc><vAcc>3.000000</vAcc></extensions></trkpt>
      <trkpt lon="-123.279380" lat="44.563336"><ele>70.128914</ele><time>2020-10-08T22:50:49Z</time><extensions><speed>0.190000</speed><course>206.367188</course><hAcc>5.000000</hAcc><vAcc>3.000000</vAcc></extensions></trkpt>
      <trkpt lon="-123.279380" lat="44.563336"><ele>70.043404</ele><time>2020-10-08T22:50:50Z</time><extensions><speed>0.000000</speed><course>199.335938</course><hAcc>5.000000</hAcc><vAcc>3.000000</vAcc></extensions></trkpt>
      <trkpt lon="-123.279380" lat="44.563336"><ele>70.153328</ele><time>2020-10-08T22:50:51Z</time><extensions><speed>0.000000</speed><course>199.335938</course><hAcc>5.000000</hAcc><vAcc>3.000000</vAcc></extensions></trkpt>
      <trkpt lon="-123.279380" lat="44.563336"><ele>70.131599</ele><time>2020-10-08T22:50:52Z</time><extensions><speed>0.000000</speed><course>199.335938</course><hAcc>5.000000</hAcc><vAcc>3.000000</vAcc></extensions></trkpt>
      <trkpt lon="-123.279380" lat="44.563336"><ele>70.109322</ele><time>2020-10-08T22:50:53Z</time><extensions><speed>0.000000</speed><course>199.335938</course><hAcc>5.000000</hAcc><vAcc>3.000000</vAcc></extensions></trkpt>
      <trkpt lon="-123.279380" lat="44.563336"><ele>69.989754</ele><time>2020-10-08T22:50:54Z</time><extensions><speed>0.000000</speed><course>199.335938</course><hAcc>5.000000</hAcc><vAcc>3.000000</vAcc></extensions></trkpt>
      <trkpt lon="-123.279380" lat="44.563336"><ele>69.787544</ele><time>2020-10-08T22:50:55Z</time><extensions><speed>0.000000</speed><course>199.335938</course><hAcc>5.000000</hAcc><vAcc>3.000000</vAcc></extensions></trkpt>
      <trkpt lon="-123.279381" lat="44.563339"><ele>69.631416</ele><time>2020-10-08T22:50:56Z</time><extensions><speed>0.360000</speed><course>352.265625</course><hAcc>5.000000</hAcc><vAcc>3.000000</vAcc></extensions></trkpt>
      <trkpt lon="-123.279386" lat="44.563344"><ele>69.460274</ele><time>2020-10-08T22:50:57Z</time><extensions><speed>0.610000</speed><course>325.546875</course><hAcc>5.000000</hAcc><vAcc>3.000000</vAcc></extensions></trkpt>
      <trkpt lon="-123.279397" lat="44.563350"><ele>68.832405</ele><time>2020-10-08T22:50:58Z</time><extensions><speed>0.610000</speed><course>308.320312</course><hAcc>5.000000</hAcc><vAcc>3.000000</vAcc></extensions></trkpt>
      <trkpt lon="-123.279414" lat="44.563348"><ele>68.382088</ele><time>2020-10-08T22:50:59Z</time><extensions><speed>0.630000</speed><course>205.664062</course><hAcc>5.000000</hAcc><vAcc>3.000000</vAcc></extensions></trkpt>
      <trkpt lon="-123.279430" lat="44.563337"><ele>67.314949</ele><time>2020-10-08T22:51:00Z</time><extensions><speed>1.580000</speed><course>188.437500</course><hAcc>5.000000</hAcc><vAcc>3.000000</vAcc></extensions></trkpt>
      <trkpt lon="-123.279440" lat="44.563317"><ele>67.117805</ele><time>2020-10-08T22:51:01Z</time><extensions><speed>2.740000</speed><course>184.218750</course><hAcc>5.000000</hAcc><vAcc>3.000000</vAcc></extensions></trkpt>
      <trkpt lon="-123.279449" lat="44.563291"><ele>67.425896</ele><time>2020-10-08T22:51:02Z</time><extensions><speed>3.140000</speed><course>189.843750</course><hAcc>5.000000</hAcc><vAcc>3.000000</vAcc></extensions></trkpt>
      <trkpt lon="-123.279469" lat="44.563266"><ele>66.844872</ele><time>2020-10-08T22:51:03Z</time><extensions><speed>3.140000</speed><course>204.960938</course><hAcc>5.000000</hAcc><vAcc>3.000000</vAcc></extensions></trkpt>
      <trkpt lon="-123.279510" lat="44.563251"><ele>66.760284</ele><time>2020-10-08T22:51:04Z</time><extensions><speed>3.390000</speed><course>235.898438</course><hAcc>5.000000</hAcc><vAcc>3.000000</vAcc></extensions></trkpt>
      <trkpt lon="-123.279566" lat="44.563248"><ele>66.522812</ele><time>2020-10-08T22:51:05Z</time><extensions><speed>3.830000</speed><course>260.859375</course><hAcc>5.000000</hAcc><vAcc>3.000000</vAcc></extensions></trkpt>
      <trkpt lon="-123.279616" lat="44.563278"><ele>66.616104</ele><time>2020-10-08T22:51:06Z</time><extensions><speed>5.010000</speed><course>343.476562</course><hAcc>5.000000</hAcc><vAcc>3.000000</vAcc></extensions></trkpt>
      <trkpt lon="-123.279654" lat="44.563331"><ele>66.563156</ele><time>2020-10-08T22:51:07Z</time><extensions><speed>5.010000</speed><course>352.265625</course><hAcc>5.000000</hAcc><vAcc>3.000000</vAcc></extensions></trkpt>
      <trkpt lon="-123.279673" lat="44.563396"><ele>66.603912</ele><time>2020-10-08T22:51:08Z</time><extensions><speed>5.330000</speed><course>344.531250</course><hAcc>5.000000</hAcc><vAcc>3.000000</vAcc></extensions></trkpt>
      <trkpt lon="-123.279690" lat="44.563464"><ele>66.758331</ele><time>2020-10-08T22:51:09Z</time><extensions><speed>6.020000</speed><course>342.070312</course><hAcc>5.000000</hAcc><vAcc>3.000000</vAcc></extensions></trkpt>
      <trkpt lon="-123.279711" lat="44.563530"><ele>66.597923</ele><time>2020-10-08T22:51:10Z</time><extensions><speed>6.480000</speed><course>342.070312</course><hAcc>5.000000</hAcc><vAcc>3.000000</vAcc></extensions></trkpt>
      <trkpt lon="-123.279736" lat="44.563597"><ele>67.019089</ele><time>2020-10-08T22:51:11Z</time><extensions><speed>6.560000</speed><course>342.070312</course><hAcc>5.000000</hAcc><vAcc>3.000000</vAcc></extensions></trkpt>
      <trkpt lon="-123.279762" lat="44.563664"><ele>67.205490</ele><time>2020-10-08T22:51:12Z</time><extensions><speed>6.560000</speed><course>341.718750</course><hAcc>5.000000</hAcc><vAcc>3.000000</vAcc></extensions></trkpt>
      <trkpt lon="-123.279771" lat="44.563757"><ele>67.387756</ele><time>2020-10-08T22:51:13Z</time><extensions><speed>6.870000</speed><course>344.882812</course><hAcc>5.000000</hAcc><vAcc>3.000000</vAcc></extensions></trkpt>
      <trkpt lon="-123.279789" lat="44.563833"><ele>67.689873</ele><time>2020-10-08T22:51:14Z</time><extensions><speed>7.090000</speed><course>351.210938</course><hAcc>5.000000</hAcc><vAcc>3.000000</vAcc></extensions></trkpt>
      <trkpt lon="-123.279812" lat="44.563906"><ele>68.723206</ele><time>2020-10-08T22:51:15Z</time><extensions><speed>7.730000</speed><course>342.421875</course><hAcc>5.000000</hAcc><vAcc>3.000000</vAcc></extensions></trkpt>
      <trkpt lon="-123.279864" lat="44.563981"><ele>68.700798</ele><time>2020-10-08T22:51:16Z</time><extensions><speed>7.730000</speed><course>342.070312</course><hAcc>5.000000</hAcc><vAcc>3.000000</vAcc></extensions></trkpt>
      <trkpt lon="-123.279892" lat="44.564039"><ele>69.157051</ele><time>2020-10-08T22:51:17Z</time><extensions><speed>7.240000</speed><course>345.234375</course><hAcc>5.000000</hAcc><vAcc>3.000000</vAcc></extensions></trkpt>
      <trkpt lon="-123.279924" lat="44.564113"><ele>69.665337</ele><time>2020-10-08T22:51:18Z</time><extensions><speed>5.900000</speed><course>351.210938</course><hAcc>5.000000</hAcc><vAcc>4.000000</vAcc></extensions></trkpt>
      <trkpt lon="-123.279927" lat="44.564161"><ele>69.699707</ele><time>2020-10-08T22:51:19Z</time><extensions><speed>5.930000</speed><course>358.593750</course><hAcc>5.000000</hAcc><vAcc>4.000000</vAcc></extensions></trkpt>
      <trkpt lon="-123.279928" lat="44.564213"><ele>70.000786</ele><time>2020-10-08T22:51:20Z</time><extensions><speed>5.890000</speed><course>358.242188</course><hAcc>5.000000</hAcc><vAcc>4.000000</vAcc></extensions></trkpt>
      <trkpt lon="-123.279930" lat="44.564267"><ele>69.748344</ele><time>2020-10-08T22:51:21Z</time><extensions><speed>6.250000</speed><course>358.593750</course><hAcc>5.000000</hAcc><vAcc>4.000000</vAcc></extensions></trkpt>
      <trkpt lon="-123.279920" lat="44.564327"><ele>70.513451</ele><time>2020-10-08T22:51:22Z</time><extensions><speed>6.410000</speed><course>358.593750</course><hAcc>5.000000</hAcc><vAcc>4.000000</vAcc></extensions></trkpt>
      <trkpt lon="-123.279923" lat="44.564393"><ele>70.715134</ele><time>2020-10-08T22:51:23Z</time><extensions><speed>7.830000</speed><course>355.429688</course><hAcc>5.000000</hAcc><vAcc>4.000000</vAcc></extensions></trkpt>
      <trkpt lon="-123.279926" lat="44.564460"><ele>70.966415</ele><time>2020-10-08T22:51:24Z</time><extensions><speed>7.320000</speed><course>354.375000</course><hAcc>5.000000</hAcc><vAcc>4.000000</vAcc></extensions></trkpt>
      <trkpt lon="-123.279923" lat="44.564520"><ele>71.285706</ele><time>2020-10-08T22:51:25Z</time><extensions><speed>7.310000</speed><course>357.890625</course><hAcc>5.000000</hAcc><vAcc>4.000000</vAcc></extensions></trkpt>
      <trkpt lon="-123.279928" lat="44.564588"><ele>70.916565</ele><time>2020-10-08T22:51:26Z</time><extensions><speed>7.390000</speed><course>3.515625</course><hAcc>5.000000</hAcc><vAcc>4.000000</vAcc></extensions></trkpt>
      <trkpt lon="-123.279932" lat="44.564656"><ele>71.481285</ele><time>2020-10-08T22:51:27Z</time><extensions><speed>7.760000</speed><course>359.296875</course><hAcc>5.000000</hAcc><vAcc>3.000000</vAcc></extensions></trkpt>
      <trkpt lon="-123.279905" lat="44.564703"><ele>71.314857</ele><time>2020-10-08T22:51:28Z</time><extensions><speed>8.110000</speed><course>1.757812</course><hAcc>5.000000</hAcc><vAcc>3.000000</vAcc></extensions></trkpt>
      <trkpt lon="-123.279914" lat="44.564778"><ele>71.307648</ele><time>2020-10-08T22:51:29Z</time><extensions><speed>8.750000</speed><course>355.781250</course><hAcc>5.000000</hAcc><vAcc>4.000000</vAcc></extensions></trkpt>
      <trkpt lon="-123.279916" lat="44.564861"><ele>71.585434</ele><time>2020-10-08T22:51:30Z</time><extensions><speed>8.670000</speed><course>357.187500</course><hAcc>5.000000</hAcc><vAcc>3.000000</vAcc></extensions></trkpt>
      <trkpt lon="-123.279921" lat="44.564929"><ele>71.701775</ele><time>2020-10-08T22:51:31Z</time><extensions><speed>7.910000</speed><course>357.187500</course><hAcc>5.000000</hAcc><vAcc>4.000000</vAcc></extensions></trkpt>
      <trkpt lon="-123.279904" lat="44.564977"><ele>71.712204</ele><time>2020-10-08T22:51:32Z</time><extensions><speed>7.150000</speed><course>4.921875</course><hAcc>5.000000</hAcc><vAcc>3.000000</vAcc></extensions></trkpt>
      <trkpt lon="-123.279908" lat="44.565053"><ele>71.743393</ele><time>2020-10-08T22:51:33Z</time><extensions><speed>7.900000</speed><course>357.890625</course><hAcc>5.000000</hAcc><vAcc>3.000000</vAcc></extensions></trkpt>
      <trkpt lon="-123.279901" lat="44.565123"><ele>71.729828</ele><time>2020-10-08T22:51:34Z</time><extensions><speed>7.960000</speed><course>3.867188</course><hAcc>5.000000</hAcc><vAcc>3.000000</vAcc></extensions></trkpt>
      <trkpt lon="-123.279892" lat="44.565190"><ele>71.569344</ele><time>2020-10-08T22:51:35Z</time><extensions><speed>8.080000</speed><course>4.921875</course><hAcc>5.000000</hAcc><vAcc>3.000000</vAcc></extensions></trkpt>
      <trkpt lon="-123.279883" lat="44.565263"><ele>71.630249</ele><time>2020-10-08T22:51:36Z</time><extensions><speed>8.080000</speed><course>4.921875</course><hAcc>5.000000</hAcc><vAcc>4.000000</vAcc></extensions></trkpt>
      <trkpt lon="-123.279882" lat="44.565341"><ele>72.070824</ele><time>2020-10-08T22:51:37Z</time><extensions><speed>7.840000</speed><course>4.921875</course><hAcc>5.000000</hAcc><vAcc>4.000000</vAcc></extensions></trkpt>
      <trkpt lon="-123.279877" lat="44.565402"><ele>71.923126</ele><time>2020-10-08T22:51:38Z</time><extensions><speed>7.290000</speed><course>2.812500</course><hAcc>5.000000</hAcc><vAcc>3.000000</vAcc></extensions></trkpt>
      <trkpt lon="-123.279875" lat="44.565462"><ele>71.836212</ele><time>2020-10-08T22:51:39Z</time><extensions><speed>7.250000</speed><course>359.296875</course><hAcc>5.000000</hAcc><vAcc>3.000000</vAcc></extensions></trkpt>
      <trkpt lon="-123.279892" lat="44.565537"><ele>71.808006</ele><time>2020-10-08T22:51:40Z</time><extensions><speed>7.790000</speed><course>355.781250</course><hAcc>5.000000</hAcc><vAcc>3.000000</vAcc></extensions></trkpt>
      <trkpt lon="-123.279881" lat="44.565595"><ele>71.691429</ele><time>2020-10-08T22:51:41Z</time><extensions><speed>7.480000</speed><course>359.648438</course><hAcc>5.000000</hAcc><vAcc>3.000000</vAcc></extensions></trkpt>
      <trkpt lon="-123.279871" lat="44.565656"><ele>71.870499</ele><time>2020-10-08T22:51:42Z</time><extensions><speed>7.170000</speed><course>2.460938</course><hAcc>5.000000</hAcc><vAcc>3.000000</vAcc></extensions></trkpt>
      <trkpt lon="-123.279913" lat="44.565735"><ele>71.999794</ele><time>2020-10-08T22:51:43Z</time><extensions><speed>7.820000</speed><course>349.101562</course><hAcc>5.000000</hAcc><vAcc>3.000000</vAcc></extensions></trkpt>
      <trkpt lon="-123.279931" lat="44.565804"><ele>72.441414</ele><time>2020-10-08T22:51:44Z</time><extensions><speed>7.820000</speed><course>349.101562</course><hAcc>5.000000</hAcc><vAcc>3.000000</vAcc></extensions></trkpt>
      <trkpt lon="-123.279936" lat="44.565853"><ele>72.276009</ele><time>2020-10-08T22:51:45Z</time><extensions><speed>6.730000</speed><course>355.078125</course><hAcc>5.000000</hAcc><vAcc>3.000000</vAcc></extensions></trkpt>
      <trkpt lon="-123.279932" lat="44.565909"><ele>72.349106</ele><time>2020-10-08T22:51:46Z</time><extensions><speed>7.200000</speed><course>351.914062</course><hAcc>5.000000</hAcc><vAcc>3.000000</vAcc></extensions></trkpt>
      <trkpt lon="-123.279964" lat="44.565979"><ele>72.440170</ele><time>2020-10-08T22:51:47Z</time><extensions><speed>6.860000</speed><course>350.859375</course><hAcc>5.000000</hAcc><vAcc>3.000000</vAcc></extensions></trkpt>
      <trkpt lon="-123.279948" lat="44.566024"><ele>72.276108</ele><time>2020-10-08T22:51:48Z</time><extensions><speed>6.150000</speed><course>359.296875</course><hAcc>5.000000</hAcc><vAcc>3.000000</vAcc></extensions></trkpt>
      <trkpt lon="-123.279939" lat="44.566076"><ele>72.517799</ele><time>2020-10-08T22:51:49Z</time><extensions><speed>6.060000</speed><course>6.679688</course><hAcc>5.000000</hAcc><vAcc>3.000000</vAcc></extensions></trkpt>
      <trkpt lon="-123.279941" lat="44.566146"><ele>72.612976</ele><time>2020-10-08T22:51:50Z</time><extensions><speed>7.010000</speed><course>357.187500</course><hAcc>5.000000</hAcc><vAcc>3.000000</vAcc></extensions></trkpt>
      <trkpt lon="-123.279946" lat="44.566201"><ele>72.505096</ele><time>2020-10-08T22:51:51Z</time><extensions><speed>6.500000</speed><course>353.320312</course><hAcc>5.000000</hAcc><vAcc>3.000000</vAcc></extensions></trkpt>
      <trkpt lon="-123.279948" lat="44.566254"><ele>72.739235</ele><time>2020-10-08T22:51:52Z</time><extensions><speed>6.120000</speed><course>354.023438</course><hAcc>5.000000</hAcc><vAcc>3.000000</vAcc></extensions></trkpt>
      <trkpt lon="-123.279958" lat="44.566319"><ele>72.750229</ele><time>2020-10-08T22:51:53Z</time><extensions><speed>6.890000</speed><course>352.968750</course><hAcc>5.000000</hAcc><vAcc>3.000000</vAcc></extensions></trkpt>
      <trkpt lon="-123.279969" lat="44.566380"><ele>72.832512</ele><time>2020-10-08T22:51:54Z</time><extensions><speed>6.890000</speed><course>352.968750</course><hAcc>5.000000</hAcc><vAcc>3.000000</vAcc></extensions></trkpt>
      <trkpt lon="-123.279954" lat="44.566436"><ele>73.026375</ele><time>2020-10-08T22:51:55Z</time><extensions><speed>6.920000</speed><course>358.945312</course><hAcc>5.000000</hAcc><vAcc>3.000000</vAcc></extensions></trkpt>
      <trkpt lon="-123.279947" lat="44.566519"><ele>73.661499</ele><time>2020-10-08T22:51:56Z</time><extensions><speed>7.110000</speed><course>2.109375</course><hAcc>5.000000</hAcc><vAcc>4.000000</vAcc></extensions></trkpt>
      <trkpt lon="-123.279932" lat="44.566575"><ele>73.753769</ele><time>2020-10-08T22:51:57Z</time><extensions><speed>7.010000</speed><course>2.812500</course><hAcc>5.000000</hAcc><vAcc>3.000000</vAcc></extensions></trkpt>
      <trkpt lon="-123.279909" lat="44.566630"><ele>73.916580</ele><time>2020-10-08T22:51:58Z</time><extensions><speed>7.010000</speed><course>1.406250</course><hAcc>5.000000</hAcc><vAcc>4.000000</vAcc></extensions></trkpt>
      <trkpt lon="-123.279904" lat="44.566694"><ele>73.859177</ele><time>2020-10-08T22:51:59Z</time><extensions><speed>6.640000</speed><course>0.000000</course><hAcc>5.000000</hAcc><vAcc>3.000000</vAcc></extensions></trkpt>
      <trkpt lon="-123.279917" lat="44.566758"><ele>73.806335</ele><time>2020-10-08T22:52:00Z</time><extensions><speed>6.180000</speed><course>0.351562</course><hAcc>5.000000</hAcc><vAcc>3.000000</vAcc></extensions></trkpt>
      <trkpt lon="-123.279914" lat="44.566811"><ele>73.698105</ele><time>2020-10-08T22:52:01Z</time><extensions><speed>5.680000</speed><course>359.648438</course><hAcc>5.000000</hAcc><vAcc>3.000000</vAcc></extensions></trkpt>
      <trkpt lon="-123.279912" lat="44.566866"><ele>73.729561</ele><time>2020-10-08T22:52:02Z</time><extensions><speed>5.880000</speed><course>356.132812</course><hAcc>5.000000</hAcc><vAcc>3.000000</vAcc></extensions></trkpt>
      <trkpt lon="-123.279908" lat="44.566913"><ele>74.005463</ele><time>2020-10-08T22:52:03Z</time><extensions><speed>5.880000</speed><course>356.484375</course><hAcc>5.000000</hAcc><vAcc>3.000000</vAcc></extensions></trkpt>
      <trkpt lon="-123.279882" lat="44.566948"><ele>73.717964</ele><time>2020-10-08T22:52:04Z</time><extensions><speed>5.820000</speed><course>359.648438</course><hAcc>5.000000</hAcc><vAcc>3.000000</vAcc></extensions></trkpt>
      <trkpt lon="-123.279876" lat="44.566999"><ele>73.570335</ele><time>2020-10-08T22:52:05Z</time><extensions><speed>5.740000</speed><course>3.515625</course><hAcc>5.000000</hAcc><vAcc>3.000000</vAcc></extensions></trkpt>
      <trkpt lon="-123.279894" lat="44.567058"><ele>73.367439</ele><time>2020-10-08T22:52:06Z</time><extensions><speed>5.850000</speed><course>358.945312</course><hAcc>5.000000</hAcc><vAcc>4.000000</vAcc></extensions></trkpt>
      <trkpt lon="-123.279885" lat="44.567098"><ele>73.267517</ele><time>2020-10-08T22:52:07Z</time><extensions><speed>5.850000</speed><course>357.890625</course><hAcc>5.000000</hAcc><vAcc>4.000000</vAcc></extensions></trkpt>
      <trkpt lon="-123.279895" lat="44.567154"><ele>73.276817</ele><time>2020-10-08T22:52:08Z</time><extensions><speed>5.470000</speed><course>357.187500</course><hAcc>5.000000</hAcc><vAcc>4.000000</vAcc></extensions></trkpt>
      <trkpt lon="-123.279886" lat="44.567192"><ele>73.366905</ele><time>2020-10-08T22:52:09Z</time><extensions><speed>5.210000</speed><course>2.812500</course><hAcc>5.000000</hAcc><vAcc>4.000000</vAcc></extensions></trkpt>
      <trkpt lon="-123.279873" lat="44.567227"><ele>73.266281</ele><time>2020-10-08T22:52:10Z</time><extensions><speed>4.890000</speed><course>4.218750</course><hAcc>5.000000</hAcc><vAcc>4.000000</vAcc></extensions></trkpt>
      <trkpt lon="-123.279868" lat="44.567267"><ele>73.506699</ele><time>2020-10-08T22:52:11Z</time><extensions><speed>4.890000</speed><course>2.460938</course><hAcc>5.000000</hAcc><vAcc>4.000000</vAcc></extensions></trkpt>
      <trkpt lon="-123.279871" lat="44.567314"><ele>73.622490</ele><time>2020-10-08T22:52:12Z</time><extensions><speed>4.890000</speed><course>1.406250</course><hAcc>5.000000</hAcc><vAcc>4.000000</vAcc></extensions></trkpt>
      <trkpt lon="-123.279853" lat="44.567356"><ele>73.625626</ele><time>2020-10-08T22:52:13Z</time><extensions><speed>4.750000</speed><course>15.468750</course><hAcc>5.000000</hAcc><vAcc>4.000000</vAcc></extensions></trkpt>
      <trkpt lon="-123.279835" lat="44.567385"><ele>73.493607</ele><time>2020-10-08T22:52:14Z</time><extensions><speed>4.470000</speed><course>3.164062</course><hAcc>5.000000</hAcc><vAcc>4.000000</vAcc></extensions></trkpt>
      <trkpt lon="-123.279832" lat="44.567425"><ele>73.534775</ele><time>2020-10-08T22:52:15Z</time><extensions><speed>4.470000</speed><course>3.164062</course><hAcc>5.000000</hAcc><vAcc>4.000000</vAcc></extensions></trkpt>
      <trkpt lon="-123.279847" lat="44.567469"><ele>73.443626</ele><time>2020-10-08T22:52:16Z</time><extensions><speed>4.990000</speed><course>1.757812</course><hAcc>5.000000</hAcc><vAcc>4.000000</vAcc></extensions></trkpt>
      <trkpt lon="-123.279855" lat="44.567517"><ele>73.673416</ele><time>2020-10-08T22:52:17Z</time><extensions><speed>4.990000</speed><course>354.726562</course><hAcc>5.000000</hAcc><vAcc>4.000000</vAcc></extensions></trkpt>
      <trkpt lon="-123.279855" lat="44.567563"><ele>73.683723</ele><time>2020-10-08T22:52:18Z</time><extensions><speed>4.990000</speed><course>351.914062</course><hAcc>5.000000</hAcc><vAcc>4.000000</vAcc></extensions></trkpt>
      <trkpt lon="-123.279849" lat="44.567592"><ele>73.398033</ele><time>2020-10-08T22:52:19Z</time><extensions><speed>3.090000</speed><course>3.515625</course><hAcc>5.000000</hAcc><vAcc>4.000000</vAcc></extensions></trkpt>
      <trkpt lon="-123.279849" lat="44.567656"><ele>73.472160</ele><time>2020-10-08T22:52:20Z</time><extensions><speed>5.430000</speed><course>3.515625</course><hAcc>5.000000</hAcc><vAcc>4.000000</vAcc></extensions></trkpt>
      <trkpt lon="-123.279856" lat="44.567712"><ele>73.581841</ele><time>2020-10-08T22:52:21Z</time><extensions><speed>5.200000</speed><course>1.757812</course><hAcc>5.000000</hAcc><vAcc>4.000000</vAcc></extensions></trkpt>
      <trkpt lon="-123.279859" lat="44.567757"><ele>73.580742</ele><time>2020-10-08T22:52:22Z</time><extensions><speed>5.200000</speed><course>0.351562</course><hAcc>5.000000</hAcc><vAcc>4.000000</vAcc></extensions></trkpt>
      <trkpt lon="-123.279868" lat="44.567818"><ele>74.056992</ele><time>2020-10-08T22:52:23Z</time><extensions><speed>5.200000</speed><course>356.484375</course><hAcc>5.000000</hAcc><vAcc>4.000000</vAcc></extensions></trkpt>
      <trkpt lon="-123.279873" lat="44.567898"><ele>74.288498</ele><time>2020-10-08T22:52:24Z</time><extensions><speed>6.570000</speed><course>351.562500</course><hAcc>5.000000</hAcc><vAcc>4.000000</vAcc></extensions></trkpt>
      <trkpt lon="-123.279895" lat="44.567959"><ele>74.615311</ele><time>2020-10-08T22:52:25Z</time><extensions><speed>6.570000</speed><course>350.507812</course><hAcc>5.000000</hAcc><vAcc>4.000000</vAcc></extensions></trkpt>
      <trkpt lon="-123.279896" lat="44.568025"><ele>74.750946</ele><time>2020-10-08T22:52:26Z</time><extensions><speed>6.570000</speed><course>0.000000</course><hAcc>5.000000</hAcc><vAcc>4.000000</vAcc></extensions></trkpt>
      <trkpt lon="-123.279892" lat="44.568092"><ele>74.594597</ele><time>2020-10-08T22:52:27Z</time><extensions><speed>7.080000</speed><course>1.406250</course><hAcc>5.000000</hAcc><vAcc>4.000000</vAcc></extensions></trkpt>
      <trkpt lon="-123.279922" lat="44.568181"><ele>74.339943</ele><time>2020-10-08T22:52:28Z</time><extensions><speed>7.320000</speed><course>0.351562</course><hAcc>5.000000</hAcc><vAcc>4.000000</vAcc></extensions></trkpt>
      <trkpt lon="-123.279934" lat="44.568253"><ele>74.684479</ele><time>2020-10-08T22:52:29Z</time><extensions><speed>8.330000</speed><course>355.781250</course><hAcc>5.000000</hAcc><vAcc>4.000000</vAcc></extensions></trkpt>
      <trkpt lon="-123.279943" lat="44.568325"><ele>74.592110</ele><time>2020-10-08T22:52:30Z</time><extensions><speed>8.440000</speed><course>355.078125</course><hAcc>5.000000</hAcc><vAcc>4.000000</vAcc></extensions></trkpt>
      <trkpt lon="-123.279952" lat="44.568401"><ele>74.692780</ele><time>2020-10-08T22:52:31Z</time><extensions><speed>8.440000</speed><course>355.078125</course><hAcc>5.000000</hAcc><vAcc>4.000000</vAcc></extensions></trkpt>
      <trkpt lon="-123.279945" lat="44.568477"><ele>74.556038</ele><time>2020-10-08T22:52:32Z</time><extensions><speed>8.610000</speed><course>0.703125</course><hAcc>5.000000</hAcc><vAcc>4.000000</vAcc></extensions></trkpt>
      <trkpt lon="-123.279972" lat="44.568565"><ele>74.832710</ele><time>2020-10-08T22:52:33Z</time><extensions><speed>8.390000</speed><course>352.968750</course><hAcc>5.000000</hAcc><vAcc>3.000000</vAcc></extensions></trkpt>
      <trkpt lon="-123.279978" lat="44.568641"><ele>74.446190</ele><time>2020-10-08T22:52:34Z</time><extensions><speed>8.650000</speed><course>355.781250</course><hAcc>5.000000</hAcc><vAcc>3.000000</vAcc></extensions></trkpt>
      <trkpt lon="-123.279973" lat="44.568708"><ele>74.635620</ele><time>2020-10-08T22:52:35Z</time><extensions><speed>8.290000</speed><course>0.000000</course><hAcc>5.000000</hAcc><vAcc>3.000000</vAcc></extensions></trkpt>
      <trkpt lon="-123.279964" lat="44.568770"><ele>74.094795</ele><time>2020-10-08T22:52:36Z</time><extensions><speed>7.530000</speed><course>357.890625</course><hAcc>5.000000</hAcc><vAcc>3.000000</vAcc></extensions></trkpt>
      <trkpt lon="-123.279974" lat="44.568837"><ele>73.549820</ele><time>2020-10-08T22:52:37Z</time><extensions><speed>7.060000</speed><course>354.023438</course><hAcc>5.000000</hAcc><vAcc>3.000000</vAcc></extensions></trkpt>
      <trkpt lon="-123.280004" lat="44.568899"><ele>73.101028</ele><time>2020-10-08T22:52:38Z</time><extensions><speed>6.700000</speed><course>342.070312</course><hAcc>5.000000</hAcc><vAcc>3.000000</vAcc></extensions></trkpt>
      <trkpt lon="-123.280036" lat="44.568954"><ele>73.516617</ele><time>2020-10-08T22:52:39Z</time><extensions><speed>6.220000</speed><course>336.796875</course><hAcc>5.000000</hAcc><vAcc>3.000000</vAcc></extensions></trkpt>
      <trkpt lon="-123.280092" lat="44.569010"><ele>73.736275</ele><time>2020-10-08T22:52:40Z</time><extensions><speed>6.210000</speed><course>321.679688</course><hAcc>5.000000</hAcc><vAcc>3.000000</vAcc></extensions></trkpt>
      <trkpt lon="-123.280155" lat="44.569047"><ele>73.012115</ele><time>2020-10-08T22:52:41Z</time><extensions><speed>5.780000</speed><course>307.968750</course><hAcc>5.000000</hAcc><vAcc>3.000000</vAcc></extensions></trkpt>
      <trkpt lon="-123.280210" lat="44.569078"><ele>73.153915</ele><time>2020-10-08T22:52:42Z</time><extensions><speed>5.770000</speed><course>309.023438</course><hAcc>5.000000</hAcc><vAcc>3.000000</vAcc></extensions></trkpt>
      <trkpt lon="-123.280252" lat="44.569124"><ele>72.831207</ele><time>2020-10-08T22:52:43Z</time><extensions><speed>5.720000</speed><course>321.328125</course><hAcc>5.000000</hAcc><vAcc>3.000000</vAcc></extensions></trkpt>
      <trkpt lon="-123.280297" lat="44.569164"><ele>73.202103</ele><time>2020-10-08T22:52:44Z</time><extensions><speed>5.720000</speed><course>321.328125</course><hAcc>5.000000</hAcc><vAcc>3.000000</vAcc></extensions></trkpt>
      <trkpt lon="-123.280262" lat="44.569206"><ele>73.166985</ele><time>2020-10-08T22:52:45Z</time><extensions><speed>5.620000</speed><course>348.750000</course><hAcc>5.000000</hAcc><vAcc>3.000000</vAcc></extensions></trkpt>
      <trkpt lon="-123.280263" lat="44.569251"><ele>73.246529</ele><time>2020-10-08T22:52:46Z</time><extensions><speed>5.620000</speed><course>356.132812</course><hAcc>5.000000</hAcc><vAcc>3.000000</vAcc></extensions></trkpt>
      <trkpt lon="-123.280266" lat="44.569304"><ele>72.721367</ele><time>2020-10-08T22:52:47Z</time><extensions><speed>5.620000</speed><course>352.265625</course><hAcc>5.000000</hAcc><vAcc>3.000000</vAcc></extensions></trkpt>
      <trkpt lon="-123.280300" lat="44.569360"><ele>73.056335</ele><time>2020-10-08T22:52:48Z</time><extensions><speed>5.960000</speed><course>341.367188</course><hAcc>5.000000</hAcc><vAcc>3.000000</vAcc></extensions></trkpt>
      <trkpt lon="-123.280365" lat="44.569406"><ele>73.162422</ele><time>2020-10-08T22:52:49Z</time><extensions><speed>6.730000</speed><course>324.492188</course><hAcc>5.000000</hAcc><vAcc>3.000000</vAcc></extensions></trkpt>
      <trkpt lon="-123.280424" lat="44.569455"><ele>73.365364</ele><time>2020-10-08T22:52:50Z</time><extensions><speed>6.730000</speed><course>320.976562</course><hAcc>5.000000</hAcc><vAcc>3.000000</vAcc></extensions></trkpt>
      <trkpt lon="-123.280520" lat="44.569516"><ele>73.108887</ele><time>2020-10-08T22:52:51Z</time><extensions><speed>6.730000</speed><course>319.921875</course><hAcc>5.000000</hAcc><vAcc>3.000000</vAcc></extensions></trkpt>
      <trkpt lon="-123.280585" lat="44.569565"><ele>73.642578</ele><time>2020-10-08T22:52:52Z</time><extensions><speed>7.410000</speed><course>320.976562</course><hAcc>5.000000</hAcc><vAcc>3.000000</vAcc></extensions></trkpt>
      <trkpt lon="-123.280652" lat="44.569599"><ele>73.501572</ele><time>2020-10-08T22:52:53Z</time><extensions><speed>7.110000</speed><course>317.109375</course><hAcc>5.000000</hAcc><vAcc>3.000000</vAcc></extensions></trkpt>
      <trkpt lon="-123.280713" lat="44.569647"><ele>73.643768</ele><time>2020-10-08T22:52:54Z</time><extensions><speed>7.640000</speed><course>320.273438</course><hAcc>5.000000</hAcc><vAcc>3.000000</vAcc></extensions></trkpt>
      <trkpt lon="-123.280773" lat="44.569705"><ele>74.140167</ele><time>2020-10-08T22:52:55Z</time><extensions><speed>7.620000</speed><course>319.218750</course><hAcc>5.000000</hAcc><vAcc>3.000000</vAcc></extensions></trkpt>
      <trkpt lon="-123.280820" lat="44.569762"><ele>74.477386</ele><time>2020-10-08T22:52:56Z</time><extensions><speed>7.080000</speed><course>319.921875</course><hAcc>5.000000</hAcc><vAcc>3.000000</vAcc></extensions></trkpt>
      <trkpt lon="-123.280877" lat="44.569811"><ele>74.752617</ele><time>2020-10-08T22:52:57Z</time><extensions><speed>7.080000</speed><course>319.921875</course><hAcc>5.000000</hAcc><vAcc>3.000000</vAcc></extensions></trkpt>
      <trkpt lon="-123.280975" lat="44.569880"><ele>74.920296</ele><time>2020-10-08T22:52:58Z</time><extensions><speed>9.630000</speed><course>317.460938</course><hAcc>5.000000</hAcc><vAcc>3.000000</vAcc></extensions></trkpt>
      <trkpt lon="-123.281042" lat="44.569941"><ele>74.762611</ele><time>2020-10-08T22:52:59Z</time><extensions><speed>9.190000</speed><course>319.218750</course><hAcc>5.000000</hAcc><vAcc>3.000000</vAcc></extensions></trkpt>
      <trkpt lon="-123.281155" lat="44.570001"><ele>74.278679</ele><time>2020-10-08T22:53:00Z</time><extensions><speed>9.520000</speed><course>306.914062</course><hAcc>5.000000</hAcc><vAcc>3.000000</vAcc></extensions></trkpt>
      <trkpt lon="-123.281212" lat="44.570048"><ele>74.082054</ele><time>2020-10-08T22:53:01Z</time><extensions><speed>8.120000</speed><course>315.000000</course><hAcc>5.000000</hAcc><vAcc>3.000000</vAcc></extensions></trkpt>
      <trkpt lon="-123.281284" lat="44.570100"><ele>74.290237</ele><time>2020-10-08T22:53:02Z</time><extensions><speed>8.120000</speed><course>315.000000</course><hAcc>5.000000</hAcc><vAcc>3.000000</vAcc></extensions></trkpt>
      <trkpt lon="-123.281315" lat="44.570151"><ele>73.573364</ele><time>2020-10-08T22:53:03Z</time><extensions><speed>8.050000</speed><course>318.515625</course><hAcc>5.000000</hAcc><vAcc>3.000000</vAcc></extensions></trkpt>
      <trkpt lon="-123.281371" lat="44.570206"><ele>73.745049</ele><time>2020-10-08T22:53:04Z</time><extensions><speed>7.850000</speed><course>318.867188</course><hAcc>5.000000</hAcc><vAcc>3.000000</vAcc></extensions></trkpt>
      <trkpt lon="-123.281436" lat="44.570260"><ele>73.905762</ele><time>2020-10-08T22:53:05Z</time><extensions><speed>7.850000</speed><course>318.867188</course><hAcc>5.000000</hAcc><vAcc>3.000000</vAcc></extensions></trkpt>
      <trkpt lon="-123.281564" lat="44.570338"><ele>73.876816</ele><time>2020-10-08T22:53:06Z</time><extensions><speed>9.980000</speed><course>319.570312</course><hAcc>5.000000</hAcc><vAcc>3.000000</vAcc></extensions></trkpt>
      <trkpt lon="-123.281647" lat="44.570397"><ele>73.820221</ele><time>2020-10-08T22:53:07Z</time><extensions><speed>9.230000</speed><course>316.406250</course><hAcc>5.000000</hAcc><vAcc>3.000000</vAcc></extensions></trkpt>
      <trkpt lon="-123.281673" lat="44.570429"><ele>73.825958</ele><time>2020-10-08T22:53:08Z</time><extensions><speed>7.160000</speed><course>318.164062</course><hAcc>5.000000</hAcc><vAcc>3.000000</vAcc></extensions></trkpt>
      <trkpt lon="-123.281752" lat="44.570481"><ele>72.610115</ele><time>2020-10-08T22:53:09Z</time><extensions><speed>6.670000</speed><course>322.382812</course><hAcc>5.000000</hAcc><vAcc>3.000000</vAcc></extensions></trkpt>
      <trkpt lon="-123.281795" lat="44.570528"><ele>73.241440</ele><time>2020-10-08T22:53:10Z</time><extensions><speed>6.550000</speed><course>323.437500</course><hAcc>5.000000</hAcc><vAcc>3.000000</vAcc></extensions></trkpt>
      <trkpt lon="-123.281841" lat="44.570564"><ele>73.447044</ele><time>2020-10-08T22:53:11Z</time><extensions><speed>6.000000</speed><course>322.031250</course><hAcc>5.000000</hAcc><vAcc>3.000000</vAcc></extensions></trkpt>
      <trkpt lon="-123.281877" lat="44.570589"><ele>73.403442</ele><time>2020-10-08T22:53:12Z</time><extensions><speed>4.930000</speed><course>319.921875</course><hAcc>5.000000</hAcc><vAcc>3.000000</vAcc></extensions></trkpt>
      <trkpt lon="-123.281911" lat="44.570623"><ele>73.364799</ele><time>2020-10-08T22:53:13Z</time><extensions><speed>5.090000</speed><course>321.679688</course><hAcc>5.000000</hAcc><vAcc>3.000000</vAcc></extensions></trkpt>
      <trkpt lon="-123.281951" lat="44.570656"><ele>73.171989</ele><time>2020-10-08T22:53:14Z</time><extensions><speed>4.930000</speed><course>322.382812</course><hAcc>5.000000</hAcc><vAcc>3.000000</vAcc></extensions></trkpt>
      <trkpt lon="-123.282005" lat="44.570706"><ele>73.193703</ele><time>2020-10-08T22:53:15Z</time><extensions><speed>5.650000</speed><course>322.031250</course><hAcc>5.000000</hAcc><vAcc>3.000000</vAcc></extensions></trkpt>
      <trkpt lon="-123.282040" lat="44.570736"><ele>73.320274</ele><time>2020-10-08T22:53:16Z</time><extensions><speed>5.520000</speed><course>317.460938</course><hAcc>5.000000</hAcc><vAcc>3.000000</vAcc></extensions></trkpt>
      <trkpt lon="-123.282088" lat="44.570770"><ele>73.014053</ele><time>2020-10-08T22:53:17Z</time><extensions><speed>5.520000</speed><course>319.570312</course><hAcc>5.000000</hAcc><vAcc>3.000000</vAcc></extensions></trkpt>
      <trkpt lon="-123.282158" lat="44.570815"><ele>73.229202</ele><time>2020-10-08T22:53:18Z</time><extensions><speed>5.520000</speed><course>316.757812</course><hAcc>5.000000</hAcc><vAcc>3.000000</vAcc></extensions></trkpt>
      <trkpt lon="-123.282210" lat="44.570855"><ele>73.211456</ele><time>2020-10-08T22:53:19Z</time><extensions><speed>6.090000</speed><course>316.757812</course><hAcc>5.000000</hAcc><vAcc>3.000000</vAcc></extensions></trkpt>
      <trkpt lon="-123.282279" lat="44.570900"><ele>73.312752</ele><time>2020-10-08T22:53:20Z</time><extensions><speed>6.090000</speed><course>318.515625</course><hAcc>5.000000</hAcc><vAcc>3.000000</vAcc></extensions></trkpt>
      <trkpt lon="-123.282316" lat="44.570933"><ele>73.370499</ele><time>2020-10-08T22:53:21Z</time><extensions><speed>5.890000</speed><course>316.054688</course><hAcc>5.000000</hAcc><vAcc>3.000000</vAcc></extensions></trkpt>
      <trkpt lon="-123.282363" lat="44.570988"><ele>73.326393</ele><time>2020-10-08T22:53:22Z</time><extensions><speed>6.100000</speed><course>322.382812</course><hAcc>5.000000</hAcc><vAcc>3.000000</vAcc></extensions></trkpt>
      <trkpt lon="-123.282380" lat="44.571019"><ele>73.451599</ele><time>2020-10-08T22:53:23Z</time><extensions><speed>5.890000</speed><course>331.875000</course><hAcc>5.000000</hAcc><vAcc>3.000000</vAcc></extensions></trkpt>
      <trkpt lon="-123.282421" lat="44.571041"><ele>73.114914</ele><time>2020-10-08T22:53:24Z</time><extensions><speed>5.390000</speed><course>315.703125</course><hAcc>5.000000</hAcc><vAcc>3.000000</vAcc></extensions></trkpt>
      <trkpt lon="-123.282427" lat="44.571060"><ele>73.363701</ele><time>2020-10-08T22:53:25Z</time><extensions><speed>4.620000</speed><course>320.976562</course><hAcc>5.000000</hAcc><vAcc>3.000000</vAcc></extensions></trkpt>
      <trkpt lon="-123.282510" lat="44.571109"><ele>73.579445</ele><time>2020-10-08T22:53:26Z</time><extensions><speed>5.410000</speed><course>320.273438</course><hAcc>5.000000</hAcc><vAcc>3.000000</vAcc></extensions></trkpt>
      <trkpt lon="-123.282601" lat="44.571153"><ele>73.446793</ele><time>2020-10-08T22:53:27Z</time><extensions><speed>5.250000</speed><course>310.781250</course><hAcc>5.000000</hAcc><vAcc>3.000000</vAcc></extensions></trkpt>
      <trkpt lon="-123.282642" lat="44.571193"><ele>73.323456</ele><time>2020-10-08T22:53:28Z</time><extensions><speed>5.270000</speed><course>321.328125</course><hAcc>5.000000</hAcc><vAcc>3.000000</vAcc></extensions></trkpt>
      <trkpt lon="-123.282649" lat="44.571232"><ele>73.258469</ele><time>2020-10-08T22:53:29Z</time><extensions><speed>5.220000</speed><course>323.437500</course><hAcc>5.000000</hAcc><vAcc>3.000000</vAcc></extensions></trkpt>
      <trkpt lon="-123.282704" lat="44.571276"><ele>73.095566</ele><time>2020-10-08T22:53:30Z</time><extensions><speed>5.220000</speed><course>327.656250</course><hAcc>5.000000</hAcc><vAcc>3.000000</vAcc></extensions></trkpt>
      <trkpt lon="-123.282766" lat="44.571318"><ele>72.841843</ele><time>2020-10-08T22:53:31Z</time><extensions><speed>5.000000</speed><course>325.195312</course><hAcc>5.000000</hAcc><vAcc>3.000000</vAcc></extensions></trkpt>
      <trkpt lon="-123.282825" lat="44.571370"><ele>72.833130</ele><time>2020-10-08T22:53:32Z</time><extensions><speed>5.000000</speed><course>324.492188</course><hAcc>5.000000</hAcc><vAcc>3.000000</vAcc></extensions></trkpt>
      <trkpt lon="-123.282869" lat="44.571414"><ele>72.774284</ele><time>2020-10-08T22:53:33Z</time><extensions><speed>5.080000</speed><course>322.734375</course><hAcc>5.000000</hAcc><vAcc>3.000000</vAcc></extensions></trkpt>
      <trkpt lon="-123.282900" lat="44.571450"><ele>72.711266</ele><time>2020-10-08T22:53:34Z</time><extensions><speed>4.600000</speed><course>323.437500</course><hAcc>5.000000</hAcc><vAcc>3.000000</vAcc></extensions></trkpt>
      <trkpt lon="-123.282935" lat="44.571483"><ele>72.233101</ele><time>2020-10-08T22:53:35Z</time><extensions><speed>4.600000</speed><course>323.437500</course><hAcc>5.000000</hAcc><vAcc>3.000000</vAcc></extensions></trkpt>
      <trkpt lon="-123.282983" lat="44.571517"><ele>72.294922</ele><time>2020-10-08T22:53:36Z</time><extensions><speed>4.600000</speed><course>316.757812</course><hAcc>5.000000</hAcc><vAcc>3.000000</vAcc></extensions></trkpt>
      <trkpt lon="-123.283012" lat="44.571533"><ele>72.087852</ele><time>2020-10-08T22:53:37Z</time><extensions><speed>3.800000</speed><course>316.406250</course><hAcc>5.000000</hAcc><vAcc>3.000000</vAcc></extensions></trkpt>
      <trkpt lon="-123.283043" lat="44.571550"><ele>71.971443</ele><time>2020-10-08T22:53:38Z</time><extensions><speed>3.740000</speed><course>317.109375</course><hAcc>5.000000</hAcc><vAcc>3.000000</vAcc></extensions></trkpt>
      <trkpt lon="-123.283075" lat="44.571575"><ele>71.961548</ele><time>2020-10-08T22:53:39Z</time><extensions><speed>3.740000</speed><course>317.109375</course><hAcc>5.000000</hAcc><vAcc>3.000000</vAcc></extensions></trkpt>
      <trkpt lon="-123.283110" lat="44.571622"><ele>72.041008</ele><time>2020-10-08T22:53:40Z</time><extensions><speed>4.760000</speed><course>323.085938</course><hAcc>5.000000</hAcc><vAcc>3.000000</vAcc></extensions></trkpt>
      <trkpt lon="-123.283126" lat="44.571641"><ele>72.082497</ele><time>2020-10-08T22:53:41Z</time><extensions><speed>3.740000</speed><course>322.734375</course><hAcc>5.000000</hAcc><vAcc>3.000000</vAcc></extensions></trkpt>
      <trkpt lon="-123.283135" lat="44.571645"><ele>72.037437</ele><time>2020-10-08T22:53:42Z</time><extensions><speed>3.520000</speed><course>315.000000</course><hAcc>5.000000</hAcc><vAcc>3.000000</vAcc></extensions></trkpt>
      <trkpt lon="-123.283122" lat="44.571644"><ele>72.112564</ele><time>2020-10-08T22:53:43Z</time><extensions><speed>0.720000</speed><course>138.164062</course><hAcc>5.000000</hAcc><vAcc>3.000000</vAcc></extensions></trkpt>
      <trkpt lon="-123.283118" lat="44.571645"><ele>72.124649</ele><time>2020-10-08T22:53:44Z</time><extensions><speed>0.240000</speed><course>321.679688</course><hAcc>5.000000</hAcc><vAcc>3.000000</vAcc></extensions></trkpt>
      <trkpt lon="-123.283116" lat="44.571647"><ele>72.067581</ele><time>2020-10-08T22:53:45Z</time><extensions><speed>0.330000</speed><course>58.007812</course><hAcc>5.000000</hAcc><vAcc>3.000000</vAcc></extensions></trkpt>
      <trkpt lon="-123.283114" lat="44.571649"><ele>72.245026</ele><time>2020-10-08T22:53:46Z</time><extensions><speed>0.240000</speed><course>344.179688</course><hAcc>5.000000</hAcc><vAcc>3.000000</vAcc></extensions></trkpt>
      <trkpt lon="-123.283117" lat="44.571652"><ele>72.173096</ele><time>2020-10-08T22:53:47Z</time><extensions><speed>0.330000</speed><course>27.070312</course><hAcc>5.000000</hAcc><vAcc>3.000000</vAcc></extensions></trkpt>
      <trkpt lon="-123.283126" lat="44.571654"><ele>72.231651</ele><time>2020-10-08T22:53:48Z</time><extensions><speed>0.420000</speed><course>292.851562</course><hAcc>5.000000</hAcc><vAcc>3.000000</vAcc></extensions></trkpt>
      <trkpt lon="-123.283126" lat="44.571654"><ele>72.253174</ele><time>2020-10-08T22:53:49Z</time><extensions><speed>0.000000</speed><course>302.695312</course><hAcc>5.000000</hAcc><vAcc>3.000000</vAcc></extensions></trkpt>
      <trkpt lon="-123.283126" lat="44.571654"><ele>72.242325</ele><time>2020-10-08T22:53:50Z</time><extensions><speed>0.000000</speed><course>202.500000</course><hAcc>5.000000</hAcc><vAcc>3.000000</vAcc></extensions></trkpt>
      <trkpt lon="-123.283126" lat="44.571654"><ele>72.270622</ele><time>2020-10-08T22:53:51Z</time><extensions><speed>0.000000</speed><course>121.992188</course><hAcc>5.000000</hAcc><vAcc>3.000000</vAcc></extensions></trkpt>
      <trkpt lon="-123.283126" lat="44.571654"><ele>72.192993</ele><time>2020-10-08T22:53:52Z</time><extensions><speed>0.000000</speed><course>121.992188</course><hAcc>5.000000</hAcc><vAcc>3.000000</vAcc></extensions></trkpt>
      <trkpt lon="-123.283126" lat="44.571654"><ele>72.257233</ele><time>2020-10-08T22:53:53Z</time><extensions><speed>0.000000</speed><course>121.992188</course><hAcc>5.000000</hAcc><vAcc>3.000000</vAcc></extensions></trkpt>
      <trkpt lon="-123.283126" lat="44.571654"><ele>72.259857</ele><time>2020-10-08T22:53:54Z</time><extensions><speed>0.000000</speed><course>121.992188</course><hAcc>5.000000</hAcc><vAcc>3.000000</vAcc></extensions></trkpt>
      <trkpt lon="-123.283126" lat="44.571654"><ele>72.221664</ele><time>2020-10-08T22:53:55Z</time><extensions><speed>0.000000</speed><course>121.992188</course><hAcc>5.000000</hAcc><vAcc>3.000000</vAcc></extensions></trkpt>
      <trkpt lon="-123.283126" lat="44.571654"><ele>72.288689</ele><time>2020-10-08T22:53:56Z</time><extensions><speed>0.000000</speed><course>121.992188</course><hAcc>5.000000</hAcc><vAcc>3.000000</vAcc></extensions></trkpt>
      <trkpt lon="-123.283187" lat="44.571670"><ele>72.323837</ele><time>2020-10-08T22:53:57Z</time><extensions><speed>0.000000</speed><course>121.992188</course><hAcc>5.000000</hAcc><vAcc>3.000000</vAcc></extensions></trkpt>
      <trkpt lon="-123.283193" lat="44.571670"><ele>72.172974</ele><time>2020-10-08T22:53:58Z</time><extensions><speed>0.180000</speed><course>246.093750</course><hAcc>5.000000</hAcc><vAcc>3.000000</vAcc></extensions></trkpt>
      <trkpt lon="-123.283197" lat="44.571671"><ele>72.241493</ele><time>2020-10-08T22:53:59Z</time><extensions><speed>0.190000</speed><course>312.187500</course><hAcc>5.000000</hAcc><vAcc>3.000000</vAcc></extensions></trkpt>
      <trkpt lon="-123.283199" lat="44.571671"><ele>72.483009</ele><time>2020-10-08T22:54:00Z</time><extensions><speed>0.220000</speed><course>285.117188</course><hAcc>5.000000</hAcc><vAcc>3.000000</vAcc></extensions></trkpt>
      <trkpt lon="-123.283210" lat="44.571669"><ele>72.246391</ele><time>2020-10-08T22:54:01Z</time><extensions><speed>0.220000</speed><course>241.171875</course><hAcc>5.000000</hAcc><vAcc>3.000000</vAcc></extensions></trkpt>
      <trkpt lon="-123.283210" lat="44.571669"><ele>72.327568</ele><time>2020-10-08T22:54:02Z</time><extensions><speed>0.000000</speed><course>238.359375</course><hAcc>5.000000</hAcc><vAcc>3.000000</vAcc></extensions></trkpt>
      <trkpt lon="-123.283210" lat="44.571669"><ele>72.268730</ele><time>2020-10-08T22:54:03Z</time><extensions><speed>0.000000</speed><course>238.359375</course><hAcc>5.000000</hAcc><vAcc>4.000000</vAcc></extensions></trkpt>
      <trkpt lon="-123.283210" lat="44.571669"><ele>72.297554</ele><time>2020-10-08T22:54:04Z</time><extensions><speed>0.000000</speed><course>221.484375</course><hAcc>5.000000</hAcc><vAcc>4.000000</vAcc></extensions></trkpt>
      <trkpt lon="-123.283210" lat="44.571669"><ele>72.357971</ele><time>2020-10-08T22:54:05Z</time><extensions><speed>0.000000</speed><course>91.406250</course><hAcc>5.000000</hAcc><vAcc>4.000000</vAcc></extensions></trkpt>
      <trkpt lon="-123.283210" lat="44.571669"><ele>72.271233</ele><time>2020-10-08T22:54:06Z</time><extensions><speed>0.000000</speed><course>91.406250</course><hAcc>5.000000</hAcc><vAcc>4.000000</vAcc></extensions></trkpt>
      <trkpt lon="-123.283228" lat="44.571664"><ele>72.487442</ele><time>2020-10-08T22:54:07Z</time><extensions><speed>0.710000</speed><course>279.843750</course><hAcc>5.000000</hAcc><vAcc>4.000000</vAcc></extensions></trkpt>
      <trkpt lon="-123.283231" lat="44.571669"><ele>72.604340</ele><time>2020-10-08T22:54:08Z</time><extensions><speed>1.130000</speed><course>7.382812</course><hAcc>5.000000</hAcc><vAcc>4.000000</vAcc></extensions></trkpt>
      <trkpt lon="-123.283240" lat="44.571686"><ele>72.603256</ele><time>2020-10-08T22:54:09Z</time><extensions><speed>1.130000</speed><course>320.976562</course><hAcc>5.000000</hAcc><vAcc>4.000000</vAcc></extensions></trkpt>
      <trkpt lon="-123.283258" lat="44.571708"><ele>72.846436</ele><time>2020-10-08T22:54:10Z</time><extensions><speed>2.540000</speed><course>320.976562</course><hAcc>5.000000</hAcc><vAcc>4.000000</vAcc></extensions></trkpt>
      <trkpt lon="-123.283279" lat="44.571727"><ele>72.831795</ele><time>2020-10-08T22:54:11Z</time><extensions><speed>2.510000</speed><course>322.031250</course><hAcc>5.000000</hAcc><vAcc>4.000000</vAcc></extensions></trkpt>
      <trkpt lon="-123.283309" lat="44.571752"><ele>72.744980</ele><time>2020-10-08T22:54:12Z</time><extensions><speed>3.980000</speed><course>324.140625</course><hAcc>5.000000</hAcc><vAcc>3.000000</vAcc></extensions></trkpt>
      <trkpt lon="-123.283344" lat="44.571789"><ele>72.764084</ele><time>2020-10-08T22:54:13Z</time><extensions><speed>3.980000</speed><course>331.875000</course><hAcc>5.000000</hAcc><vAcc>3.000000</vAcc></extensions></trkpt>
      <trkpt lon="-123.283383" lat="44.571853"><ele>72.859268</ele><time>2020-10-08T22:54:14Z</time><extensions><speed>4.690000</speed><course>344.531250</course><hAcc>5.000000</hAcc><vAcc>3.000000</vAcc></extensions></trkpt>
      <trkpt lon="-123.283397" lat="44.571906"><ele>72.710197</ele><time>2020-10-08T22:54:15Z</time><extensions><speed>5.790000</speed><course>348.750000</course><hAcc>5.000000</hAcc><vAcc>3.000000</vAcc></extensions></trkpt>
      <trkpt lon="-123.283367" lat="44.571946"><ele>72.800385</ele><time>2020-10-08T22:54:16Z</time><extensions><speed>5.790000</speed><course>14.414062</course><hAcc>5.000000</hAcc><vAcc>3.000000</vAcc></extensions></trkpt>
      <trkpt lon="-123.283342" lat="44.572006"><ele>72.984947</ele><time>2020-10-08T22:54:17Z</time><extensions><speed>5.790000</speed><course>5.976562</course><hAcc>5.000000</hAcc><vAcc>4.000000</vAcc></extensions></trkpt>
      <trkpt lon="-123.283348" lat="44.572072"><ele>73.512573</ele><time>2020-10-08T22:54:18Z</time><extensions><speed>6.330000</speed><course>0.351562</course><hAcc>5.000000</hAcc><vAcc>3.000000</vAcc></extensions></trkpt>
      <trkpt lon="-123.283348" lat="44.572136"><ele>73.297668</ele><time>2020-10-08T22:54:19Z</time><extensions><speed>7.140000</speed><course>0.351562</course><hAcc>5.000000</hAcc><vAcc>4.000000</vAcc></extensions></trkpt>
      <trkpt lon="-123.283406" lat="44.572226"><ele>73.071136</ele><time>2020-10-08T22:54:20Z</time><extensions><speed>7.110000</speed><course>346.289062</course><hAcc>5.000000</hAcc><vAcc>4.000000</vAcc></extensions></trkpt>
      <trkpt lon="-123.283478" lat="44.572337"><ele>73.689377</ele><time>2020-10-08T22:54:21Z</time><extensions><speed>8.420000</speed><course>354.726562</course><hAcc>5.000000</hAcc><vAcc>4.000000</vAcc></extensions></trkpt>
      <trkpt lon="-123.283489" lat="44.572412"><ele>73.509743</ele><time>2020-10-08T22:54:22Z</time><extensions><speed>8.090000</speed><course>351.914062</course><hAcc>5.000000</hAcc><vAcc>4.000000</vAcc></extensions></trkpt>
      <trkpt lon="-123.283485" lat="44.572490"><ele>73.677605</ele><time>2020-10-08T22:54:23Z</time><extensions><speed>8.420000</speed><course>358.242188</course><hAcc>5.000000</hAcc><vAcc>4.000000</vAcc></extensions></trkpt>
      <trkpt lon="-123.283469" lat="44.572567"><ele>73.818489</ele><time>2020-10-08T22:54:24Z</time><extensions><speed>8.450000</speed><course>2.109375</course><hAcc>5.000000</hAcc><vAcc>4.000000</vAcc></extensions></trkpt>
      <trkpt lon="-123.283452" lat="44.572640"><ele>74.373688</ele><time>2020-10-08T22:54:25Z</time><extensions><speed>8.750000</speed><course>3.867188</course><hAcc>5.000000</hAcc><vAcc>4.000000</vAcc></extensions></trkpt>
      <trkpt lon="-123.283444" lat="44.572719"><ele>74.064575</ele><time>2020-10-08T22:54:26Z</time><extensions><speed>8.750000</speed><course>3.867188</course><hAcc>5.000000</hAcc><vAcc>4.000000</vAcc></extensions></trkpt>
      <trkpt lon="-123.283423" lat="44.572792"><ele>74.283455</ele><time>2020-10-08T22:54:27Z</time><extensions><speed>8.510000</speed><course>1.757812</course><hAcc>5.000000</hAcc><vAcc>4.000000</vAcc></extensions></trkpt>
      <trkpt lon="-123.283415" lat="44.572862"><ele>73.644836</ele><time>2020-10-08T22:54:28Z</time><extensions><speed>7.880000</speed><course>2.812500</course><hAcc>5.000000</hAcc><vAcc>4.000000</vAcc></extensions></trkpt>
      <trkpt lon="-123.283412" lat="44.572923"><ele>73.511742</ele><time>2020-10-08T22:54:29Z</time><extensions><speed>7.390000</speed><course>358.593750</course><hAcc>5.000000</hAcc><vAcc>4.000000</vAcc></extensions></trkpt>
      <trkpt lon="-123.283392" lat="44.572985"><ele>73.414375</ele><time>2020-10-08T22:54:30Z</time><extensions><speed>7.860000</speed><course>1.757812</course><hAcc>5.000000</hAcc><vAcc>4.000000</vAcc></extensions></trkpt>
      <trkpt lon="-123.283357" lat="44.573051"><ele>73.537926</ele><time>2020-10-08T22:54:31Z</time><extensions><speed>7.640000</speed><course>1.406250</course><hAcc>5.000000</hAcc><vAcc>4.000000</vAcc></extensions></trkpt>
      <trkpt lon="-123.283335" lat="44.573129"><ele>73.108444</ele><time>2020-10-08T22:54:32Z</time><extensions><speed>7.690000</speed><course>2.109375</course><hAcc>5.000000</hAcc><vAcc>4.000000</vAcc></extensions></trkpt>
      <trkpt lon="-123.283322" lat="44.573192"><ele>72.907593</ele><time>2020-10-08T22:54:33Z</time><extensions><speed>7.510000</speed><course>3.515625</course><hAcc>5.000000</hAcc><vAcc>4.000000</vAcc></extensions></trkpt>
      <trkpt lon="-123.283299" lat="44.573248"><ele>73.173683</ele><time>2020-10-08T22:54:34Z</time><extensions><speed>7.800000</speed><course>358.945312</course><hAcc>5.000000</hAcc><vAcc>4.000000</vAcc></extensions></trkpt>
      <trkpt lon="-123.283292" lat="44.573322"><ele>72.733246</ele><time>2020-10-08T22:54:35Z</time><extensions><speed>8.010000</speed><course>357.890625</course><hAcc>5.000000</hAcc><vAcc>4.000000</vAcc></extensions></trkpt>
      <trkpt lon="-123.283276" lat="44.573387"><ele>72.735863</ele><time>2020-10-08T22:54:36Z</time><extensions><speed>7.100000</speed><course>4.570312</course><hAcc>5.000000</hAcc><vAcc>3.000000</vAcc></extensions></trkpt>
      <trkpt lon="-123.283254" lat="44.573450"><ele>72.558014</ele><time>2020-10-08T22:54:37Z</time><extensions><speed>7.040000</speed><course>3.867188</course><hAcc>5.000000</hAcc><vAcc>3.000000</vAcc></extensions></trkpt>
      <trkpt lon="-123.283252" lat="44.573506"><ele>72.240273</ele><time>2020-10-08T22:54:38Z</time><extensions><speed>6.600000</speed><course>1.757812</course><hAcc>5.000000</hAcc><vAcc>3.000000</vAcc></extensions></trkpt>
      <trkpt lon="-123.283249" lat="44.573566"><ele>72.058189</ele><time>2020-10-08T22:54:39Z</time><extensions><speed>6.600000</speed><course>1.757812</course><hAcc>5.000000</hAcc><vAcc>3.000000</vAcc></extensions></trkpt>
      <trkpt lon="-123.283246" lat="44.573625"><ele>71.847160</ele><time>2020-10-08T22:54:40Z</time><extensions><speed>6.030000</speed><course>359.648438</course><hAcc>5.000000</hAcc><vAcc>3.000000</vAcc></extensions></trkpt>
      <trkpt lon="-123.283242" lat="44.573681"><ele>71.813248</ele><time>2020-10-08T22:54:41Z</time><extensions><speed>6.280000</speed><course>2.109375</course><hAcc>5.000000</hAcc><vAcc>3.000000</vAcc></extensions></trkpt>
      <trkpt lon="-123.283233" lat="44.573737"><ele>71.578758</ele><time>2020-10-08T22:54:42Z</time><extensions><speed>6.300000</speed><course>2.109375</course><hAcc>5.000000</hAcc><vAcc>3.000000</vAcc></extensions></trkpt>
      <trkpt lon="-123.283252" lat="44.573794"><ele>71.701180</ele><time>2020-10-08T22:54:43Z</time><extensions><speed>5.980000</speed><course>358.593750</course><hAcc>5.000000</hAcc><vAcc>3.000000</vAcc></extensions></trkpt>
      <trkpt lon="-123.283297" lat="44.573873"><ele>71.993988</ele><time>2020-10-08T22:54:44Z</time><extensions><speed>5.970000</speed><course>6.679688</course><hAcc>5.000000</hAcc><vAcc>3.000000</vAcc></extensions></trkpt>
      <trkpt lon="-123.283287" lat="44.573924"><ele>72.953339</ele><time>2020-10-08T22:54:45Z</time><extensions><speed>5.380000</speed><course>3.515625</course><hAcc>5.000000</hAcc><vAcc>3.000000</vAcc></extensions></trkpt>
      <trkpt lon="-123.283290" lat="44.573976"><ele>72.739418</ele><time>2020-10-08T22:54:46Z</time><extensions><speed>5.380000</speed><course>357.539062</course><hAcc>5.000000</hAcc><vAcc>3.000000</vAcc></extensions></trkpt>
      <trkpt lon="-123.283296" lat="44.574023"><ele>72.682854</ele><time>2020-10-08T22:54:47Z</time><extensions><speed>5.380000</speed><course>359.648438</course><hAcc>5.000000</hAcc><vAcc>3.000000</vAcc></extensions></trkpt>
      <trkpt lon="-123.283294" lat="44.574068"><ele>72.416908</ele><time>2020-10-08T22:54:48Z</time><extensions><speed>4.680000</speed><course>7.031250</course><hAcc>5.000000</hAcc><vAcc>4.000000</vAcc></extensions></trkpt>
      <trkpt lon="-123.283287" lat="44.574110"><ele>72.359886</ele><time>2020-10-08T22:54:49Z</time><extensions><speed>4.680000</speed><course>7.031250</course><hAcc>5.000000</hAcc><vAcc>4.000000</vAcc></extensions></trkpt>
      <trkpt lon="-123.283297" lat="44.574154"><ele>72.121300</ele><time>2020-10-08T22:54:50Z</time><extensions><speed>4.290000</speed><course>1.406250</course><hAcc>5.000000</hAcc><vAcc>3.000000</vAcc></extensions></trkpt>
      <trkpt lon="-123.283290" lat="44.574192"><ele>72.230949</ele><time>2020-10-08T22:54:51Z</time><extensions><speed>4.730000</speed><course>0.351562</course><hAcc>5.000000</hAcc><vAcc>3.000000</vAcc></extensions></trkpt>
      <trkpt lon="-123.283305" lat="44.574234"><ele>72.246262</ele><time>2020-10-08T22:54:52Z</time><extensions><speed>4.440000</speed><course>352.265625</course><hAcc>5.000000</hAcc><vAcc>3.000000</vAcc></extensions></trkpt>
      <trkpt lon="-123.283312" lat="44.574273"><ele>72.095329</ele><time>2020-10-08T22:54:53Z</time><extensions><speed>4.450000</speed><course>352.617188</course><hAcc>5.000000</hAcc><vAcc>3.000000</vAcc></extensions></trkpt>
      <trkpt lon="-123.283318" lat="44.574314"><ele>71.972008</ele><time>2020-10-08T22:54:54Z</time><extensions><speed>4.510000</speed><course>0.703125</course><hAcc>5.000000</hAcc><vAcc>4.000000</vAcc></extensions></trkpt>
      <trkpt lon="-123.283317" lat="44.574359"><ele>71.956261</ele><time>2020-10-08T22:54:55Z</time><extensions><speed>4.710000</speed><course>0.703125</course><hAcc>5.000000</hAcc><vAcc>4.000000</vAcc></extensions></trkpt>
      <trkpt lon="-123.283312" lat="44.574412"><ele>71.943047</ele><time>2020-10-08T22:54:56Z</time><extensions><speed>4.710000</speed><course>10.546875</course><hAcc>5.000000</hAcc><vAcc>3.000000</vAcc></extensions></trkpt>
      <trkpt lon="-123.283303" lat="44.574457"><ele>72.009293</ele><time>2020-10-08T22:54:57Z</time><extensions><speed>4.760000</speed><course>2.109375</course><hAcc>5.000000</hAcc><vAcc>3.000000</vAcc></extensions></trkpt>
      <trkpt lon="-123.283290" lat="44.574505"><ele>71.960693</ele><time>2020-10-08T22:54:58Z</time><extensions><speed>4.760000</speed><course>2.109375</course><hAcc>5.000000</hAcc><vAcc>3.000000</vAcc></extensions></trkpt>
      <trkpt lon="-123.283286" lat="44.574557"><ele>71.841141</ele><time>2020-10-08T22:54:59Z</time><extensions><speed>5.800000</speed><course>3.515625</course><hAcc>5.000000</hAcc><vAcc>3.000000</vAcc></extensions></trkpt>
      <trkpt lon="-123.283282" lat="44.574609"><ele>71.773315</ele><time>2020-10-08T22:55:00Z</time><extensions><speed>5.800000</speed><course>3.515625</course><hAcc>5.000000</hAcc><vAcc>3.000000</vAcc></extensions></trkpt>
      <trkpt lon="-123.283266" lat="44.574654"><ele>71.459770</ele><time>2020-10-08T22:55:01Z</time><extensions><speed>5.800000</speed><course>3.164062</course><hAcc>5.000000</hAcc><vAcc>3.000000</vAcc></extensions></trkpt>
      <trkpt lon="-123.283256" lat="44.574701"><ele>71.520691</ele><time>2020-10-08T22:55:02Z</time><extensions><speed>5.390000</speed><course>5.625000</course><hAcc>5.000000</hAcc><vAcc>3.000000</vAcc></extensions></trkpt>
      <trkpt lon="-123.283249" lat="44.574749"><ele>71.379860</ele><time>2020-10-08T22:55:03Z</time><extensions><speed>5.390000</speed><course>5.625000</course><hAcc>5.000000</hAcc><vAcc>4.000000</vAcc></extensions></trkpt>
      <trkpt lon="-123.283251" lat="44.574803"><ele>71.324089</ele><time>2020-10-08T22:55:04Z</time><extensions><speed>5.590000</speed><course>0.351562</course><hAcc>5.000000</hAcc><vAcc>4.000000</vAcc></extensions></trkpt>
      <trkpt lon="-123.283253" lat="44.574887"><ele>71.514915</ele><time>2020-10-08T22:55:05Z</time><extensions><speed>5.590000</speed><course>2.109375</course><hAcc>5.000000</hAcc><vAcc>4.000000</vAcc></extensions></trkpt>
      <trkpt lon="-123.283254" lat="44.574952"><ele>71.442322</ele><time>2020-10-08T22:55:06Z</time><extensions><speed>6.230000</speed><course>2.109375</course><hAcc>5.000000</hAcc><vAcc>4.000000</vAcc></extensions></trkpt>
      <trkpt lon="-123.283262" lat="44.575013"><ele>71.243843</ele><time>2020-10-08T22:55:07Z</time><extensions><speed>7.400000</speed><course>357.187500</course><hAcc>5.000000</hAcc><vAcc>4.000000</vAcc></extensions></trkpt>
      <trkpt lon="-123.283256" lat="44.575073"><ele>71.255775</ele><time>2020-10-08T22:55:08Z</time><extensions><speed>7.400000</speed><course>5.976562</course><hAcc>5.000000</hAcc><vAcc>4.000000</vAcc></extensions></trkpt>
      <trkpt lon="-123.283236" lat="44.575117"><ele>71.134209</ele><time>2020-10-08T22:55:09Z</time><extensions><speed>6.520000</speed><course>8.789062</course><hAcc>5.000000</hAcc><vAcc>3.000000</vAcc></extensions></trkpt>
      <trkpt lon="-123.283224" lat="44.575172"><ele>71.300880</ele><time>2020-10-08T22:55:10Z</time><extensions><speed>6.200000</speed><course>8.789062</course><hAcc>5.000000</hAcc><vAcc>3.000000</vAcc></extensions></trkpt>
      <trkpt lon="-123.283229" lat="44.575243"><ele>70.583801</ele><time>2020-10-08T22:55:11Z</time><extensions><speed>6.200000</speed><course>358.242188</course><hAcc>5.000000</hAcc><vAcc>3.000000</vAcc></extensions></trkpt>
      <trkpt lon="-123.283215" lat="44.575299"><ele>70.331123</ele><time>2020-10-08T22:55:12Z</time><extensions><speed>6.990000</speed><course>2.812500</course><hAcc>5.000000</hAcc><vAcc>3.000000</vAcc></extensions></trkpt>
      <trkpt lon="-123.283206" lat="44.575364"><ele>69.935234</ele><time>2020-10-08T22:55:13Z</time><extensions><speed>7.220000</speed><course>5.625000</course><hAcc>5.000000</hAcc><vAcc>3.000000</vAcc></extensions></trkpt>
      <trkpt lon="-123.283188" lat="44.575423"><ele>70.059685</ele><time>2020-10-08T22:55:14Z</time><extensions><speed>7.010000</speed><course>2.812500</course><hAcc>5.000000</hAcc><vAcc>3.000000</vAcc></extensions></trkpt>
      <trkpt lon="-123.283194" lat="44.575494"><ele>69.885422</ele><time>2020-10-08T22:55:15Z</time><extensions><speed>6.960000</speed><course>5.625000</course><hAcc>5.000000</hAcc><vAcc>3.000000</vAcc></extensions></trkpt>
      <trkpt lon="-123.283188" lat="44.575556"><ele>69.707832</ele><time>2020-10-08T22:55:16Z</time><extensions><speed>6.830000</speed><course>0.703125</course><hAcc>5.000000</hAcc><vAcc>3.000000</vAcc></extensions></trkpt>
      <trkpt lon="-123.283201" lat="44.575623"><ele>69.431000</ele><time>2020-10-08T22:55:17Z</time><extensions><speed>7.000000</speed><course>2.109375</course><hAcc>5.000000</hAcc><vAcc>3.000000</vAcc></extensions></trkpt>
      <trkpt lon="-123.283192" lat="44.575682"><ele>69.436356</ele><time>2020-10-08T22:55:18Z</time><extensions><speed>6.930000</speed><course>3.164062</course><hAcc>5.000000</hAcc><vAcc>3.000000</vAcc></extensions></trkpt>
      <trkpt lon="-123.283179" lat="44.575745"><ele>70.024956</ele><time>2020-10-08T22:55:19Z</time><extensions><speed>6.740000</speed><course>3.867188</course><hAcc>5.000000</hAcc><vAcc>4.000000</vAcc></extensions></trkpt>
      <trkpt lon="-123.283178" lat="44.575804"><ele>69.601929</ele><time>2020-10-08T22:55:20Z</time><extensions><speed>6.720000</speed><course>3.164062</course><hAcc>5.000000</hAcc><vAcc>4.000000</vAcc></extensions></trkpt>
      <trkpt lon="-123.283176" lat="44.575876"><ele>69.998894</ele><time>2020-10-08T22:55:21Z</time><extensions><speed>6.790000</speed><course>358.945312</course><hAcc>5.000000</hAcc><vAcc>4.000000</vAcc></extensions></trkpt>
      <trkpt lon="-123.283181" lat="44.575938"><ele>70.517471</ele><time>2020-10-08T22:55:22Z</time><extensions><speed>6.740000</speed><course>359.296875</course><hAcc>5.000000</hAcc><vAcc>4.000000</vAcc></extensions></trkpt>
      <trkpt lon="-123.283181" lat="44.575990"><ele>69.791962</ele><time>2020-10-08T22:55:23Z</time><extensions><speed>5.940000</speed><course>356.484375</course><hAcc>5.000000</hAcc><vAcc>4.000000</vAcc></extensions></trkpt>
      <trkpt lon="-123.283184" lat="44.576050"><ele>69.548340</ele><time>2020-10-08T22:55:24Z</time><extensions><speed>6.440000</speed><course>359.648438</course><hAcc>5.000000</hAcc><vAcc>4.000000</vAcc></extensions></trkpt>
      <trkpt lon="-123.283175" lat="44.576099"><ele>68.907898</ele><time>2020-10-08T22:55:25Z</time><extensions><speed>5.780000</speed><course>3.515625</course><hAcc>5.000000</hAcc><vAcc>4.000000</vAcc></extensions></trkpt>
      <trkpt lon="-123.283181" lat="44.576155"><ele>69.123642</ele><time>2020-10-08T22:55:26Z</time><extensions><speed>5.500000</speed><course>346.992188</course><hAcc>5.000000</hAcc><vAcc>4.000000</vAcc></extensions></trkpt>
      <trkpt lon="-123.283197" lat="44.576204"><ele>69.106827</ele><time>2020-10-08T22:55:27Z</time><extensions><speed>5.500000</speed><course>346.640625</course><hAcc>5.000000</hAcc><vAcc>4.000000</vAcc></extensions></trkpt>
      <trkpt lon="-123.283244" lat="44.576251"><ele>69.064651</ele><time>2020-10-08T22:55:28Z</time><extensions><speed>5.500000</speed><course>336.445312</course><hAcc>5.000000</hAcc><vAcc>3.000000</vAcc></extensions></trkpt>
      <trkpt lon="-123.283269" lat="44.576292"><ele>68.667702</ele><time>2020-10-08T22:55:29Z</time><extensions><speed>4.940000</speed><course>336.445312</course><hAcc>5.000000</hAcc><vAcc>4.000000</vAcc></extensions></trkpt>
      <trkpt lon="-123.283279" lat="44.576335"><ele>68.768219</ele><time>2020-10-08T22:55:30Z</time><extensions><speed>4.940000</speed><course>344.531250</course><hAcc>5.000000</hAcc><vAcc>4.000000</vAcc></extensions></trkpt>
      <trkpt lon="-123.283285" lat="44.576358"><ele>68.575722</ele><time>2020-10-08T22:55:31Z</time><extensions><speed>4.840000</speed><course>347.695312</course><hAcc>5.000000</hAcc><vAcc>3.000000</vAcc></extensions></trkpt>
      <trkpt lon="-123.283272" lat="44.576395"><ele>68.660545</ele><time>2020-10-08T22:55:32Z</time><extensions><speed>4.840000</speed><course>356.132812</course><hAcc>5.000000</hAcc><vAcc>3.000000</vAcc></extensions></trkpt>
      <trkpt lon="-123.283276" lat="44.576431"><ele>68.717216</ele><time>2020-10-08T22:55:33Z</time><extensions><speed>4.590000</speed><course>354.726562</course><hAcc>5.000000</hAcc><vAcc>3.000000</vAcc></extensions></trkpt>
      <trkpt lon="-123.283236" lat="44.576471"><ele>68.874985</ele><time>2020-10-08T22:55:34Z</time><extensions><speed>4.050000</speed><course>1.757812</course><hAcc>5.000000</hAcc><vAcc>3.000000</vAcc></extensions></trkpt>
      <trkpt lon="-123.283244" lat="44.576492"><ele>68.509140</ele><time>2020-10-08T22:55:35Z</time><extensions><speed>3.430000</speed><course>343.125000</course><hAcc>5.000000</hAcc><vAcc>3.000000</vAcc></extensions></trkpt>
      <trkpt lon="-123.283304" lat="44.576518"><ele>68.571365</ele><time>2020-10-08T22:55:36Z</time><extensions><speed>2.340000</speed><course>306.562500</course><hAcc>5.000000</hAcc><vAcc>3.000000</vAcc></extensions></trkpt>
      <trkpt lon="-123.283321" lat="44.576518"><ele>68.643997</ele><time>2020-10-08T22:55:37Z</time><extensions><speed>2.340000</speed><course>285.117188</course><hAcc>5.000000</hAcc><vAcc>3.000000</vAcc></extensions></trkpt>
      <trkpt lon="-123.283349" lat="44.576517"><ele>68.622818</ele><time>2020-10-08T22:55:38Z</time><extensions><speed>1.480000</speed><course>259.804688</course><hAcc>5.000000</hAcc><vAcc>3.000000</vAcc></extensions></trkpt>
      <trkpt lon="-123.283363" lat="44.576516"><ele>68.678513</ele><time>2020-10-08T22:55:39Z</time><extensions><speed>1.320000</speed><course>357.539062</course><hAcc>5.000000</hAcc><vAcc>3.000000</vAcc></extensions></trkpt>
      <trkpt lon="-123.283386" lat="44.576525"><ele>68.652550</ele><time>2020-10-08T22:55:40Z</time><extensions><speed>0.910000</speed><course>356.484375</course><hAcc>5.000000</hAcc><vAcc>3.000000</vAcc></extensions></trkpt>
      <trkpt lon="-123.283395" lat="44.576521"><ele>68.787849</ele><time>2020-10-08T22:55:41Z</time><extensions><speed>0.840000</speed><course>356.835938</course><hAcc>5.000000</hAcc><vAcc>3.000000</vAcc></extensions></trkpt>
      <trkpt lon="-123.283408" lat="44.576519"><ele>68.740578</ele><time>2020-10-08T22:55:42Z</time><extensions><speed>1.000000</speed><course>280.898438</course><hAcc>5.000000</hAcc><vAcc>3.000000</vAcc></extensions></trkpt>
      <trkpt lon="-123.283419" lat="44.576520"><ele>68.734650</ele><time>2020-10-08T22:55:43Z</time><extensions><speed>0.840000</speed><course>356.835938</course><hAcc>5.000000</hAcc><vAcc>3.000000</vAcc></extensions></trkpt>
      <trkpt lon="-123.283427" lat="44.576520"><ele>68.881760</ele><time>2020-10-08T22:55:44Z</time><extensions><speed>0.740000</speed><course>356.835938</course><hAcc>5.000000</hAcc><vAcc>3.000000</vAcc></extensions></trkpt>
      <trkpt lon="-123.283432" lat="44.576521"><ele>68.988869</ele><time>2020-10-08T22:55:45Z</time><extensions><speed>0.280000</speed><course>356.835938</course><hAcc>5.000000</hAcc><vAcc>3.000000</vAcc></extensions></trkpt>
      <trkpt lon="-123.283434" lat="44.576520"><ele>68.931816</ele><time>2020-10-08T22:55:46Z</time><extensions><speed>0.380000</speed><course>356.835938</course><hAcc>5.000000</hAcc><vAcc>3.000000</vAcc></extensions></trkpt>
      <trkpt lon="-123.283435" lat="44.576518"><ele>68.901810</ele><time>2020-10-08T22:55:47Z</time><extensions><speed>0.380000</speed><course>238.007812</course><hAcc>5.000000</hAcc><vAcc>3.000000</vAcc></extensions></trkpt>
      <trkpt lon="-123.283438" lat="44.576516"><ele>69.049606</ele><time>2020-10-08T22:55:48Z</time><extensions><speed>0.520000</speed><course>356.835938</course><hAcc>5.000000</hAcc><vAcc>4.000000</vAcc></extensions></trkpt>
      <trkpt lon="-123.283435" lat="44.576512"><ele>69.102974</ele><time>2020-10-08T22:55:49Z</time><extensions><speed>0.520000</speed><course>357.187500</course><hAcc>5.000000</hAcc><vAcc>4.000000</vAcc></extensions></trkpt>
      <trkpt lon="-123.283438" lat="44.576505"><ele>69.033386</ele><time>2020-10-08T22:55:50Z</time><extensions><speed>0.530000</speed><course>356.835938</course><hAcc>5.000000</hAcc><vAcc>4.000000</vAcc></extensions></trkpt>
      <trkpt lon="-123.283446" lat="44.576507"><ele>69.042946</ele><time>2020-10-08T22:55:51Z</time><extensions><speed>0.530000</speed><course>243.632812</course><hAcc>5.000000</hAcc><vAcc>4.000000</vAcc></extensions></trkpt>
      <trkpt lon="-123.283448" lat="44.576516"><ele>69.091980</ele><time>2020-10-08T22:55:52Z</time><extensions><speed>0.530000</speed><course>328.359375</course><hAcc>5.000000</hAcc><vAcc>4.000000</vAcc></extensions></trkpt>
      <trkpt lon="-123.283448" lat="44.576516"><ele>69.001389</ele><time>2020-10-08T22:55:53Z</time><extensions><speed>0.000000</speed><course>356.484375</course><hAcc>5.000000</hAcc><vAcc>4.000000</vAcc></extensions></trkpt>
      <trkpt lon="-123.283448" lat="44.576516"><ele>68.873924</ele><time>2020-10-08T22:55:54Z</time><extensions><speed>0.000000</speed><course>356.484375</course><hAcc>5.000000</hAcc><vAcc>4.000000</vAcc></extensions></trkpt>
      <trkpt lon="-123.283455" lat="44.576534"><ele>69.076118</ele><time>2020-10-08T22:55:55Z</time><extensions><speed>0.560000</speed><course>174.023438</course><hAcc>10.000000</hAcc><vAcc>4.000000</vAcc></extensions></trkpt>
      <trkpt lon="-123.283450" lat="44.576529"><ele>69.090935</ele><time>2020-10-08T22:55:56Z</time><extensions><speed>0.910000</speed><course>156.093750</course><hAcc>10.000000</hAcc><vAcc>4.000000</vAcc></extensions></trkpt>
    </trkseg>
  </trk>
</gpx>