<?xml version="1.0" encoding="UTF-8"?>
<gpx version="1.1" creator="Apple Health Export" xmlns="http://www.topografix.com/GPX/1/1" xmlns:xsi="http://www.w3.org/2001/XMLSchema-instance" xsi:schemaLocation="http://www.topografix.com/GPX/1/1 http://www.topografix.com/GPX/1/1/gpx.xsd">
  <metadata>
    <time>2021-02-21T19:24:48Z</time>
  </metadata>
  <trk>
    <name>Route 2020-10-27 2:10pm</name>
    <trkseg>
      <trkpt lon="-123.276519" lat="44.561723"><ele>74.258247</ele><time>2020-10-27T21:03:14Z</time><extensions><speed>5.940000</speed><course>67.851562</course><hAcc>30.000000</hAcc><vAcc>12.000000</vAcc></extensions></trkpt>
      <trkpt lon="-123.276402" lat="44.561722"><ele>70.898689</ele><time>2020-10-27T21:03:15Z</time><extensions><speed>5.940000</speed><course>84.375000</course><hAcc>10.000000</hAcc><vAcc>4.000000</vAcc></extensions></trkpt>
      <trkpt lon="-123.276291" lat="44.561793"><ele>70.937386</ele><time>2020-10-27T21:03:16Z</time><extensions><speed>5.150000</speed><course>90.703125</course><hAcc>10.000000</hAcc><vAcc>4.000000</vAcc></extensions></trkpt>
      <trkpt lon="-123.276208" lat="44.561838"><ele>70.859322</ele><time>2020-10-27T21:03:17Z</time><extensions><speed>5.150000</speed><course>90.000000</course><hAcc>10.000000</hAcc><vAcc>4.000000</vAcc></extensions></trkpt>
      <trkpt lon="-123.276135" lat="44.561812"><ele>70.512947</ele><time>2020-10-27T21:03:18Z</time><extensions><speed>5.150000</speed><course>91.406250</course><hAcc>10.000000</hAcc><vAcc>4.000000</vAcc></extensions></trkpt>
      <trkpt lon="-123.276059" lat="44.561796"><ele>70.100288</ele><time>2020-10-27T21:03:19Z</time><extensions><speed>4.930000</speed><course>90.703125</course><hAcc>5.000000</hAcc><vAcc>4.000000</vAcc></extensions></trkpt>
      <trkpt lon="-123.276006" lat="44.561794"><ele>70.272652</ele><time>2020-10-27T21:03:20Z</time><extensions><speed>5.120000</speed><course>89.296875</course><hAcc>5.000000</hAcc><vAcc>4.000000</vAcc></extensions></trkpt>
      <trkpt lon="-123.275939" lat="44.561793"><ele>69.983223</ele><time>2020-10-27T21:03:21Z</time><extensions><speed>5.000000</speed><course>86.484375</course><hAcc>5.000000</hAcc><vAcc>4.000000</vAcc></extensions></trkpt>
      <trkpt lon="-123.275877" lat="44.561794"><ele>70.657234</ele><time>2020-10-27T21:03:22Z</time><extensions><speed>5.000000</speed><course>84.023438</course><hAcc>5.000000</hAcc><vAcc>4.000000</vAcc></extensions></trkpt>
      <trkpt lon="-123.275798" lat="44.561800"><ele>70.012398</ele><time>2020-10-27T21:03:23Z</time><extensions><speed>5.000000</speed><course>88.593750</course><hAcc>5.000000</hAcc><vAcc>4.000000</vAcc></extensions></trkpt>
      <trkpt lon="-123.275740" lat="44.561825"><ele>69.885933</ele><time>2020-10-27T21:03:24Z</time><extensions><speed>5.090000</speed><course>83.671875</course><hAcc>5.000000</hAcc><vAcc>3.000000</vAcc></extensions></trkpt>
      <trkpt lon="-123.275674" lat="44.561831"><ele>69.727486</ele><time>2020-10-27T21:03:25Z</time><extensions><speed>5.090000</speed><course>83.320312</course><hAcc>5.000000</hAcc><vAcc>3.000000</vAcc></extensions></trkpt>
      <trkpt lon="-123.275588" lat="44.561816"><ele>69.536934</ele><time>2020-10-27T21:03:26Z</time><extensions><speed>5.090000</speed><course>92.460938</course><hAcc>5.000000</hAcc><vAcc>4.000000</vAcc></extensions></trkpt>
      <trkpt lon="-123.275518" lat="44.561818"><ele>69.404854</ele><time>2020-10-27T21:03:27Z</time><extensions><speed>5.170000</speed><course>88.945312</course><hAcc>5.000000</hAcc><vAcc>4.000000</vAcc></extensions></trkpt>
      <trkpt lon="-123.275448" lat="44.561814"><ele>69.098396</ele><time>2020-10-27T21:03:28Z</time><extensions><speed>5.170000</speed><course>88.593750</course><hAcc>5.000000</hAcc><vAcc>4.000000</vAcc></extensions></trkpt>
      <trkpt lon="-123.275376" lat="44.561813"><ele>68.880745</ele><time>2020-10-27T21:03:29Z</time><extensions><speed>4.940000</speed><course>88.242188</course><hAcc>5.000000</hAcc><vAcc>3.000000</vAcc></extensions></trkpt>
      <trkpt lon="-123.275320" lat="44.561807"><ele>69.077156</ele><time>2020-10-27T21:03:30Z</time><extensions><speed>5.130000</speed><course>91.406250</course><hAcc>5.000000</hAcc><vAcc>3.000000</vAcc></extensions></trkpt>
      <trkpt lon="-123.275256" lat="44.561810"><ele>69.225899</ele><time>2020-10-27T21:03:31Z</time><extensions><speed>4.990000</speed><course>95.273438</course><hAcc>5.000000</hAcc><vAcc>3.000000</vAcc></extensions></trkpt>
      <trkpt lon="-123.275190" lat="44.561805"><ele>69.133003</ele><time>2020-10-27T21:03:32Z</time><extensions><speed>5.130000</speed><course>97.382812</course><hAcc>5.000000</hAcc><vAcc>3.000000</vAcc></extensions></trkpt>
      <trkpt lon="-123.275130" lat="44.561807"><ele>69.421028</ele><time>2020-10-27T21:03:33Z</time><extensions><speed>4.990000</speed><course>97.031250</course><hAcc>5.000000</hAcc><vAcc>3.000000</vAcc></extensions></trkpt>
      <trkpt lon="-123.275074" lat="44.561804"><ele>69.485970</ele><time>2020-10-27T21:03:34Z</time><extensions><speed>5.050000</speed><course>93.515625</course><hAcc>5.000000</hAcc><vAcc>3.000000</vAcc></extensions></trkpt>
      <trkpt lon="-123.275014" lat="44.561808"><ele>69.648018</ele><time>2020-10-27T21:03:35Z</time><extensions><speed>5.050000</speed><course>91.406250</course><hAcc>5.000000</hAcc><vAcc>3.000000</vAcc></extensions></trkpt>
      <trkpt lon="-123.274949" lat="44.561803"><ele>69.511665</ele><time>2020-10-27T21:03:36Z</time><extensions><speed>5.050000</speed><course>91.054688</course><hAcc>5.000000</hAcc><vAcc>3.000000</vAcc></extensions></trkpt>
      <trkpt lon="-123.274884" lat="44.561807"><ele>69.833992</ele><time>2020-10-27T21:03:37Z</time><extensions><speed>5.070000</speed><course>93.164062</course><hAcc>5.000000</hAcc><vAcc>3.000000</vAcc></extensions></trkpt>
      <trkpt lon="-123.274789" lat="44.561833"><ele>69.137947</ele><time>2020-10-27T21:03:38Z</time><extensions><speed>5.300000</speed><course>93.164062</course><hAcc>5.000000</hAcc><vAcc>3.000000</vAcc></extensions></trkpt>
      <trkpt lon="-123.274708" lat="44.561828"><ele>69.397102</ele><time>2020-10-27T21:03:39Z</time><extensions><speed>6.550000</speed><course>90.000000</course><hAcc>5.000000</hAcc><vAcc>3.000000</vAcc></extensions></trkpt>
      <trkpt lon="-123.274625" lat="44.561827"><ele>69.362251</ele><time>2020-10-27T21:03:40Z</time><extensions><speed>6.550000</speed><course>87.187500</course><hAcc>5.000000</hAcc><vAcc>3.000000</vAcc></extensions></trkpt>
      <trkpt lon="-123.274550" lat="44.561834"><ele>69.302010</ele><time>2020-10-27T21:03:41Z</time><extensions><speed>6.430000</speed><course>87.890625</course><hAcc>5.000000</hAcc><vAcc>3.000000</vAcc></extensions></trkpt>
      <trkpt lon="-123.274475" lat="44.561842"><ele>68.924385</ele><time>2020-10-27T21:03:42Z</time><extensions><speed>6.110000</speed><course>97.734375</course><hAcc>5.000000</hAcc><vAcc>3.000000</vAcc></extensions></trkpt>
      <trkpt lon="-123.274425" lat="44.561828"><ele>68.344246</ele><time>2020-10-27T21:03:43Z</time><extensions><speed>6.040000</speed><course>130.078125</course><hAcc>5.000000</hAcc><vAcc>3.000000</vAcc></extensions></trkpt>
      <trkpt lon="-123.274374" lat="44.561796"><ele>68.359505</ele><time>2020-10-27T21:03:44Z</time><extensions><speed>5.600000</speed><course>132.890625</course><hAcc>5.000000</hAcc><vAcc>3.000000</vAcc></extensions></trkpt>
      <trkpt lon="-123.274385" lat="44.561745"><ele>68.158760</ele><time>2020-10-27T21:03:45Z</time><extensions><speed>6.270000</speed><course>177.187500</course><hAcc>5.000000</hAcc><vAcc>3.000000</vAcc></extensions></trkpt>
      <trkpt lon="-123.274380" lat="44.561682"><ele>68.629585</ele><time>2020-10-27T21:03:46Z</time><extensions><speed>6.270000</speed><course>183.867188</course><hAcc>5.000000</hAcc><vAcc>3.000000</vAcc></extensions></trkpt>
      <trkpt lon="-123.274387" lat="44.561621"><ele>68.655159</ele><time>2020-10-27T21:03:47Z</time><extensions><speed>6.770000</speed><course>184.218750</course><hAcc>5.000000</hAcc><vAcc>3.000000</vAcc></extensions></trkpt>
      <trkpt lon="-123.274393" lat="44.561557"><ele>68.828926</ele><time>2020-10-27T21:03:48Z</time><extensions><speed>7.130000</speed><course>184.218750</course><hAcc>5.000000</hAcc><vAcc>3.000000</vAcc></extensions></trkpt>
      <trkpt lon="-123.274386" lat="44.561493"><ele>68.471809</ele><time>2020-10-27T21:03:49Z</time><extensions><speed>8.250000</speed><course>181.054688</course><hAcc>5.000000</hAcc><vAcc>3.000000</vAcc></extensions></trkpt>
      <trkpt lon="-123.274389" lat="44.561415"><ele>68.558296</ele><time>2020-10-27T21:03:50Z</time><extensions><speed>8.250000</speed><course>176.132812</course><hAcc>5.000000</hAcc><vAcc>4.000000</vAcc></extensions></trkpt>
      <trkpt lon="-123.274341" lat="44.561357"><ele>68.928047</ele><time>2020-10-27T21:03:51Z</time><extensions><speed>7.620000</speed><course>169.804688</course><hAcc>5.000000</hAcc><vAcc>4.000000</vAcc></extensions></trkpt>
      <trkpt lon="-123.274326" lat="44.561285"><ele>68.819588</ele><time>2020-10-27T21:03:52Z</time><extensions><speed>8.160000</speed><course>169.804688</course><hAcc>5.000000</hAcc><vAcc>4.000000</vAcc></extensions></trkpt>
      <trkpt lon="-123.274298" lat="44.561206"><ele>68.758980</ele><time>2020-10-27T21:03:53Z</time><extensions><speed>8.410000</speed><course>166.289062</course><hAcc>5.000000</hAcc><vAcc>4.000000</vAcc></extensions></trkpt>
      <trkpt lon="-123.274273" lat="44.561133"><ele>68.873238</ele><time>2020-10-27T21:03:54Z</time><extensions><speed>8.420000</speed><course>165.937500</course><hAcc>10.000000</hAcc><vAcc>4.000000</vAcc></extensions></trkpt>
      <trkpt lon="-123.274239" lat="44.561053"><ele>68.521370</ele><time>2020-10-27T21:03:55Z</time><extensions><speed>9.240000</speed><course>165.937500</course><hAcc>5.000000</hAcc><vAcc>4.000000</vAcc></extensions></trkpt>
      <trkpt lon="-123.274217" lat="44.560974"><ele>68.448616</ele><time>2020-10-27T21:03:56Z</time><extensions><speed>8.700000</speed><course>169.453125</course><hAcc>5.000000</hAcc><vAcc>4.000000</vAcc></extensions></trkpt>
      <trkpt lon="-123.274244" lat="44.560884"><ele>69.239510</ele><time>2020-10-27T21:03:57Z</time><extensions><speed>9.950000</speed><course>172.617188</course><hAcc>5.000000</hAcc><vAcc>4.000000</vAcc></extensions></trkpt>
      <trkpt lon="-123.274236" lat="44.560796"><ele>69.415108</ele><time>2020-10-27T21:03:58Z</time><extensions><speed>9.580000</speed><course>173.320312</course><hAcc>10.000000</hAcc><vAcc>4.000000</vAcc></extensions></trkpt>
      <trkpt lon="-123.274211" lat="44.560724"><ele>68.741768</ele><time>2020-10-27T21:03:59Z</time><extensions><speed>8.870000</speed><course>172.968750</course><hAcc>5.000000</hAcc><vAcc>4.000000</vAcc></extensions></trkpt>
      <trkpt lon="-123.274200" lat="44.560650"><ele>68.631477</ele><time>2020-10-27T21:04:00Z</time><extensions><speed>8.770000</speed><course>170.859375</course><hAcc>5.000000</hAcc><vAcc>4.000000</vAcc></extensions></trkpt>
      <trkpt lon="-123.274178" lat="44.560573"><ele>68.749153</ele><time>2020-10-27T21:04:01Z</time><extensions><speed>9.180000</speed><course>166.289062</course><hAcc>5.000000</hAcc><vAcc>4.000000</vAcc></extensions></trkpt>
      <trkpt lon="-123.274167" lat="44.560511"><ele>69.710640</ele><time>2020-10-27T21:04:02Z</time><extensions><speed>8.600000</speed><course>162.773438</course><hAcc>5.000000</hAcc><vAcc>4.000000</vAcc></extensions></trkpt>
      <trkpt lon="-123.274164" lat="44.560443"><ele>70.104134</ele><time>2020-10-27T21:04:03Z</time><extensions><speed>8.440000</speed><course>178.242188</course><hAcc>5.000000</hAcc><vAcc>4.000000</vAcc></extensions></trkpt>
      <trkpt lon="-123.274152" lat="44.560372"><ele>70.123665</ele><time>2020-10-27T21:04:04Z</time><extensions><speed>7.940000</speed><course>171.562500</course><hAcc>5.000000</hAcc><vAcc>4.000000</vAcc></extensions></trkpt>
      <trkpt lon="-123.274131" lat="44.560304"><ele>70.179878</ele><time>2020-10-27T21:04:05Z</time><extensions><speed>7.710000</speed><course>164.531250</course><hAcc>5.000000</hAcc><vAcc>4.000000</vAcc></extensions></trkpt>
      <trkpt lon="-123.274100" lat="44.560240"><ele>69.761177</ele><time>2020-10-27T21:04:06Z</time><extensions><speed>7.660000</speed><course>157.148438</course><hAcc>5.000000</hAcc><vAcc>3.000000</vAcc></extensions></trkpt>
      <trkpt lon="-123.274021" lat="44.560188"><ele>69.486824</ele><time>2020-10-27T21:04:07Z</time><extensions><speed>7.520000</speed><course>126.210938</course><hAcc>5.000000</hAcc><vAcc>3.000000</vAcc></extensions></trkpt>
      <trkpt lon="-123.273945" lat="44.560148"><ele>69.489388</ele><time>2020-10-27T21:04:08Z</time><extensions><speed>7.520000</speed><course>126.562500</course><hAcc>5.000000</hAcc><vAcc>4.000000</vAcc></extensions></trkpt>
      <trkpt lon="-123.273900" lat="44.560097"><ele>69.483833</ele><time>2020-10-27T21:04:09Z</time><extensions><speed>7.130000</speed><course>142.031250</course><hAcc>5.000000</hAcc><vAcc>3.000000</vAcc></extensions></trkpt>
      <trkpt lon="-123.273831" lat="44.560042"><ele>68.964729</ele><time>2020-10-27T21:04:10Z</time><extensions><speed>6.910000</speed><course>137.812500</course><hAcc>5.000000</hAcc><vAcc>3.000000</vAcc></extensions></trkpt>
      <trkpt lon="-123.273763" lat="44.560000"><ele>68.380013</ele><time>2020-10-27T21:04:11Z</time><extensions><speed>6.460000</speed><course>116.015625</course><hAcc>5.000000</hAcc><vAcc>3.000000</vAcc></extensions></trkpt>
      <trkpt lon="-123.273667" lat="44.559978"><ele>67.969368</ele><time>2020-10-27T21:04:12Z</time><extensions><speed>6.230000</speed><course>100.195312</course><hAcc>5.000000</hAcc><vAcc>3.000000</vAcc></extensions></trkpt>
      <trkpt lon="-123.273590" lat="44.559968"><ele>67.895576</ele><time>2020-10-27T21:04:13Z</time><extensions><speed>6.210000</speed><course>100.195312</course><hAcc>5.000000</hAcc><vAcc>3.000000</vAcc></extensions></trkpt>
      <trkpt lon="-123.273576" lat="44.560002"><ele>69.975777</ele><time>2020-10-27T21:04:14Z</time><extensions><speed>5.070000</speed><course>79.453125</course><hAcc>5.000000</hAcc><vAcc>3.000000</vAcc></extensions></trkpt>
      <trkpt lon="-123.273493" lat="44.559986"><ele>70.179695</ele><time>2020-10-27T21:04:15Z</time><extensions><speed>5.930000</speed><course>114.960938</course><hAcc>5.000000</hAcc><vAcc>3.000000</vAcc></extensions></trkpt>
      <trkpt lon="-123.273423" lat="44.559967"><ele>70.177254</ele><time>2020-10-27T21:04:16Z</time><extensions><speed>6.130000</speed><course>113.203125</course><hAcc>5.000000</hAcc><vAcc>3.000000</vAcc></extensions></trkpt>
      <trkpt lon="-123.273349" lat="44.559960"><ele>70.153145</ele><time>2020-10-27T21:04:17Z</time><extensions><speed>6.130000</speed><course>90.351562</course><hAcc>5.000000</hAcc><vAcc>3.000000</vAcc></extensions></trkpt>
      <trkpt lon="-123.273288" lat="44.559960"><ele>70.356087</ele><time>2020-10-27T21:04:18Z</time><extensions><speed>4.900000</speed><course>90.351562</course><hAcc>5.000000</hAcc><vAcc>3.000000</vAcc></extensions></trkpt>
      <trkpt lon="-123.273164" lat="44.559946"><ele>69.713753</ele><time>2020-10-27T21:04:19Z</time><extensions><speed>4.900000</speed><course>92.812500</course><hAcc>5.000000</hAcc><vAcc>4.000000</vAcc></extensions></trkpt>
      <trkpt lon="-123.273073" lat="44.559941"><ele>69.564705</ele><time>2020-10-27T21:04:20Z</time><extensions><speed>6.990000</speed><course>88.242188</course><hAcc>5.000000</hAcc><vAcc>4.000000</vAcc></extensions></trkpt>
      <trkpt lon="-123.272983" lat="44.559947"><ele>69.577339</ele><time>2020-10-27T21:04:21Z</time><extensions><speed>7.560000</speed><course>83.671875</course><hAcc>5.000000</hAcc><vAcc>4.000000</vAcc></extensions></trkpt>
      <trkpt lon="-123.272894" lat="44.559952"><ele>69.581917</ele><time>2020-10-27T21:04:22Z</time><extensions><speed>7.790000</speed><course>85.781250</course><hAcc>5.000000</hAcc><vAcc>4.000000</vAcc></extensions></trkpt>
      <trkpt lon="-123.272796" lat="44.559957"><ele>69.639473</ele><time>2020-10-27T21:04:23Z</time><extensions><speed>7.790000</speed><course>85.781250</course><hAcc>5.000000</hAcc><vAcc>4.000000</vAcc></extensions></trkpt>
      <trkpt lon="-123.272697" lat="44.559995"><ele>69.386421</ele><time>2020-10-27T21:04:24Z</time><extensions><speed>7.790000</speed><course>80.859375</course><hAcc>5.000000</hAcc><vAcc>4.000000</vAcc></extensions></trkpt>
      <trkpt lon="-123.272605" lat="44.560002"><ele>69.328499</ele><time>2020-10-27T21:04:25Z</time><extensions><speed>7.650000</speed><course>80.507812</course><hAcc>5.000000</hAcc><vAcc>4.000000</vAcc></extensions></trkpt>
      <trkpt lon="-123.272519" lat="44.560005"><ele>69.350655</ele><time>2020-10-27T21:04:26Z</time><extensions><speed>6.380000</speed><course>82.968750</course><hAcc>5.000000</hAcc><vAcc>4.000000</vAcc></extensions></trkpt>
      <trkpt lon="-123.272438" lat="44.560015"><ele>69.454964</ele><time>2020-10-27T21:04:27Z</time><extensions><speed>6.540000</speed><course>81.914062</course><hAcc>5.000000</hAcc><vAcc>4.000000</vAcc></extensions></trkpt>
      <trkpt lon="-123.272350" lat="44.560019"><ele>69.677254</ele><time>2020-10-27T21:04:28Z</time><extensions><speed>6.710000</speed><course>80.859375</course><hAcc>5.000000</hAcc><vAcc>4.000000</vAcc></extensions></trkpt>
      <trkpt lon="-123.272257" lat="44.560021"><ele>69.852669</ele><time>2020-10-27T21:04:29Z</time><extensions><speed>6.750000</speed><course>82.617188</course><hAcc>5.000000</hAcc><vAcc>4.000000</vAcc></extensions></trkpt>
      <trkpt lon="-123.272187" lat="44.560036"><ele>70.059944</ele><time>2020-10-27T21:04:30Z</time><extensions><speed>5.750000</speed><course>78.046875</course><hAcc>5.000000</hAcc><vAcc>4.000000</vAcc></extensions></trkpt>
      <trkpt lon="-123.272104" lat="44.560036"><ele>70.167061</ele><time>2020-10-27T21:04:31Z</time><extensions><speed>6.470000</speed><course>82.617188</course><hAcc>10.000000</hAcc><vAcc>4.000000</vAcc></extensions></trkpt>
      <trkpt lon="-123.272022" lat="44.560023"><ele>70.073189</ele><time>2020-10-27T21:04:32Z</time><extensions><speed>6.460000</speed><course>90.000000</course><hAcc>5.000000</hAcc><vAcc>4.000000</vAcc></extensions></trkpt>
      <trkpt lon="-123.271946" lat="44.560034"><ele>70.167122</ele><time>2020-10-27T21:04:33Z</time><extensions><speed>6.230000</speed><course>86.835938</course><hAcc>5.000000</hAcc><vAcc>4.000000</vAcc></extensions></trkpt>
      <trkpt lon="-123.271849" lat="44.560031"><ele>70.693794</ele><time>2020-10-27T21:04:34Z</time><extensions><speed>6.870000</speed><course>84.726562</course><hAcc>10.000000</hAcc><vAcc>4.000000</vAcc></extensions></trkpt>
      <trkpt lon="-123.271763" lat="44.560024"><ele>70.724129</ele><time>2020-10-27T21:04:35Z</time><extensions><speed>6.670000</speed><course>84.726562</course><hAcc>5.000000</hAcc><vAcc>4.000000</vAcc></extensions></trkpt>
      <trkpt lon="-123.271674" lat="44.560019"><ele>71.170906</ele><time>2020-10-27T21:04:36Z</time><extensions><speed>6.670000</speed><course>82.968750</course><hAcc>5.000000</hAcc><vAcc>4.000000</vAcc></extensions></trkpt>
      <trkpt lon="-123.271600" lat="44.560015"><ele>71.011055</ele><time>2020-10-27T21:04:37Z</time><extensions><speed>6.320000</speed><course>81.210938</course><hAcc>5.000000</hAcc><vAcc>4.000000</vAcc></extensions></trkpt>
      <trkpt lon="-123.271522" lat="44.560024"><ele>70.985298</ele><time>2020-10-27T21:04:38Z</time><extensions><speed>6.250000</speed><course>81.210938</course><hAcc>5.000000</hAcc><vAcc>4.000000</vAcc></extensions></trkpt>
      <trkpt lon="-123.271391" lat="44.560045"><ele>70.433907</ele><time>2020-10-27T21:04:39Z</time><extensions><speed>6.250000</speed><course>84.375000</course><hAcc>5.000000</hAcc><vAcc>4.000000</vAcc></extensions></trkpt>
      <trkpt lon="-123.271304" lat="44.560052"><ele>70.322517</ele><time>2020-10-27T21:04:40Z</time><extensions><speed>6.070000</speed><course>81.562500</course><hAcc>5.000000</hAcc><vAcc>4.000000</vAcc></extensions></trkpt>
      <trkpt lon="-123.271229" lat="44.560051"><ele>70.296700</ele><time>2020-10-27T21:04:41Z</time><extensions><speed>6.070000</speed><course>81.210938</course><hAcc>5.000000</hAcc><vAcc>4.000000</vAcc></extensions></trkpt>
      <trkpt lon="-123.271161" lat="44.560060"><ele>70.292366</ele><time>2020-10-27T21:04:42Z</time><extensions><speed>5.700000</speed><course>80.859375</course><hAcc>5.000000</hAcc><vAcc>4.000000</vAcc></extensions></trkpt>
      <trkpt lon="-123.271081" lat="44.560021"><ele>70.318855</ele><time>2020-10-27T21:04:43Z</time><extensions><speed>5.700000</speed><course>112.500000</course><hAcc>5.000000</hAcc><vAcc>4.000000</vAcc></extensions></trkpt>
      <trkpt lon="-123.271013" lat="44.560001"><ele>70.293343</ele><time>2020-10-27T21:04:44Z</time><extensions><speed>5.910000</speed><course>112.851562</course><hAcc>10.000000</hAcc><vAcc>4.000000</vAcc></extensions></trkpt>
      <trkpt lon="-123.271019" lat="44.559963"><ele>69.591988</ele><time>2020-10-27T21:04:45Z</time><extensions><speed>4.790000</speed><course>151.523438</course><hAcc>10.000000</hAcc><vAcc>4.000000</vAcc></extensions></trkpt>
      <trkpt lon="-123.271030" lat="44.559932"><ele>69.575935</ele><time>2020-10-27T21:04:46Z</time><extensions><speed>4.790000</speed><course>177.890625</course><hAcc>10.000000</hAcc><vAcc>4.000000</vAcc></extensions></trkpt>
      <trkpt lon="-123.271028" lat="44.559896"><ele>69.638130</ele><time>2020-10-27T21:04:47Z</time><extensions><speed>4.000000</speed><course>178.242188</course><hAcc>10.000000</hAcc><vAcc>4.000000</vAcc></extensions></trkpt>
      <trkpt lon="-123.271034" lat="44.559834"><ele>69.851021</ele><time>2020-10-27T21:04:48Z</time><extensions><speed>4.000000</speed><course>178.242188</course><hAcc>10.000000</hAcc><vAcc>4.000000</vAcc></extensions></trkpt>
      <trkpt lon="-123.271035" lat="44.559797"><ele>69.972237</ele><time>2020-10-27T21:04:49Z</time><extensions><speed>4.710000</speed><course>178.593750</course><hAcc>10.000000</hAcc><vAcc>4.000000</vAcc></extensions></trkpt>
      <trkpt lon="-123.271033" lat="44.559749"><ele>70.038399</ele><time>2020-10-27T21:04:50Z</time><extensions><speed>5.330000</speed><course>178.945312</course><hAcc>10.000000</hAcc><vAcc>4.000000</vAcc></extensions></trkpt>
      <trkpt lon="-123.271013" lat="44.559707"><ele>69.855049</ele><time>2020-10-27T21:04:51Z</time><extensions><speed>5.330000</speed><course>170.156250</course><hAcc>5.000000</hAcc><vAcc>4.000000</vAcc></extensions></trkpt>
      <trkpt lon="-123.271002" lat="44.559649"><ele>69.914742</ele><time>2020-10-27T21:04:52Z</time><extensions><speed>5.190000</speed><course>169.804688</course><hAcc>5.000000</hAcc><vAcc>4.000000</vAcc></extensions></trkpt>
      <trkpt lon="-123.270990" lat="44.559604"><ele>69.986214</ele><time>2020-10-27T21:04:53Z</time><extensions><speed>5.080000</speed><course>169.804688</course><hAcc>10.000000</hAcc><vAcc>4.000000</vAcc></extensions></trkpt>
      <trkpt lon="-123.270994" lat="44.559571"><ele>70.176521</ele><time>2020-10-27T21:04:54Z</time><extensions><speed>5.080000</speed><course>185.273438</course><hAcc>5.000000</hAcc><vAcc>4.000000</vAcc></extensions></trkpt>
      <trkpt lon="-123.271017" lat="44.559524"><ele>69.977669</ele><time>2020-10-27T21:04:55Z</time><extensions><speed>5.080000</speed><course>186.679688</course><hAcc>5.000000</hAcc><vAcc>4.000000</vAcc></extensions></trkpt>
      <trkpt lon="-123.271024" lat="44.559481"><ele>70.040718</ele><time>2020-10-27T21:04:56Z</time><extensions><speed>4.840000</speed><course>186.328125</course><hAcc>5.000000</hAcc><vAcc>4.000000</vAcc></extensions></trkpt>
      <trkpt lon="-123.270985" lat="44.559459"><ele>69.093147</ele><time>2020-10-27T21:04:57Z</time><extensions><speed>4.840000</speed><course>179.296875</course><hAcc>5.000000</hAcc><vAcc>4.000000</vAcc></extensions></trkpt>
      <trkpt lon="-123.270939" lat="44.559411"><ele>68.936958</ele><time>2020-10-27T21:04:58Z</time><extensions><speed>5.250000</speed><course>163.476562</course><hAcc>5.000000</hAcc><vAcc>4.000000</vAcc></extensions></trkpt>
      <trkpt lon="-123.270892" lat="44.559376"><ele>68.442207</ele><time>2020-10-27T21:04:59Z</time><extensions><speed>5.250000</speed><course>167.343750</course><hAcc>5.000000</hAcc><vAcc>4.000000</vAcc></extensions></trkpt>
      <trkpt lon="-123.270893" lat="44.559328"><ele>68.491463</ele><time>2020-10-27T21:05:00Z</time><extensions><speed>4.840000</speed><course>177.187500</course><hAcc>5.000000</hAcc><vAcc>4.000000</vAcc></extensions></trkpt>
      <trkpt lon="-123.270888" lat="44.559282"><ele>68.549934</ele><time>2020-10-27T21:05:01Z</time><extensions><speed>4.840000</speed><course>176.484375</course><hAcc>10.000000</hAcc><vAcc>4.000000</vAcc></extensions></trkpt>
      <trkpt lon="-123.270880" lat="44.559225"><ele>68.302681</ele><time>2020-10-27T21:05:02Z</time><extensions><speed>4.930000</speed><course>170.156250</course><hAcc>5.000000</hAcc><vAcc>4.000000</vAcc></extensions></trkpt>
      <trkpt lon="-123.270870" lat="44.559182"><ele>68.391426</ele><time>2020-10-27T21:05:03Z</time><extensions><speed>4.930000</speed><course>170.156250</course><hAcc>10.000000</hAcc><vAcc>4.000000</vAcc></extensions></trkpt>
      <trkpt lon="-123.270846" lat="44.559150"><ele>68.100288</ele><time>2020-10-27T21:05:04Z</time><extensions><speed>4.930000</speed><course>166.640625</course><hAcc>5.000000</hAcc><vAcc>4.000000</vAcc></extensions></trkpt>
      <trkpt lon="-123.270830" lat="44.559102"><ele>68.224678</ele><time>2020-10-27T21:05:05Z</time><extensions><speed>5.490000</speed><course>166.640625</course><hAcc>5.000000</hAcc><vAcc>4.000000</vAcc></extensions></trkpt>
      <trkpt lon="-123.270832" lat="44.559046"><ele>67.891975</ele><time>2020-10-27T21:05:06Z</time><extensions><speed>3.840000</speed><course>175.781250</course><hAcc>5.000000</hAcc><vAcc>4.000000</vAcc></extensions></trkpt>
      <trkpt lon="-123.270833" lat="44.559001"><ele>68.447029</ele><time>2020-10-27T21:05:07Z</time><extensions><speed>4.140000</speed><course>171.914062</course><hAcc>5.000000</hAcc><vAcc>4.000000</vAcc></extensions></trkpt>
      <trkpt lon="-123.270826" lat="44.558964"><ele>68.553352</ele><time>2020-10-27T21:05:08Z</time><extensions><speed>4.140000</speed><course>171.914062</course><hAcc>10.000000</hAcc><vAcc>4.000000</vAcc></extensions></trkpt>
      <trkpt lon="-123.270811" lat="44.558919"><ele>68.408455</ele><time>2020-10-27T21:05:09Z</time><extensions><speed>4.140000</speed><course>168.046875</course><hAcc>5.000000</hAcc><vAcc>4.000000</vAcc></extensions></trkpt>
      <trkpt lon="-123.270827" lat="44.558885"><ele>68.290352</ele><time>2020-10-27T21:05:10Z</time><extensions><speed>4.580000</speed><course>187.031250</course><hAcc>5.000000</hAcc><vAcc>4.000000</vAcc></extensions></trkpt>
      <trkpt lon="-123.270828" lat="44.558844"><ele>68.037788</ele><time>2020-10-27T21:05:11Z</time><extensions><speed>4.600000</speed><course>182.460938</course><hAcc>5.000000</hAcc><vAcc>4.000000</vAcc></extensions></trkpt>
      <trkpt lon="-123.270823" lat="44.558798"><ele>67.676826</ele><time>2020-10-27T21:05:12Z</time><extensions><speed>4.600000</speed><course>175.781250</course><hAcc>5.000000</hAcc><vAcc>4.000000</vAcc></extensions></trkpt>
      <trkpt lon="-123.270846" lat="44.558756"><ele>67.662849</ele><time>2020-10-27T21:05:13Z</time><extensions><speed>4.600000</speed><course>193.007812</course><hAcc>5.000000</hAcc><vAcc>4.000000</vAcc></extensions></trkpt>
      <trkpt lon="-123.270843" lat="44.558695"><ele>66.908272</ele><time>2020-10-27T21:05:14Z</time><extensions><speed>5.280000</speed><course>196.171875</course><hAcc>5.000000</hAcc><vAcc>4.000000</vAcc></extensions></trkpt>
      <trkpt lon="-123.270888" lat="44.558672"><ele>66.715401</ele><time>2020-10-27T21:05:15Z</time><extensions><speed>5.280000</speed><course>218.320312</course><hAcc>5.000000</hAcc><vAcc>4.000000</vAcc></extensions></trkpt>
      <trkpt lon="-123.270927" lat="44.558707"><ele>66.141060</ele><time>2020-10-27T21:05:16Z</time><extensions><speed>5.000000</speed><course>262.617188</course><hAcc>5.000000</hAcc><vAcc>4.000000</vAcc></extensions></trkpt>
      <trkpt lon="-123.270996" lat="44.558694"><ele>66.197762</ele><time>2020-10-27T21:05:17Z</time><extensions><speed>4.390000</speed><course>258.046875</course><hAcc>5.000000</hAcc><vAcc>4.000000</vAcc></extensions></trkpt>
      <trkpt lon="-123.271044" lat="44.558677"><ele>66.545479</ele><time>2020-10-27T21:05:18Z</time><extensions><speed>3.280000</speed><course>249.960938</course><hAcc>5.000000</hAcc><vAcc>4.000000</vAcc></extensions></trkpt>
      <trkpt lon="-123.271069" lat="44.558684"><ele>66.869453</ele><time>2020-10-27T21:05:19Z</time><extensions><speed>3.280000</speed><course>254.531250</course><hAcc>5.000000</hAcc><vAcc>4.000000</vAcc></extensions></trkpt>
      <trkpt lon="-123.271064" lat="44.558692"><ele>67.416817</ele><time>2020-10-27T21:05:20Z</time><extensions><speed>2.410000</speed><course>266.132812</course><hAcc>5.000000</hAcc><vAcc>4.000000</vAcc></extensions></trkpt>
      <trkpt lon="-123.271075" lat="44.558740"><ele>67.932991</ele><time>2020-10-27T21:05:21Z</time><extensions><speed>1.710000</speed><course>315.703125</course><hAcc>5.000000</hAcc><vAcc>4.000000</vAcc></extensions></trkpt>
      <trkpt lon="-123.271104" lat="44.558705"><ele>67.940010</ele><time>2020-10-27T21:05:22Z</time><extensions><speed>1.370000</speed><course>242.578125</course><hAcc>5.000000</hAcc><vAcc>4.000000</vAcc></extensions></trkpt>
      <trkpt lon="-123.271113" lat="44.558730"><ele>67.904671</ele><time>2020-10-27T21:05:23Z</time><extensions><speed>1.370000</speed><course>324.843750</course><hAcc>5.000000</hAcc><vAcc>4.000000</vAcc></extensions></trkpt>
      <trkpt lon="-123.271108" lat="44.558732"><ele>68.041573</ele><time>2020-10-27T21:05:24Z</time><extensions><speed>0.760000</speed><course>344.882812</course><hAcc>5.000000</hAcc><vAcc>4.000000</vAcc></extensions></trkpt>
      <trkpt lon="-123.271108" lat="44.558732"><ele>68.005745</ele><time>2020-10-27T21:05:25Z</time><extensions><speed>0.000000</speed><course>262.617188</course><hAcc>5.000000</hAcc><vAcc>4.000000</vAcc></extensions></trkpt>
      <trkpt lon="-123.271106" lat="44.558719"><ele>67.775520</ele><time>2020-10-27T21:05:26Z</time><extensions><speed>0.480000</speed><course>120.937500</course><hAcc>5.000000</hAcc><vAcc>3.000000</vAcc></extensions></trkpt>
      <trkpt lon="-123.271102" lat="44.558710"><ele>68.057808</ele><time>2020-10-27T21:05:27Z</time><extensions><speed>1.160000</speed><course>148.359375</course><hAcc>5.000000</hAcc><vAcc>3.000000</vAcc></extensions></trkpt>
      <trkpt lon="-123.271094" lat="44.558701"><ele>68.784859</ele><time>2020-10-27T21:05:28Z</time><extensions><speed>1.160000</speed><course>147.656250</course><hAcc>5.000000</hAcc><vAcc>3.000000</vAcc></extensions></trkpt>
      <trkpt lon="-123.271084" lat="44.558694"><ele>68.758797</ele><time>2020-10-27T21:05:29Z</time><extensions><speed>1.160000</speed><course>147.656250</course><hAcc>5.000000</hAcc><vAcc>3.000000</vAcc></extensions></trkpt>
      <trkpt lon="-123.271077" lat="44.558691"><ele>68.335457</ele><time>2020-10-27T21:05:30Z</time><extensions><speed>0.450000</speed><course>147.304688</course><hAcc>5.000000</hAcc><vAcc>3.000000</vAcc></extensions></trkpt>
      <trkpt lon="-123.271075" lat="44.558691"><ele>68.567268</ele><time>2020-10-27T21:05:31Z</time><extensions><speed>0.450000</speed><course>147.656250</course><hAcc>5.000000</hAcc><vAcc>3.000000</vAcc></extensions></trkpt>
      <trkpt lon="-123.271073" lat="44.558692"><ele>68.893806</ele><time>2020-10-27T21:05:32Z</time><extensions><speed>0.280000</speed><course>147.656250</course><hAcc>5.000000</hAcc><vAcc>3.000000</vAcc></extensions></trkpt>
      <trkpt lon="-123.271074" lat="44.558693"><ele>68.843758</ele><time>2020-10-27T21:05:33Z</time><extensions><speed>0.150000</speed><course>147.656250</course><hAcc>5.000000</hAcc><vAcc>3.000000</vAcc></extensions></trkpt>
      <trkpt lon="-123.271074" lat="44.558693"><ele>69.327583</ele><time>2020-10-27T21:05:34Z</time><extensions><speed>0.000000</speed><course>147.656250</course><hAcc>5.000000</hAcc><vAcc>3.000000</vAcc></extensions></trkpt>
      <trkpt lon="-123.271076" lat="44.558697"><ele>69.321663</ele><time>2020-10-27T21:05:35Z</time><extensions><speed>0.340000</speed><course>147.656250</course><hAcc>5.000000</hAcc><vAcc>3.000000</vAcc></extensions></trkpt>
      <trkpt lon="-123.271076" lat="44.558697"><ele>69.460457</ele><time>2020-10-27T21:05:36Z</time><extensions><speed>0.000000</speed><course>147.656250</course><hAcc>5.000000</hAcc><vAcc>3.000000</vAcc></extensions></trkpt>
      <trkpt lon="-123.271076" lat="44.558697"><ele>69.512947</ele><time>2020-10-27T21:05:37Z</time><extensions><speed>0.000000</speed><course>147.656250</course><hAcc>5.000000</hAcc><vAcc>3.000000</vAcc></extensions></trkpt>
      <trkpt lon="-123.271074" lat="44.558697"><ele>69.307198</ele><time>2020-10-27T21:05:38Z</time><extensions><speed>0.540000</speed><course>147.656250</course><hAcc>5.000000</hAcc><vAcc>3.000000</vAcc></extensions></trkpt>
      <trkpt lon="-123.271068" lat="44.558703"><ele>69.299080</ele><time>2020-10-27T21:05:39Z</time><extensions><speed>0.720000</speed><course>147.304688</course><hAcc>5.000000</hAcc><vAcc>4.000000</vAcc></extensions></trkpt>
      <trkpt lon="-123.271068" lat="44.558703"><ele>69.383858</ele><time>2020-10-27T21:05:40Z</time><extensions><speed>0.000000</speed><course>147.304688</course><hAcc>5.000000</hAcc><vAcc>4.000000</vAcc></extensions></trkpt>
      <trkpt lon="-123.271068" lat="44.558703"><ele>69.947945</ele><time>2020-10-27T21:05:41Z</time><extensions><speed>0.000000</speed><course>147.304688</course><hAcc>5.000000</hAcc><vAcc>4.000000</vAcc></extensions></trkpt>
      <trkpt lon="-123.271068" lat="44.558703"><ele>69.891060</ele><time>2020-10-27T21:05:42Z</time><extensions><speed>0.000000</speed><course>147.304688</course><hAcc>5.000000</hAcc><vAcc>4.000000</vAcc></extensions></trkpt>
      <trkpt lon="-123.271068" lat="44.558703"><ele>69.911324</ele><time>2020-10-27T21:05:43Z</time><extensions><speed>0.000000</speed><course>147.304688</course><hAcc>5.000000</hAcc><vAcc>4.000000</vAcc></extensions></trkpt>
      <trkpt lon="-123.271068" lat="44.558703"><ele>69.975227</ele><time>2020-10-27T21:05:44Z</time><extensions><speed>0.000000</speed><course>354.726562</course><hAcc>10.000000</hAcc><vAcc>4.000000</vAcc></extensions></trkpt>
      <trkpt lon="-123.271068" lat="44.558703"><ele>69.994453</ele><time>2020-10-27T21:05:45Z</time><extensions><speed>0.000000</speed><course>257.695312</course><hAcc>10.000000</hAcc><vAcc>4.000000</vAcc></extensions></trkpt>
      <trkpt lon="-123.271068" lat="44.558703"><ele>69.975105</ele><time>2020-10-27T21:05:46Z</time><extensions><speed>0.000000</speed><course>257.695312</course><hAcc>10.000000</hAcc><vAcc>4.000000</vAcc></extensions></trkpt>
      <trkpt lon="-123.271068" lat="44.558703"><ele>69.979805</ele><time>2020-10-27T21:05:47Z</time><extensions><speed>0.000000</speed><course>257.695312</course><hAcc>10.000000</hAcc><vAcc>4.000000</vAcc></extensions></trkpt>
      <trkpt lon="-123.271068" lat="44.558703"><ele>69.912910</ele><time>2020-10-27T21:05:48Z</time><extensions><speed>0.000000</speed><course>257.695312</course><hAcc>10.000000</hAcc><vAcc>4.000000</vAcc></extensions></trkpt>
      <trkpt lon="-123.271068" lat="44.558703"><ele>69.856453</ele><time>2020-10-27T21:05:49Z</time><extensions><speed>0.000000</speed><course>257.695312</course><hAcc>10.000000</hAcc><vAcc>4.000000</vAcc></extensions></trkpt>
      <trkpt lon="-123.271068" lat="44.558703"><ele>69.816597</ele><time>2020-10-27T21:05:50Z</time><extensions><speed>0.000000</speed><course>358.593750</course><hAcc>10.000000</hAcc><vAcc>4.000000</vAcc></extensions></trkpt>
      <trkpt lon="-123.271068" lat="44.558703"><ele>69.844673</ele><time>2020-10-27T21:05:51Z</time><extensions><speed>0.000000</speed><course>250.664062</course><hAcc>10.000000</hAcc><vAcc>4.000000</vAcc></extensions></trkpt>
      <trkpt lon="-123.271054" lat="44.558743"><ele>69.748482</ele><time>2020-10-27T21:05:52Z</time><extensions><speed>0.160000</speed><course>5.625000</course><hAcc>10.000000</hAcc><vAcc>4.000000</vAcc></extensions></trkpt>
      <trkpt lon="-123.271054" lat="44.558743"><ele>69.880684</ele><time>2020-10-27T21:05:53Z</time><extensions><speed>0.000000</speed><course>72.421875</course><hAcc>10.000000</hAcc><vAcc>4.000000</vAcc></extensions></trkpt>
      <trkpt lon="-123.271054" lat="44.558743"><ele>69.828377</ele><time>2020-10-27T21:05:54Z</time><extensions><speed>0.000000</speed><course>17.929688</course><hAcc>10.000000</hAcc><vAcc>4.000000</vAcc></extensions></trkpt>
      <trkpt lon="-123.271054" lat="44.558743"><ele>69.654243</ele><time>2020-10-27T21:05:55Z</time><extensions><speed>0.000000</speed><course>9.843750</course><hAcc>10.000000</hAcc><vAcc>4.000000</vAcc></extensions></trkpt>
      <trkpt lon="-123.271054" lat="44.558743"><ele>69.526924</ele><time>2020-10-27T21:05:56Z</time><extensions><speed>0.000000</speed><course>149.414062</course><hAcc>10.000000</hAcc><vAcc>3.000000</vAcc></extensions></trkpt>
      <trkpt lon="-123.271054" lat="44.558743"><ele>69.370430</ele><time>2020-10-27T21:05:57Z</time><extensions><speed>0.000000</speed><course>57.304688</course><hAcc>10.000000</hAcc><vAcc>3.000000</vAcc></extensions></trkpt>
      <trkpt lon="-123.271054" lat="44.558743"><ele>68.939461</ele><time>2020-10-27T21:05:58Z</time><extensions><speed>0.000000</speed><course>188.085938</course><hAcc>10.000000</hAcc><vAcc>3.000000</vAcc></extensions></trkpt>
      <trkpt lon="-123.271054" lat="44.558743"><ele>69.045845</ele><time>2020-10-27T21:05:59Z</time><extensions><speed>0.000000</speed><course>180.703125</course><hAcc>10.000000</hAcc><vAcc>3.000000</vAcc></extensions></trkpt>
      <trkpt lon="-123.271054" lat="44.558743"><ele>68.819038</ele><time>2020-10-27T21:06:00Z</time><extensions><speed>0.000000</speed><course>188.085938</course><hAcc>10.000000</hAcc><vAcc>3.000000</vAcc></extensions></trkpt>
      <trkpt lon="-123.271048" lat="44.558742"><ele>68.602669</ele><time>2020-10-27T21:06:01Z</time><extensions><speed>0.210000</speed><course>182.812500</course><hAcc>10.000000</hAcc><vAcc>3.000000</vAcc></extensions></trkpt>
      <trkpt lon="-123.271048" lat="44.558742"><ele>68.743477</ele><time>2020-10-27T21:06:02Z</time><extensions><speed>0.000000</speed><course>44.296875</course><hAcc>10.000000</hAcc><vAcc>4.000000</vAcc></extensions></trkpt>
      <trkpt lon="-123.271048" lat="44.558742"><ele>68.857552</ele><time>2020-10-27T21:06:03Z</time><extensions><speed>0.000000</speed><course>168.398438</course><hAcc>10.000000</hAcc><vAcc>4.000000</vAcc></extensions></trkpt>
      <trkpt lon="-123.271048" lat="44.558742"><ele>68.920174</ele><time>2020-10-27T21:06:04Z</time><extensions><speed>0.000000</speed><course>168.398438</course><hAcc>10.000000</hAcc><vAcc>4.000000</vAcc></extensions></trkpt>
      <trkpt lon="-123.271048" lat="44.558742"><ele>68.742500</ele><time>2020-10-27T21:06:05Z</time><extensions><speed>0.000000</speed><course>168.398438</course><hAcc>10.000000</hAcc><vAcc>4.000000</vAcc></extensions></trkpt>
      <trkpt lon="-123.271048" lat="44.558742"><ele>68.660530</ele><time>2020-10-27T21:06:06Z</time><extensions><speed>0.000000</speed><course>168.398438</course><hAcc>10.000000</hAcc><vAcc>4.000000</vAcc></extensions></trkpt>
      <trkpt lon="-123.271048" lat="44.558742"><ele>68.534065</ele><time>2020-10-27T21:06:07Z</time><extensions><speed>0.000000</speed><course>168.398438</course><hAcc>10.000000</hAcc><vAcc>3.000000</vAcc></extensions></trkpt>
      <trkpt lon="-123.271048" lat="44.558742"><ele>68.279488</ele><time>2020-10-27T21:06:08Z</time><extensions><speed>0.000000</speed><course>168.398438</course><hAcc>10.000000</hAcc><vAcc>3.000000</vAcc></extensions></trkpt>
      <trkpt lon="-123.271048" lat="44.558742"><ele>68.123360</ele><time>2020-10-27T21:06:09Z</time><extensions><speed>0.000000</speed><course>168.398438</course><hAcc>10.000000</hAcc><vAcc>3.000000</vAcc></extensions></trkpt>
      <trkpt lon="-123.271048" lat="44.558742"><ele>67.987312</ele><time>2020-10-27T21:06:10Z</time><extensions><speed>0.000000</speed><course>168.398438</course><hAcc>10.000000</hAcc><vAcc>3.000000</vAcc></extensions></trkpt>
      <trkpt lon="-123.271048" lat="44.558742"><ele>67.958199</ele><time>2020-10-27T21:06:11Z</time><extensions><speed>0.000000</speed><course>168.398438</course><hAcc>10.000000</hAcc><vAcc>3.000000</vAcc></extensions></trkpt>
      <trkpt lon="-123.271048" lat="44.558742"><ele>67.871284</ele><time>2020-10-27T21:06:12Z</time><extensions><speed>0.000000</speed><course>168.398438</course><hAcc>10.000000</hAcc><vAcc>3.000000</vAcc></extensions></trkpt>
      <trkpt lon="-123.271048" lat="44.558742"><ele>67.843208</ele><time>2020-10-27T21:06:13Z</time><extensions><speed>0.000000</speed><course>168.398438</course><hAcc>10.000000</hAcc><vAcc>3.000000</vAcc></extensions></trkpt>
      <trkpt lon="-123.271048" lat="44.558742"><ele>67.800728</ele><time>2020-10-27T21:06:14Z</time><extensions><speed>0.000000</speed><course>168.398438</course><hAcc>10.000000</hAcc><vAcc>3.000000</vAcc></extensions></trkpt>
      <trkpt lon="-123.271048" lat="44.558742"><ele>67.733833</ele><time>2020-10-27T21:06:15Z</time><extensions><speed>0.000000</speed><course>168.398438</course><hAcc>10.000000</hAcc><vAcc>3.000000</vAcc></extensions></trkpt>
      <trkpt lon="-123.271048" lat="44.558742"><ele>67.719490</ele><time>2020-10-27T21:06:16Z</time><extensions><speed>0.000000</speed><course>168.398438</course><hAcc>10.000000</hAcc><vAcc>3.000000</vAcc></extensions></trkpt>
      <trkpt lon="-123.271048" lat="44.558742"><ele>67.645821</ele><time>2020-10-27T21:06:17Z</time><extensions><speed>0.000000</speed><course>168.398438</course><hAcc>10.000000</hAcc><vAcc>3.000000</vAcc></extensions></trkpt>
      <trkpt lon="-123.271048" lat="44.558742"><ele>67.576363</ele><time>2020-10-27T21:06:18Z</time><extensions><speed>0.000000</speed><course>168.398438</course><hAcc>10.000000</hAcc><vAcc>3.000000</vAcc></extensions></trkpt>
      <trkpt lon="-123.271048" lat="44.558742"><ele>67.600044</ele><time>2020-10-27T21:06:19Z</time><extensions><speed>0.000000</speed><course>168.398438</course><hAcc>10.000000</hAcc><vAcc>3.000000</vAcc></extensions></trkpt>
      <trkpt lon="-123.271048" lat="44.558742"><ele>67.479073</ele><time>2020-10-27T21:06:20Z</time><extensions><speed>0.000000</speed><course>168.398438</course><hAcc>10.000000</hAcc><vAcc>3.000000</vAcc></extensions></trkpt>
      <trkpt lon="-123.271048" lat="44.558742"><ele>67.387947</ele><time>2020-10-27T21:06:21Z</time><extensions><speed>0.000000</speed><course>168.398438</course><hAcc>10.000000</hAcc><vAcc>3.000000</vAcc></extensions></trkpt>
      <trkpt lon="-123.271048" lat="44.558742"><ele>67.447334</ele><time>2020-10-27T21:06:22Z</time><extensions><speed>0.000000</speed><course>168.398438</course><hAcc>10.000000</hAcc><vAcc>3.000000</vAcc></extensions></trkpt>
      <trkpt lon="-123.271048" lat="44.558742"><ele>67.532295</ele><time>2020-10-27T21:06:23Z</time><extensions><speed>0.000000</speed><course>168.398438</course><hAcc>10.000000</hAcc><vAcc>3.000000</vAcc></extensions></trkpt>
      <trkpt lon="-123.271048" lat="44.558742"><ele>67.541512</ele><time>2020-10-27T21:06:24Z</time><extensions><speed>0.000000</speed><course>168.398438</course><hAcc>10.000000</hAcc><vAcc>3.000000</vAcc></extensions></trkpt>
      <trkpt lon="-123.271048" lat="44.558742"><ele>67.580574</ele><time>2020-10-27T21:06:25Z</time><extensions><speed>0.000000</speed><course>168.398438</course><hAcc>10.000000</hAcc><vAcc>3.000000</vAcc></extensions></trkpt>
      <trkpt lon="-123.271048" lat="44.558742"><ele>67.523323</ele><time>2020-10-27T21:06:26Z</time><extensions><speed>0.000000</speed><course>168.398438</course><hAcc>10.000000</hAcc><vAcc>3.000000</vAcc></extensions></trkpt>
      <trkpt lon="-123.271048" lat="44.558742"><ele>67.450203</ele><time>2020-10-27T21:06:27Z</time><extensions><speed>0.000000</speed><course>168.398438</course><hAcc>10.000000</hAcc><vAcc>3.000000</vAcc></extensions></trkpt>
      <trkpt lon="-123.271048" lat="44.558742"><ele>67.438118</ele><time>2020-10-27T21:06:28Z</time><extensions><speed>0.000000</speed><course>168.398438</course><hAcc>10.000000</hAcc><vAcc>3.000000</vAcc></extensions></trkpt>
      <trkpt lon="-123.271048" lat="44.558742"><ele>67.300362</ele><time>2020-10-27T21:06:29Z</time><extensions><speed>0.000000</speed><course>168.398438</course><hAcc>10.000000</hAcc><vAcc>3.000000</vAcc></extensions></trkpt>
      <trkpt lon="-123.271048" lat="44.558742"><ele>67.329842</ele><time>2020-10-27T21:06:30Z</time><extensions><speed>0.000000</speed><course>168.398438</course><hAcc>10.000000</hAcc><vAcc>3.000000</vAcc></extensions></trkpt>
      <trkpt lon="-123.271040" lat="44.558740"><ele>67.523262</ele><time>2020-10-27T21:06:31Z</time><extensions><speed>0.380000</speed><course>183.164062</course><hAcc>10.000000</hAcc><vAcc>3.000000</vAcc></extensions></trkpt>
      <trkpt lon="-123.271034" lat="44.558742"><ele>67.373970</ele><time>2020-10-27T21:06:32Z</time><extensions><speed>0.380000</speed><course>125.156250</course><hAcc>10.000000</hAcc><vAcc>3.000000</vAcc></extensions></trkpt>
      <trkpt lon="-123.271026" lat="44.558740"><ele>68.170967</ele><time>2020-10-27T21:06:33Z</time><extensions><speed>0.390000</speed><course>137.460938</course><hAcc>10.000000</hAcc><vAcc>3.000000</vAcc></extensions></trkpt>
      <trkpt lon="-123.271022" lat="44.558739"><ele>68.272835</ele><time>2020-10-27T21:06:34Z</time><extensions><speed>0.340000</speed><course>149.414062</course><hAcc>10.000000</hAcc><vAcc>3.000000</vAcc></extensions></trkpt>
      <trkpt lon="-123.271018" lat="44.558739"><ele>68.132393</ele><time>2020-10-27T21:06:35Z</time><extensions><speed>0.390000</speed><course>136.757812</course><hAcc>10.000000</hAcc><vAcc>3.000000</vAcc></extensions></trkpt>
      <trkpt lon="-123.271018" lat="44.558739"><ele>68.288216</ele><time>2020-10-27T21:06:36Z</time><extensions><speed>0.000000</speed><course>124.453125</course><hAcc>10.000000</hAcc><vAcc>3.000000</vAcc></extensions></trkpt>
      <trkpt lon="-123.271018" lat="44.558739"><ele>68.958504</ele><time>2020-10-27T21:06:37Z</time><extensions><speed>0.000000</speed><course>106.523438</course><hAcc>10.000000</hAcc><vAcc>3.000000</vAcc></extensions></trkpt>
      <trkpt lon="-123.271017" lat="44.558749"><ele>69.376045</ele><time>2020-10-27T21:06:38Z</time><extensions><speed>0.160000</speed><course>0.000000</course><hAcc>10.000000</hAcc><vAcc>3.000000</vAcc></extensions></trkpt>
      <trkpt lon="-123.271017" lat="44.558749"><ele>69.589729</ele><time>2020-10-27T21:06:39Z</time><extensions><speed>0.000000</speed><course>330.468750</course><hAcc>10.000000</hAcc><vAcc>3.000000</vAcc></extensions></trkpt>
      <trkpt lon="-123.271019" lat="44.558757"><ele>70.068916</ele><time>2020-10-27T21:06:40Z</time><extensions><speed>0.160000</speed><course>352.968750</course><hAcc>10.000000</hAcc><vAcc>3.000000</vAcc></extensions></trkpt>
      <trkpt lon="-123.271023" lat="44.558763"><ele>69.728340</ele><time>2020-10-27T21:06:41Z</time><extensions><speed>0.420000</speed><course>347.695312</course><hAcc>10.000000</hAcc><vAcc>3.000000</vAcc></extensions></trkpt>
      <trkpt lon="-123.271027" lat="44.558766"><ele>69.294136</ele><time>2020-10-27T21:06:42Z</time><extensions><speed>0.430000</speed><course>352.265625</course><hAcc>10.000000</hAcc><vAcc>3.000000</vAcc></extensions></trkpt>
      <trkpt lon="-123.271033" lat="44.558769"><ele>69.271065</ele><time>2020-10-27T21:06:43Z</time><extensions><speed>0.430000</speed><course>325.898438</course><hAcc>10.000000</hAcc><vAcc>3.000000</vAcc></extensions></trkpt>
      <trkpt lon="-123.271033" lat="44.558769"><ele>69.163948</ele><time>2020-10-27T21:06:44Z</time><extensions><speed>0.000000</speed><course>313.242188</course><hAcc>10.000000</hAcc><vAcc>3.000000</vAcc></extensions></trkpt>
      <trkpt lon="-123.271033" lat="44.558769"><ele>69.130745</ele><time>2020-10-27T21:06:45Z</time><extensions><speed>0.000000</speed><course>251.367188</course><hAcc>10.000000</hAcc><vAcc>3.000000</vAcc></extensions></trkpt>
      <trkpt lon="-123.271033" lat="44.558769"><ele>68.991341</ele><time>2020-10-27T21:06:46Z</time><extensions><speed>0.000000</speed><course>133.945312</course><hAcc>10.000000</hAcc><vAcc>3.000000</vAcc></extensions></trkpt>
      <trkpt lon="-123.271039" lat="44.558770"><ele>68.899361</ele><time>2020-10-27T21:06:47Z</time><extensions><speed>0.150000</speed><course>164.882812</course><hAcc>10.000000</hAcc><vAcc>3.000000</vAcc></extensions></trkpt>
      <trkpt lon="-123.271038" lat="44.558772"><ele>68.360420</ele><time>2020-10-27T21:06:48Z</time><extensions><speed>0.220000</speed><course>53.437500</course><hAcc>10.000000</hAcc><vAcc>3.000000</vAcc></extensions></trkpt>
      <trkpt lon="-123.271038" lat="44.558772"><ele>68.604317</ele><time>2020-10-27T21:06:49Z</time><extensions><speed>0.000000</speed><course>35.859375</course><hAcc>10.000000</hAcc><vAcc>3.000000</vAcc></extensions></trkpt>
      <trkpt lon="-123.271038" lat="44.558772"><ele>68.544075</ele><time>2020-10-27T21:06:50Z</time><extensions><speed>0.000000</speed><course>11.953125</course><hAcc>10.000000</hAcc><vAcc>3.000000</vAcc></extensions></trkpt>
      <trkpt lon="-123.271038" lat="44.558772"><ele>68.905891</ele><time>2020-10-27T21:06:51Z</time><extensions><speed>0.000000</speed><course>309.726562</course><hAcc>10.000000</hAcc><vAcc>3.000000</vAcc></extensions></trkpt>
      <trkpt lon="-123.271038" lat="44.558772"><ele>69.175667</ele><time>2020-10-27T21:06:52Z</time><extensions><speed>0.000000</speed><course>332.226562</course><hAcc>10.000000</hAcc><vAcc>3.000000</vAcc></extensions></trkpt>
      <trkpt lon="-123.271038" lat="44.558772"><ele>69.139351</ele><time>2020-10-27T21:06:53Z</time><extensions><speed>0.000000</speed><course>296.718750</course><hAcc>10.000000</hAcc><vAcc>3.000000</vAcc></extensions></trkpt>
      <trkpt lon="-123.271051" lat="44.558774"><ele>69.082710</ele><time>2020-10-27T21:06:54Z</time><extensions><speed>0.220000</speed><course>270.351562</course><hAcc>10.000000</hAcc><vAcc>3.000000</vAcc></extensions></trkpt>
      <trkpt lon="-123.271053" lat="44.558771"><ele>69.168221</ele><time>2020-10-27T21:06:55Z</time><extensions><speed>0.220000</speed><course>226.054688</course><hAcc>10.000000</hAcc><vAcc>3.000000</vAcc></extensions></trkpt>
      <trkpt lon="-123.271051" lat="44.558764"><ele>69.527412</ele><time>2020-10-27T21:06:56Z</time><extensions><speed>0.220000</speed><course>175.078125</course><hAcc>10.000000</hAcc><vAcc>3.000000</vAcc></extensions></trkpt>
      <trkpt lon="-123.271051" lat="44.558764"><ele>69.522652</ele><time>2020-10-27T21:06:57Z</time><extensions><speed>0.000000</speed><course>156.093750</course><hAcc>10.000000</hAcc><vAcc>3.000000</vAcc></extensions></trkpt>
      <trkpt lon="-123.271053" lat="44.558758"><ele>69.826973</ele><time>2020-10-27T21:06:58Z</time><extensions><speed>0.180000</speed><course>166.992188</course><hAcc>10.000000</hAcc><vAcc>3.000000</vAcc></extensions></trkpt>
      <trkpt lon="-123.271054" lat="44.558758"><ele>69.484871</ele><time>2020-10-27T21:06:59Z</time><extensions><speed>0.170000</speed><course>264.375000</course><hAcc>10.000000</hAcc><vAcc>3.000000</vAcc></extensions></trkpt>
      <trkpt lon="-123.271054" lat="44.558758"><ele>69.626106</ele><time>2020-10-27T21:07:00Z</time><extensions><speed>0.000000</speed><course>276.328125</course><hAcc>10.000000</hAcc><vAcc>3.000000</vAcc></extensions></trkpt>
      <trkpt lon="-123.271057" lat="44.558757"><ele>69.702583</ele><time>2020-10-27T21:07:01Z</time><extensions><speed>0.170000</speed><course>214.101562</course><hAcc>10.000000</hAcc><vAcc>3.000000</vAcc></extensions></trkpt>
      <trkpt lon="-123.271056" lat="44.558756"><ele>69.786324</ele><time>2020-10-27T21:07:02Z</time><extensions><speed>0.210000</speed><course>136.054688</course><hAcc>10.000000</hAcc><vAcc>3.000000</vAcc></extensions></trkpt>
      <trkpt lon="-123.271053" lat="44.558752"><ele>69.715034</ele><time>2020-10-27T21:07:03Z</time><extensions><speed>0.240000</speed><course>148.710938</course><hAcc>10.000000</hAcc><vAcc>3.000000</vAcc></extensions></trkpt>
      <trkpt lon="-123.271053" lat="44.558752"><ele>70.013680</ele><time>2020-10-27T21:07:04Z</time><extensions><speed>0.000000</speed><course>115.312500</course><hAcc>10.000000</hAcc><vAcc>3.000000</vAcc></extensions></trkpt>
      <trkpt lon="-123.271055" lat="44.558751"><ele>69.890816</ele><time>2020-10-27T21:07:05Z</time><extensions><speed>0.240000</speed><course>265.078125</course><hAcc>10.000000</hAcc><vAcc>3.000000</vAcc></extensions></trkpt>
      <trkpt lon="-123.271064" lat="44.558753"><ele>69.778816</ele><time>2020-10-27T21:07:06Z</time><extensions><speed>0.180000</speed><course>313.593750</course><hAcc>10.000000</hAcc><vAcc>3.000000</vAcc></extensions></trkpt>
      <trkpt lon="-123.271064" lat="44.558753"><ele>70.123177</ele><time>2020-10-27T21:07:07Z</time><extensions><speed>0.000000</speed><course>298.828125</course><hAcc>10.000000</hAcc><vAcc>3.000000</vAcc></extensions></trkpt>
      <trkpt lon="-123.271064" lat="44.558753"><ele>70.147408</ele><time>2020-10-27T21:07:08Z</time><extensions><speed>0.000000</speed><course>339.257812</course><hAcc>10.000000</hAcc><vAcc>3.000000</vAcc></extensions></trkpt>
      <trkpt lon="-123.271064" lat="44.558753"><ele>70.145149</ele><time>2020-10-27T21:07:09Z</time><extensions><speed>0.000000</speed><course>339.257812</course><hAcc>10.000000</hAcc><vAcc>3.000000</vAcc></extensions></trkpt>
      <trkpt lon="-123.271083" lat="44.558753"><ele>70.244209</ele><time>2020-10-27T21:07:10Z</time><extensions><speed>0.210000</speed><course>219.726562</course><hAcc>10.000000</hAcc><vAcc>3.000000</vAcc></extensions></trkpt>
      <trkpt lon="-123.271084" lat="44.558750"><ele>70.449532</ele><time>2020-10-27T21:07:11Z</time><extensions><speed>0.410000</speed><course>189.492188</course><hAcc>10.000000</hAcc><vAcc>3.000000</vAcc></extensions></trkpt>
      <trkpt lon="-123.271081" lat="44.558746"><ele>70.905281</ele><time>2020-10-27T21:07:12Z</time><extensions><speed>0.410000</speed><course>160.664062</course><hAcc>10.000000</hAcc><vAcc>3.000000</vAcc></extensions></trkpt>
      <trkpt lon="-123.271078" lat="44.558743"><ele>70.815071</ele><time>2020-10-27T21:07:13Z</time><extensions><speed>0.190000</speed><course>158.203125</course><hAcc>10.000000</hAcc><vAcc>3.000000</vAcc></extensions></trkpt>
      <trkpt lon="-123.271078" lat="44.558743"><ele>70.902351</ele><time>2020-10-27T21:07:14Z</time><extensions><speed>0.000000</speed><course>153.984375</course><hAcc>10.000000</hAcc><vAcc>3.000000</vAcc></extensions></trkpt>
      <trkpt lon="-123.271078" lat="44.558743"><ele>70.434944</ele><time>2020-10-27T21:07:15Z</time><extensions><speed>0.000000</speed><course>221.484375</course><hAcc>10.000000</hAcc><vAcc>3.000000</vAcc></extensions></trkpt>
      <trkpt lon="-123.271078" lat="44.558743"><ele>70.443794</ele><time>2020-10-27T21:07:16Z</time><extensions><speed>0.000000</speed><course>261.562500</course><hAcc>10.000000</hAcc><vAcc>3.000000</vAcc></extensions></trkpt>
      <trkpt lon="-123.271088" lat="44.558748"><ele>70.600410</ele><time>2020-10-27T21:07:17Z</time><extensions><speed>0.320000</speed><course>281.250000</course><hAcc>10.000000</hAcc><vAcc>3.000000</vAcc></extensions></trkpt>
      <trkpt lon="-123.271092" lat="44.558751"><ele>71.126289</ele><time>2020-10-27T21:07:18Z</time><extensions><speed>0.530000</speed><course>272.109375</course><hAcc>10.000000</hAcc><vAcc>3.000000</vAcc></extensions></trkpt>
      <trkpt lon="-123.271092" lat="44.558751"><ele>71.148506</ele><time>2020-10-27T21:07:19Z</time><extensions><speed>0.000000</speed><course>284.765625</course><hAcc>10.000000</hAcc><vAcc>3.000000</vAcc></extensions></trkpt>
      <trkpt lon="-123.271092" lat="44.558751"><ele>71.229988</ele><time>2020-10-27T21:07:20Z</time><extensions><speed>0.000000</speed><course>249.609375</course><hAcc>10.000000</hAcc><vAcc>3.000000</vAcc></extensions></trkpt>
      <trkpt lon="-123.271092" lat="44.558751"><ele>71.289803</ele><time>2020-10-27T21:07:21Z</time><extensions><speed>0.000000</speed><course>203.554688</course><hAcc>10.000000</hAcc><vAcc>3.000000</vAcc></extensions></trkpt>
      <trkpt lon="-123.271085" lat="44.558755"><ele>71.219612</ele><time>2020-10-27T21:07:22Z</time><extensions><speed>0.330000</speed><course>37.265625</course><hAcc>10.000000</hAcc><vAcc>3.000000</vAcc></extensions></trkpt>
      <trkpt lon="-123.271077" lat="44.558756"><ele>70.969795</ele><time>2020-10-27T21:07:23Z</time><extensions><speed>0.210000</speed><course>34.453125</course><hAcc>10.000000</hAcc><vAcc>3.000000</vAcc></extensions></trkpt>
      <trkpt lon="-123.271072" lat="44.558757"><ele>70.927376</ele><time>2020-10-27T21:07:24Z</time><extensions><speed>0.180000</speed><course>15.820312</course><hAcc>10.000000</hAcc><vAcc>3.000000</vAcc></extensions></trkpt>
      <trkpt lon="-123.271072" lat="44.558757"><ele>70.964302</ele><time>2020-10-27T21:07:25Z</time><extensions><speed>0.000000</speed><course>327.304688</course><hAcc>10.000000</hAcc><vAcc>3.000000</vAcc></extensions></trkpt>
      <trkpt lon="-123.271071" lat="44.558754"><ele>70.991280</ele><time>2020-10-27T21:07:26Z</time><extensions><speed>0.550000</speed><course>270.351562</course><hAcc>10.000000</hAcc><vAcc>3.000000</vAcc></extensions></trkpt>
      <trkpt lon="-123.271074" lat="44.558750"><ele>71.102303</ele><time>2020-10-27T21:07:27Z</time><extensions><speed>0.550000</speed><course>237.304688</course><hAcc>10.000000</hAcc><vAcc>3.000000</vAcc></extensions></trkpt>
      <trkpt lon="-123.271081" lat="44.558737"><ele>71.048653</ele><time>2020-10-27T21:07:28Z</time><extensions><speed>0.550000</speed><course>214.101562</course><hAcc>10.000000</hAcc><vAcc>3.000000</vAcc></extensions></trkpt>
      <trkpt lon="-123.271086" lat="44.558722"><ele>71.084175</ele><time>2020-10-27T21:07:29Z</time><extensions><speed>0.940000</speed><course>199.335938</course><hAcc>10.000000</hAcc><vAcc>3.000000</vAcc></extensions></trkpt>
      <trkpt lon="-123.271087" lat="44.558716"><ele>71.069160</ele><time>2020-10-27T21:07:30Z</time><extensions><speed>0.510000</speed><course>211.640625</course><hAcc>10.000000</hAcc><vAcc>3.000000</vAcc></extensions></trkpt>
      <trkpt lon="-123.271090" lat="44.558714"><ele>71.058418</ele><time>2020-10-27T21:07:31Z</time><extensions><speed>0.650000</speed><course>267.539062</course><hAcc>10.000000</hAcc><vAcc>3.000000</vAcc></extensions></trkpt>
      <trkpt lon="-123.271087" lat="44.558718"><ele>71.098763</ele><time>2020-10-27T21:07:32Z</time><extensions><speed>0.650000</speed><course>357.890625</course><hAcc>10.000000</hAcc><vAcc>3.000000</vAcc></extensions></trkpt>
      <trkpt lon="-123.271077" lat="44.558722"><ele>71.200447</ele><time>2020-10-27T21:07:33Z</time><extensions><speed>0.650000</speed><course>61.171875</course><hAcc>10.000000</hAcc><vAcc>3.000000</vAcc></extensions></trkpt>
      <trkpt lon="-123.271077" lat="44.558722"><ele>71.137581</ele><time>2020-10-27T21:07:34Z</time><extensions><speed>0.000000</speed><course>104.414062</course><hAcc>10.000000</hAcc><vAcc>3.000000</vAcc></extensions></trkpt>
      <trkpt lon="-123.271077" lat="44.558722"><ele>71.326607</ele><time>2020-10-27T21:07:35Z</time><extensions><speed>0.000000</speed><course>93.515625</course><hAcc>10.000000</hAcc><vAcc>3.000000</vAcc></extensions></trkpt>
      <trkpt lon="-123.271077" lat="44.558722"><ele>71.275337</ele><time>2020-10-27T21:07:36Z</time><extensions><speed>0.000000</speed><course>112.851562</course><hAcc>10.000000</hAcc><vAcc>3.000000</vAcc></extensions></trkpt>
      <trkpt lon="-123.271077" lat="44.558722"><ele>71.375252</ele><time>2020-10-27T21:07:37Z</time><extensions><speed>0.000000</speed><course>9.492188</course><hAcc>10.000000</hAcc><vAcc>3.000000</vAcc></extensions></trkpt>
      <trkpt lon="-123.271041" lat="44.558724"><ele>71.491951</ele><time>2020-10-27T21:07:38Z</time><extensions><speed>0.490000</speed><course>358.945312</course><hAcc>10.000000</hAcc><vAcc>3.000000</vAcc></extensions></trkpt>
      <trkpt lon="-123.271038" lat="44.558727"><ele>71.339851</ele><time>2020-10-27T21:07:39Z</time><extensions><speed>0.490000</speed><course>357.890625</course><hAcc>10.000000</hAcc><vAcc>3.000000</vAcc></extensions></trkpt>
      <trkpt lon="-123.271036" lat="44.558733"><ele>70.961739</ele><time>2020-10-27T21:07:40Z</time><extensions><speed>0.480000</speed><course>353.320312</course><hAcc>10.000000</hAcc><vAcc>3.000000</vAcc></extensions></trkpt>
      <trkpt lon="-123.271036" lat="44.558733"><ele>71.099251</ele><time>2020-10-27T21:07:41Z</time><extensions><speed>0.000000</speed><course>354.726562</course><hAcc>10.000000</hAcc><vAcc>3.000000</vAcc></extensions></trkpt>
      <trkpt lon="-123.271036" lat="44.558733"><ele>71.421028</ele><time>2020-10-27T21:07:42Z</time><extensions><speed>0.000000</speed><course>355.781250</course><hAcc>10.000000</hAcc><vAcc>3.000000</vAcc></extensions></trkpt>
      <trkpt lon="-123.271035" lat="44.558741"><ele>71.521370</ele><time>2020-10-27T21:07:43Z</time><extensions><speed>0.220000</speed><course>341.718750</course><hAcc>10.000000</hAcc><vAcc>3.000000</vAcc></extensions></trkpt>
      <trkpt lon="-123.271035" lat="44.558741"><ele>71.833199</ele><time>2020-10-27T21:07:44Z</time><extensions><speed>0.000000</speed><course>2.460938</course><hAcc>10.000000</hAcc><vAcc>3.000000</vAcc></extensions></trkpt>
      <trkpt lon="-123.271031" lat="44.558744"><ele>71.872078</ele><time>2020-10-27T21:07:45Z</time><extensions><speed>0.220000</speed><course>93.867188</course><hAcc>10.000000</hAcc><vAcc>3.000000</vAcc></extensions></trkpt>
      <trkpt lon="-123.271025" lat="44.558745"><ele>72.241341</ele><time>2020-10-27T21:07:46Z</time><extensions><speed>0.480000</speed><course>77.695312</course><hAcc>10.000000</hAcc><vAcc>3.000000</vAcc></extensions></trkpt>
      <trkpt lon="-123.271019" lat="44.558748"><ele>72.234138</ele><time>2020-10-27T21:07:47Z</time><extensions><speed>0.210000</speed><course>68.554688</course><hAcc>10.000000</hAcc><vAcc>3.000000</vAcc></extensions></trkpt>
      <trkpt lon="-123.271019" lat="44.558748"><ele>72.284981</ele><time>2020-10-27T21:07:48Z</time><extensions><speed>0.000000</speed><course>53.085938</course><hAcc>10.000000</hAcc><vAcc>3.000000</vAcc></extensions></trkpt>
      <trkpt lon="-123.271019" lat="44.558748"><ele>72.236946</ele><time>2020-10-27T21:07:49Z</time><extensions><speed>0.000000</speed><course>78.750000</course><hAcc>10.000000</hAcc><vAcc>3.000000</vAcc></extensions></trkpt>
      <trkpt lon="-123.271015" lat="44.558754"><ele>72.299995</ele><time>2020-10-27T21:07:50Z</time><extensions><speed>0.380000</speed><course>39.375000</course><hAcc>10.000000</hAcc><vAcc>3.000000</vAcc></extensions></trkpt>
      <trkpt lon="-123.271015" lat="44.558755"><ele>72.311897</ele><time>2020-10-27T21:07:51Z</time><extensions><speed>0.500000</speed><course>4.921875</course><hAcc>10.000000</hAcc><vAcc>3.000000</vAcc></extensions></trkpt>
      <trkpt lon="-123.271015" lat="44.558755"><ele>72.393867</ele><time>2020-10-27T21:07:52Z</time><extensions><speed>0.000000</speed><course>358.945312</course><hAcc>10.000000</hAcc><vAcc>3.000000</vAcc></extensions></trkpt>
      <trkpt lon="-123.271014" lat="44.558754"><ele>72.495247</ele><time>2020-10-27T21:07:53Z</time><extensions><speed>0.190000</speed><course>9.140625</course><hAcc>10.000000</hAcc><vAcc>3.000000</vAcc></extensions></trkpt>
      <trkpt lon="-123.271014" lat="44.558754"><ele>72.456856</ele><time>2020-10-27T21:07:54Z</time><extensions><speed>0.000000</speed><course>66.093750</course><hAcc>10.000000</hAcc><vAcc>3.000000</vAcc></extensions></trkpt>
      <trkpt lon="-123.271013" lat="44.558749"><ele>72.638680</ele><time>2020-10-27T21:07:55Z</time><extensions><speed>0.190000</speed><course>89.648438</course><hAcc>10.000000</hAcc><vAcc>3.000000</vAcc></extensions></trkpt>
      <trkpt lon="-123.271011" lat="44.558743"><ele>72.535713</ele><time>2020-10-27T21:07:56Z</time><extensions><speed>0.190000</speed><course>136.406250</course><hAcc>10.000000</hAcc><vAcc>3.000000</vAcc></extensions></trkpt>
      <trkpt lon="-123.271011" lat="44.558743"><ele>72.620613</ele><time>2020-10-27T21:07:57Z</time><extensions><speed>0.000000</speed><course>158.554688</course><hAcc>10.000000</hAcc><vAcc>3.000000</vAcc></extensions></trkpt>
      <trkpt lon="-123.271015" lat="44.558728"><ele>72.700874</ele><time>2020-10-27T21:07:58Z</time><extensions><speed>1.000000</speed><course>189.140625</course><hAcc>10.000000</hAcc><vAcc>3.000000</vAcc></extensions></trkpt>
      <trkpt lon="-123.271017" lat="44.558721"><ele>72.497505</ele><time>2020-10-27T21:07:59Z</time><extensions><speed>1.000000</speed><course>186.679688</course><hAcc>10.000000</hAcc><vAcc>3.000000</vAcc></extensions></trkpt>
      <trkpt lon="-123.271016" lat="44.558720"><ele>72.555305</ele><time>2020-10-27T21:08:00Z</time><extensions><speed>0.340000</speed><course>161.367188</course><hAcc>10.000000</hAcc><vAcc>3.000000</vAcc></extensions></trkpt>
      <trkpt lon="-123.271012" lat="44.558719"><ele>72.478645</ele><time>2020-10-27T21:08:01Z</time><extensions><speed>0.340000</speed><course>75.585938</course><hAcc>10.000000</hAcc><vAcc>3.000000</vAcc></extensions></trkpt>
      <trkpt lon="-123.271010" lat="44.558723"><ele>72.133858</ele><time>2020-10-27T21:08:02Z</time><extensions><speed>0.230000</speed><course>88.593750</course><hAcc>10.000000</hAcc><vAcc>3.000000</vAcc></extensions></trkpt>
      <trkpt lon="-123.271008" lat="44.558720"><ele>72.338081</ele><time>2020-10-27T21:08:03Z</time><extensions><speed>0.290000</speed><course>116.367188</course><hAcc>10.000000</hAcc><vAcc>3.000000</vAcc></extensions></trkpt>
      <trkpt lon="-123.271006" lat="44.558714"><ele>72.335945</ele><time>2020-10-27T21:08:04Z</time><extensions><speed>0.290000</speed><course>140.273438</course><hAcc>10.000000</hAcc><vAcc>3.000000</vAcc></extensions></trkpt>
      <trkpt lon="-123.270996" lat="44.558706"><ele>72.125191</ele><time>2020-10-27T21:08:05Z</time><extensions><speed>0.480000</speed><course>136.757812</course><hAcc>10.000000</hAcc><vAcc>3.000000</vAcc></extensions></trkpt>
      <trkpt lon="-123.270988" lat="44.558698"><ele>72.043098</ele><time>2020-10-27T21:08:06Z</time><extensions><speed>0.600000</speed><course>130.781250</course><hAcc>10.000000</hAcc><vAcc>3.000000</vAcc></extensions></trkpt>
      <trkpt lon="-123.270988" lat="44.558698"><ele>72.344917</ele><time>2020-10-27T21:08:07Z</time><extensions><speed>0.000000</speed><course>120.585938</course><hAcc>10.000000</hAcc><vAcc>3.000000</vAcc></extensions></trkpt>
      <trkpt lon="-123.270989" lat="44.558695"><ele>72.063667</ele><time>2020-10-27T21:08:08Z</time><extensions><speed>0.260000</speed><course>98.085938</course><hAcc>5.000000</hAcc><vAcc>3.000000</vAcc></extensions></trkpt>
      <trkpt lon="-123.270994" lat="44.558699"><ele>71.940742</ele><time>2020-10-27T21:08:09Z</time><extensions><speed>0.240000</speed><course>359.296875</course><hAcc>5.000000</hAcc><vAcc>3.000000</vAcc></extensions></trkpt>
      <trkpt lon="-123.271001" lat="44.558704"><ele>71.683418</ele><time>2020-10-27T21:08:10Z</time><extensions><speed>0.240000</speed><course>337.500000</course><hAcc>5.000000</hAcc><vAcc>3.000000</vAcc></extensions></trkpt>
      <trkpt lon="-123.271001" lat="44.558704"><ele>72.055000</ele><time>2020-10-27T21:08:11Z</time><extensions><speed>0.000000</speed><course>320.625000</course><hAcc>5.000000</hAcc><vAcc>3.000000</vAcc></extensions></trkpt>
      <trkpt lon="-123.271019" lat="44.558713"><ele>72.020332</ele><time>2020-10-27T21:08:12Z</time><extensions><speed>0.240000</speed><course>228.867188</course><hAcc>5.000000</hAcc><vAcc>3.000000</vAcc></extensions></trkpt>
      <trkpt lon="-123.271037" lat="44.558722"><ele>72.026802</ele><time>2020-10-27T21:08:13Z</time><extensions><speed>0.180000</speed><course>228.867188</course><hAcc>5.000000</hAcc><vAcc>3.000000</vAcc></extensions></trkpt>
      <trkpt lon="-123.271037" lat="44.558722"><ele>72.064888</ele><time>2020-10-27T21:08:14Z</time><extensions><speed>0.000000</speed><course>228.867188</course><hAcc>5.000000</hAcc><vAcc>3.000000</vAcc></extensions></trkpt>
      <trkpt lon="-123.271037" lat="44.558722"><ele>72.124214</ele><time>2020-10-27T21:08:15Z</time><extensions><speed>0.000000</speed><course>228.867188</course><hAcc>5.000000</hAcc><vAcc>3.000000</vAcc></extensions></trkpt>
      <trkpt lon="-123.271037" lat="44.558722"><ele>72.130745</ele><time>2020-10-27T21:08:16Z</time><extensions><speed>0.000000</speed><course>228.867188</course><hAcc>5.000000</hAcc><vAcc>3.000000</vAcc></extensions></trkpt>
      <trkpt lon="-123.271037" lat="44.558722"><ele>72.131599</ele><time>2020-10-27T21:08:17Z</time><extensions><speed>0.000000</speed><course>228.867188</course><hAcc>5.000000</hAcc><vAcc>3.000000</vAcc></extensions></trkpt>
      <trkpt lon="-123.271037" lat="44.558722"><ele>72.132149</ele><time>2020-10-27T21:08:18Z</time><extensions><speed>0.000000</speed><course>228.867188</course><hAcc>5.000000</hAcc><vAcc>3.000000</vAcc></extensions></trkpt>
      <trkpt lon="-123.271037" lat="44.558722"><ele>72.131844</ele><time>2020-10-27T21:08:19Z</time><extensions><speed>0.000000</speed><course>228.867188</course><hAcc>5.000000</hAcc><vAcc>3.000000</vAcc></extensions></trkpt>
      <trkpt lon="-123.271037" lat="44.558722"><ele>72.131905</ele><time>2020-10-27T21:08:20Z</time><extensions><speed>0.000000</speed><course>228.867188</course><hAcc>5.000000</hAcc><vAcc>3.000000</vAcc></extensions></trkpt>
      <trkpt lon="-123.271037" lat="44.558722"><ele>72.133064</ele><time>2020-10-27T21:08:21Z</time><extensions><speed>0.000000</speed><course>228.867188</course><hAcc>5.000000</hAcc><vAcc>3.000000</vAcc></extensions></trkpt>
      <trkpt lon="-123.271037" lat="44.558722"><ele>72.133736</ele><time>2020-10-27T21:08:22Z</time><extensions><speed>0.000000</speed><course>228.867188</course><hAcc>5.000000</hAcc><vAcc>3.000000</vAcc></extensions></trkpt>
      <trkpt lon="-123.271037" lat="44.558722"><ele>72.134346</ele><time>2020-10-27T21:08:23Z</time><extensions><speed>0.000000</speed><course>228.867188</course><hAcc>5.000000</hAcc><vAcc>3.000000</vAcc></extensions></trkpt>
      <trkpt lon="-123.271037" lat="44.558722"><ele>72.134285</ele><time>2020-10-27T21:08:24Z</time><extensions><speed>0.000000</speed><course>228.867188</course><hAcc>5.000000</hAcc><vAcc>3.000000</vAcc></extensions></trkpt>
      <trkpt lon="-123.271037" lat="44.558722"><ele>72.136482</ele><time>2020-10-27T21:08:25Z</time><extensions><speed>0.000000</speed><course>228.867188</course><hAcc>5.000000</hAcc><vAcc>3.000000</vAcc></extensions></trkpt>
      <trkpt lon="-123.271037" lat="44.558722"><ele>72.136543</ele><time>2020-10-27T21:08:26Z</time><extensions><speed>0.000000</speed><course>228.867188</course><hAcc>5.000000</hAcc><vAcc>3.000000</vAcc></extensions></trkpt>
      <trkpt lon="-123.271037" lat="44.558722"><ele>72.138557</ele><time>2020-10-27T21:08:27Z</time><extensions><speed>0.000000</speed><course>228.867188</course><hAcc>5.000000</hAcc><vAcc>3.000000</vAcc></extensions></trkpt>
      <trkpt lon="-123.271037" lat="44.558722"><ele>72.142036</ele><time>2020-10-27T21:08:28Z</time><extensions><speed>0.000000</speed><course>228.867188</course><hAcc>5.000000</hAcc><vAcc>3.000000</vAcc></extensions></trkpt>
      <trkpt lon="-123.271037" lat="44.558722"><ele>72.144112</ele><time>2020-10-27T21:08:29Z</time><extensions><speed>0.000000</speed><course>228.867188</course><hAcc>5.000000</hAcc><vAcc>3.000000</vAcc></extensions></trkpt>
      <trkpt lon="-123.271037" lat="44.558722"><ele>72.148628</ele><time>2020-10-27T21:08:30Z</time><extensions><speed>0.000000</speed><course>228.867188</course><hAcc>5.000000</hAcc><vAcc>3.000000</vAcc></extensions></trkpt>
      <trkpt lon="-123.271037" lat="44.558722"><ele>72.151436</ele><time>2020-10-27T21:08:31Z</time><extensions><speed>0.000000</speed><course>228.867188</course><hAcc>5.000000</hAcc><vAcc>3.000000</vAcc></extensions></trkpt>
      <trkpt lon="-123.271037" lat="44.558722"><ele>72.152718</ele><time>2020-10-27T21:08:32Z</time><extensions><speed>0.000000</speed><course>228.867188</course><hAcc>5.000000</hAcc><vAcc>3.000000</vAcc></extensions></trkpt>
      <trkpt lon="-123.271037" lat="44.558722"><ele>72.155037</ele><time>2020-10-27T21:08:33Z</time><extensions><speed>0.000000</speed><course>228.867188</course><hAcc>5.000000</hAcc><vAcc>3.000000</vAcc></extensions></trkpt>
      <trkpt lon="-123.271037" lat="44.558722"><ele>72.159920</ele><time>2020-10-27T21:08:34Z</time><extensions><speed>0.000000</speed><course>228.867188</course><hAcc>5.000000</hAcc><vAcc>3.000000</vAcc></extensions></trkpt>
      <trkpt lon="-123.271037" lat="44.558722"><ele>72.160408</ele><time>2020-10-27T21:08:35Z</time><extensions><speed>0.000000</speed><course>228.867188</course><hAcc>5.000000</hAcc><vAcc>3.000000</vAcc></extensions></trkpt>
      <trkpt lon="-123.271037" lat="44.558722"><ele>72.162178</ele><time>2020-10-27T21:08:36Z</time><extensions><speed>0.000000</speed><course>228.867188</course><hAcc>5.000000</hAcc><vAcc>3.000000</vAcc></extensions></trkpt>
      <trkpt lon="-123.271037" lat="44.558722"><ele>72.163399</ele><time>2020-10-27T21:08:37Z</time><extensions><speed>0.000000</speed><course>228.867188</course><hAcc>5.000000</hAcc><vAcc>3.000000</vAcc></extensions></trkpt>
      <trkpt lon="-123.271037" lat="44.558722"><ele>72.162483</ele><time>2020-10-27T21:08:38Z</time><extensions><speed>0.000000</speed><course>228.867188</course><hAcc>5.000000</hAcc><vAcc>3.000000</vAcc></extensions></trkpt>
      <trkpt lon="-123.271037" lat="44.558722"><ele>72.163094</ele><time>2020-10-27T21:08:39Z</time><extensions><speed>0.000000</speed><course>228.867188</course><hAcc>5.000000</hAcc><vAcc>3.000000</vAcc></extensions></trkpt>
      <trkpt lon="-123.271037" lat="44.558722"><ele>72.164375</ele><time>2020-10-27T21:08:40Z</time><extensions><speed>0.000000</speed><course>228.867188</course><hAcc>5.000000</hAcc><vAcc>3.000000</vAcc></extensions></trkpt>
      <trkpt lon="-123.271037" lat="44.558722"><ele>72.164253</ele><time>2020-10-27T21:08:41Z</time><extensions><speed>0.000000</speed><course>228.867188</course><hAcc>5.000000</hAcc><vAcc>3.000000</vAcc></extensions></trkpt>
      <trkpt lon="-123.271037" lat="44.558722"><ele>72.166817</ele><time>2020-10-27T21:08:42Z</time><extensions><speed>0.000000</speed><course>228.867188</course><hAcc>5.000000</hAcc><vAcc>3.000000</vAcc></extensions></trkpt>
      <trkpt lon="-123.271037" lat="44.558722"><ele>72.169441</ele><time>2020-10-27T21:08:43Z</time><extensions><speed>0.000000</speed><course>228.867188</course><hAcc>5.000000</hAcc><vAcc>3.000000</vAcc></extensions></trkpt>
      <trkpt lon="-123.271037" lat="44.558722"><ele>72.172493</ele><time>2020-10-27T21:08:44Z</time><extensions><speed>0.000000</speed><course>228.867188</course><hAcc>5.000000</hAcc><vAcc>3.000000</vAcc></extensions></trkpt>
      <trkpt lon="-123.271037" lat="44.558722"><ele>72.173103</ele><time>2020-10-27T21:08:45Z</time><extensions><speed>0.000000</speed><course>228.867188</course><hAcc>5.000000</hAcc><vAcc>3.000000</vAcc></extensions></trkpt>
      <trkpt lon="-123.271037" lat="44.558722"><ele>72.176338</ele><time>2020-10-27T21:08:46Z</time><extensions><speed>0.000000</speed><course>228.867188</course><hAcc>5.000000</hAcc><vAcc>3.000000</vAcc></extensions></trkpt>
      <trkpt lon="-123.271037" lat="44.558722"><ele>72.180244</ele><time>2020-10-27T21:08:47Z</time><extensions><speed>0.000000</speed><course>228.867188</course><hAcc>5.000000</hAcc><vAcc>3.000000</vAcc></extensions></trkpt>
      <trkpt lon="-123.271037" lat="44.558722"><ele>72.185860</ele><time>2020-10-27T21:08:48Z</time><extensions><speed>0.000000</speed><course>228.867188</course><hAcc>5.000000</hAcc><vAcc>3.000000</vAcc></extensions></trkpt>
      <trkpt lon="-123.271037" lat="44.558722"><ele>72.186836</ele><time>2020-10-27T21:08:49Z</time><extensions><speed>0.000000</speed><course>228.867188</course><hAcc>5.000000</hAcc><vAcc>3.000000</vAcc></extensions></trkpt>
      <trkpt lon="-123.271037" lat="44.558722"><ele>72.187874</ele><time>2020-10-27T21:08:50Z</time><extensions><speed>0.000000</speed><course>228.867188</course><hAcc>5.000000</hAcc><vAcc>3.000000</vAcc></extensions></trkpt>
      <trkpt lon="-123.271037" lat="44.558722"><ele>72.187141</ele><time>2020-10-27T21:08:51Z</time><extensions><speed>0.000000</speed><course>228.867188</course><hAcc>5.000000</hAcc><vAcc>3.000000</vAcc></extensions></trkpt>
      <trkpt lon="-123.271037" lat="44.558722"><ele>72.186653</ele><time>2020-10-27T21:08:52Z</time><extensions><speed>0.000000</speed><course>228.867188</course><hAcc>5.000000</hAcc><vAcc>3.000000</vAcc></extensions></trkpt>
      <trkpt lon="-123.271037" lat="44.558722"><ele>72.189583</ele><time>2020-10-27T21:08:53Z</time><extensions><speed>0.000000</speed><course>228.867188</course><hAcc>5.000000</hAcc><vAcc>3.000000</vAcc></extensions></trkpt>
      <trkpt lon="-123.271037" lat="44.558722"><ele>72.188850</ele><time>2020-10-27T21:08:54Z</time><extensions><speed>0.000000</speed><course>228.867188</course><hAcc>5.000000</hAcc><vAcc>3.000000</vAcc></extensions></trkpt>
      <trkpt lon="-123.271037" lat="44.558722"><ele>72.192268</ele><time>2020-10-27T21:08:55Z</time><extensions><speed>0.000000</speed><course>228.867188</course><hAcc>5.000000</hAcc><vAcc>3.000000</vAcc></extensions></trkpt>
      <trkpt lon="-123.271037" lat="44.558722"><ele>72.197212</ele><time>2020-10-27T21:08:56Z</time><extensions><speed>0.000000</speed><course>-1.000000</course><hAcc>5.000000</hAcc><vAcc>3.000000</vAcc></extensions></trkpt>
      <trkpt lon="-123.271037" lat="44.558722"><ele>72.184822</ele><time>2020-10-27T21:08:57Z</time><extensions><speed>0.000000</speed><course>-1.000000</course><hAcc>5.000000</hAcc><vAcc>3.000000</vAcc></extensions></trkpt>
      <trkpt lon="-123.271037" lat="44.558722"><ele>72.190742</ele><time>2020-10-27T21:08:58Z</time><extensions><speed>0.000000</speed><course>-1.000000</course><hAcc>5.000000</hAcc><vAcc>3.000000</vAcc></extensions></trkpt>
      <trkpt lon="-123.271037" lat="44.558722"><ele>72.193611</ele><time>2020-10-27T21:08:59Z</time><extensions><speed>0.000000</speed><course>-1.000000</course><hAcc>5.000000</hAcc><vAcc>3.000000</vAcc></extensions></trkpt>
      <trkpt lon="-123.271037" lat="44.558722"><ele>72.193184</ele><time>2020-10-27T21:09:00Z</time><extensions><speed>0.000000</speed><course>-1.000000</course><hAcc>5.000000</hAcc><vAcc>3.000000</vAcc></extensions></trkpt>
      <trkpt lon="-123.271037" lat="44.558722"><ele>72.198067</ele><time>2020-10-27T21:09:01Z</time><extensions><speed>0.000000</speed><course>-1.000000</course><hAcc>5.000000</hAcc><vAcc>3.000000</vAcc></extensions></trkpt>
      <trkpt lon="-123.271037" lat="44.558722"><ele>72.198311</ele><time>2020-10-27T21:09:02Z</time><extensions><speed>0.000000</speed><course>-1.000000</course><hAcc>5.000000</hAcc><vAcc>3.000000</vAcc></extensions></trkpt>
      <trkpt lon="-123.271037" lat="44.558722"><ele>72.197884</ele><time>2020-10-27T21:09:03Z</time><extensions><speed>0.000000</speed><course>-1.000000</course><hAcc>5.000000</hAcc><vAcc>3.000000</vAcc></extensions></trkpt>
      <trkpt lon="-123.271037" lat="44.558722"><ele>72.197578</ele><time>2020-10-27T21:09:04Z</time><extensions><speed>0.000000</speed><course>-1.000000</course><hAcc>5.000000</hAcc><vAcc>3.000000</vAcc></extensions></trkpt>
      <trkpt lon="-123.271037" lat="44.558722"><ele>72.199287</ele><time>2020-10-27T21:09:05Z</time><extensions><speed>0.000000</speed><course>-1.000000</course><hAcc>5.000000</hAcc><vAcc>3.000000</vAcc></extensions></trkpt>
      <trkpt lon="-123.271037" lat="44.558722"><ele>72.200630</ele><time>2020-10-27T21:09:06Z</time><extensions><speed>0.000000</speed><course>-1.000000</course><hAcc>5.000000</hAcc><vAcc>3.000000</vAcc></extensions></trkpt>
      <trkpt lon="-123.271037" lat="44.558722"><ele>72.202461</ele><time>2020-10-27T21:09:07Z</time><extensions><speed>0.000000</speed><course>-1.000000</course><hAcc>5.000000</hAcc><vAcc>3.000000</vAcc></extensions></trkpt>
      <trkpt lon="-123.271037" lat="44.558722"><ele>72.201607</ele><time>2020-10-27T21:09:08Z</time><extensions><speed>0.000000</speed><course>-1.000000</course><hAcc>5.000000</hAcc><vAcc>3.000000</vAcc></extensions></trkpt>
      <trkpt lon="-123.271037" lat="44.558722"><ele>72.200752</ele><time>2020-10-27T21:09:09Z</time><extensions><speed>0.000000</speed><course>-1.000000</course><hAcc>5.000000</hAcc><vAcc>3.000000</vAcc></extensions></trkpt>
      <trkpt lon="-123.271037" lat="44.558722"><ele>72.203072</ele><time>2020-10-27T21:09:10Z</time><extensions><speed>0.000000</speed><course>-1.000000</course><hAcc>5.000000</hAcc><vAcc>3.000000</vAcc></extensions></trkpt>
      <trkpt lon="-123.271037" lat="44.558722"><ele>72.203011</ele><time>2020-10-27T21:09:11Z</time><extensions><speed>0.000000</speed><course>-1.000000</course><hAcc>5.000000</hAcc><vAcc>3.000000</vAcc></extensions></trkpt>
      <trkpt lon="-123.271037" lat="44.558722"><ele>72.203255</ele><time>2020-10-27T21:09:12Z</time><extensions><speed>0.000000</speed><course>-1.000000</course><hAcc>5.000000</hAcc><vAcc>3.000000</vAcc></extensions></trkpt>
      <trkpt lon="-123.271037" lat="44.558722"><ele>72.205757</ele><time>2020-10-27T21:09:13Z</time><extensions><speed>0.000000</speed><course>-1.000000</course><hAcc>5.000000</hAcc><vAcc>3.000000</vAcc></extensions></trkpt>
      <trkpt lon="-123.271037" lat="44.558722"><ele>72.203255</ele><time>2020-10-27T21:09:14Z</time><extensions><speed>0.000000</speed><course>-1.000000</course><hAcc>5.000000</hAcc><vAcc>3.000000</vAcc></extensions></trkpt>
      <trkpt lon="-123.271037" lat="44.558722"><ele>72.207161</ele><time>2020-10-27T21:09:15Z</time><extensions><speed>0.000000</speed><course>-1.000000</course><hAcc>5.000000</hAcc><vAcc>3.000000</vAcc></extensions></trkpt>
      <trkpt lon="-123.271037" lat="44.558722"><ele>72.210823</ele><time>2020-10-27T21:09:16Z</time><extensions><speed>0.000000</speed><course>-1.000000</course><hAcc>5.000000</hAcc><vAcc>3.000000</vAcc></extensions></trkpt>
      <trkpt lon="-123.271037" lat="44.558722"><ele>72.211739</ele><time>2020-10-27T21:09:17Z</time><extensions><speed>0.000000</speed><course>-1.000000</course><hAcc>5.000000</hAcc><vAcc>3.000000</vAcc></extensions></trkpt>
      <trkpt lon="-123.271037" lat="44.558722"><ele>72.211555</ele><time>2020-10-27T21:09:18Z</time><extensions><speed>0.000000</speed><course>-1.000000</course><hAcc>5.000000</hAcc><vAcc>3.000000</vAcc></extensions></trkpt>
      <trkpt lon="-123.271037" lat="44.558722"><ele>72.211922</ele><time>2020-10-27T21:09:19Z</time><extensions><speed>0.000000</speed><course>-1.000000</course><hAcc>5.000000</hAcc><vAcc>3.000000</vAcc></extensions></trkpt>
      <trkpt lon="-123.271037" lat="44.558722"><ele>72.214485</ele><time>2020-10-27T21:09:20Z</time><extensions><speed>0.000000</speed><course>-1.000000</course><hAcc>5.000000</hAcc><vAcc>3.000000</vAcc></extensions></trkpt>
      <trkpt lon="-123.271037" lat="44.558722"><ele>72.215401</ele><time>2020-10-27T21:09:21Z</time><extensions><speed>0.000000</speed><course>-1.000000</course><hAcc>5.000000</hAcc><vAcc>3.000000</vAcc></extensions></trkpt>
      <trkpt lon="-123.271037" lat="44.558722"><ele>72.215767</ele><time>2020-10-27T21:09:22Z</time><extensions><speed>0.000000</speed><course>-1.000000</course><hAcc>5.000000</hAcc><vAcc>3.000000</vAcc></extensions></trkpt>
      <trkpt lon="-123.271037" lat="44.558722"><ele>72.220100</ele><time>2020-10-27T21:09:23Z</time><extensions><speed>0.000000</speed><course>-1.000000</course><hAcc>5.000000</hAcc><vAcc>3.000000</vAcc></extensions></trkpt>
      <trkpt lon="-123.271037" lat="44.558722"><ele>72.222298</ele><time>2020-10-27T21:09:24Z</time><extensions><speed>0.000000</speed><course>-1.000000</course><hAcc>5.000000</hAcc><vAcc>3.000000</vAcc></extensions></trkpt>
      <trkpt lon="-123.271037" lat="44.558722"><ele>72.221992</ele><time>2020-10-27T21:09:25Z</time><extensions><speed>0.000000</speed><course>-1.000000</course><hAcc>5.000000</hAcc><vAcc>3.000000</vAcc></extensions></trkpt>
      <trkpt lon="-123.271037" lat="44.558722"><ele>72.222725</ele><time>2020-10-27T21:09:26Z</time><extensions><speed>0.000000</speed><course>-1.000000</course><hAcc>5.000000</hAcc><vAcc>3.000000</vAcc></extensions></trkpt>
      <trkpt lon="-123.271037" lat="44.558722"><ele>72.225716</ele><time>2020-10-27T21:09:27Z</time><extensions><speed>0.000000</speed><course>-1.000000</course><hAcc>5.000000</hAcc><vAcc>3.000000</vAcc></extensions></trkpt>
      <trkpt lon="-123.271037" lat="44.558722"><ele>72.227730</ele><time>2020-10-27T21:09:28Z</time><extensions><speed>0.000000</speed><course>-1.000000</course><hAcc>5.000000</hAcc><vAcc>3.000000</vAcc></extensions></trkpt>
      <trkpt lon="-123.271037" lat="44.558722"><ele>72.228706</ele><time>2020-10-27T21:09:29Z</time><extensions><speed>0.000000</speed><course>-1.000000</course><hAcc>5.000000</hAcc><vAcc>3.000000</vAcc></extensions></trkpt>
      <trkpt lon="-123.271037" lat="44.558722"><ele>72.229317</ele><time>2020-10-27T21:09:30Z</time><extensions><speed>0.000000</speed><course>-1.000000</course><hAcc>5.000000</hAcc><vAcc>3.000000</vAcc></extensions></trkpt>
      <trkpt lon="-123.271037" lat="44.558722"><ele>72.228951</ele><time>2020-10-27T21:09:31Z</time><extensions><speed>0.000000</speed><course>-1.000000</course><hAcc>5.000000</hAcc><vAcc>3.000000</vAcc></extensions></trkpt>
      <trkpt lon="-123.271037" lat="44.558722"><ele>72.229927</ele><time>2020-10-27T21:09:32Z</time><extensions><speed>0.000000</speed><course>-1.000000</course><hAcc>5.000000</hAcc><vAcc>3.000000</vAcc></extensions></trkpt>
      <trkpt lon="-123.271037" lat="44.558722"><ele>72.229805</ele><time>2020-10-27T21:09:33Z</time><extensions><speed>0.000000</speed><course>-1.000000</course><hAcc>5.000000</hAcc><vAcc>3.000000</vAcc></extensions></trkpt>
      <trkpt lon="-123.271037" lat="44.558722"><ele>72.231270</ele><time>2020-10-27T21:09:34Z</time><extensions><speed>0.000000</speed><course>-1.000000</course><hAcc>5.000000</hAcc><vAcc>3.000000</vAcc></extensions></trkpt>
      <trkpt lon="-123.271037" lat="44.558722"><ele>72.131142</ele><time>2020-10-27T21:09:35Z</time><extensions><speed>0.000000</speed><course>-1.000000</course><hAcc>5.000000</hAcc><vAcc>3.000000</vAcc></extensions></trkpt>
      <trkpt lon="-123.271037" lat="44.558722"><ele>72.156883</ele><time>2020-10-27T21:09:36Z</time><extensions><speed>0.000000</speed><course>-1.000000</course><hAcc>5.000000</hAcc><vAcc>3.000000</vAcc></extensions></trkpt>
      <trkpt lon="-123.271037" lat="44.558722"><ele>72.185616</ele><time>2020-10-27T21:09:37Z</time><extensions><speed>0.000000</speed><course>-1.000000</course><hAcc>5.000000</hAcc><vAcc>3.000000</vAcc></extensions></trkpt>
      <trkpt lon="-123.271037" lat="44.558722"><ele>72.192436</ele><time>2020-10-27T21:09:38Z</time><extensions><speed>0.000000</speed><course>-1.000000</course><hAcc>5.000000</hAcc><vAcc>3.000000</vAcc></extensions></trkpt>
      <trkpt lon="-123.271037" lat="44.558722"><ele>72.190163</ele><time>2020-10-27T21:09:39Z</time><extensions><speed>0.000000</speed><course>-1.000000</course><hAcc>5.000000</hAcc><vAcc>3.000000</vAcc></extensions></trkpt>
      <trkpt lon="-123.271037" lat="44.558722"><ele>72.300049</ele><time>2020-10-27T21:09:40Z</time><extensions><speed>0.000000</speed><course>-1.000000</course><hAcc>5.000000</hAcc><vAcc>3.000000</vAcc></extensions></trkpt>
      <trkpt lon="-123.271037" lat="44.558722"><ele>72.281410</ele><time>2020-10-27T21:09:41Z</time><extensions><speed>0.000000</speed><course>-1.000000</course><hAcc>5.000000</hAcc><vAcc>3.000000</vAcc></extensions></trkpt>
      <trkpt lon="-123.271037" lat="44.558722"><ele>72.336937</ele><time>2020-10-27T21:09:42Z</time><extensions><speed>0.000000</speed><course>-1.000000</course><hAcc>5.000000</hAcc><vAcc>3.000000</vAcc></extensions></trkpt>
      <trkpt lon="-123.271037" lat="44.558722"><ele>72.368683</ele><time>2020-10-27T21:09:43Z</time><extensions><speed>0.000000</speed><course>-1.000000</course><hAcc>5.000000</hAcc><vAcc>3.000000</vAcc></extensions></trkpt>
      <trkpt lon="-123.271037" lat="44.558722"><ele>72.300896</ele><time>2020-10-27T21:09:44Z</time><extensions><speed>0.000000</speed><course>-1.000000</course><hAcc>5.000000</hAcc><vAcc>3.000000</vAcc></extensions></trkpt>
      <trkpt lon="-123.271037" lat="44.558722"><ele>72.307289</ele><time>2020-10-27T21:09:45Z</time><extensions><speed>0.000000</speed><course>-1.000000</course><hAcc>5.000000</hAcc><vAcc>3.000000</vAcc></extensions></trkpt>
      <trkpt lon="-123.271037" lat="44.558722"><ele>72.299858</ele><time>2020-10-27T21:09:46Z</time><extensions><speed>0.000000</speed><course>-1.000000</course><hAcc>5.000000</hAcc><vAcc>3.000000</vAcc></extensions></trkpt>
      <trkpt lon="-123.271037" lat="44.558722"><ele>72.415314</ele><time>2020-10-27T21:09:47Z</time><extensions><speed>0.000000</speed><course>-1.000000</course><hAcc>5.000000</hAcc><vAcc>3.000000</vAcc></extensions></trkpt>
      <trkpt lon="-123.271037" lat="44.558722"><ele>72.395660</ele><time>2020-10-27T21:09:48Z</time><extensions><speed>0.000000</speed><course>-1.000000</course><hAcc>5.000000</hAcc><vAcc>3.000000</vAcc></extensions></trkpt>
      <trkpt lon="-123.271037" lat="44.558722"><ele>72.400970</ele><time>2020-10-27T21:09:49Z</time><extensions><speed>0.000000</speed><course>-1.000000</course><hAcc>5.000000</hAcc><vAcc>3.000000</vAcc></extensions></trkpt>
      <trkpt lon="-123.271037" lat="44.558722"><ele>72.390350</ele><time>2020-10-27T21:09:50Z</time><extensions><speed>0.000000</speed><course>-1.000000</course><hAcc>5.000000</hAcc><vAcc>3.000000</vAcc></extensions></trkpt>
      <trkpt lon="-123.271037" lat="44.558722"><ele>72.321350</ele><time>2020-10-27T21:09:51Z</time><extensions><speed>0.000000</speed><course>-1.000000</course><hAcc>5.000000</hAcc><vAcc>3.000000</vAcc></extensions></trkpt>
      <trkpt lon="-123.271037" lat="44.558722"><ele>72.294655</ele><time>2020-10-27T21:09:52Z</time><extensions><speed>0.000000</speed><course>-1.000000</course><hAcc>5.000000</hAcc><vAcc>3.000000</vAcc></extensions></trkpt>
      <trkpt lon="-123.271037" lat="44.558722"><ele>72.291367</ele><time>2020-10-27T21:09:53Z</time><extensions><speed>0.000000</speed><course>-1.000000</course><hAcc>5.000000</hAcc><vAcc>3.000000</vAcc></extensions></trkpt>
      <trkpt lon="-123.271037" lat="44.558722"><ele>72.223076</ele><time>2020-10-27T21:09:54Z</time><extensions><speed>0.000000</speed><course>-1.000000</course><hAcc>5.000000</hAcc><vAcc>3.000000</vAcc></extensions></trkpt>
      <trkpt lon="-123.271037" lat="44.558722"><ele>72.232452</ele><time>2020-10-27T21:09:55Z</time><extensions><speed>0.000000</speed><course>-1.000000</course><hAcc>5.000000</hAcc><vAcc>3.000000</vAcc></extensions></trkpt>
      <trkpt lon="-123.271037" lat="44.558722"><ele>72.206696</ele><time>2020-10-27T21:09:56Z</time><extensions><speed>0.000000</speed><course>-1.000000</course><hAcc>5.000000</hAcc><vAcc>3.000000</vAcc></extensions></trkpt>
      <trkpt lon="-123.271037" lat="44.558722"><ele>72.213715</ele><time>2020-10-27T21:09:57Z</time><extensions><speed>0.000000</speed><course>-1.000000</course><hAcc>5.000000</hAcc><vAcc>3.000000</vAcc></extensions></trkpt>
      <trkpt lon="-123.271037" lat="44.558722"><ele>72.234711</ele><time>2020-10-27T21:09:58Z</time><extensions><speed>0.000000</speed><course>-1.000000</course><hAcc>5.000000</hAcc><vAcc>3.000000</vAcc></extensions></trkpt>
      <trkpt lon="-123.271037" lat="44.558722"><ele>72.214447</ele><time>2020-10-27T21:09:59Z</time><extensions><speed>0.000000</speed><course>-1.000000</course><hAcc>5.000000</hAcc><vAcc>3.000000</vAcc></extensions></trkpt>
      <trkpt lon="-123.271037" lat="44.558722"><ele>72.143211</ele><time>2020-10-27T21:10:00Z</time><extensions><speed>0.000000</speed><course>-1.000000</course><hAcc>5.000000</hAcc><vAcc>3.000000</vAcc></extensions></trkpt>
      <trkpt lon="-123.271037" lat="44.558722"><ele>72.153618</ele><time>2020-10-27T21:10:01Z</time><extensions><speed>0.000000</speed><course>-1.000000</course><hAcc>5.000000</hAcc><vAcc>3.000000</vAcc></extensions></trkpt>
      <trkpt lon="-123.271037" lat="44.558722"><ele>72.231720</ele><time>2020-10-27T21:10:02Z</time><extensions><speed>0.000000</speed><course>-1.000000</course><hAcc>5.000000</hAcc><vAcc>3.000000</vAcc></extensions></trkpt>
      <trkpt lon="-123.271037" lat="44.558722"><ele>72.241867</ele><time>2020-10-27T21:10:03Z</time><extensions><speed>0.000000</speed><course>-1.000000</course><hAcc>5.000000</hAcc><vAcc>3.000000</vAcc></extensions></trkpt>
    </trkseg>
  </trk>
</gpx>