<?xml version="1.0" encoding="UTF-8"?>
<gpx version="1.1" creator="Apple Health Export" xmlns="http://www.topografix.com/GPX/1/1" xmlns:xsi="http://www.w3.org/2001/XMLSchema-instance" xsi:schemaLocation="http://www.topografix.com/GPX/1/1 http://www.topografix.com/GPX/1/1/gpx.xsd">
  <metadata>
    <time>2021-02-21T19:24:47Z</time>
  </metadata>
  <trk>
    <name>Route 2020-10-08 2:24pm</name>
    <trkseg>
      <trkpt lon="-123.283215" lat="44.573211"><ele>87.370186</ele><time>2020-10-08T21:08:58Z</time><extensions><speed>7.170000</speed><course>193.710938</course><hAcc>30.000000</hAcc><vAcc>32.000000</vAcc></extensions></trkpt>
      <trkpt lon="-123.283215" lat="44.573211"><ele>87.370186</ele><time>2020-10-08T21:09:02Z</time><extensions><speed>7.170000</speed><course>193.710938</course><hAcc>30.000000</hAcc><vAcc>32.000000</vAcc></extensions></trkpt>
      <trkpt lon="-123.283404" lat="44.572701"><ele>101.565475</ele><time>2020-10-08T21:09:07Z</time><extensions><speed>3.356344</speed><course>137.685898</course><hAcc>15.999160</hAcc><vAcc>28.509573</vAcc></extensions></trkpt>
      <trkpt lon="-123.283399" lat="44.572671"><ele>72.605156</ele><time>2020-10-08T21:09:08Z</time><extensions><speed>4.887762</speed><course>177.397369</course><hAcc>11.999370</hAcc><vAcc>15.303470</vAcc></extensions></trkpt>
      <trkpt lon="-123.283444" lat="44.572589"><ele>76.109818</ele><time>2020-10-08T21:09:09Z</time><extensions><speed>4.704159</speed><course>177.888214</course><hAcc>11.999370</hAcc><vAcc>12.154079</vAcc></extensions></trkpt>
      <trkpt lon="-123.283444" lat="44.572553"><ele>76.588951</ele><time>2020-10-08T21:09:10Z</time><extensions><speed>4.704159</speed><course>182.151123</course><hAcc>15.999160</hAcc><vAcc>19.492422</vAcc></extensions></trkpt>
      <trkpt lon="-123.283459" lat="44.572556"><ele>88.099861</ele><time>2020-10-08T21:09:14Z</time><extensions><speed>1.590000</speed><course>178.945312</course><hAcc>5.000000</hAcc><vAcc>6.000000</vAcc></extensions></trkpt>
      <trkpt lon="-123.283579" lat="44.572435"><ele>75.493172</ele><time>2020-10-08T21:09:15Z</time><extensions><speed>3.000000</speed><course>214.804688</course><hAcc>10.000000</hAcc><vAcc>3.000000</vAcc></extensions></trkpt>
      <trkpt lon="-123.283550" lat="44.572396"><ele>77.989326</ele><time>2020-10-08T21:09:16Z</time><extensions><speed>4.070000</speed><course>187.382812</course><hAcc>5.000000</hAcc><vAcc>4.000000</vAcc></extensions></trkpt>
      <trkpt lon="-123.283539" lat="44.572356"><ele>78.194649</ele><time>2020-10-08T21:09:17Z</time><extensions><speed>4.070000</speed><course>181.406250</course><hAcc>5.000000</hAcc><vAcc>4.000000</vAcc></extensions></trkpt>
      <trkpt lon="-123.283534" lat="44.572318"><ele>78.918037</ele><time>2020-10-08T21:09:18Z</time><extensions><speed>4.460000</speed><course>182.109375</course><hAcc>5.000000</hAcc><vAcc>3.000000</vAcc></extensions></trkpt>
      <trkpt lon="-123.283532" lat="44.572276"><ele>78.521980</ele><time>2020-10-08T21:09:19Z</time><extensions><speed>4.550000</speed><course>182.109375</course><hAcc>5.000000</hAcc><vAcc>3.000000</vAcc></extensions></trkpt>
      <trkpt lon="-123.283528" lat="44.572228"><ele>76.628792</ele><time>2020-10-08T21:09:20Z</time><extensions><speed>4.900000</speed><course>181.406250</course><hAcc>5.000000</hAcc><vAcc>3.000000</vAcc></extensions></trkpt>
      <trkpt lon="-123.283524" lat="44.572179"><ele>76.386543</ele><time>2020-10-08T21:09:21Z</time><extensions><speed>4.900000</speed><course>181.054688</course><hAcc>5.000000</hAcc><vAcc>3.000000</vAcc></extensions></trkpt>
      <trkpt lon="-123.283521" lat="44.572133"><ele>76.429146</ele><time>2020-10-08T21:09:22Z</time><extensions><speed>4.790000</speed><course>180.351562</course><hAcc>5.000000</hAcc><vAcc>3.000000</vAcc></extensions></trkpt>
      <trkpt lon="-123.283520" lat="44.572087"><ele>76.428963</ele><time>2020-10-08T21:09:23Z</time><extensions><speed>4.780000</speed><course>184.218750</course><hAcc>5.000000</hAcc><vAcc>3.000000</vAcc></extensions></trkpt>
      <trkpt lon="-123.283514" lat="44.572037"><ele>74.552925</ele><time>2020-10-08T21:09:24Z</time><extensions><speed>4.780000</speed><course>182.109375</course><hAcc>5.000000</hAcc><vAcc>3.000000</vAcc></extensions></trkpt>
      <trkpt lon="-123.283510" lat="44.571985"><ele>73.994392</ele><time>2020-10-08T21:09:25Z</time><extensions><speed>5.450000</speed><course>182.460938</course><hAcc>5.000000</hAcc><vAcc>3.000000</vAcc></extensions></trkpt>
      <trkpt lon="-123.283506" lat="44.571931"><ele>75.622017</ele><time>2020-10-08T21:09:26Z</time><extensions><speed>5.460000</speed><course>180.000000</course><hAcc>5.000000</hAcc><vAcc>3.000000</vAcc></extensions></trkpt>
      <trkpt lon="-123.283494" lat="44.571874"><ele>76.235909</ele><time>2020-10-08T21:09:27Z</time><extensions><speed>5.460000</speed><course>175.781250</course><hAcc>5.000000</hAcc><vAcc>3.000000</vAcc></extensions></trkpt>
      <trkpt lon="-123.283483" lat="44.571833"><ele>77.012703</ele><time>2020-10-08T21:09:28Z</time><extensions><speed>5.750000</speed><course>168.750000</course><hAcc>5.000000</hAcc><vAcc>3.000000</vAcc></extensions></trkpt>
      <trkpt lon="-123.283451" lat="44.571780"><ele>77.103706</ele><time>2020-10-08T21:09:29Z</time><extensions><speed>5.790000</speed><course>158.906250</course><hAcc>5.000000</hAcc><vAcc>3.000000</vAcc></extensions></trkpt>
      <trkpt lon="-123.283400" lat="44.571735"><ele>76.611214</ele><time>2020-10-08T21:09:30Z</time><extensions><speed>6.260000</speed><course>147.656250</course><hAcc>5.000000</hAcc><vAcc>3.000000</vAcc></extensions></trkpt>
      <trkpt lon="-123.283356" lat="44.571687"><ele>76.547249</ele><time>2020-10-08T21:09:31Z</time><extensions><speed>6.260000</speed><course>145.195312</course><hAcc>5.000000</hAcc><vAcc>3.000000</vAcc></extensions></trkpt>
      <trkpt lon="-123.283302" lat="44.571658"><ele>76.289497</ele><time>2020-10-08T21:09:32Z</time><extensions><speed>6.160000</speed><course>139.218750</course><hAcc>5.000000</hAcc><vAcc>3.000000</vAcc></extensions></trkpt>
      <trkpt lon="-123.283232" lat="44.571620"><ele>76.434578</ele><time>2020-10-08T21:09:33Z</time><extensions><speed>5.560000</speed><course>137.109375</course><hAcc>5.000000</hAcc><vAcc>4.000000</vAcc></extensions></trkpt>
      <trkpt lon="-123.283185" lat="44.571578"><ele>76.463753</ele><time>2020-10-08T21:09:34Z</time><extensions><speed>5.630000</speed><course>140.625000</course><hAcc>5.000000</hAcc><vAcc>4.000000</vAcc></extensions></trkpt>
      <trkpt lon="-123.283162" lat="44.571541"><ele>76.311470</ele><time>2020-10-08T21:09:35Z</time><extensions><speed>5.630000</speed><course>145.898438</course><hAcc>5.000000</hAcc><vAcc>4.000000</vAcc></extensions></trkpt>
      <trkpt lon="-123.283154" lat="44.571506"><ele>76.301094</ele><time>2020-10-08T21:09:36Z</time><extensions><speed>5.580000</speed><course>150.468750</course><hAcc>5.000000</hAcc><vAcc>4.000000</vAcc></extensions></trkpt>
      <trkpt lon="-123.283119" lat="44.571470"><ele>76.638130</ele><time>2020-10-08T21:09:37Z</time><extensions><speed>5.470000</speed><course>147.656250</course><hAcc>5.000000</hAcc><vAcc>4.000000</vAcc></extensions></trkpt>
      <trkpt lon="-123.283071" lat="44.571429"><ele>76.643379</ele><time>2020-10-08T21:09:38Z</time><extensions><speed>5.470000</speed><course>141.679688</course><hAcc>5.000000</hAcc><vAcc>4.000000</vAcc></extensions></trkpt>
      <trkpt lon="-123.283017" lat="44.571397"><ele>76.647224</ele><time>2020-10-08T21:09:39Z</time><extensions><speed>5.000000</speed><course>140.625000</course><hAcc>5.000000</hAcc><vAcc>3.000000</vAcc></extensions></trkpt>
      <trkpt lon="-123.282978" lat="44.571365"><ele>76.781258</ele><time>2020-10-08T21:09:40Z</time><extensions><speed>5.000000</speed><course>142.031250</course><hAcc>5.000000</hAcc><vAcc>3.000000</vAcc></extensions></trkpt>
      <trkpt lon="-123.282893" lat="44.571314"><ele>76.433846</ele><time>2020-10-08T21:09:41Z</time><extensions><speed>5.000000</speed><course>144.140625</course><hAcc>5.000000</hAcc><vAcc>3.000000</vAcc></extensions></trkpt>
      <trkpt lon="-123.282857" lat="44.571284"><ele>76.374458</ele><time>2020-10-08T21:09:42Z</time><extensions><speed>4.970000</speed><course>140.273438</course><hAcc>5.000000</hAcc><vAcc>3.000000</vAcc></extensions></trkpt>
      <trkpt lon="-123.282812" lat="44.571245"><ele>76.759224</ele><time>2020-10-08T21:09:43Z</time><extensions><speed>5.410000</speed><course>141.679688</course><hAcc>5.000000</hAcc><vAcc>3.000000</vAcc></extensions></trkpt>
      <trkpt lon="-123.282771" lat="44.571206"><ele>76.891121</ele><time>2020-10-08T21:09:44Z</time><extensions><speed>5.230000</speed><course>134.648438</course><hAcc>5.000000</hAcc><vAcc>3.000000</vAcc></extensions></trkpt>
      <trkpt lon="-123.282729" lat="44.571172"><ele>76.851997</ele><time>2020-10-08T21:09:45Z</time><extensions><speed>5.230000</speed><course>137.460938</course><hAcc>5.000000</hAcc><vAcc>3.000000</vAcc></extensions></trkpt>
      <trkpt lon="-123.282690" lat="44.571138"><ele>76.675056</ele><time>2020-10-08T21:09:46Z</time><extensions><speed>5.230000</speed><course>132.539062</course><hAcc>5.000000</hAcc><vAcc>3.000000</vAcc></extensions></trkpt>
      <trkpt lon="-123.282641" lat="44.571096"><ele>76.782417</ele><time>2020-10-08T21:09:47Z</time><extensions><speed>5.280000</speed><course>133.945312</course><hAcc>5.000000</hAcc><vAcc>3.000000</vAcc></extensions></trkpt>
      <trkpt lon="-123.282590" lat="44.571054"><ele>77.102242</ele><time>2020-10-08T21:09:48Z</time><extensions><speed>5.280000</speed><course>141.328125</course><hAcc>5.000000</hAcc><vAcc>3.000000</vAcc></extensions></trkpt>
      <trkpt lon="-123.282583" lat="44.571020"><ele>77.679329</ele><time>2020-10-08T21:09:49Z</time><extensions><speed>4.380000</speed><course>151.523438</course><hAcc>5.000000</hAcc><vAcc>3.000000</vAcc></extensions></trkpt>
      <trkpt lon="-123.282556" lat="44.570997"><ele>77.375191</ele><time>2020-10-08T21:09:50Z</time><extensions><speed>4.380000</speed><course>161.367188</course><hAcc>5.000000</hAcc><vAcc>3.000000</vAcc></extensions></trkpt>
      <trkpt lon="-123.282541" lat="44.570968"><ele>77.474678</ele><time>2020-10-08T21:09:51Z</time><extensions><speed>3.490000</speed><course>161.015625</course><hAcc>5.000000</hAcc><vAcc>3.000000</vAcc></extensions></trkpt>
      <trkpt lon="-123.282503" lat="44.570932"><ele>78.074715</ele><time>2020-10-08T21:09:52Z</time><extensions><speed>3.490000</speed><course>143.789062</course><hAcc>5.000000</hAcc><vAcc>4.000000</vAcc></extensions></trkpt>
      <trkpt lon="-123.282455" lat="44.570901"><ele>78.145332</ele><time>2020-10-08T21:09:53Z</time><extensions><speed>4.800000</speed><course>137.460938</course><hAcc>5.000000</hAcc><vAcc>3.000000</vAcc></extensions></trkpt>
      <trkpt lon="-123.282418" lat="44.570860"><ele>78.422615</ele><time>2020-10-08T21:09:54Z</time><extensions><speed>4.800000</speed><course>137.460938</course><hAcc>5.000000</hAcc><vAcc>3.000000</vAcc></extensions></trkpt>
      <trkpt lon="-123.282374" lat="44.570826"><ele>78.276985</ele><time>2020-10-08T21:09:55Z</time><extensions><speed>4.800000</speed><course>134.648438</course><hAcc>5.000000</hAcc><vAcc>3.000000</vAcc></extensions></trkpt>
      <trkpt lon="-123.282303" lat="44.570797"><ele>79.062935</ele><time>2020-10-08T21:09:56Z</time><extensions><speed>5.300000</speed><course>137.109375</course><hAcc>5.000000</hAcc><vAcc>4.000000</vAcc></extensions></trkpt>
      <trkpt lon="-123.282254" lat="44.570756"><ele>79.367622</ele><time>2020-10-08T21:09:57Z</time><extensions><speed>5.300000</speed><course>137.460938</course><hAcc>5.000000</hAcc><vAcc>3.000000</vAcc></extensions></trkpt>
      <trkpt lon="-123.282221" lat="44.570708"><ele>79.541023</ele><time>2020-10-08T21:09:58Z</time><extensions><speed>5.230000</speed><course>141.679688</course><hAcc>5.000000</hAcc><vAcc>4.000000</vAcc></extensions></trkpt>
      <trkpt lon="-123.282180" lat="44.570671"><ele>79.219429</ele><time>2020-10-08T21:09:59Z</time><extensions><speed>5.230000</speed><course>138.164062</course><hAcc>5.000000</hAcc><vAcc>4.000000</vAcc></extensions></trkpt>
      <trkpt lon="-123.282118" lat="44.570629"><ele>79.150215</ele><time>2020-10-08T21:10:00Z</time><extensions><speed>5.230000</speed><course>132.187500</course><hAcc>5.000000</hAcc><vAcc>4.000000</vAcc></extensions></trkpt>
      <trkpt lon="-123.282059" lat="44.570594"><ele>79.475594</ele><time>2020-10-08T21:10:01Z</time><extensions><speed>5.520000</speed><course>137.812500</course><hAcc>5.000000</hAcc><vAcc>4.000000</vAcc></extensions></trkpt>
      <trkpt lon="-123.282006" lat="44.570556"><ele>79.724007</ele><time>2020-10-08T21:10:02Z</time><extensions><speed>4.980000</speed><course>140.625000</course><hAcc>5.000000</hAcc><vAcc>3.000000</vAcc></extensions></trkpt>
      <trkpt lon="-123.281948" lat="44.570516"><ele>79.756844</ele><time>2020-10-08T21:10:03Z</time><extensions><speed>5.130000</speed><course>139.921875</course><hAcc>5.000000</hAcc><vAcc>3.000000</vAcc></extensions></trkpt>
      <trkpt lon="-123.281893" lat="44.570478"><ele>79.961861</ele><time>2020-10-08T21:10:04Z</time><extensions><speed>5.130000</speed><course>135.703125</course><hAcc>5.000000</hAcc><vAcc>3.000000</vAcc></extensions></trkpt>
      <trkpt lon="-123.281849" lat="44.570443"><ele>80.109978</ele><time>2020-10-08T21:10:05Z</time><extensions><speed>5.130000</speed><course>139.921875</course><hAcc>5.000000</hAcc><vAcc>3.000000</vAcc></extensions></trkpt>
      <trkpt lon="-123.281781" lat="44.570405"><ele>80.261436</ele><time>2020-10-08T21:10:06Z</time><extensions><speed>5.050000</speed><course>143.085938</course><hAcc>5.000000</hAcc><vAcc>4.000000</vAcc></extensions></trkpt>
      <trkpt lon="-123.281743" lat="44.570369"><ele>80.158363</ele><time>2020-10-08T21:10:07Z</time><extensions><speed>5.050000</speed><course>143.085938</course><hAcc>5.000000</hAcc><vAcc>4.000000</vAcc></extensions></trkpt>
      <trkpt lon="-123.281700" lat="44.570348"><ele>79.761383</ele><time>2020-10-08T21:10:08Z</time><extensions><speed>5.050000</speed><course>135.351562</course><hAcc>5.000000</hAcc><vAcc>4.000000</vAcc></extensions></trkpt>
      <trkpt lon="-123.281654" lat="44.570327"><ele>79.661835</ele><time>2020-10-08T21:10:09Z</time><extensions><speed>3.830000</speed><course>121.640625</course><hAcc>5.000000</hAcc><vAcc>4.000000</vAcc></extensions></trkpt>
      <trkpt lon="-123.281618" lat="44.570334"><ele>79.514442</ele><time>2020-10-08T21:10:10Z</time><extensions><speed>2.940000</speed><course>115.664062</course><hAcc>5.000000</hAcc><vAcc>4.000000</vAcc></extensions></trkpt>
      <trkpt lon="-123.281585" lat="44.570322"><ele>79.192253</ele><time>2020-10-08T21:10:11Z</time><extensions><speed>2.930000</speed><course>116.015625</course><hAcc>10.000000</hAcc><vAcc>4.000000</vAcc></extensions></trkpt>
      <trkpt lon="-123.281523" lat="44.570293"><ele>79.384254</ele><time>2020-10-08T21:10:12Z</time><extensions><speed>3.570000</speed><course>132.890625</course><hAcc>5.000000</hAcc><vAcc>4.000000</vAcc></extensions></trkpt>
      <trkpt lon="-123.281488" lat="44.570242"><ele>79.167740</ele><time>2020-10-08T21:10:13Z</time><extensions><speed>3.570000</speed><course>146.953125</course><hAcc>5.000000</hAcc><vAcc>4.000000</vAcc></extensions></trkpt>
      <trkpt lon="-123.281447" lat="44.570220"><ele>79.455925</ele><time>2020-10-08T21:10:14Z</time><extensions><speed>4.420000</speed><course>142.382812</course><hAcc>5.000000</hAcc><vAcc>4.000000</vAcc></extensions></trkpt>
      <trkpt lon="-123.281419" lat="44.570178"><ele>79.460197</ele><time>2020-10-08T21:10:15Z</time><extensions><speed>4.380000</speed><course>139.570312</course><hAcc>5.000000</hAcc><vAcc>4.000000</vAcc></extensions></trkpt>
      <trkpt lon="-123.281391" lat="44.570172"><ele>79.388687</ele><time>2020-10-08T21:10:16Z</time><extensions><speed>4.380000</speed><course>138.867188</course><hAcc>5.000000</hAcc><vAcc>4.000000</vAcc></extensions></trkpt>
      <trkpt lon="-123.281345" lat="44.570136"><ele>79.378288</ele><time>2020-10-08T21:10:17Z</time><extensions><speed>4.360000</speed><course>136.054688</course><hAcc>5.000000</hAcc><vAcc>4.000000</vAcc></extensions></trkpt>
      <trkpt lon="-123.281308" lat="44.570105"><ele>77.855255</ele><time>2020-10-08T21:10:18Z</time><extensions><speed>4.220000</speed><course>137.460938</course><hAcc>5.000000</hAcc><vAcc>4.000000</vAcc></extensions></trkpt>
      <trkpt lon="-123.281273" lat="44.570072"><ele>76.947708</ele><time>2020-10-08T21:10:19Z</time><extensions><speed>4.360000</speed><course>142.734375</course><hAcc>5.000000</hAcc><vAcc>4.000000</vAcc></extensions></trkpt>
      <trkpt lon="-123.281247" lat="44.570035"><ele>76.220329</ele><time>2020-10-08T21:10:20Z</time><extensions><speed>4.040000</speed><course>137.812500</course><hAcc>5.000000</hAcc><vAcc>4.000000</vAcc></extensions></trkpt>
      <trkpt lon="-123.281220" lat="44.570000"><ele>76.429306</ele><time>2020-10-08T21:10:21Z</time><extensions><speed>4.180000</speed><course>142.734375</course><hAcc>5.000000</hAcc><vAcc>4.000000</vAcc></extensions></trkpt>
      <trkpt lon="-123.281195" lat="44.569963"><ele>76.060150</ele><time>2020-10-08T21:10:22Z</time><extensions><speed>4.180000</speed><course>142.734375</course><hAcc>5.000000</hAcc><vAcc>4.000000</vAcc></extensions></trkpt>
      <trkpt lon="-123.281162" lat="44.569925"><ele>76.198456</ele><time>2020-10-08T21:10:23Z</time><extensions><speed>4.570000</speed><course>145.195312</course><hAcc>5.000000</hAcc><vAcc>4.000000</vAcc></extensions></trkpt>
      <trkpt lon="-123.281126" lat="44.569885"><ele>75.863655</ele><time>2020-10-08T21:10:24Z</time><extensions><speed>4.420000</speed><course>141.679688</course><hAcc>5.000000</hAcc><vAcc>4.000000</vAcc></extensions></trkpt>
      <trkpt lon="-123.281093" lat="44.569857"><ele>75.926933</ele><time>2020-10-08T21:10:25Z</time><extensions><speed>4.420000</speed><course>137.109375</course><hAcc>5.000000</hAcc><vAcc>4.000000</vAcc></extensions></trkpt>
      <trkpt lon="-123.281062" lat="44.569833"><ele>75.618645</ele><time>2020-10-08T21:10:26Z</time><extensions><speed>4.080000</speed><course>153.281250</course><hAcc>5.000000</hAcc><vAcc>4.000000</vAcc></extensions></trkpt>
      <trkpt lon="-123.280999" lat="44.569788"><ele>75.270386</ele><time>2020-10-08T21:10:27Z</time><extensions><speed>4.080000</speed><course>134.648438</course><hAcc>5.000000</hAcc><vAcc>4.000000</vAcc></extensions></trkpt>
      <trkpt lon="-123.280953" lat="44.569760"><ele>75.632309</ele><time>2020-10-08T21:10:28Z</time><extensions><speed>4.400000</speed><course>130.429688</course><hAcc>5.000000</hAcc><vAcc>4.000000</vAcc></extensions></trkpt>
      <trkpt lon="-123.280916" lat="44.569721"><ele>75.565559</ele><time>2020-10-08T21:10:29Z</time><extensions><speed>4.050000</speed><course>140.273438</course><hAcc>5.000000</hAcc><vAcc>4.000000</vAcc></extensions></trkpt>
      <trkpt lon="-123.280880" lat="44.569675"><ele>75.420433</ele><time>2020-10-08T21:10:30Z</time><extensions><speed>5.130000</speed><course>138.164062</course><hAcc>5.000000</hAcc><vAcc>4.000000</vAcc></extensions></trkpt>
      <trkpt lon="-123.280833" lat="44.569639"><ele>75.299591</ele><time>2020-10-08T21:10:31Z</time><extensions><speed>5.070000</speed><course>131.484375</course><hAcc>5.000000</hAcc><vAcc>4.000000</vAcc></extensions></trkpt>
      <trkpt lon="-123.280791" lat="44.569605"><ele>75.267464</ele><time>2020-10-08T21:10:32Z</time><extensions><speed>5.070000</speed><course>137.812500</course><hAcc>5.000000</hAcc><vAcc>4.000000</vAcc></extensions></trkpt>
      <trkpt lon="-123.280730" lat="44.569565"><ele>75.302887</ele><time>2020-10-08T21:10:33Z</time><extensions><speed>5.070000</speed><course>133.242188</course><hAcc>5.000000</hAcc><vAcc>4.000000</vAcc></extensions></trkpt>
      <trkpt lon="-123.280673" lat="44.569537"><ele>75.588448</ele><time>2020-10-08T21:10:34Z</time><extensions><speed>4.880000</speed><course>133.593750</course><hAcc>5.000000</hAcc><vAcc>4.000000</vAcc></extensions></trkpt>
      <trkpt lon="-123.280613" lat="44.569514"><ele>75.087509</ele><time>2020-10-08T21:10:35Z</time><extensions><speed>4.880000</speed><course>138.867188</course><hAcc>5.000000</hAcc><vAcc>4.000000</vAcc></extensions></trkpt>
      <trkpt lon="-123.280560" lat="44.569466"><ele>74.769218</ele><time>2020-10-08T21:10:36Z</time><extensions><speed>4.360000</speed><course>131.132812</course><hAcc>5.000000</hAcc><vAcc>3.000000</vAcc></extensions></trkpt>
      <trkpt lon="-123.280518" lat="44.569436"><ele>74.501579</ele><time>2020-10-08T21:10:37Z</time><extensions><speed>4.240000</speed><course>134.648438</course><hAcc>5.000000</hAcc><vAcc>3.000000</vAcc></extensions></trkpt>
      <trkpt lon="-123.280476" lat="44.569393"><ele>74.419167</ele><time>2020-10-08T21:10:38Z</time><extensions><speed>4.400000</speed><course>139.218750</course><hAcc>5.000000</hAcc><vAcc>3.000000</vAcc></extensions></trkpt>
      <trkpt lon="-123.280432" lat="44.569352"><ele>74.222900</ele><time>2020-10-08T21:10:39Z</time><extensions><speed>5.230000</speed><course>144.140625</course><hAcc>5.000000</hAcc><vAcc>3.000000</vAcc></extensions></trkpt>
      <trkpt lon="-123.280391" lat="44.569316"><ele>74.258675</ele><time>2020-10-08T21:10:40Z</time><extensions><speed>4.420000</speed><course>144.843750</course><hAcc>5.000000</hAcc><vAcc>4.000000</vAcc></extensions></trkpt>
      <trkpt lon="-123.280359" lat="44.569283"><ele>74.622856</ele><time>2020-10-08T21:10:41Z</time><extensions><speed>4.420000</speed><course>144.843750</course><hAcc>5.000000</hAcc><vAcc>4.000000</vAcc></extensions></trkpt>
      <trkpt lon="-123.280320" lat="44.569226"><ele>74.306213</ele><time>2020-10-08T21:10:42Z</time><extensions><speed>5.250000</speed><course>146.601562</course><hAcc>5.000000</hAcc><vAcc>4.000000</vAcc></extensions></trkpt>
      <trkpt lon="-123.280285" lat="44.569193"><ele>74.220612</ele><time>2020-10-08T21:10:43Z</time><extensions><speed>5.250000</speed><course>142.382812</course><hAcc>5.000000</hAcc><vAcc>4.000000</vAcc></extensions></trkpt>
      <trkpt lon="-123.280229" lat="44.569160"><ele>74.850563</ele><time>2020-10-08T21:10:44Z</time><extensions><speed>4.740000</speed><course>135.351562</course><hAcc>5.000000</hAcc><vAcc>3.000000</vAcc></extensions></trkpt>
      <trkpt lon="-123.280182" lat="44.569119"><ele>74.817459</ele><time>2020-10-08T21:10:45Z</time><extensions><speed>4.740000</speed><course>139.570312</course><hAcc>5.000000</hAcc><vAcc>3.000000</vAcc></extensions></trkpt>
      <trkpt lon="-123.280141" lat="44.569085"><ele>74.917580</ele><time>2020-10-08T21:10:46Z</time><extensions><speed>4.900000</speed><course>136.406250</course><hAcc>5.000000</hAcc><vAcc>3.000000</vAcc></extensions></trkpt>
      <trkpt lon="-123.280094" lat="44.569060"><ele>75.227180</ele><time>2020-10-08T21:10:47Z</time><extensions><speed>4.840000</speed><course>141.328125</course><hAcc>5.000000</hAcc><vAcc>3.000000</vAcc></extensions></trkpt>
      <trkpt lon="-123.280065" lat="44.569022"><ele>74.841858</ele><time>2020-10-08T21:10:48Z</time><extensions><speed>4.840000</speed><course>161.718750</course><hAcc>5.000000</hAcc><vAcc>3.000000</vAcc></extensions></trkpt>
      <trkpt lon="-123.280054" lat="44.568982"><ele>74.890610</ele><time>2020-10-08T21:10:49Z</time><extensions><speed>4.710000</speed><course>171.562500</course><hAcc>5.000000</hAcc><vAcc>3.000000</vAcc></extensions></trkpt>
      <trkpt lon="-123.280051" lat="44.568939"><ele>75.065735</ele><time>2020-10-08T21:10:50Z</time><extensions><speed>4.710000</speed><course>176.132812</course><hAcc>5.000000</hAcc><vAcc>3.000000</vAcc></extensions></trkpt>
      <trkpt lon="-123.280040" lat="44.568900"><ele>75.088562</ele><time>2020-10-08T21:10:51Z</time><extensions><speed>4.760000</speed><course>175.781250</course><hAcc>5.000000</hAcc><vAcc>3.000000</vAcc></extensions></trkpt>
      <trkpt lon="-123.280032" lat="44.568858"><ele>75.167786</ele><time>2020-10-08T21:10:52Z</time><extensions><speed>4.690000</speed><course>170.859375</course><hAcc>5.000000</hAcc><vAcc>3.000000</vAcc></extensions></trkpt>
      <trkpt lon="-123.280030" lat="44.568816"><ele>75.343849</ele><time>2020-10-08T21:10:53Z</time><extensions><speed>4.730000</speed><course>177.539062</course><hAcc>5.000000</hAcc><vAcc>3.000000</vAcc></extensions></trkpt>
      <trkpt lon="-123.280014" lat="44.568774"><ele>75.172569</ele><time>2020-10-08T21:10:54Z</time><extensions><speed>4.690000</speed><course>170.156250</course><hAcc>5.000000</hAcc><vAcc>3.000000</vAcc></extensions></trkpt>
      <trkpt lon="-123.280011" lat="44.568730"><ele>75.222229</ele><time>2020-10-08T21:10:55Z</time><extensions><speed>4.710000</speed><course>178.945312</course><hAcc>5.000000</hAcc><vAcc>3.000000</vAcc></extensions></trkpt>
      <trkpt lon="-123.280015" lat="44.568683"><ele>75.193947</ele><time>2020-10-08T21:10:56Z</time><extensions><speed>4.970000</speed><course>181.757812</course><hAcc>5.000000</hAcc><vAcc>3.000000</vAcc></extensions></trkpt>
      <trkpt lon="-123.280017" lat="44.568637"><ele>75.270805</ele><time>2020-10-08T21:10:57Z</time><extensions><speed>4.970000</speed><course>179.648438</course><hAcc>5.000000</hAcc><vAcc>3.000000</vAcc></extensions></trkpt>
      <trkpt lon="-123.280017" lat="44.568594"><ele>75.360428</ele><time>2020-10-08T21:10:58Z</time><extensions><speed>4.750000</speed><course>179.648438</course><hAcc>5.000000</hAcc><vAcc>3.000000</vAcc></extensions></trkpt>
      <trkpt lon="-123.280016" lat="44.568550"><ele>75.259003</ele><time>2020-10-08T21:10:59Z</time><extensions><speed>4.570000</speed><course>177.890625</course><hAcc>5.000000</hAcc><vAcc>3.000000</vAcc></extensions></trkpt>
      <trkpt lon="-123.280015" lat="44.568507"><ele>75.263390</ele><time>2020-10-08T21:11:00Z</time><extensions><speed>4.690000</speed><course>179.296875</course><hAcc>5.000000</hAcc><vAcc>3.000000</vAcc></extensions></trkpt>
      <trkpt lon="-123.280015" lat="44.568462"><ele>75.474190</ele><time>2020-10-08T21:11:01Z</time><extensions><speed>4.750000</speed><course>180.351562</course><hAcc>5.000000</hAcc><vAcc>3.000000</vAcc></extensions></trkpt>
      <trkpt lon="-123.280015" lat="44.568418"><ele>75.516556</ele><time>2020-10-08T21:11:02Z</time><extensions><speed>4.690000</speed><course>176.835938</course><hAcc>5.000000</hAcc><vAcc>3.000000</vAcc></extensions></trkpt>
      <trkpt lon="-123.280013" lat="44.568375"><ele>75.444908</ele><time>2020-10-08T21:11:03Z</time><extensions><speed>4.640000</speed><course>177.890625</course><hAcc>5.000000</hAcc><vAcc>3.000000</vAcc></extensions></trkpt>
      <trkpt lon="-123.280014" lat="44.568334"><ele>75.401695</ele><time>2020-10-08T21:11:04Z</time><extensions><speed>4.640000</speed><course>177.539062</course><hAcc>5.000000</hAcc><vAcc>3.000000</vAcc></extensions></trkpt>
      <trkpt lon="-123.280014" lat="44.568290"><ele>75.473976</ele><time>2020-10-08T21:11:05Z</time><extensions><speed>4.550000</speed><course>176.835938</course><hAcc>5.000000</hAcc><vAcc>3.000000</vAcc></extensions></trkpt>
      <trkpt lon="-123.280013" lat="44.568247"><ele>75.284775</ele><time>2020-10-08T21:11:06Z</time><extensions><speed>4.720000</speed><course>178.242188</course><hAcc>5.000000</hAcc><vAcc>3.000000</vAcc></extensions></trkpt>
      <trkpt lon="-123.280015" lat="44.568204"><ele>75.414650</ele><time>2020-10-08T21:11:07Z</time><extensions><speed>4.720000</speed><course>178.593750</course><hAcc>5.000000</hAcc><vAcc>3.000000</vAcc></extensions></trkpt>
      <trkpt lon="-123.280015" lat="44.568163"><ele>75.590126</ele><time>2020-10-08T21:11:08Z</time><extensions><speed>4.720000</speed><course>176.835938</course><hAcc>5.000000</hAcc><vAcc>3.000000</vAcc></extensions></trkpt>
      <trkpt lon="-123.280011" lat="44.568121"><ele>75.664818</ele><time>2020-10-08T21:11:09Z</time><extensions><speed>4.390000</speed><course>175.429688</course><hAcc>5.000000</hAcc><vAcc>3.000000</vAcc></extensions></trkpt>
      <trkpt lon="-123.280004" lat="44.568079"><ele>75.852219</ele><time>2020-10-08T21:11:10Z</time><extensions><speed>4.470000</speed><course>172.617188</course><hAcc>5.000000</hAcc><vAcc>3.000000</vAcc></extensions></trkpt>
      <trkpt lon="-123.279996" lat="44.568040"><ele>75.512039</ele><time>2020-10-08T21:11:11Z</time><extensions><speed>4.400000</speed><course>172.617188</course><hAcc>5.000000</hAcc><vAcc>3.000000</vAcc></extensions></trkpt>
      <trkpt lon="-123.279985" lat="44.568005"><ele>75.630623</ele><time>2020-10-08T21:11:12Z</time><extensions><speed>4.400000</speed><course>172.265625</course><hAcc>5.000000</hAcc><vAcc>3.000000</vAcc></extensions></trkpt>
      <trkpt lon="-123.279973" lat="44.567970"><ele>75.579948</ele><time>2020-10-08T21:11:13Z</time><extensions><speed>3.800000</speed><course>173.671875</course><hAcc>5.000000</hAcc><vAcc>3.000000</vAcc></extensions></trkpt>
      <trkpt lon="-123.279963" lat="44.567931"><ele>75.502579</ele><time>2020-10-08T21:11:14Z</time><extensions><speed>4.250000</speed><course>177.187500</course><hAcc>5.000000</hAcc><vAcc>3.000000</vAcc></extensions></trkpt>
      <trkpt lon="-123.279935" lat="44.567876"><ele>75.726013</ele><time>2020-10-08T21:11:15Z</time><extensions><speed>4.260000</speed><course>182.460938</course><hAcc>5.000000</hAcc><vAcc>3.000000</vAcc></extensions></trkpt>
      <trkpt lon="-123.279933" lat="44.567833"><ele>76.105682</ele><time>2020-10-08T21:11:16Z</time><extensions><speed>4.260000</speed><course>185.625000</course><hAcc>5.000000</hAcc><vAcc>3.000000</vAcc></extensions></trkpt>
      <trkpt lon="-123.279932" lat="44.567791"><ele>76.074104</ele><time>2020-10-08T21:11:17Z</time><extensions><speed>4.260000</speed><course>177.187500</course><hAcc>5.000000</hAcc><vAcc>3.000000</vAcc></extensions></trkpt>
      <trkpt lon="-123.279921" lat="44.567749"><ele>76.181900</ele><time>2020-10-08T21:11:18Z</time><extensions><speed>4.170000</speed><course>180.351562</course><hAcc>5.000000</hAcc><vAcc>3.000000</vAcc></extensions></trkpt>
      <trkpt lon="-123.279916" lat="44.567709"><ele>76.411911</ele><time>2020-10-08T21:11:19Z</time><extensions><speed>4.170000</speed><course>178.242188</course><hAcc>5.000000</hAcc><vAcc>3.000000</vAcc></extensions></trkpt>
      <trkpt lon="-123.279914" lat="44.567672"><ele>76.366798</ele><time>2020-10-08T21:11:20Z</time><extensions><speed>4.130000</speed><course>171.562500</course><hAcc>5.000000</hAcc><vAcc>3.000000</vAcc></extensions></trkpt>
      <trkpt lon="-123.279911" lat="44.567635"><ele>76.310295</ele><time>2020-10-08T21:11:21Z</time><extensions><speed>4.130000</speed><course>175.429688</course><hAcc>5.000000</hAcc><vAcc>3.000000</vAcc></extensions></trkpt>
      <trkpt lon="-123.279908" lat="44.567597"><ele>76.601524</ele><time>2020-10-08T21:11:22Z</time><extensions><speed>3.920000</speed><course>175.781250</course><hAcc>5.000000</hAcc><vAcc>3.000000</vAcc></extensions></trkpt>
      <trkpt lon="-123.279909" lat="44.567563"><ele>76.875534</ele><time>2020-10-08T21:11:23Z</time><extensions><speed>4.070000</speed><course>183.164062</course><hAcc>5.000000</hAcc><vAcc>3.000000</vAcc></extensions></trkpt>
      <trkpt lon="-123.279912" lat="44.567529"><ele>76.848022</ele><time>2020-10-08T21:11:24Z</time><extensions><speed>3.920000</speed><course>184.218750</course><hAcc>5.000000</hAcc><vAcc>3.000000</vAcc></extensions></trkpt>
      <trkpt lon="-123.279908" lat="44.567496"><ele>76.855194</ele><time>2020-10-08T21:11:25Z</time><extensions><speed>3.860000</speed><course>172.968750</course><hAcc>5.000000</hAcc><vAcc>3.000000</vAcc></extensions></trkpt>
      <trkpt lon="-123.279895" lat="44.567454"><ele>76.802193</ele><time>2020-10-08T21:11:26Z</time><extensions><speed>3.860000</speed><course>179.648438</course><hAcc>5.000000</hAcc><vAcc>3.000000</vAcc></extensions></trkpt>
      <trkpt lon="-123.279889" lat="44.567429"><ele>76.840843</ele><time>2020-10-08T21:11:27Z</time><extensions><speed>3.620000</speed><course>170.859375</course><hAcc>5.000000</hAcc><vAcc>3.000000</vAcc></extensions></trkpt>
      <trkpt lon="-123.279887" lat="44.567401"><ele>76.992973</ele><time>2020-10-08T21:11:28Z</time><extensions><speed>3.860000</speed><course>181.054688</course><hAcc>5.000000</hAcc><vAcc>3.000000</vAcc></extensions></trkpt>
      <trkpt lon="-123.279891" lat="44.567364"><ele>76.972473</ele><time>2020-10-08T21:11:29Z</time><extensions><speed>3.860000</speed><course>185.976562</course><hAcc>5.000000</hAcc><vAcc>3.000000</vAcc></extensions></trkpt>
      <trkpt lon="-123.279895" lat="44.567324"><ele>76.956902</ele><time>2020-10-08T21:11:30Z</time><extensions><speed>4.180000</speed><course>176.484375</course><hAcc>5.000000</hAcc><vAcc>3.000000</vAcc></extensions></trkpt>
      <trkpt lon="-123.279909" lat="44.567286"><ele>77.054955</ele><time>2020-10-08T21:11:31Z</time><extensions><speed>3.410000</speed><course>193.359375</course><hAcc>5.000000</hAcc><vAcc>3.000000</vAcc></extensions></trkpt>
      <trkpt lon="-123.279913" lat="44.567247"><ele>76.912399</ele><time>2020-10-08T21:11:32Z</time><extensions><speed>4.540000</speed><course>184.570312</course><hAcc>5.000000</hAcc><vAcc>3.000000</vAcc></extensions></trkpt>
      <trkpt lon="-123.279917" lat="44.567205"><ele>76.976318</ele><time>2020-10-08T21:11:33Z</time><extensions><speed>4.140000</speed><course>188.789062</course><hAcc>5.000000</hAcc><vAcc>4.000000</vAcc></extensions></trkpt>
      <trkpt lon="-123.279925" lat="44.567165"><ele>76.845741</ele><time>2020-10-08T21:11:34Z</time><extensions><speed>4.140000</speed><course>191.250000</course><hAcc>5.000000</hAcc><vAcc>4.000000</vAcc></extensions></trkpt>
      <trkpt lon="-123.279929" lat="44.567122"><ele>76.809799</ele><time>2020-10-08T21:11:35Z</time><extensions><speed>4.040000</speed><course>181.757812</course><hAcc>5.000000</hAcc><vAcc>3.000000</vAcc></extensions></trkpt>
      <trkpt lon="-123.279934" lat="44.567082"><ele>76.991974</ele><time>2020-10-08T21:11:36Z</time><extensions><speed>4.000000</speed><course>187.734375</course><hAcc>5.000000</hAcc><vAcc>3.000000</vAcc></extensions></trkpt>
      <trkpt lon="-123.279939" lat="44.567034"><ele>77.105446</ele><time>2020-10-08T21:11:37Z</time><extensions><speed>4.730000</speed><course>178.242188</course><hAcc>5.000000</hAcc><vAcc>4.000000</vAcc></extensions></trkpt>
      <trkpt lon="-123.279945" lat="44.567009"><ele>77.040283</ele><time>2020-10-08T21:11:38Z</time><extensions><speed>4.590000</speed><course>184.218750</course><hAcc>5.000000</hAcc><vAcc>4.000000</vAcc></extensions></trkpt>
      <trkpt lon="-123.279946" lat="44.566982"><ele>77.028114</ele><time>2020-10-08T21:11:39Z</time><extensions><speed>4.590000</speed><course>169.804688</course><hAcc>5.000000</hAcc><vAcc>4.000000</vAcc></extensions></trkpt>
      <trkpt lon="-123.279945" lat="44.566945"><ele>77.048286</ele><time>2020-10-08T21:11:40Z</time><extensions><speed>4.560000</speed><course>185.273438</course><hAcc>5.000000</hAcc><vAcc>4.000000</vAcc></extensions></trkpt>
      <trkpt lon="-123.279953" lat="44.566903"><ele>77.302589</ele><time>2020-10-08T21:11:41Z</time><extensions><speed>4.190000</speed><course>187.031250</course><hAcc>5.000000</hAcc><vAcc>4.000000</vAcc></extensions></trkpt>
      <trkpt lon="-123.279958" lat="44.566861"><ele>77.506157</ele><time>2020-10-08T21:11:42Z</time><extensions><speed>4.430000</speed><course>182.109375</course><hAcc>5.000000</hAcc><vAcc>4.000000</vAcc></extensions></trkpt>
      <trkpt lon="-123.279967" lat="44.566818"><ele>77.275604</ele><time>2020-10-08T21:11:43Z</time><extensions><speed>4.190000</speed><course>185.625000</course><hAcc>5.000000</hAcc><vAcc>4.000000</vAcc></extensions></trkpt>
      <trkpt lon="-123.279975" lat="44.566782"><ele>77.240707</ele><time>2020-10-08T21:11:44Z</time><extensions><speed>3.360000</speed><course>187.734375</course><hAcc>5.000000</hAcc><vAcc>4.000000</vAcc></extensions></trkpt>
      <trkpt lon="-123.279987" lat="44.566755"><ele>77.252190</ele><time>2020-10-08T21:11:45Z</time><extensions><speed>1.980000</speed><course>197.929688</course><hAcc>5.000000</hAcc><vAcc>4.000000</vAcc></extensions></trkpt>
      <trkpt lon="-123.280001" lat="44.566716"><ele>76.961914</ele><time>2020-10-08T21:11:46Z</time><extensions><speed>4.750000</speed><course>193.710938</course><hAcc>5.000000</hAcc><vAcc>4.000000</vAcc></extensions></trkpt>
      <trkpt lon="-123.280011" lat="44.566666"><ele>76.976242</ele><time>2020-10-08T21:11:47Z</time><extensions><speed>4.700000</speed><course>182.109375</course><hAcc>5.000000</hAcc><vAcc>4.000000</vAcc></extensions></trkpt>
      <trkpt lon="-123.280014" lat="44.566613"><ele>76.841881</ele><time>2020-10-08T21:11:48Z</time><extensions><speed>4.700000</speed><course>178.593750</course><hAcc>5.000000</hAcc><vAcc>4.000000</vAcc></extensions></trkpt>
      <trkpt lon="-123.280011" lat="44.566563"><ele>76.898270</ele><time>2020-10-08T21:11:49Z</time><extensions><speed>4.510000</speed><course>180.351562</course><hAcc>5.000000</hAcc><vAcc>4.000000</vAcc></extensions></trkpt>
      <trkpt lon="-123.280007" lat="44.566515"><ele>76.795319</ele><time>2020-10-08T21:11:50Z</time><extensions><speed>4.510000</speed><course>180.703125</course><hAcc>5.000000</hAcc><vAcc>4.000000</vAcc></extensions></trkpt>
      <trkpt lon="-123.280002" lat="44.566469"><ele>76.753799</ele><time>2020-10-08T21:11:51Z</time><extensions><speed>4.340000</speed><course>178.945312</course><hAcc>5.000000</hAcc><vAcc>4.000000</vAcc></extensions></trkpt>
      <trkpt lon="-123.279995" lat="44.566428"><ele>76.638306</ele><time>2020-10-08T21:11:52Z</time><extensions><speed>4.310000</speed><course>176.835938</course><hAcc>5.000000</hAcc><vAcc>4.000000</vAcc></extensions></trkpt>
      <trkpt lon="-123.279989" lat="44.566386"><ele>76.378716</ele><time>2020-10-08T21:11:53Z</time><extensions><speed>4.310000</speed><course>180.000000</course><hAcc>5.000000</hAcc><vAcc>4.000000</vAcc></extensions></trkpt>
      <trkpt lon="-123.279984" lat="44.566341"><ele>76.742966</ele><time>2020-10-08T21:11:54Z</time><extensions><speed>4.390000</speed><course>178.593750</course><hAcc>5.000000</hAcc><vAcc>4.000000</vAcc></extensions></trkpt>
      <trkpt lon="-123.279984" lat="44.566301"><ele>76.958344</ele><time>2020-10-08T21:11:55Z</time><extensions><speed>4.390000</speed><course>180.000000</course><hAcc>5.000000</hAcc><vAcc>4.000000</vAcc></extensions></trkpt>
      <trkpt lon="-123.279980" lat="44.566268"><ele>76.914551</ele><time>2020-10-08T21:11:56Z</time><extensions><speed>3.610000</speed><course>178.945312</course><hAcc>5.000000</hAcc><vAcc>4.000000</vAcc></extensions></trkpt>
      <trkpt lon="-123.279980" lat="44.566227"><ele>76.964767</ele><time>2020-10-08T21:11:57Z</time><extensions><speed>3.610000</speed><course>185.976562</course><hAcc>5.000000</hAcc><vAcc>4.000000</vAcc></extensions></trkpt>
      <trkpt lon="-123.279981" lat="44.566184"><ele>76.956398</ele><time>2020-10-08T21:11:58Z</time><extensions><speed>3.560000</speed><course>182.460938</course><hAcc>5.000000</hAcc><vAcc>4.000000</vAcc></extensions></trkpt>
      <trkpt lon="-123.279982" lat="44.566143"><ele>77.155983</ele><time>2020-10-08T21:11:59Z</time><extensions><speed>4.130000</speed><course>185.976562</course><hAcc>5.000000</hAcc><vAcc>4.000000</vAcc></extensions></trkpt>
      <trkpt lon="-123.279984" lat="44.566099"><ele>77.228714</ele><time>2020-10-08T21:12:00Z</time><extensions><speed>4.100000</speed><course>185.273438</course><hAcc>5.000000</hAcc><vAcc>4.000000</vAcc></extensions></trkpt>
      <trkpt lon="-123.279991" lat="44.566056"><ele>77.226379</ele><time>2020-10-08T21:12:01Z</time><extensions><speed>4.100000</speed><course>187.734375</course><hAcc>5.000000</hAcc><vAcc>4.000000</vAcc></extensions></trkpt>
      <trkpt lon="-123.280000" lat="44.566017"><ele>77.197548</ele><time>2020-10-08T21:12:02Z</time><extensions><speed>3.570000</speed><course>190.195312</course><hAcc>5.000000</hAcc><vAcc>4.000000</vAcc></extensions></trkpt>
      <trkpt lon="-123.280011" lat="44.565983"><ele>77.164810</ele><time>2020-10-08T21:12:03Z</time><extensions><speed>3.000000</speed><course>192.304688</course><hAcc>5.000000</hAcc><vAcc>4.000000</vAcc></extensions></trkpt>
      <trkpt lon="-123.280017" lat="44.565944"><ele>77.298233</ele><time>2020-10-08T21:12:04Z</time><extensions><speed>4.000000</speed><course>186.328125</course><hAcc>5.000000</hAcc><vAcc>4.000000</vAcc></extensions></trkpt>
      <trkpt lon="-123.280022" lat="44.565896"><ele>77.178688</ele><time>2020-10-08T21:12:05Z</time><extensions><speed>4.000000</speed><course>182.812500</course><hAcc>5.000000</hAcc><vAcc>4.000000</vAcc></extensions></trkpt>
      <trkpt lon="-123.280023" lat="44.565846"><ele>77.289925</ele><time>2020-10-08T21:12:06Z</time><extensions><speed>4.510000</speed><course>177.187500</course><hAcc>5.000000</hAcc><vAcc>4.000000</vAcc></extensions></trkpt>
      <trkpt lon="-123.280019" lat="44.565797"><ele>77.182037</ele><time>2020-10-08T21:12:07Z</time><extensions><speed>4.450000</speed><course>177.539062</course><hAcc>5.000000</hAcc><vAcc>4.000000</vAcc></extensions></trkpt>
      <trkpt lon="-123.280014" lat="44.565747"><ele>77.311493</ele><time>2020-10-08T21:12:08Z</time><extensions><speed>4.910000</speed><course>176.132812</course><hAcc>5.000000</hAcc><vAcc>4.000000</vAcc></extensions></trkpt>
      <trkpt lon="-123.280005" lat="44.565671"><ele>77.207726</ele><time>2020-10-08T21:12:09Z</time><extensions><speed>4.910000</speed><course>180.351562</course><hAcc>5.000000</hAcc><vAcc>4.000000</vAcc></extensions></trkpt>
      <trkpt lon="-123.280002" lat="44.565622"><ele>77.190971</ele><time>2020-10-08T21:12:10Z</time><extensions><speed>4.910000</speed><course>177.187500</course><hAcc>5.000000</hAcc><vAcc>3.000000</vAcc></extensions></trkpt>
      <trkpt lon="-123.279994" lat="44.565575"><ele>77.175812</ele><time>2020-10-08T21:12:11Z</time><extensions><speed>4.990000</speed><course>176.835938</course><hAcc>5.000000</hAcc><vAcc>3.000000</vAcc></extensions></trkpt>
      <trkpt lon="-123.279991" lat="44.565515"><ele>77.321198</ele><time>2020-10-08T21:12:12Z</time><extensions><speed>5.430000</speed><course>180.000000</course><hAcc>5.000000</hAcc><vAcc>3.000000</vAcc></extensions></trkpt>
      <trkpt lon="-123.279995" lat="44.565458"><ele>77.133240</ele><time>2020-10-08T21:12:13Z</time><extensions><speed>5.430000</speed><course>187.382812</course><hAcc>5.000000</hAcc><vAcc>3.000000</vAcc></extensions></trkpt>
      <trkpt lon="-123.280003" lat="44.565416"><ele>77.131866</ele><time>2020-10-08T21:12:14Z</time><extensions><speed>4.670000</speed><course>187.382812</course><hAcc>5.000000</hAcc><vAcc>3.000000</vAcc></extensions></trkpt>
      <trkpt lon="-123.279995" lat="44.565365"><ele>77.221863</ele><time>2020-10-08T21:12:15Z</time><extensions><speed>4.670000</speed><course>181.054688</course><hAcc>5.000000</hAcc><vAcc>3.000000</vAcc></extensions></trkpt>
      <trkpt lon="-123.279986" lat="44.565314"><ele>77.461700</ele><time>2020-10-08T21:12:16Z</time><extensions><speed>5.030000</speed><course>177.187500</course><hAcc>5.000000</hAcc><vAcc>3.000000</vAcc></extensions></trkpt>
      <trkpt lon="-123.279977" lat="44.565268"><ele>77.540230</ele><time>2020-10-08T21:12:17Z</time><extensions><speed>4.970000</speed><course>172.617188</course><hAcc>5.000000</hAcc><vAcc>3.000000</vAcc></extensions></trkpt>
      <trkpt lon="-123.279991" lat="44.565212"><ele>77.172340</ele><time>2020-10-08T21:12:18Z</time><extensions><speed>5.730000</speed><course>184.570312</course><hAcc>5.000000</hAcc><vAcc>3.000000</vAcc></extensions></trkpt>
      <trkpt lon="-123.280001" lat="44.565161"><ele>77.025108</ele><time>2020-10-08T21:12:19Z</time><extensions><speed>5.620000</speed><course>188.085938</course><hAcc>5.000000</hAcc><vAcc>3.000000</vAcc></extensions></trkpt>
      <trkpt lon="-123.279999" lat="44.565112"><ele>77.146332</ele><time>2020-10-08T21:12:20Z</time><extensions><speed>5.620000</speed><course>184.218750</course><hAcc>5.000000</hAcc><vAcc>3.000000</vAcc></extensions></trkpt>
      <trkpt lon="-123.279998" lat="44.565063"><ele>77.184555</ele><time>2020-10-08T21:12:21Z</time><extensions><speed>5.590000</speed><course>179.296875</course><hAcc>5.000000</hAcc><vAcc>3.000000</vAcc></extensions></trkpt>
      <trkpt lon="-123.280005" lat="44.565007"><ele>77.261444</ele><time>2020-10-08T21:12:22Z</time><extensions><speed>5.730000</speed><course>180.703125</course><hAcc>5.000000</hAcc><vAcc>3.000000</vAcc></extensions></trkpt>
      <trkpt lon="-123.280000" lat="44.564957"><ele>77.378098</ele><time>2020-10-08T21:12:23Z</time><extensions><speed>5.730000</speed><course>177.187500</course><hAcc>5.000000</hAcc><vAcc>3.000000</vAcc></extensions></trkpt>
      <trkpt lon="-123.279994" lat="44.564906"><ele>77.424721</ele><time>2020-10-08T21:12:24Z</time><extensions><speed>5.650000</speed><course>178.945312</course><hAcc>5.000000</hAcc><vAcc>3.000000</vAcc></extensions></trkpt>
      <trkpt lon="-123.279975" lat="44.564843"><ele>77.368095</ele><time>2020-10-08T21:12:25Z</time><extensions><speed>5.610000</speed><course>183.515625</course><hAcc>5.000000</hAcc><vAcc>3.000000</vAcc></extensions></trkpt>
      <trkpt lon="-123.279967" lat="44.564786"><ele>77.984169</ele><time>2020-10-08T21:12:26Z</time><extensions><speed>5.550000</speed><course>178.242188</course><hAcc>5.000000</hAcc><vAcc>3.000000</vAcc></extensions></trkpt>
      <trkpt lon="-123.279974" lat="44.564748"><ele>77.882324</ele><time>2020-10-08T21:12:27Z</time><extensions><speed>5.550000</speed><course>185.976562</course><hAcc>5.000000</hAcc><vAcc>3.000000</vAcc></extensions></trkpt>
      <trkpt lon="-123.279987" lat="44.564708"><ele>77.658028</ele><time>2020-10-08T21:12:28Z</time><extensions><speed>5.150000</speed><course>182.109375</course><hAcc>5.000000</hAcc><vAcc>3.000000</vAcc></extensions></trkpt>
      <trkpt lon="-123.279994" lat="44.564682"><ele>77.604248</ele><time>2020-10-08T21:12:29Z</time><extensions><speed>3.530000</speed><course>184.218750</course><hAcc>5.000000</hAcc><vAcc>3.000000</vAcc></extensions></trkpt>
      <trkpt lon="-123.280000" lat="44.564674"><ele>77.831596</ele><time>2020-10-08T21:12:30Z</time><extensions><speed>0.990000</speed><course>182.460938</course><hAcc>5.000000</hAcc><vAcc>3.000000</vAcc></extensions></trkpt>
      <trkpt lon="-123.279989" lat="44.564667"><ele>77.732536</ele><time>2020-10-08T21:12:31Z</time><extensions><speed>0.990000</speed><course>182.460938</course><hAcc>5.000000</hAcc><vAcc>3.000000</vAcc></extensions></trkpt>
      <trkpt lon="-123.279974" lat="44.564647"><ele>77.721741</ele><time>2020-10-08T21:12:32Z</time><extensions><speed>0.990000</speed><course>176.132812</course><hAcc>5.000000</hAcc><vAcc>3.000000</vAcc></extensions></trkpt>
      <trkpt lon="-123.279983" lat="44.564619"><ele>77.774658</ele><time>2020-10-08T21:12:33Z</time><extensions><speed>1.880000</speed><course>190.195312</course><hAcc>5.000000</hAcc><vAcc>3.000000</vAcc></extensions></trkpt>
      <trkpt lon="-123.279989" lat="44.564593"><ele>77.628693</ele><time>2020-10-08T21:12:34Z</time><extensions><speed>2.890000</speed><course>183.515625</course><hAcc>5.000000</hAcc><vAcc>3.000000</vAcc></extensions></trkpt>
      <trkpt lon="-123.279989" lat="44.564552"><ele>77.984917</ele><time>2020-10-08T21:12:35Z</time><extensions><speed>4.340000</speed><course>185.273438</course><hAcc>5.000000</hAcc><vAcc>3.000000</vAcc></extensions></trkpt>
      <trkpt lon="-123.279975" lat="44.564505"><ele>78.070076</ele><time>2020-10-08T21:12:36Z</time><extensions><speed>4.340000</speed><course>174.375000</course><hAcc>5.000000</hAcc><vAcc>3.000000</vAcc></extensions></trkpt>
      <trkpt lon="-123.279978" lat="44.564450"><ele>77.894753</ele><time>2020-10-08T21:12:37Z</time><extensions><speed>5.030000</speed><course>179.296875</course><hAcc>5.000000</hAcc><vAcc>3.000000</vAcc></extensions></trkpt>
      <trkpt lon="-123.279976" lat="44.564401"><ele>78.262215</ele><time>2020-10-08T21:12:38Z</time><extensions><speed>5.980000</speed><course>182.460938</course><hAcc>5.000000</hAcc><vAcc>3.000000</vAcc></extensions></trkpt>
      <trkpt lon="-123.279974" lat="44.564347"><ele>78.006355</ele><time>2020-10-08T21:12:39Z</time><extensions><speed>5.980000</speed><course>175.781250</course><hAcc>5.000000</hAcc><vAcc>3.000000</vAcc></extensions></trkpt>
      <trkpt lon="-123.279983" lat="44.564290"><ele>77.899124</ele><time>2020-10-08T21:12:40Z</time><extensions><speed>5.980000</speed><course>174.726562</course><hAcc>5.000000</hAcc><vAcc>3.000000</vAcc></extensions></trkpt>
      <trkpt lon="-123.279986" lat="44.564236"><ele>77.627052</ele><time>2020-10-08T21:12:41Z</time><extensions><speed>5.890000</speed><course>180.703125</course><hAcc>5.000000</hAcc><vAcc>3.000000</vAcc></extensions></trkpt>
      <trkpt lon="-123.279969" lat="44.564185"><ele>77.392311</ele><time>2020-10-08T21:12:42Z</time><extensions><speed>6.200000</speed><course>171.914062</course><hAcc>5.000000</hAcc><vAcc>3.000000</vAcc></extensions></trkpt>
      <trkpt lon="-123.279965" lat="44.564126"><ele>77.387535</ele><time>2020-10-08T21:12:43Z</time><extensions><speed>6.440000</speed><course>181.054688</course><hAcc>5.000000</hAcc><vAcc>3.000000</vAcc></extensions></trkpt>
      <trkpt lon="-123.279944" lat="44.564060"><ele>77.268166</ele><time>2020-10-08T21:12:44Z</time><extensions><speed>6.590000</speed><course>166.640625</course><hAcc>5.000000</hAcc><vAcc>3.000000</vAcc></extensions></trkpt>
      <trkpt lon="-123.279942" lat="44.563997"><ele>76.895531</ele><time>2020-10-08T21:12:45Z</time><extensions><speed>6.590000</speed><course>178.593750</course><hAcc>5.000000</hAcc><vAcc>3.000000</vAcc></extensions></trkpt>
      <trkpt lon="-123.279938" lat="44.563934"><ele>76.702446</ele><time>2020-10-08T21:12:46Z</time><extensions><speed>6.870000</speed><course>169.804688</course><hAcc>5.000000</hAcc><vAcc>3.000000</vAcc></extensions></trkpt>
      <trkpt lon="-123.279918" lat="44.563873"><ele>76.264236</ele><time>2020-10-08T21:12:47Z</time><extensions><speed>7.240000</speed><course>163.476562</course><hAcc>5.000000</hAcc><vAcc>3.000000</vAcc></extensions></trkpt>
      <trkpt lon="-123.279895" lat="44.563808"><ele>76.189117</ele><time>2020-10-08T21:12:48Z</time><extensions><speed>7.380000</speed><course>162.421875</course><hAcc>5.000000</hAcc><vAcc>3.000000</vAcc></extensions></trkpt>
      <trkpt lon="-123.279865" lat="44.563740"><ele>75.579689</ele><time>2020-10-08T21:12:49Z</time><extensions><speed>7.380000</speed><course>160.664062</course><hAcc>5.000000</hAcc><vAcc>3.000000</vAcc></extensions></trkpt>
      <trkpt lon="-123.279824" lat="44.563671"><ele>75.140633</ele><time>2020-10-08T21:12:50Z</time><extensions><speed>7.960000</speed><course>153.632812</course><hAcc>5.000000</hAcc><vAcc>3.000000</vAcc></extensions></trkpt>
      <trkpt lon="-123.279792" lat="44.563610"><ele>74.901497</ele><time>2020-10-08T21:12:51Z</time><extensions><speed>7.900000</speed><course>163.476562</course><hAcc>5.000000</hAcc><vAcc>3.000000</vAcc></extensions></trkpt>
      <trkpt lon="-123.279761" lat="44.563548"><ele>74.628593</ele><time>2020-10-08T21:12:52Z</time><extensions><speed>7.760000</speed><course>157.148438</course><hAcc>5.000000</hAcc><vAcc>3.000000</vAcc></extensions></trkpt>
      <trkpt lon="-123.279732" lat="44.563478"><ele>74.322289</ele><time>2020-10-08T21:12:53Z</time><extensions><speed>7.860000</speed><course>166.992188</course><hAcc>5.000000</hAcc><vAcc>3.000000</vAcc></extensions></trkpt>
      <trkpt lon="-123.279705" lat="44.563410"><ele>73.854759</ele><time>2020-10-08T21:12:54Z</time><extensions><speed>7.620000</speed><course>168.046875</course><hAcc>5.000000</hAcc><vAcc>3.000000</vAcc></extensions></trkpt>
      <trkpt lon="-123.279679" lat="44.563348"><ele>73.195747</ele><time>2020-10-08T21:12:55Z</time><extensions><speed>6.690000</speed><course>158.203125</course><hAcc>5.000000</hAcc><vAcc>3.000000</vAcc></extensions></trkpt>
      <trkpt lon="-123.279632" lat="44.563301"><ele>73.025681</ele><time>2020-10-08T21:12:56Z</time><extensions><speed>6.090000</speed><course>144.843750</course><hAcc>5.000000</hAcc><vAcc>3.000000</vAcc></extensions></trkpt>
      <trkpt lon="-123.279574" lat="44.563270"><ele>72.703461</ele><time>2020-10-08T21:12:57Z</time><extensions><speed>5.620000</speed><course>121.289062</course><hAcc>5.000000</hAcc><vAcc>3.000000</vAcc></extensions></trkpt>
      <trkpt lon="-123.279515" lat="44.563263"><ele>72.406883</ele><time>2020-10-08T21:12:58Z</time><extensions><speed>5.080000</speed><course>94.218750</course><hAcc>5.000000</hAcc><vAcc>3.000000</vAcc></extensions></trkpt>
      <trkpt lon="-123.279461" lat="44.563274"><ele>72.402908</ele><time>2020-10-08T21:12:59Z</time><extensions><speed>4.610000</speed><course>65.390625</course><hAcc>5.000000</hAcc><vAcc>3.000000</vAcc></extensions></trkpt>
      <trkpt lon="-123.279425" lat="44.563299"><ele>72.476089</ele><time>2020-10-08T21:13:00Z</time><extensions><speed>4.240000</speed><course>41.132812</course><hAcc>5.000000</hAcc><vAcc>3.000000</vAcc></extensions></trkpt>
      <trkpt lon="-123.279401" lat="44.563330"><ele>72.571335</ele><time>2020-10-08T21:13:01Z</time><extensions><speed>3.660000</speed><course>2.460938</course><hAcc>5.000000</hAcc><vAcc>3.000000</vAcc></extensions></trkpt>
      <trkpt lon="-123.279391" lat="44.563361"><ele>72.007629</ele><time>2020-10-08T21:13:02Z</time><extensions><speed>3.660000</speed><course>356.484375</course><hAcc>5.000000</hAcc><vAcc>3.000000</vAcc></extensions></trkpt>
      <trkpt lon="-123.279377" lat="44.563383"><ele>72.047844</ele><time>2020-10-08T21:13:03Z</time><extensions><speed>2.060000</speed><course>356.835938</course><hAcc>5.000000</hAcc><vAcc>3.000000</vAcc></extensions></trkpt>
      <trkpt lon="-123.279383" lat="44.563389"><ele>71.889343</ele><time>2020-10-08T21:13:04Z</time><extensions><speed>1.880000</speed><course>356.484375</course><hAcc>5.000000</hAcc><vAcc>3.000000</vAcc></extensions></trkpt>
      <trkpt lon="-123.279383" lat="44.563389"><ele>71.789955</ele><time>2020-10-08T21:13:05Z</time><extensions><speed>0.000000</speed><course>356.484375</course><hAcc>5.000000</hAcc><vAcc>3.000000</vAcc></extensions></trkpt>
      <trkpt lon="-123.279383" lat="44.563389"><ele>71.683769</ele><time>2020-10-08T21:13:06Z</time><extensions><speed>0.000000</speed><course>356.484375</course><hAcc>5.000000</hAcc><vAcc>3.000000</vAcc></extensions></trkpt>
      <trkpt lon="-123.279383" lat="44.563389"><ele>71.579224</ele><time>2020-10-08T21:13:07Z</time><extensions><speed>0.000000</speed><course>356.484375</course><hAcc>5.000000</hAcc><vAcc>3.000000</vAcc></extensions></trkpt>
      <trkpt lon="-123.279383" lat="44.563389"><ele>71.525749</ele><time>2020-10-08T21:13:08Z</time><extensions><speed>0.000000</speed><course>356.484375</course><hAcc>5.000000</hAcc><vAcc>3.000000</vAcc></extensions></trkpt>
      <trkpt lon="-123.279383" lat="44.563389"><ele>71.530319</ele><time>2020-10-08T21:13:09Z</time><extensions><speed>0.000000</speed><course>356.484375</course><hAcc>5.000000</hAcc><vAcc>3.000000</vAcc></extensions></trkpt>
      <trkpt lon="-123.279383" lat="44.563389"><ele>71.465027</ele><time>2020-10-08T21:13:10Z</time><extensions><speed>0.000000</speed><course>356.484375</course><hAcc>5.000000</hAcc><vAcc>3.000000</vAcc></extensions></trkpt>
      <trkpt lon="-123.279383" lat="44.563389"><ele>71.449867</ele><time>2020-10-08T21:13:11Z</time><extensions><speed>0.000000</speed><course>356.484375</course><hAcc>5.000000</hAcc><vAcc>3.000000</vAcc></extensions></trkpt>
      <trkpt lon="-123.279383" lat="44.563389"><ele>71.394104</ele><time>2020-10-08T21:13:12Z</time><extensions><speed>0.000000</speed><course>356.484375</course><hAcc>5.000000</hAcc><vAcc>3.000000</vAcc></extensions></trkpt>
      <trkpt lon="-123.279383" lat="44.563389"><ele>71.341057</ele><time>2020-10-08T21:13:13Z</time><extensions><speed>0.000000</speed><course>356.484375</course><hAcc>5.000000</hAcc><vAcc>3.000000</vAcc></extensions></trkpt>
      <trkpt lon="-123.279382" lat="44.563391"><ele>71.301651</ele><time>2020-10-08T21:13:14Z</time><extensions><speed>0.350000</speed><course>356.484375</course><hAcc>5.000000</hAcc><vAcc>3.000000</vAcc></extensions></trkpt>
      <trkpt lon="-123.279382" lat="44.563391"><ele>71.941849</ele><time>2020-10-08T21:13:15Z</time><extensions><speed>0.000000</speed><course>356.484375</course><hAcc>5.000000</hAcc><vAcc>3.000000</vAcc></extensions></trkpt>
      <trkpt lon="-123.279382" lat="44.563391"><ele>71.857368</ele><time>2020-10-08T21:13:16Z</time><extensions><speed>0.000000</speed><course>356.484375</course><hAcc>5.000000</hAcc><vAcc>3.000000</vAcc></extensions></trkpt>
      <trkpt lon="-123.279382" lat="44.563391"><ele>71.773674</ele><time>2020-10-08T21:13:17Z</time><extensions><speed>0.000000</speed><course>356.484375</course><hAcc>5.000000</hAcc><vAcc>3.000000</vAcc></extensions></trkpt>
      <trkpt lon="-123.279382" lat="44.563391"><ele>71.822693</ele><time>2020-10-08T21:13:18Z</time><extensions><speed>0.000000</speed><course>356.484375</course><hAcc>5.000000</hAcc><vAcc>3.000000</vAcc></extensions></trkpt>
      <trkpt lon="-123.279382" lat="44.563391"><ele>71.953033</ele><time>2020-10-08T21:13:19Z</time><extensions><speed>0.000000</speed><course>356.484375</course><hAcc>5.000000</hAcc><vAcc>3.000000</vAcc></extensions></trkpt>
      <trkpt lon="-123.279397" lat="44.563375"><ele>71.919006</ele><time>2020-10-08T21:13:20Z</time><extensions><speed>0.380000</speed><course>356.484375</course><hAcc>5.000000</hAcc><vAcc>3.000000</vAcc></extensions></trkpt>
      <trkpt lon="-123.279402" lat="44.563376"><ele>71.727753</ele><time>2020-10-08T21:13:21Z</time><extensions><speed>0.380000</speed><course>356.484375</course><hAcc>5.000000</hAcc><vAcc>3.000000</vAcc></extensions></trkpt>
      <trkpt lon="-123.279402" lat="44.563376"><ele>71.666443</ele><time>2020-10-08T21:13:22Z</time><extensions><speed>0.000000</speed><course>356.484375</course><hAcc>5.000000</hAcc><vAcc>3.000000</vAcc></extensions></trkpt>
      <trkpt lon="-123.279402" lat="44.563376"><ele>71.609558</ele><time>2020-10-08T21:13:23Z</time><extensions><speed>0.000000</speed><course>356.484375</course><hAcc>5.000000</hAcc><vAcc>3.000000</vAcc></extensions></trkpt>
      <trkpt lon="-123.279402" lat="44.563376"><ele>71.599190</ele><time>2020-10-08T21:13:24Z</time><extensions><speed>0.000000</speed><course>356.484375</course><hAcc>5.000000</hAcc><vAcc>3.000000</vAcc></extensions></trkpt>
      <trkpt lon="-123.279402" lat="44.563376"><ele>71.606445</ele><time>2020-10-08T21:13:25Z</time><extensions><speed>0.000000</speed><course>356.484375</course><hAcc>5.000000</hAcc><vAcc>3.000000</vAcc></extensions></trkpt>
      <trkpt lon="-123.279402" lat="44.563376"><ele>71.577469</ele><time>2020-10-08T21:13:26Z</time><extensions><speed>0.000000</speed><course>356.484375</course><hAcc>5.000000</hAcc><vAcc>3.000000</vAcc></extensions></trkpt>
      <trkpt lon="-123.279402" lat="44.563376"><ele>71.543900</ele><time>2020-10-08T21:13:27Z</time><extensions><speed>0.000000</speed><course>356.484375</course><hAcc>5.000000</hAcc><vAcc>3.000000</vAcc></extensions></trkpt>
      <trkpt lon="-123.279402" lat="44.563376"><ele>71.487816</ele><time>2020-10-08T21:13:28Z</time><extensions><speed>0.000000</speed><course>356.484375</course><hAcc>5.000000</hAcc><vAcc>3.000000</vAcc></extensions></trkpt>
      <trkpt lon="-123.279402" lat="44.563376"><ele>71.456108</ele><time>2020-10-08T21:13:29Z</time><extensions><speed>0.000000</speed><course>356.484375</course><hAcc>5.000000</hAcc><vAcc>3.000000</vAcc></extensions></trkpt>
      <trkpt lon="-123.279402" lat="44.563376"><ele>71.524391</ele><time>2020-10-08T21:13:30Z</time><extensions><speed>0.000000</speed><course>356.484375</course><hAcc>5.000000</hAcc><vAcc>3.000000</vAcc></extensions></trkpt>
      <trkpt lon="-123.279402" lat="44.563376"><ele>71.364342</ele><time>2020-10-08T21:13:31Z</time><extensions><speed>0.000000</speed><course>356.484375</course><hAcc>5.000000</hAcc><vAcc>3.000000</vAcc></extensions></trkpt>
      <trkpt lon="-123.279402" lat="44.563376"><ele>71.415886</ele><time>2020-10-08T21:13:32Z</time><extensions><speed>0.000000</speed><course>356.484375</course><hAcc>5.000000</hAcc><vAcc>3.000000</vAcc></extensions></trkpt>
      <trkpt lon="-123.279402" lat="44.563376"><ele>71.487122</ele><time>2020-10-08T21:13:33Z</time><extensions><speed>0.000000</speed><course>356.484375</course><hAcc>5.000000</hAcc><vAcc>3.000000</vAcc></extensions></trkpt>
      <trkpt lon="-123.279413" lat="44.563374"><ele>71.553589</ele><time>2020-10-08T21:13:34Z</time><extensions><speed>0.960000</speed><course>215.859375</course><hAcc>5.000000</hAcc><vAcc>3.000000</vAcc></extensions></trkpt>
      <trkpt lon="-123.279402" lat="44.563372"><ele>71.151146</ele><time>2020-10-08T21:13:35Z</time><extensions><speed>0.960000</speed><course>178.945312</course><hAcc>5.000000</hAcc><vAcc>3.000000</vAcc></extensions></trkpt>
      <trkpt lon="-123.279402" lat="44.563372"><ele>71.228424</ele><time>2020-10-08T21:13:36Z</time><extensions><speed>0.000000</speed><course>176.835938</course><hAcc>5.000000</hAcc><vAcc>3.000000</vAcc></extensions></trkpt>
      <trkpt lon="-123.279402" lat="44.563372"><ele>71.228722</ele><time>2020-10-08T21:13:37Z</time><extensions><speed>0.000000</speed><course>176.835938</course><hAcc>5.000000</hAcc><vAcc>3.000000</vAcc></extensions></trkpt>
      <trkpt lon="-123.279402" lat="44.563372"><ele>71.274666</ele><time>2020-10-08T21:13:38Z</time><extensions><speed>0.000000</speed><course>176.835938</course><hAcc>5.000000</hAcc><vAcc>3.000000</vAcc></extensions></trkpt>
      <trkpt lon="-123.279402" lat="44.563372"><ele>71.313599</ele><time>2020-10-08T21:13:39Z</time><extensions><speed>0.000000</speed><course>176.835938</course><hAcc>5.000000</hAcc><vAcc>3.000000</vAcc></extensions></trkpt>
      <trkpt lon="-123.279363" lat="44.563354"><ele>73.486404</ele><time>2020-10-08T21:13:40Z</time><extensions><speed>0.009726</speed><course>146.457581</course><hAcc>5.999685</hAcc><vAcc>2.400000</vAcc></extensions></trkpt>
      <trkpt lon="-123.279402" lat="44.563372"><ele>71.315964</ele><time>2020-10-08T21:13:40Z</time><extensions><speed>0.000000</speed><course>176.835938</course><hAcc>5.000000</hAcc><vAcc>3.000000</vAcc></extensions></trkpt>
      <trkpt lon="-123.279402" lat="44.563372"><ele>71.270218</ele><time>2020-10-08T21:13:41Z</time><extensions><speed>0.000000</speed><course>176.835938</course><hAcc>5.000000</hAcc><vAcc>3.000000</vAcc></extensions></trkpt>
      <trkpt lon="-123.279402" lat="44.563372"><ele>71.251518</ele><time>2020-10-08T21:13:42Z</time><extensions><speed>0.000000</speed><course>176.835938</course><hAcc>5.000000</hAcc><vAcc>3.000000</vAcc></extensions></trkpt>
      <trkpt lon="-123.279402" lat="44.563372"><ele>71.277359</ele><time>2020-10-08T21:13:43Z</time><extensions><speed>0.000000</speed><course>176.835938</course><hAcc>5.000000</hAcc><vAcc>3.000000</vAcc></extensions></trkpt>
      <trkpt lon="-123.279402" lat="44.563372"><ele>71.296608</ele><time>2020-10-08T21:13:44Z</time><extensions><speed>0.000000</speed><course>176.835938</course><hAcc>5.000000</hAcc><vAcc>3.000000</vAcc></extensions></trkpt>
      <trkpt lon="-123.279402" lat="44.563372"><ele>71.338058</ele><time>2020-10-08T21:13:45Z</time><extensions><speed>0.000000</speed><course>176.835938</course><hAcc>5.000000</hAcc><vAcc>4.000000</vAcc></extensions></trkpt>
      <trkpt lon="-123.279402" lat="44.563372"><ele>71.354729</ele><time>2020-10-08T21:13:46Z</time><extensions><speed>0.000000</speed><course>176.835938</course><hAcc>5.000000</hAcc><vAcc>4.000000</vAcc></extensions></trkpt>
      <trkpt lon="-123.279405" lat="44.563373"><ele>71.321770</ele><time>2020-10-08T21:13:47Z</time><extensions><speed>0.180000</speed><course>177.187500</course><hAcc>5.000000</hAcc><vAcc>4.000000</vAcc></extensions></trkpt>
      <trkpt lon="-123.279405" lat="44.563373"><ele>71.400780</ele><time>2020-10-08T21:13:48Z</time><extensions><speed>0.000000</speed><course>177.187500</course><hAcc>5.000000</hAcc><vAcc>4.000000</vAcc></extensions></trkpt>
      <trkpt lon="-123.279405" lat="44.563373"><ele>71.433647</ele><time>2020-10-08T21:13:49Z</time><extensions><speed>0.000000</speed><course>177.187500</course><hAcc>5.000000</hAcc><vAcc>4.000000</vAcc></extensions></trkpt>
      <trkpt lon="-123.279405" lat="44.563373"><ele>71.422607</ele><time>2020-10-08T21:13:50Z</time><extensions><speed>0.000000</speed><course>177.187500</course><hAcc>5.000000</hAcc><vAcc>4.000000</vAcc></extensions></trkpt>
      <trkpt lon="-123.279405" lat="44.563373"><ele>71.412529</ele><time>2020-10-08T21:13:51Z</time><extensions><speed>0.000000</speed><course>177.187500</course><hAcc>5.000000</hAcc><vAcc>4.000000</vAcc></extensions></trkpt>
      <trkpt lon="-123.279405" lat="44.563373"><ele>71.388084</ele><time>2020-10-08T21:13:52Z</time><extensions><speed>0.000000</speed><course>177.187500</course><hAcc>5.000000</hAcc><vAcc>4.000000</vAcc></extensions></trkpt>
      <trkpt lon="-123.279405" lat="44.563373"><ele>71.421211</ele><time>2020-10-08T21:13:53Z</time><extensions><speed>0.000000</speed><course>177.187500</course><hAcc>5.000000</hAcc><vAcc>4.000000</vAcc></extensions></trkpt>
      <trkpt lon="-123.279405" lat="44.563373"><ele>71.446449</ele><time>2020-10-08T21:13:54Z</time><extensions><speed>0.000000</speed><course>177.187500</course><hAcc>5.000000</hAcc><vAcc>4.000000</vAcc></extensions></trkpt>
      <trkpt lon="-123.279405" lat="44.563373"><ele>71.454041</ele><time>2020-10-08T21:13:55Z</time><extensions><speed>0.000000</speed><course>177.187500</course><hAcc>5.000000</hAcc><vAcc>4.000000</vAcc></extensions></trkpt>
      <trkpt lon="-123.279405" lat="44.563373"><ele>71.546371</ele><time>2020-10-08T21:13:56Z</time><extensions><speed>0.000000</speed><course>177.187500</course><hAcc>5.000000</hAcc><vAcc>3.000000</vAcc></extensions></trkpt>
      <trkpt lon="-123.279398" lat="44.563378"><ele>71.526466</ele><time>2020-10-08T21:13:57Z</time><extensions><speed>0.480000</speed><course>222.187500</course><hAcc>5.000000</hAcc><vAcc>3.000000</vAcc></extensions></trkpt>
      <trkpt lon="-123.279380" lat="44.563361"><ele>71.453545</ele><time>2020-10-08T21:13:58Z</time><extensions><speed>0.480000</speed><course>146.250000</course><hAcc>5.000000</hAcc><vAcc>3.000000</vAcc></extensions></trkpt>
      <trkpt lon="-123.279368" lat="44.563342"><ele>71.421814</ele><time>2020-10-08T21:13:59Z</time><extensions><speed>0.880000</speed><course>174.023438</course><hAcc>5.000000</hAcc><vAcc>3.000000</vAcc></extensions></trkpt>
      <trkpt lon="-123.279365" lat="44.563335"><ele>71.649132</ele><time>2020-10-08T21:14:00Z</time><extensions><speed>1.380000</speed><course>184.921875</course><hAcc>5.000000</hAcc><vAcc>3.000000</vAcc></extensions></trkpt>
      <trkpt lon="-123.279365" lat="44.563335"><ele>71.560799</ele><time>2020-10-08T21:14:01Z</time><extensions><speed>0.670000</speed><course>181.406250</course><hAcc>5.000000</hAcc><vAcc>3.000000</vAcc></extensions></trkpt>
      <trkpt lon="-123.279363" lat="44.563333"><ele>71.459297</ele><time>2020-10-08T21:14:02Z</time><extensions><speed>0.830000</speed><course>187.031250</course><hAcc>5.000000</hAcc><vAcc>3.000000</vAcc></extensions></trkpt>
      <trkpt lon="-123.279366" lat="44.563320"><ele>71.368889</ele><time>2020-10-08T21:14:03Z</time><extensions><speed>0.830000</speed><course>198.984375</course><hAcc>5.000000</hAcc><vAcc>3.000000</vAcc></extensions></trkpt>
      <trkpt lon="-123.279372" lat="44.563306"><ele>71.479874</ele><time>2020-10-08T21:14:04Z</time><extensions><speed>1.150000</speed><course>198.984375</course><hAcc>5.000000</hAcc><vAcc>3.000000</vAcc></extensions></trkpt>
      <trkpt lon="-123.279378" lat="44.563291"><ele>71.469749</ele><time>2020-10-08T21:14:05Z</time><extensions><speed>1.490000</speed><course>199.335938</course><hAcc>5.000000</hAcc><vAcc>3.000000</vAcc></extensions></trkpt>
      <trkpt lon="-123.279385" lat="44.563275"><ele>71.433151</ele><time>2020-10-08T21:14:06Z</time><extensions><speed>1.870000</speed><course>198.632812</course><hAcc>5.000000</hAcc><vAcc>3.000000</vAcc></extensions></trkpt>
      <trkpt lon="-123.279392" lat="44.563257"><ele>71.496147</ele><time>2020-10-08T21:14:07Z</time><extensions><speed>1.660000</speed><course>192.304688</course><hAcc>5.000000</hAcc><vAcc>3.000000</vAcc></extensions></trkpt>
      <trkpt lon="-123.279397" lat="44.563243"><ele>71.331459</ele><time>2020-10-08T21:14:08Z</time><extensions><speed>1.660000</speed><course>187.382812</course><hAcc>5.000000</hAcc><vAcc>3.000000</vAcc></extensions></trkpt>
      <trkpt lon="-123.279399" lat="44.563234"><ele>71.409897</ele><time>2020-10-08T21:14:09Z</time><extensions><speed>1.010000</speed><course>187.031250</course><hAcc>5.000000</hAcc><vAcc>3.000000</vAcc></extensions></trkpt>
      <trkpt lon="-123.279399" lat="44.563226"><ele>71.372398</ele><time>2020-10-08T21:14:10Z</time><extensions><speed>0.750000</speed><course>187.031250</course><hAcc>5.000000</hAcc><vAcc>3.000000</vAcc></extensions></trkpt>
      <trkpt lon="-123.279396" lat="44.563218"><ele>71.506798</ele><time>2020-10-08T21:14:11Z</time><extensions><speed>1.230000</speed><course>186.328125</course><hAcc>5.000000</hAcc><vAcc>3.000000</vAcc></extensions></trkpt>
      <trkpt lon="-123.279386" lat="44.563211"><ele>71.662186</ele><time>2020-10-08T21:14:12Z</time><extensions><speed>1.160000</speed><course>187.031250</course><hAcc>5.000000</hAcc><vAcc>3.000000</vAcc></extensions></trkpt>
      <trkpt lon="-123.279373" lat="44.563201"><ele>71.766457</ele><time>2020-10-08T21:14:13Z</time><extensions><speed>1.230000</speed><course>147.656250</course><hAcc>5.000000</hAcc><vAcc>3.000000</vAcc></extensions></trkpt>
      <trkpt lon="-123.279358" lat="44.563187"><ele>71.683884</ele><time>2020-10-08T21:14:14Z</time><extensions><speed>1.880000</speed><course>137.460938</course><hAcc>5.000000</hAcc><vAcc>3.000000</vAcc></extensions></trkpt>
      <trkpt lon="-123.279348" lat="44.563177"><ele>71.257217</ele><time>2020-10-08T21:14:15Z</time><extensions><speed>1.220000</speed><course>136.406250</course><hAcc>5.000000</hAcc><vAcc>3.000000</vAcc></extensions></trkpt>
      <trkpt lon="-123.279339" lat="44.563172"><ele>71.150284</ele><time>2020-10-08T21:14:16Z</time><extensions><speed>1.220000</speed><course>136.757812</course><hAcc>5.000000</hAcc><vAcc>3.000000</vAcc></extensions></trkpt>
      <trkpt lon="-123.279329" lat="44.563172"><ele>71.185425</ele><time>2020-10-08T21:14:17Z</time><extensions><speed>0.870000</speed><course>91.406250</course><hAcc>5.000000</hAcc><vAcc>3.000000</vAcc></extensions></trkpt>
      <trkpt lon="-123.279317" lat="44.563171"><ele>71.375099</ele><time>2020-10-08T21:14:18Z</time><extensions><speed>0.870000</speed><course>91.757812</course><hAcc>5.000000</hAcc><vAcc>3.000000</vAcc></extensions></trkpt>
      <trkpt lon="-123.279300" lat="44.563170"><ele>71.180069</ele><time>2020-10-08T21:14:19Z</time><extensions><speed>1.080000</speed><course>98.437500</course><hAcc>5.000000</hAcc><vAcc>3.000000</vAcc></extensions></trkpt>
      <trkpt lon="-123.279282" lat="44.563169"><ele>71.273392</ele><time>2020-10-08T21:14:20Z</time><extensions><speed>1.270000</speed><course>98.437500</course><hAcc>5.000000</hAcc><vAcc>3.000000</vAcc></extensions></trkpt>
      <trkpt lon="-123.279266" lat="44.563168"><ele>71.250122</ele><time>2020-10-08T21:14:21Z</time><extensions><speed>1.300000</speed><course>94.570312</course><hAcc>5.000000</hAcc><vAcc>3.000000</vAcc></extensions></trkpt>
      <trkpt lon="-123.279247" lat="44.563168"><ele>71.282173</ele><time>2020-10-08T21:14:22Z</time><extensions><speed>1.300000</speed><course>93.867188</course><hAcc>5.000000</hAcc><vAcc>3.000000</vAcc></extensions></trkpt>
      <trkpt lon="-123.279225" lat="44.563170"><ele>71.386642</ele><time>2020-10-08T21:14:23Z</time><extensions><speed>1.710000</speed><course>75.937500</course><hAcc>5.000000</hAcc><vAcc>3.000000</vAcc></extensions></trkpt>
      <trkpt lon="-123.279204" lat="44.563173"><ele>71.489906</ele><time>2020-10-08T21:14:24Z</time><extensions><speed>1.780000</speed><course>75.937500</course><hAcc>5.000000</hAcc><vAcc>3.000000</vAcc></extensions></trkpt>
      <trkpt lon="-123.279191" lat="44.563176"><ele>71.465103</ele><time>2020-10-08T21:14:25Z</time><extensions><speed>0.700000</speed><course>92.460938</course><hAcc>5.000000</hAcc><vAcc>3.000000</vAcc></extensions></trkpt>
      <trkpt lon="-123.279178" lat="44.563179"><ele>71.397362</ele><time>2020-10-08T21:14:26Z</time><extensions><speed>1.390000</speed><course>80.507812</course><hAcc>5.000000</hAcc><vAcc>3.000000</vAcc></extensions></trkpt>
      <trkpt lon="-123.279164" lat="44.563185"><ele>71.774208</ele><time>2020-10-08T21:14:27Z</time><extensions><speed>1.270000</speed><course>18.632812</course><hAcc>5.000000</hAcc><vAcc>3.000000</vAcc></extensions></trkpt>
      <trkpt lon="-123.279158" lat="44.563198"><ele>71.679016</ele><time>2020-10-08T21:14:28Z</time><extensions><speed>1.390000</speed><course>341.367188</course><hAcc>5.000000</hAcc><vAcc>3.000000</vAcc></extensions></trkpt>
      <trkpt lon="-123.279157" lat="44.563208"><ele>71.407494</ele><time>2020-10-08T21:14:29Z</time><extensions><speed>0.570000</speed><course>29.531250</course><hAcc>5.000000</hAcc><vAcc>3.000000</vAcc></extensions></trkpt>
      <trkpt lon="-123.279161" lat="44.563212"><ele>71.770294</ele><time>2020-10-08T21:14:30Z</time><extensions><speed>0.570000</speed><course>325.546875</course><hAcc>5.000000</hAcc><vAcc>3.000000</vAcc></extensions></trkpt>
      <trkpt lon="-123.279163" lat="44.563215"><ele>71.846558</ele><time>2020-10-08T21:14:31Z</time><extensions><speed>0.450000</speed><course>347.343750</course><hAcc>5.000000</hAcc><vAcc>3.000000</vAcc></extensions></trkpt>
      <trkpt lon="-123.279165" lat="44.563222"><ele>71.942131</ele><time>2020-10-08T21:14:32Z</time><extensions><speed>0.450000</speed><course>5.273438</course><hAcc>5.000000</hAcc><vAcc>3.000000</vAcc></extensions></trkpt>
      <trkpt lon="-123.279165" lat="44.563230"><ele>72.034210</ele><time>2020-10-08T21:14:33Z</time><extensions><speed>0.830000</speed><course>359.648438</course><hAcc>5.000000</hAcc><vAcc>3.000000</vAcc></extensions></trkpt>
      <trkpt lon="-123.279163" lat="44.563232"><ele>72.024315</ele><time>2020-10-08T21:14:34Z</time><extensions><speed>0.370000</speed><course>21.796875</course><hAcc>5.000000</hAcc><vAcc>3.000000</vAcc></extensions></trkpt>
      <trkpt lon="-123.279158" lat="44.563233"><ele>71.762939</ele><time>2020-10-08T21:14:35Z</time><extensions><speed>0.490000</speed><course>85.078125</course><hAcc>5.000000</hAcc><vAcc>3.000000</vAcc></extensions></trkpt>
      <trkpt lon="-123.279148" lat="44.563228"><ele>71.870804</ele><time>2020-10-08T21:14:36Z</time><extensions><speed>0.490000</speed><course>148.007812</course><hAcc>5.000000</hAcc><vAcc>3.000000</vAcc></extensions></trkpt>
      <trkpt lon="-123.279138" lat="44.563218"><ele>71.764366</ele><time>2020-10-08T21:14:37Z</time><extensions><speed>0.930000</speed><course>153.281250</course><hAcc>5.000000</hAcc><vAcc>3.000000</vAcc></extensions></trkpt>
      <trkpt lon="-123.279130" lat="44.563209"><ele>71.636490</ele><time>2020-10-08T21:14:38Z</time><extensions><speed>0.720000</speed><course>139.570312</course><hAcc>5.000000</hAcc><vAcc>3.000000</vAcc></extensions></trkpt>
      <trkpt lon="-123.279130" lat="44.563204"><ele>71.729645</ele><time>2020-10-08T21:14:39Z</time><extensions><speed>0.720000</speed><course>273.164062</course><hAcc>10.000000</hAcc><vAcc>3.000000</vAcc></extensions></trkpt>
      <trkpt lon="-123.279130" lat="44.563204"><ele>71.725449</ele><time>2020-10-08T21:14:40Z</time><extensions><speed>0.000000</speed><course>277.382812</course><hAcc>10.000000</hAcc><vAcc>3.000000</vAcc></extensions></trkpt>
      <trkpt lon="-123.279133" lat="44.563199"><ele>71.762512</ele><time>2020-10-08T21:14:41Z</time><extensions><speed>0.370000</speed><course>163.125000</course><hAcc>10.000000</hAcc><vAcc>3.000000</vAcc></extensions></trkpt>
      <trkpt lon="-123.279132" lat="44.563197"><ele>71.761742</ele><time>2020-10-08T21:14:42Z</time><extensions><speed>0.360000</speed><course>220.429688</course><hAcc>5.000000</hAcc><vAcc>3.000000</vAcc></extensions></trkpt>
      <trkpt lon="-123.279132" lat="44.563197"><ele>71.697510</ele><time>2020-10-08T21:14:43Z</time><extensions><speed>0.000000</speed><course>220.429688</course><hAcc>5.000000</hAcc><vAcc>3.000000</vAcc></extensions></trkpt>
      <trkpt lon="-123.279131" lat="44.563197"><ele>71.717880</ele><time>2020-10-08T21:14:44Z</time><extensions><speed>0.170000</speed><course>178.593750</course><hAcc>5.000000</hAcc><vAcc>3.000000</vAcc></extensions></trkpt>
      <trkpt lon="-123.279130" lat="44.563195"><ele>71.826668</ele><time>2020-10-08T21:14:45Z</time><extensions><speed>0.210000</speed><course>148.007812</course><hAcc>10.000000</hAcc><vAcc>3.000000</vAcc></extensions></trkpt>
      <trkpt lon="-123.279125" lat="44.563195"><ele>71.720108</ele><time>2020-10-08T21:14:46Z</time><extensions><speed>0.210000</speed><course>106.171875</course><hAcc>10.000000</hAcc><vAcc>3.000000</vAcc></extensions></trkpt>
      <trkpt lon="-123.279125" lat="44.563195"><ele>71.748703</ele><time>2020-10-08T21:14:47Z</time><extensions><speed>0.000000</speed><course>36.562500</course><hAcc>10.000000</hAcc><vAcc>3.000000</vAcc></extensions></trkpt>
      <trkpt lon="-123.279126" lat="44.563180"><ele>71.572334</ele><time>2020-10-08T21:14:48Z</time><extensions><speed>1.930000</speed><course>183.867188</course><hAcc>10.000000</hAcc><vAcc>3.000000</vAcc></extensions></trkpt>
      <trkpt lon="-123.279135" lat="44.563158"><ele>71.744324</ele><time>2020-10-08T21:14:49Z</time><extensions><speed>1.830000</speed><course>196.171875</course><hAcc>10.000000</hAcc><vAcc>3.000000</vAcc></extensions></trkpt>
      <trkpt lon="-123.279153" lat="44.563144"><ele>71.726074</ele><time>2020-10-08T21:14:50Z</time><extensions><speed>1.830000</speed><course>207.421875</course><hAcc>10.000000</hAcc><vAcc>3.000000</vAcc></extensions></trkpt>
      <trkpt lon="-123.279175" lat="44.563134"><ele>71.839394</ele><time>2020-10-08T21:14:51Z</time><extensions><speed>1.760000</speed><course>223.593750</course><hAcc>10.000000</hAcc><vAcc>3.000000</vAcc></extensions></trkpt>
      <trkpt lon="-123.279192" lat="44.563135"><ele>71.703697</ele><time>2020-10-08T21:14:52Z</time><extensions><speed>0.940000</speed><course>247.148438</course><hAcc>30.000000</hAcc><vAcc>3.000000</vAcc></extensions></trkpt>
      <trkpt lon="-123.279188" lat="44.563134"><ele>71.824928</ele><time>2020-10-08T21:14:53Z</time><extensions><speed>0.150000</speed><course>258.398438</course><hAcc>10.000000</hAcc><vAcc>3.000000</vAcc></extensions></trkpt>
      <trkpt lon="-123.279183" lat="44.563138"><ele>71.825424</ele><time>2020-10-08T21:14:54Z</time><extensions><speed>0.540000</speed><course>293.554688</course><hAcc>10.000000</hAcc><vAcc>3.000000</vAcc></extensions></trkpt>
      <trkpt lon="-123.279184" lat="44.563144"><ele>71.800346</ele><time>2020-10-08T21:14:55Z</time><extensions><speed>0.540000</speed><course>317.109375</course><hAcc>10.000000</hAcc><vAcc>3.000000</vAcc></extensions></trkpt>
      <trkpt lon="-123.279190" lat="44.563152"><ele>71.888863</ele><time>2020-10-08T21:14:56Z</time><extensions><speed>0.890000</speed><course>313.242188</course><hAcc>10.000000</hAcc><vAcc>3.000000</vAcc></extensions></trkpt>
      <trkpt lon="-123.279196" lat="44.563158"><ele>71.913200</ele><time>2020-10-08T21:14:57Z</time><extensions><speed>0.920000</speed><course>305.859375</course><hAcc>30.000000</hAcc><vAcc>3.000000</vAcc></extensions></trkpt>
      <trkpt lon="-123.279201" lat="44.563163"><ele>71.826332</ele><time>2020-10-08T21:14:58Z</time><extensions><speed>0.920000</speed><course>298.828125</course><hAcc>30.000000</hAcc><vAcc>3.000000</vAcc></extensions></trkpt>
      <trkpt lon="-123.279214" lat="44.563169"><ele>72.007469</ele><time>2020-10-08T21:14:59Z</time><extensions><speed>0.920000</speed><course>298.476562</course><hAcc>30.000000</hAcc><vAcc>3.000000</vAcc></extensions></trkpt>
      <trkpt lon="-123.279220" lat="44.563175"><ele>71.692314</ele><time>2020-10-08T21:15:00Z</time><extensions><speed>0.790000</speed><course>303.750000</course><hAcc>30.000000</hAcc><vAcc>3.000000</vAcc></extensions></trkpt>
      <trkpt lon="-123.279224" lat="44.563182"><ele>71.794044</ele><time>2020-10-08T21:15:01Z</time><extensions><speed>0.790000</speed><course>308.320312</course><hAcc>30.000000</hAcc><vAcc>3.000000</vAcc></extensions></trkpt>
      <trkpt lon="-123.279224" lat="44.563182"><ele>71.754204</ele><time>2020-10-08T21:15:02Z</time><extensions><speed>0.000000</speed><course>315.000000</course><hAcc>30.000000</hAcc><vAcc>3.000000</vAcc></extensions></trkpt>
      <trkpt lon="-123.279224" lat="44.563182"><ele>71.707497</ele><time>2020-10-08T21:15:03Z</time><extensions><speed>0.000000</speed><course>315.000000</course><hAcc>30.000000</hAcc><vAcc>3.000000</vAcc></extensions></trkpt>
      <trkpt lon="-123.279224" lat="44.563182"><ele>71.714394</ele><time>2020-10-08T21:15:04Z</time><extensions><speed>0.000000</speed><course>315.000000</course><hAcc>30.000000</hAcc><vAcc>3.000000</vAcc></extensions></trkpt>
      <trkpt lon="-123.279224" lat="44.563182"><ele>71.712631</ele><time>2020-10-08T21:15:05Z</time><extensions><speed>0.000000</speed><course>315.000000</course><hAcc>30.000000</hAcc><vAcc>3.000000</vAcc></extensions></trkpt>
      <trkpt lon="-123.279033" lat="44.562628"><ele>71.346375</ele><time>2020-10-08T21:21:11Z</time><extensions><speed>0.910000</speed><course>46.406250</course><hAcc>30.000000</hAcc><vAcc>4.000000</vAcc></extensions></trkpt>
      <trkpt lon="-123.279033" lat="44.562640"><ele>71.360909</ele><time>2020-10-08T21:21:12Z</time><extensions><speed>0.870000</speed><course>30.234375</course><hAcc>30.000000</hAcc><vAcc>4.000000</vAcc></extensions></trkpt>
      <trkpt lon="-123.279032" lat="44.562652"><ele>71.022804</ele><time>2020-10-08T21:21:13Z</time><extensions><speed>0.870000</speed><course>29.179688</course><hAcc>30.000000</hAcc><vAcc>4.000000</vAcc></extensions></trkpt>
      <trkpt lon="-123.279004" lat="44.562667"><ele>71.133339</ele><time>2020-10-08T21:21:14Z</time><extensions><speed>1.120000</speed><course>40.781250</course><hAcc>30.000000</hAcc><vAcc>4.000000</vAcc></extensions></trkpt>
      <trkpt lon="-123.278974" lat="44.562681"><ele>71.047554</ele><time>2020-10-08T21:21:15Z</time><extensions><speed>1.210000</speed><course>48.867188</course><hAcc>30.000000</hAcc><vAcc>4.000000</vAcc></extensions></trkpt>
      <trkpt lon="-123.278958" lat="44.562700"><ele>72.624825</ele><time>2020-10-08T21:21:16Z</time><extensions><speed>-1.000000</speed><course>-1.000000</course><hAcc>30.000000</hAcc><vAcc>4.000000</vAcc></extensions></trkpt>
      <trkpt lon="-123.278791" lat="44.562660"><ele>71.817024</ele><time>2020-10-08T21:23:00Z</time><extensions><speed>0.530000</speed><course>88.242188</course><hAcc>30.000000</hAcc><vAcc>4.000000</vAcc></extensions></trkpt>
      <trkpt lon="-123.278767" lat="44.562830"><ele>71.229462</ele><time>2020-10-08T21:24:53Z</time><extensions><speed>0.000000</speed><course>-1.000000</course><hAcc>30.000000</hAcc><vAcc>4.000000</vAcc></extensions></trkpt>
    </trkseg>
  </trk>
</gpx>