<?xml version="1.0" encoding="UTF-8"?>
<gpx version="1.1" creator="Apple Health Export" xmlns="http://www.topografix.com/GPX/1/1" xmlns:xsi="http://www.w3.org/2001/XMLSchema-instance" xsi:schemaLocation="http://www.topografix.com/GPX/1/1 http://www.topografix.com/GPX/1/1/gpx.xsd">
  <metadata>
    <time>2021-02-21T19:24:48Z</time>
  </metadata>
  <trk>
    <name>Route 2020-10-19 3:44pm</name>
    <trkseg>
      <trkpt lon="-123.273290" lat="44.560123"><ele>71.558784</ele><time>2020-10-19T22:39:44Z</time><extensions><speed>4.230000</speed><course>267.539062</course><hAcc>5.000000</hAcc><vAcc>4.000000</vAcc></extensions></trkpt>
      <trkpt lon="-123.273290" lat="44.560123"><ele>71.558784</ele><time>2020-10-19T22:39:44Z</time><extensions><speed>4.230000</speed><course>267.539062</course><hAcc>5.000000</hAcc><vAcc>4.000000</vAcc></extensions></trkpt>
      <trkpt lon="-123.273349" lat="44.560107"><ele>71.301521</ele><time>2020-10-19T22:39:45Z</time><extensions><speed>5.040000</speed><course>267.539062</course><hAcc>5.000000</hAcc><vAcc>4.000000</vAcc></extensions></trkpt>
      <trkpt lon="-123.273412" lat="44.560093"><ele>71.325630</ele><time>2020-10-19T22:39:46Z</time><extensions><speed>5.040000</speed><course>267.187500</course><hAcc>5.000000</hAcc><vAcc>4.000000</vAcc></extensions></trkpt>
      <trkpt lon="-123.273473" lat="44.560083"><ele>71.206734</ele><time>2020-10-19T22:39:47Z</time><extensions><speed>4.920000</speed><course>267.539062</course><hAcc>5.000000</hAcc><vAcc>3.000000</vAcc></extensions></trkpt>
      <trkpt lon="-123.273537" lat="44.560082"><ele>71.198494</ele><time>2020-10-19T22:39:48Z</time><extensions><speed>4.920000</speed><course>274.921875</course><hAcc>5.000000</hAcc><vAcc>3.000000</vAcc></extensions></trkpt>
      <trkpt lon="-123.273609" lat="44.560083"><ele>71.558601</ele><time>2020-10-19T22:39:49Z</time><extensions><speed>5.280000</speed><course>278.437500</course><hAcc>5.000000</hAcc><vAcc>3.000000</vAcc></extensions></trkpt>
      <trkpt lon="-123.273684" lat="44.560085"><ele>71.892769</ele><time>2020-10-19T22:39:50Z</time><extensions><speed>5.730000</speed><course>278.437500</course><hAcc>5.000000</hAcc><vAcc>3.000000</vAcc></extensions></trkpt>
      <trkpt lon="-123.273753" lat="44.560080"><ele>72.223701</ele><time>2020-10-19T22:39:51Z</time><extensions><speed>5.730000</speed><course>271.757812</course><hAcc>5.000000</hAcc><vAcc>3.000000</vAcc></extensions></trkpt>
      <trkpt lon="-123.273816" lat="44.560071"><ele>72.845284</ele><time>2020-10-19T22:39:52Z</time><extensions><speed>5.080000</speed><course>268.593750</course><hAcc>5.000000</hAcc><vAcc>3.000000</vAcc></extensions></trkpt>
      <trkpt lon="-123.273877" lat="44.560068"><ele>73.070381</ele><time>2020-10-19T22:39:53Z</time><extensions><speed>4.940000</speed><course>272.460938</course><hAcc>5.000000</hAcc><vAcc>3.000000</vAcc></extensions></trkpt>
      <trkpt lon="-123.273919" lat="44.560084"><ele>73.571846</ele><time>2020-10-19T22:39:54Z</time><extensions><speed>4.830000</speed><course>307.617188</course><hAcc>5.000000</hAcc><vAcc>3.000000</vAcc></extensions></trkpt>
      <trkpt lon="-123.273967" lat="44.560093"><ele>70.264595</ele><time>2020-10-19T22:39:55Z</time><extensions><speed>4.630000</speed><course>320.625000</course><hAcc>5.000000</hAcc><vAcc>3.000000</vAcc></extensions></trkpt>
      <trkpt lon="-123.273964" lat="44.560101"><ele>70.725166</ele><time>2020-10-19T22:39:56Z</time><extensions><speed>5.650000</speed><course>357.890625</course><hAcc>5.000000</hAcc><vAcc>3.000000</vAcc></extensions></trkpt>
      <trkpt lon="-123.273969" lat="44.560149"><ele>69.769112</ele><time>2020-10-19T22:39:57Z</time><extensions><speed>5.640000</speed><course>352.968750</course><hAcc>5.000000</hAcc><vAcc>3.000000</vAcc></extensions></trkpt>
      <trkpt lon="-123.273976" lat="44.560199"><ele>70.182014</ele><time>2020-10-19T22:39:58Z</time><extensions><speed>5.650000</speed><course>349.804688</course><hAcc>5.000000</hAcc><vAcc>3.000000</vAcc></extensions></trkpt>
      <trkpt lon="-123.273990" lat="44.560248"><ele>70.631538</ele><time>2020-10-19T22:39:59Z</time><extensions><speed>6.120000</speed><course>345.937500</course><hAcc>5.000000</hAcc><vAcc>3.000000</vAcc></extensions></trkpt>
      <trkpt lon="-123.273999" lat="44.560292"><ele>70.596748</ele><time>2020-10-19T22:40:00Z</time><extensions><speed>5.930000</speed><course>347.695312</course><hAcc>5.000000</hAcc><vAcc>3.000000</vAcc></extensions></trkpt>
      <trkpt lon="-123.274027" lat="44.560360"><ele>70.703194</ele><time>2020-10-19T22:40:01Z</time><extensions><speed>6.950000</speed><course>345.585938</course><hAcc>5.000000</hAcc><vAcc>3.000000</vAcc></extensions></trkpt>
      <trkpt lon="-123.274051" lat="44.560424"><ele>71.526253</ele><time>2020-10-19T22:40:02Z</time><extensions><speed>6.370000</speed><course>346.992188</course><hAcc>5.000000</hAcc><vAcc>3.000000</vAcc></extensions></trkpt>
      <trkpt lon="-123.274065" lat="44.560478"><ele>71.273872</ele><time>2020-10-19T22:40:03Z</time><extensions><speed>6.370000</speed><course>348.750000</course><hAcc>5.000000</hAcc><vAcc>3.000000</vAcc></extensions></trkpt>
      <trkpt lon="-123.274077" lat="44.560533"><ele>71.392586</ele><time>2020-10-19T22:40:04Z</time><extensions><speed>6.370000</speed><course>349.453125</course><hAcc>5.000000</hAcc><vAcc>3.000000</vAcc></extensions></trkpt>
      <trkpt lon="-123.274077" lat="44.560577"><ele>70.992500</ele><time>2020-10-19T22:40:05Z</time><extensions><speed>5.630000</speed><course>352.265625</course><hAcc>5.000000</hAcc><vAcc>3.000000</vAcc></extensions></trkpt>
      <trkpt lon="-123.274089" lat="44.560624"><ele>70.777107</ele><time>2020-10-19T22:40:06Z</time><extensions><speed>5.630000</speed><course>347.695312</course><hAcc>5.000000</hAcc><vAcc>3.000000</vAcc></extensions></trkpt>
      <trkpt lon="-123.274094" lat="44.560682"><ele>70.945930</ele><time>2020-10-19T22:40:07Z</time><extensions><speed>5.630000</speed><course>353.671875</course><hAcc>5.000000</hAcc><vAcc>3.000000</vAcc></extensions></trkpt>
      <trkpt lon="-123.274105" lat="44.560742"><ele>70.879402</ele><time>2020-10-19T22:40:08Z</time><extensions><speed>6.110000</speed><course>352.265625</course><hAcc>5.000000</hAcc><vAcc>3.000000</vAcc></extensions></trkpt>
      <trkpt lon="-123.274115" lat="44.560802"><ele>70.798225</ele><time>2020-10-19T22:40:09Z</time><extensions><speed>6.570000</speed><course>348.398438</course><hAcc>5.000000</hAcc><vAcc>3.000000</vAcc></extensions></trkpt>
      <trkpt lon="-123.274108" lat="44.560856"><ele>70.001289</ele><time>2020-10-19T22:40:10Z</time><extensions><speed>6.260000</speed><course>353.320312</course><hAcc>5.000000</hAcc><vAcc>3.000000</vAcc></extensions></trkpt>
      <trkpt lon="-123.274105" lat="44.560896"><ele>71.163033</ele><time>2020-10-19T22:40:11Z</time><extensions><speed>6.260000</speed><course>354.726562</course><hAcc>5.000000</hAcc><vAcc>3.000000</vAcc></extensions></trkpt>
      <trkpt lon="-123.274095" lat="44.560946"><ele>70.682503</ele><time>2020-10-19T22:40:12Z</time><extensions><speed>5.980000</speed><course>352.968750</course><hAcc>5.000000</hAcc><vAcc>3.000000</vAcc></extensions></trkpt>
      <trkpt lon="-123.274112" lat="44.561014"><ele>70.055122</ele><time>2020-10-19T22:40:13Z</time><extensions><speed>5.910000</speed><course>353.320312</course><hAcc>5.000000</hAcc><vAcc>3.000000</vAcc></extensions></trkpt>
      <trkpt lon="-123.274124" lat="44.561073"><ele>69.533943</ele><time>2020-10-19T22:40:14Z</time><extensions><speed>5.880000</speed><course>345.234375</course><hAcc>5.000000</hAcc><vAcc>3.000000</vAcc></extensions></trkpt>
      <trkpt lon="-123.274143" lat="44.561124"><ele>69.549446</ele><time>2020-10-19T22:40:15Z</time><extensions><speed>5.880000</speed><course>345.234375</course><hAcc>5.000000</hAcc><vAcc>3.000000</vAcc></extensions></trkpt>
      <trkpt lon="-123.274197" lat="44.561186"><ele>70.404366</ele><time>2020-10-19T22:40:16Z</time><extensions><speed>6.610000</speed><course>343.476562</course><hAcc>5.000000</hAcc><vAcc>3.000000</vAcc></extensions></trkpt>
      <trkpt lon="-123.274234" lat="44.561232"><ele>71.614571</ele><time>2020-10-19T22:40:17Z</time><extensions><speed>5.880000</speed><course>345.585938</course><hAcc>5.000000</hAcc><vAcc>3.000000</vAcc></extensions></trkpt>
      <trkpt lon="-123.274238" lat="44.561278"><ele>71.249214</ele><time>2020-10-19T22:40:18Z</time><extensions><speed>5.720000</speed><course>349.453125</course><hAcc>5.000000</hAcc><vAcc>3.000000</vAcc></extensions></trkpt>
      <trkpt lon="-123.274251" lat="44.561329"><ele>71.688484</ele><time>2020-10-19T22:40:19Z</time><extensions><speed>5.720000</speed><course>346.992188</course><hAcc>5.000000</hAcc><vAcc>3.000000</vAcc></extensions></trkpt>
      <trkpt lon="-123.274234" lat="44.561345"><ele>73.362068</ele><time>2020-10-19T22:40:20Z</time><extensions><speed>4.370000</speed><course>341.015625</course><hAcc>5.000000</hAcc><vAcc>3.000000</vAcc></extensions></trkpt>
      <trkpt lon="-123.274263" lat="44.561392"><ele>73.542061</ele><time>2020-10-19T22:40:21Z</time><extensions><speed>5.200000</speed><course>333.281250</course><hAcc>5.000000</hAcc><vAcc>3.000000</vAcc></extensions></trkpt>
      <trkpt lon="-123.274301" lat="44.561451"><ele>73.185066</ele><time>2020-10-19T22:40:22Z</time><extensions><speed>5.200000</speed><course>338.906250</course><hAcc>5.000000</hAcc><vAcc>3.000000</vAcc></extensions></trkpt>
      <trkpt lon="-123.274337" lat="44.561524"><ele>71.984261</ele><time>2020-10-19T22:40:23Z</time><extensions><speed>5.760000</speed><course>347.695312</course><hAcc>5.000000</hAcc><vAcc>4.000000</vAcc></extensions></trkpt>
      <trkpt lon="-123.274340" lat="44.561580"><ele>71.779549</ele><time>2020-10-19T22:40:24Z</time><extensions><speed>5.820000</speed><course>357.539062</course><hAcc>5.000000</hAcc><vAcc>4.000000</vAcc></extensions></trkpt>
      <trkpt lon="-123.274335" lat="44.561632"><ele>72.215401</ele><time>2020-10-19T22:40:25Z</time><extensions><speed>5.060000</speed><course>7.031250</course><hAcc>5.000000</hAcc><vAcc>4.000000</vAcc></extensions></trkpt>
      <trkpt lon="-123.274325" lat="44.561684"><ele>72.282906</ele><time>2020-10-19T22:40:26Z</time><extensions><speed>5.110000</speed><course>2.109375</course><hAcc>5.000000</hAcc><vAcc>3.000000</vAcc></extensions></trkpt>
      <trkpt lon="-123.274331" lat="44.561728"><ele>72.252205</ele><time>2020-10-19T22:40:27Z</time><extensions><speed>5.060000</speed><course>354.726562</course><hAcc>5.000000</hAcc><vAcc>4.000000</vAcc></extensions></trkpt>
      <trkpt lon="-123.274348" lat="44.561773"><ele>71.565681</ele><time>2020-10-19T22:40:28Z</time><extensions><speed>4.770000</speed><course>4.218750</course><hAcc>5.000000</hAcc><vAcc>4.000000</vAcc></extensions></trkpt>
      <trkpt lon="-123.274363" lat="44.561808"><ele>72.511360</ele><time>2020-10-19T22:40:29Z</time><extensions><speed>3.970000</speed><course>338.906250</course><hAcc>5.000000</hAcc><vAcc>3.000000</vAcc></extensions></trkpt>
      <trkpt lon="-123.274387" lat="44.561834"><ele>72.925545</ele><time>2020-10-19T22:40:30Z</time><extensions><speed>3.660000</speed><course>320.625000</course><hAcc>5.000000</hAcc><vAcc>3.000000</vAcc></extensions></trkpt>
      <trkpt lon="-123.274432" lat="44.561853"><ele>73.481087</ele><time>2020-10-19T22:40:31Z</time><extensions><speed>4.390000</speed><course>301.640625</course><hAcc>5.000000</hAcc><vAcc>3.000000</vAcc></extensions></trkpt>
      <trkpt lon="-123.274483" lat="44.561872"><ele>73.645515</ele><time>2020-10-19T22:40:32Z</time><extensions><speed>4.170000</speed><course>285.820312</course><hAcc>5.000000</hAcc><vAcc>3.000000</vAcc></extensions></trkpt>
      <trkpt lon="-123.274530" lat="44.561885"><ele>73.588982</ele><time>2020-10-19T22:40:33Z</time><extensions><speed>4.170000</speed><course>301.289062</course><hAcc>5.000000</hAcc><vAcc>3.000000</vAcc></extensions></trkpt>
      <trkpt lon="-123.274555" lat="44.561907"><ele>73.697182</ele><time>2020-10-19T22:40:34Z</time><extensions><speed>4.140000</speed><course>357.890625</course><hAcc>5.000000</hAcc><vAcc>3.000000</vAcc></extensions></trkpt>
      <trkpt lon="-123.274549" lat="44.561941"><ele>73.614357</ele><time>2020-10-19T22:40:35Z</time><extensions><speed>5.020000</speed><course>347.695312</course><hAcc>5.000000</hAcc><vAcc>3.000000</vAcc></extensions></trkpt>
      <trkpt lon="-123.274565" lat="44.561980"><ele>73.852943</ele><time>2020-10-19T22:40:36Z</time><extensions><speed>5.480000</speed><course>325.546875</course><hAcc>5.000000</hAcc><vAcc>3.000000</vAcc></extensions></trkpt>
      <trkpt lon="-123.274623" lat="44.562016"><ele>73.930016</ele><time>2020-10-19T22:40:37Z</time><extensions><speed>5.480000</speed><course>301.640625</course><hAcc>5.000000</hAcc><vAcc>3.000000</vAcc></extensions></trkpt>
      <trkpt lon="-123.274682" lat="44.562037"><ele>74.086266</ele><time>2020-10-19T22:40:38Z</time><extensions><speed>5.480000</speed><course>292.851562</course><hAcc>5.000000</hAcc><vAcc>3.000000</vAcc></extensions></trkpt>
      <trkpt lon="-123.274754" lat="44.562045"><ele>74.051041</ele><time>2020-10-19T22:40:39Z</time><extensions><speed>5.680000</speed><course>273.515625</course><hAcc>5.000000</hAcc><vAcc>3.000000</vAcc></extensions></trkpt>
      <trkpt lon="-123.274826" lat="44.562048"><ele>74.018265</ele><time>2020-10-19T22:40:40Z</time><extensions><speed>5.670000</speed><course>273.515625</course><hAcc>5.000000</hAcc><vAcc>3.000000</vAcc></extensions></trkpt>
      <trkpt lon="-123.274899" lat="44.562042"><ele>74.184113</ele><time>2020-10-19T22:40:41Z</time><extensions><speed>5.670000</speed><course>271.757812</course><hAcc>5.000000</hAcc><vAcc>3.000000</vAcc></extensions></trkpt>
      <trkpt lon="-123.274959" lat="44.562047"><ele>74.082039</ele><time>2020-10-19T22:40:42Z</time><extensions><speed>5.400000</speed><course>273.867188</course><hAcc>5.000000</hAcc><vAcc>3.000000</vAcc></extensions></trkpt>
      <trkpt lon="-123.275024" lat="44.562051"><ele>73.647896</ele><time>2020-10-19T22:40:43Z</time><extensions><speed>5.120000</speed><course>274.218750</course><hAcc>5.000000</hAcc><vAcc>3.000000</vAcc></extensions></trkpt>
      <trkpt lon="-123.275087" lat="44.562051"><ele>73.398438</ele><time>2020-10-19T22:40:44Z</time><extensions><speed>5.110000</speed><course>272.460938</course><hAcc>5.000000</hAcc><vAcc>3.000000</vAcc></extensions></trkpt>
      <trkpt lon="-123.275136" lat="44.562037"><ele>73.349304</ele><time>2020-10-19T22:40:45Z</time><extensions><speed>5.090000</speed><course>269.296875</course><hAcc>5.000000</hAcc><vAcc>3.000000</vAcc></extensions></trkpt>
      <trkpt lon="-123.275201" lat="44.562036"><ele>73.327873</ele><time>2020-10-19T22:40:46Z</time><extensions><speed>5.100000</speed><course>268.945312</course><hAcc>5.000000</hAcc><vAcc>3.000000</vAcc></extensions></trkpt>
      <trkpt lon="-123.275253" lat="44.562036"><ele>73.336723</ele><time>2020-10-19T22:40:47Z</time><extensions><speed>5.090000</speed><course>261.914062</course><hAcc>5.000000</hAcc><vAcc>4.000000</vAcc></extensions></trkpt>
      <trkpt lon="-123.275329" lat="44.562028"><ele>73.554451</ele><time>2020-10-19T22:40:48Z</time><extensions><speed>4.910000</speed><course>274.921875</course><hAcc>5.000000</hAcc><vAcc>3.000000</vAcc></extensions></trkpt>
      <trkpt lon="-123.275390" lat="44.562032"><ele>73.479935</ele><time>2020-10-19T22:40:49Z</time><extensions><speed>4.910000</speed><course>274.921875</course><hAcc>5.000000</hAcc><vAcc>3.000000</vAcc></extensions></trkpt>
      <trkpt lon="-123.275473" lat="44.562025"><ele>73.392761</ele><time>2020-10-19T22:40:50Z</time><extensions><speed>5.090000</speed><course>262.968750</course><hAcc>5.000000</hAcc><vAcc>3.000000</vAcc></extensions></trkpt>
      <trkpt lon="-123.275507" lat="44.562025"><ele>72.778381</ele><time>2020-10-19T22:40:51Z</time><extensions><speed>5.090000</speed><course>272.109375</course><hAcc>5.000000</hAcc><vAcc>3.000000</vAcc></extensions></trkpt>
      <trkpt lon="-123.275599" lat="44.562028"><ele>73.629860</ele><time>2020-10-19T22:40:52Z</time><extensions><speed>4.820000</speed><course>269.648438</course><hAcc>5.000000</hAcc><vAcc>3.000000</vAcc></extensions></trkpt>
      <trkpt lon="-123.275645" lat="44.562023"><ele>72.608673</ele><time>2020-10-19T22:40:53Z</time><extensions><speed>4.370000</speed><course>258.750000</course><hAcc>5.000000</hAcc><vAcc>3.000000</vAcc></extensions></trkpt>
      <trkpt lon="-123.275693" lat="44.562015"><ele>72.535950</ele><time>2020-10-19T22:40:54Z</time><extensions><speed>4.230000</speed><course>254.179688</course><hAcc>5.000000</hAcc><vAcc>3.000000</vAcc></extensions></trkpt>
      <trkpt lon="-123.275760" lat="44.561996"><ele>72.336510</ele><time>2020-10-19T22:40:55Z</time><extensions><speed>4.520000</speed><course>251.718750</course><hAcc>5.000000</hAcc><vAcc>3.000000</vAcc></extensions></trkpt>
      <trkpt lon="-123.275817" lat="44.561991"><ele>73.111839</ele><time>2020-10-19T22:40:56Z</time><extensions><speed>4.610000</speed><course>268.945312</course><hAcc>5.000000</hAcc><vAcc>3.000000</vAcc></extensions></trkpt>
      <trkpt lon="-123.275865" lat="44.561980"><ele>73.201767</ele><time>2020-10-19T22:40:57Z</time><extensions><speed>4.520000</speed><course>259.453125</course><hAcc>5.000000</hAcc><vAcc>3.000000</vAcc></extensions></trkpt>
      <trkpt lon="-123.275908" lat="44.561972"><ele>73.007133</ele><time>2020-10-19T22:40:58Z</time><extensions><speed>4.470000</speed><course>247.500000</course><hAcc>5.000000</hAcc><vAcc>3.000000</vAcc></extensions></trkpt>
      <trkpt lon="-123.275951" lat="44.561963"><ele>73.233513</ele><time>2020-10-19T22:40:59Z</time><extensions><speed>4.270000</speed><course>253.476562</course><hAcc>5.000000</hAcc><vAcc>3.000000</vAcc></extensions></trkpt>
      <trkpt lon="-123.276008" lat="44.561952"><ele>73.259613</ele><time>2020-10-19T22:41:00Z</time><extensions><speed>4.560000</speed><course>260.507812</course><hAcc>5.000000</hAcc><vAcc>3.000000</vAcc></extensions></trkpt>
      <trkpt lon="-123.276070" lat="44.561944"><ele>73.483177</ele><time>2020-10-19T22:41:01Z</time><extensions><speed>4.670000</speed><course>261.210938</course><hAcc>5.000000</hAcc><vAcc>3.000000</vAcc></extensions></trkpt>
      <trkpt lon="-123.276129" lat="44.561942"><ele>73.102913</ele><time>2020-10-19T22:41:02Z</time><extensions><speed>4.560000</speed><course>270.703125</course><hAcc>5.000000</hAcc><vAcc>3.000000</vAcc></extensions></trkpt>
      <trkpt lon="-123.276188" lat="44.561941"><ele>73.139771</ele><time>2020-10-19T22:41:03Z</time><extensions><speed>4.670000</speed><course>267.187500</course><hAcc>5.000000</hAcc><vAcc>3.000000</vAcc></extensions></trkpt>
      <trkpt lon="-123.276257" lat="44.561943"><ele>72.916946</ele><time>2020-10-19T22:41:04Z</time><extensions><speed>4.830000</speed><course>268.242188</course><hAcc>5.000000</hAcc><vAcc>3.000000</vAcc></extensions></trkpt>
      <trkpt lon="-123.276323" lat="44.561945"><ele>72.985359</ele><time>2020-10-19T22:41:05Z</time><extensions><speed>5.410000</speed><course>273.515625</course><hAcc>5.000000</hAcc><vAcc>3.000000</vAcc></extensions></trkpt>
      <trkpt lon="-123.276385" lat="44.561951"><ele>73.106224</ele><time>2020-10-19T22:41:06Z</time><extensions><speed>5.410000</speed><course>279.492188</course><hAcc>5.000000</hAcc><vAcc>3.000000</vAcc></extensions></trkpt>
      <trkpt lon="-123.276454" lat="44.561951"><ele>72.904495</ele><time>2020-10-19T22:41:07Z</time><extensions><speed>5.350000</speed><course>269.296875</course><hAcc>5.000000</hAcc><vAcc>3.000000</vAcc></extensions></trkpt>
      <trkpt lon="-123.276524" lat="44.561955"><ele>73.108261</ele><time>2020-10-19T22:41:08Z</time><extensions><speed>5.350000</speed><course>270.703125</course><hAcc>5.000000</hAcc><vAcc>3.000000</vAcc></extensions></trkpt>
      <trkpt lon="-123.276603" lat="44.561969"><ele>73.260544</ele><time>2020-10-19T22:41:09Z</time><extensions><speed>5.960000</speed><course>272.460938</course><hAcc>5.000000</hAcc><vAcc>3.000000</vAcc></extensions></trkpt>
      <trkpt lon="-123.276679" lat="44.561977"><ele>73.297997</ele><time>2020-10-19T22:41:10Z</time><extensions><speed>5.770000</speed><course>267.890625</course><hAcc>5.000000</hAcc><vAcc>3.000000</vAcc></extensions></trkpt>
      <trkpt lon="-123.276750" lat="44.561972"><ele>72.948914</ele><time>2020-10-19T22:41:11Z</time><extensions><speed>5.770000</speed><course>264.726562</course><hAcc>5.000000</hAcc><vAcc>3.000000</vAcc></extensions></trkpt>
      <trkpt lon="-123.276821" lat="44.561969"><ele>72.946579</ele><time>2020-10-19T22:41:12Z</time><extensions><speed>5.770000</speed><course>268.945312</course><hAcc>5.000000</hAcc><vAcc>3.000000</vAcc></extensions></trkpt>
      <trkpt lon="-123.276897" lat="44.561971"><ele>72.702950</ele><time>2020-10-19T22:41:13Z</time><extensions><speed>5.820000</speed><course>270.703125</course><hAcc>5.000000</hAcc><vAcc>3.000000</vAcc></extensions></trkpt>
      <trkpt lon="-123.276971" lat="44.561973"><ele>72.817520</ele><time>2020-10-19T22:41:14Z</time><extensions><speed>5.820000</speed><course>266.484375</course><hAcc>5.000000</hAcc><vAcc>3.000000</vAcc></extensions></trkpt>
      <trkpt lon="-123.277037" lat="44.561970"><ele>72.648743</ele><time>2020-10-19T22:41:15Z</time><extensions><speed>5.240000</speed><course>266.484375</course><hAcc>5.000000</hAcc><vAcc>3.000000</vAcc></extensions></trkpt>
      <trkpt lon="-123.277095" lat="44.561983"><ele>72.617043</ele><time>2020-10-19T22:41:16Z</time><extensions><speed>5.270000</speed><course>272.109375</course><hAcc>5.000000</hAcc><vAcc>3.000000</vAcc></extensions></trkpt>
      <trkpt lon="-123.277169" lat="44.561980"><ele>72.413704</ele><time>2020-10-19T22:41:17Z</time><extensions><speed>5.270000</speed><course>268.593750</course><hAcc>5.000000</hAcc><vAcc>3.000000</vAcc></extensions></trkpt>
      <trkpt lon="-123.277234" lat="44.561983"><ele>72.366989</ele><time>2020-10-19T22:41:18Z</time><extensions><speed>5.270000</speed><course>271.757812</course><hAcc>5.000000</hAcc><vAcc>3.000000</vAcc></extensions></trkpt>
      <trkpt lon="-123.277290" lat="44.561982"><ele>72.530823</ele><time>2020-10-19T22:41:19Z</time><extensions><speed>4.710000</speed><course>270.703125</course><hAcc>5.000000</hAcc><vAcc>3.000000</vAcc></extensions></trkpt>
      <trkpt lon="-123.277355" lat="44.561978"><ele>72.561508</ele><time>2020-10-19T22:41:20Z</time><extensions><speed>5.280000</speed><course>268.593750</course><hAcc>5.000000</hAcc><vAcc>3.000000</vAcc></extensions></trkpt>
      <trkpt lon="-123.277416" lat="44.561967"><ele>72.641716</ele><time>2020-10-19T22:41:21Z</time><extensions><speed>5.280000</speed><course>265.429688</course><hAcc>5.000000</hAcc><vAcc>3.000000</vAcc></extensions></trkpt>
      <trkpt lon="-123.277474" lat="44.561963"><ele>73.013878</ele><time>2020-10-19T22:41:22Z</time><extensions><speed>4.640000</speed><course>265.429688</course><hAcc>5.000000</hAcc><vAcc>3.000000</vAcc></extensions></trkpt>
      <trkpt lon="-123.277540" lat="44.561966"><ele>72.257225</ele><time>2020-10-19T22:41:23Z</time><extensions><speed>4.620000</speed><course>268.242188</course><hAcc>5.000000</hAcc><vAcc>3.000000</vAcc></extensions></trkpt>
      <trkpt lon="-123.277579" lat="44.561967"><ele>72.677193</ele><time>2020-10-19T22:41:24Z</time><extensions><speed>4.530000</speed><course>268.945312</course><hAcc>5.000000</hAcc><vAcc>3.000000</vAcc></extensions></trkpt>
      <trkpt lon="-123.277647" lat="44.561971"><ele>72.846764</ele><time>2020-10-19T22:41:25Z</time><extensions><speed>4.330000</speed><course>270.000000</course><hAcc>5.000000</hAcc><vAcc>3.000000</vAcc></extensions></trkpt>
      <trkpt lon="-123.277704" lat="44.561970"><ele>72.801712</ele><time>2020-10-19T22:41:26Z</time><extensions><speed>4.590000</speed><course>270.703125</course><hAcc>5.000000</hAcc><vAcc>3.000000</vAcc></extensions></trkpt>
      <trkpt lon="-123.277761" lat="44.561975"><ele>72.957245</ele><time>2020-10-19T22:41:27Z</time><extensions><speed>4.450000</speed><course>270.703125</course><hAcc>5.000000</hAcc><vAcc>3.000000</vAcc></extensions></trkpt>
      <trkpt lon="-123.277811" lat="44.561974"><ele>73.149773</ele><time>2020-10-19T22:41:28Z</time><extensions><speed>4.520000</speed><course>274.570312</course><hAcc>5.000000</hAcc><vAcc>3.000000</vAcc></extensions></trkpt>
      <trkpt lon="-123.277865" lat="44.561973"><ele>73.142982</ele><time>2020-10-19T22:41:29Z</time><extensions><speed>4.450000</speed><course>275.273438</course><hAcc>5.000000</hAcc><vAcc>3.000000</vAcc></extensions></trkpt>
      <trkpt lon="-123.277938" lat="44.561983"><ele>73.117134</ele><time>2020-10-19T22:41:30Z</time><extensions><speed>4.690000</speed><course>278.085938</course><hAcc>5.000000</hAcc><vAcc>3.000000</vAcc></extensions></trkpt>
      <trkpt lon="-123.277995" lat="44.561983"><ele>73.069397</ele><time>2020-10-19T22:41:31Z</time><extensions><speed>4.690000</speed><course>269.296875</course><hAcc>5.000000</hAcc><vAcc>3.000000</vAcc></extensions></trkpt>
      <trkpt lon="-123.278050" lat="44.561980"><ele>72.931320</ele><time>2020-10-19T22:41:32Z</time><extensions><speed>4.590000</speed><course>262.265625</course><hAcc>5.000000</hAcc><vAcc>3.000000</vAcc></extensions></trkpt>
      <trkpt lon="-123.278102" lat="44.561974"><ele>72.752533</ele><time>2020-10-19T22:41:33Z</time><extensions><speed>4.460000</speed><course>259.804688</course><hAcc>5.000000</hAcc><vAcc>3.000000</vAcc></extensions></trkpt>
      <trkpt lon="-123.278155" lat="44.561970"><ele>72.990654</ele><time>2020-10-19T22:41:34Z</time><extensions><speed>4.330000</speed><course>263.671875</course><hAcc>5.000000</hAcc><vAcc>3.000000</vAcc></extensions></trkpt>
      <trkpt lon="-123.278209" lat="44.561968"><ele>73.336044</ele><time>2020-10-19T22:41:35Z</time><extensions><speed>4.500000</speed><course>268.242188</course><hAcc>5.000000</hAcc><vAcc>3.000000</vAcc></extensions></trkpt>
      <trkpt lon="-123.278265" lat="44.561972"><ele>73.128883</ele><time>2020-10-19T22:41:36Z</time><extensions><speed>4.500000</speed><course>274.570312</course><hAcc>5.000000</hAcc><vAcc>3.000000</vAcc></extensions></trkpt>
      <trkpt lon="-123.278317" lat="44.561977"><ele>73.152115</ele><time>2020-10-19T22:41:37Z</time><extensions><speed>4.450000</speed><course>275.976562</course><hAcc>5.000000</hAcc><vAcc>3.000000</vAcc></extensions></trkpt>
      <trkpt lon="-123.278371" lat="44.561980"><ele>73.149567</ele><time>2020-10-19T22:41:38Z</time><extensions><speed>4.420000</speed><course>271.054688</course><hAcc>5.000000</hAcc><vAcc>3.000000</vAcc></extensions></trkpt>
      <trkpt lon="-123.278424" lat="44.561979"><ele>73.069740</ele><time>2020-10-19T22:41:39Z</time><extensions><speed>4.290000</speed><course>266.132812</course><hAcc>5.000000</hAcc><vAcc>3.000000</vAcc></extensions></trkpt>
      <trkpt lon="-123.278477" lat="44.561976"><ele>73.307121</ele><time>2020-10-19T22:41:40Z</time><extensions><speed>4.340000</speed><course>263.320312</course><hAcc>5.000000</hAcc><vAcc>3.000000</vAcc></extensions></trkpt>
      <trkpt lon="-123.278530" lat="44.561974"><ele>73.036110</ele><time>2020-10-19T22:41:41Z</time><extensions><speed>4.340000</speed><course>267.187500</course><hAcc>5.000000</hAcc><vAcc>3.000000</vAcc></extensions></trkpt>
      <trkpt lon="-123.278581" lat="44.561975"><ele>73.401993</ele><time>2020-10-19T22:41:42Z</time><extensions><speed>4.230000</speed><course>269.648438</course><hAcc>5.000000</hAcc><vAcc>3.000000</vAcc></extensions></trkpt>
      <trkpt lon="-123.278632" lat="44.561978"><ele>73.343002</ele><time>2020-10-19T22:41:43Z</time><extensions><speed>4.230000</speed><course>272.109375</course><hAcc>5.000000</hAcc><vAcc>3.000000</vAcc></extensions></trkpt>
      <trkpt lon="-123.278683" lat="44.561980"><ele>73.109985</ele><time>2020-10-19T22:41:44Z</time><extensions><speed>4.100000</speed><course>271.406250</course><hAcc>5.000000</hAcc><vAcc>3.000000</vAcc></extensions></trkpt>
      <trkpt lon="-123.278733" lat="44.561982"><ele>73.296005</ele><time>2020-10-19T22:41:45Z</time><extensions><speed>4.190000</speed><course>271.406250</course><hAcc>5.000000</hAcc><vAcc>3.000000</vAcc></extensions></trkpt>
      <trkpt lon="-123.278784" lat="44.561985"><ele>73.236740</ele><time>2020-10-19T22:41:46Z</time><extensions><speed>4.310000</speed><course>272.109375</course><hAcc>5.000000</hAcc><vAcc>3.000000</vAcc></extensions></trkpt>
      <trkpt lon="-123.278835" lat="44.561987"><ele>73.453796</ele><time>2020-10-19T22:41:47Z</time><extensions><speed>4.190000</speed><course>272.460938</course><hAcc>5.000000</hAcc><vAcc>3.000000</vAcc></extensions></trkpt>
      <trkpt lon="-123.278887" lat="44.561992"><ele>73.417221</ele><time>2020-10-19T22:41:48Z</time><extensions><speed>4.310000</speed><course>275.976562</course><hAcc>5.000000</hAcc><vAcc>3.000000</vAcc></extensions></trkpt>
      <trkpt lon="-123.278940" lat="44.561996"><ele>73.885986</ele><time>2020-10-19T22:41:49Z</time><extensions><speed>4.280000</speed><course>274.921875</course><hAcc>5.000000</hAcc><vAcc>3.000000</vAcc></extensions></trkpt>
      <trkpt lon="-123.278994" lat="44.561996"><ele>73.923187</ele><time>2020-10-19T22:41:50Z</time><extensions><speed>4.280000</speed><course>270.703125</course><hAcc>5.000000</hAcc><vAcc>3.000000</vAcc></extensions></trkpt>
      <trkpt lon="-123.279048" lat="44.561993"><ele>73.608253</ele><time>2020-10-19T22:41:51Z</time><extensions><speed>4.290000</speed><course>263.320312</course><hAcc>5.000000</hAcc><vAcc>3.000000</vAcc></extensions></trkpt>
      <trkpt lon="-123.279105" lat="44.561994"><ele>74.201813</ele><time>2020-10-19T22:41:52Z</time><extensions><speed>4.290000</speed><course>269.648438</course><hAcc>5.000000</hAcc><vAcc>3.000000</vAcc></extensions></trkpt>
      <trkpt lon="-123.279185" lat="44.562011"><ele>74.235367</ele><time>2020-10-19T22:41:53Z</time><extensions><speed>4.890000</speed><course>274.921875</course><hAcc>5.000000</hAcc><vAcc>3.000000</vAcc></extensions></trkpt>
      <trkpt lon="-123.279242" lat="44.562010"><ele>74.390121</ele><time>2020-10-19T22:41:54Z</time><extensions><speed>4.890000</speed><course>272.812500</course><hAcc>5.000000</hAcc><vAcc>3.000000</vAcc></extensions></trkpt>
      <trkpt lon="-123.279345" lat="44.562033"><ele>74.709091</ele><time>2020-10-19T22:41:55Z</time><extensions><speed>4.180000</speed><course>274.570312</course><hAcc>5.000000</hAcc><vAcc>3.000000</vAcc></extensions></trkpt>
      <trkpt lon="-123.279416" lat="44.562024"><ele>74.245934</ele><time>2020-10-19T22:41:56Z</time><extensions><speed>5.490000</speed><course>266.484375</course><hAcc>5.000000</hAcc><vAcc>3.000000</vAcc></extensions></trkpt>
      <trkpt lon="-123.279483" lat="44.562015"><ele>74.326897</ele><time>2020-10-19T22:41:57Z</time><extensions><speed>5.490000</speed><course>276.679688</course><hAcc>5.000000</hAcc><vAcc>4.000000</vAcc></extensions></trkpt>
      <trkpt lon="-123.279553" lat="44.562023"><ele>74.364639</ele><time>2020-10-19T22:41:58Z</time><extensions><speed>6.220000</speed><course>285.820312</course><hAcc>5.000000</hAcc><vAcc>4.000000</vAcc></extensions></trkpt>
      <trkpt lon="-123.279631" lat="44.562038"><ele>74.161003</ele><time>2020-10-19T22:41:59Z</time><extensions><speed>6.390000</speed><course>285.820312</course><hAcc>5.000000</hAcc><vAcc>4.000000</vAcc></extensions></trkpt>
      <trkpt lon="-123.279652" lat="44.562026"><ele>73.945297</ele><time>2020-10-19T22:42:00Z</time><extensions><speed>3.550000</speed><course>300.937500</course><hAcc>10.000000</hAcc><vAcc>4.000000</vAcc></extensions></trkpt>
      <trkpt lon="-123.279647" lat="44.562086"><ele>73.712769</ele><time>2020-10-19T22:42:01Z</time><extensions><speed>4.410000</speed><course>344.882812</course><hAcc>10.000000</hAcc><vAcc>4.000000</vAcc></extensions></trkpt>
      <trkpt lon="-123.279663" lat="44.562170"><ele>74.081345</ele><time>2020-10-19T22:42:02Z</time><extensions><speed>4.410000</speed><course>355.429688</course><hAcc>5.000000</hAcc><vAcc>4.000000</vAcc></extensions></trkpt>
      <trkpt lon="-123.279654" lat="44.562242"><ele>74.288330</ele><time>2020-10-19T22:42:03Z</time><extensions><speed>6.530000</speed><course>0.351562</course><hAcc>5.000000</hAcc><vAcc>4.000000</vAcc></extensions></trkpt>
      <trkpt lon="-123.279624" lat="44.562324"><ele>73.985298</ele><time>2020-10-19T22:42:04Z</time><extensions><speed>6.550000</speed><course>359.648438</course><hAcc>5.000000</hAcc><vAcc>4.000000</vAcc></extensions></trkpt>
      <trkpt lon="-123.279653" lat="44.562390"><ele>73.694252</ele><time>2020-10-19T22:42:05Z</time><extensions><speed>6.180000</speed><course>358.593750</course><hAcc>5.000000</hAcc><vAcc>4.000000</vAcc></extensions></trkpt>
      <trkpt lon="-123.279655" lat="44.562446"><ele>73.915802</ele><time>2020-10-19T22:42:06Z</time><extensions><speed>6.180000</speed><course>358.945312</course><hAcc>5.000000</hAcc><vAcc>4.000000</vAcc></extensions></trkpt>
      <trkpt lon="-123.279651" lat="44.562508"><ele>73.821304</ele><time>2020-10-19T22:42:07Z</time><extensions><speed>6.180000</speed><course>0.703125</course><hAcc>5.000000</hAcc><vAcc>4.000000</vAcc></extensions></trkpt>
      <trkpt lon="-123.279650" lat="44.562567"><ele>73.603775</ele><time>2020-10-19T22:42:08Z</time><extensions><speed>6.600000</speed><course>0.703125</course><hAcc>5.000000</hAcc><vAcc>4.000000</vAcc></extensions></trkpt>
      <trkpt lon="-123.279658" lat="44.562634"><ele>73.520798</ele><time>2020-10-19T22:42:09Z</time><extensions><speed>6.600000</speed><course>358.945312</course><hAcc>5.000000</hAcc><vAcc>4.000000</vAcc></extensions></trkpt>
      <trkpt lon="-123.279645" lat="44.562692"><ele>73.474808</ele><time>2020-10-19T22:42:10Z</time><extensions><speed>5.940000</speed><course>4.218750</course><hAcc>5.000000</hAcc><vAcc>4.000000</vAcc></extensions></trkpt>
      <trkpt lon="-123.279642" lat="44.562757"><ele>73.335701</ele><time>2020-10-19T22:42:11Z</time><extensions><speed>5.940000</speed><course>4.921875</course><hAcc>5.000000</hAcc><vAcc>4.000000</vAcc></extensions></trkpt>
      <trkpt lon="-123.279637" lat="44.562806"><ele>73.310150</ele><time>2020-10-19T22:42:12Z</time><extensions><speed>5.760000</speed><course>2.109375</course><hAcc>5.000000</hAcc><vAcc>4.000000</vAcc></extensions></trkpt>
      <trkpt lon="-123.279654" lat="44.562856"><ele>73.216393</ele><time>2020-10-19T22:42:13Z</time><extensions><speed>5.760000</speed><course>345.937500</course><hAcc>5.000000</hAcc><vAcc>4.000000</vAcc></extensions></trkpt>
      <trkpt lon="-123.279671" lat="44.562908"><ele>73.518768</ele><time>2020-10-19T22:42:14Z</time><extensions><speed>5.530000</speed><course>333.281250</course><hAcc>5.000000</hAcc><vAcc>4.000000</vAcc></extensions></trkpt>
      <trkpt lon="-123.279688" lat="44.562946"><ele>73.451706</ele><time>2020-10-19T22:42:15Z</time><extensions><speed>4.870000</speed><course>339.257812</course><hAcc>5.000000</hAcc><vAcc>3.000000</vAcc></extensions></trkpt>
      <trkpt lon="-123.279710" lat="44.562987"><ele>73.352219</ele><time>2020-10-19T22:42:16Z</time><extensions><speed>4.870000</speed><course>339.257812</course><hAcc>5.000000</hAcc><vAcc>4.000000</vAcc></extensions></trkpt>
      <trkpt lon="-123.279666" lat="44.563035"><ele>73.077049</ele><time>2020-10-19T22:42:17Z</time><extensions><speed>4.870000</speed><course>9.843750</course><hAcc>5.000000</hAcc><vAcc>4.000000</vAcc></extensions></trkpt>
      <trkpt lon="-123.279642" lat="44.563073"><ele>73.169487</ele><time>2020-10-19T22:42:18Z</time><extensions><speed>5.000000</speed><course>22.148438</course><hAcc>5.000000</hAcc><vAcc>4.000000</vAcc></extensions></trkpt>
      <trkpt lon="-123.279637" lat="44.563118"><ele>73.412231</ele><time>2020-10-19T22:42:19Z</time><extensions><speed>5.000000</speed><course>13.359375</course><hAcc>5.000000</hAcc><vAcc>4.000000</vAcc></extensions></trkpt>
      <trkpt lon="-123.279629" lat="44.563157"><ele>73.404541</ele><time>2020-10-19T22:42:20Z</time><extensions><speed>4.390000</speed><course>7.031250</course><hAcc>5.000000</hAcc><vAcc>4.000000</vAcc></extensions></trkpt>
      <trkpt lon="-123.279622" lat="44.563197"><ele>73.327835</ele><time>2020-10-19T22:42:21Z</time><extensions><speed>4.390000</speed><course>7.031250</course><hAcc>5.000000</hAcc><vAcc>4.000000</vAcc></extensions></trkpt>
      <trkpt lon="-123.279580" lat="44.563226"><ele>73.674721</ele><time>2020-10-19T22:42:22Z</time><extensions><speed>4.390000</speed><course>27.070312</course><hAcc>5.000000</hAcc><vAcc>4.000000</vAcc></extensions></trkpt>
      <trkpt lon="-123.279554" lat="44.563252"><ele>73.368210</ele><time>2020-10-19T22:42:23Z</time><extensions><speed>4.320000</speed><course>33.046875</course><hAcc>5.000000</hAcc><vAcc>4.000000</vAcc></extensions></trkpt>
      <trkpt lon="-123.279515" lat="44.563277"><ele>73.360550</ele><time>2020-10-19T22:42:24Z</time><extensions><speed>3.800000</speed><course>47.109375</course><hAcc>5.000000</hAcc><vAcc>4.000000</vAcc></extensions></trkpt>
      <trkpt lon="-123.279463" lat="44.563295"><ele>73.496506</ele><time>2020-10-19T22:42:25Z</time><extensions><speed>2.940000</speed><course>55.898438</course><hAcc>5.000000</hAcc><vAcc>4.000000</vAcc></extensions></trkpt>
      <trkpt lon="-123.279426" lat="44.563292"><ele>73.384811</ele><time>2020-10-19T22:42:26Z</time><extensions><speed>2.940000</speed><course>56.250000</course><hAcc>5.000000</hAcc><vAcc>4.000000</vAcc></extensions></trkpt>
      <trkpt lon="-123.279428" lat="44.563302"><ele>73.490616</ele><time>2020-10-19T22:42:27Z</time><extensions><speed>1.350000</speed><course>56.601562</course><hAcc>5.000000</hAcc><vAcc>4.000000</vAcc></extensions></trkpt>
      <trkpt lon="-123.279417" lat="44.563298"><ele>73.473961</ele><time>2020-10-19T22:42:28Z</time><extensions><speed>1.110000</speed><course>56.601562</course><hAcc>5.000000</hAcc><vAcc>4.000000</vAcc></extensions></trkpt>
      <trkpt lon="-123.279417" lat="44.563298"><ele>73.505333</ele><time>2020-10-19T22:42:29Z</time><extensions><speed>0.000000</speed><course>56.601562</course><hAcc>5.000000</hAcc><vAcc>4.000000</vAcc></extensions></trkpt>
      <trkpt lon="-123.279417" lat="44.563298"><ele>73.430344</ele><time>2020-10-19T22:42:30Z</time><extensions><speed>0.000000</speed><course>56.601562</course><hAcc>5.000000</hAcc><vAcc>4.000000</vAcc></extensions></trkpt>
      <trkpt lon="-123.279417" lat="44.563298"><ele>73.489349</ele><time>2020-10-19T22:42:31Z</time><extensions><speed>0.000000</speed><course>56.601562</course><hAcc>5.000000</hAcc><vAcc>4.000000</vAcc></extensions></trkpt>
      <trkpt lon="-123.279417" lat="44.563298"><ele>73.590355</ele><time>2020-10-19T22:42:32Z</time><extensions><speed>0.000000</speed><course>56.601562</course><hAcc>5.000000</hAcc><vAcc>4.000000</vAcc></extensions></trkpt>
      <trkpt lon="-123.279417" lat="44.563298"><ele>73.477623</ele><time>2020-10-19T22:42:33Z</time><extensions><speed>0.000000</speed><course>56.601562</course><hAcc>5.000000</hAcc><vAcc>4.000000</vAcc></extensions></trkpt>
      <trkpt lon="-123.279417" lat="44.563298"><ele>73.700325</ele><time>2020-10-19T22:42:34Z</time><extensions><speed>0.000000</speed><course>56.601562</course><hAcc>5.000000</hAcc><vAcc>4.000000</vAcc></extensions></trkpt>
      <trkpt lon="-123.279417" lat="44.563298"><ele>73.658951</ele><time>2020-10-19T22:42:35Z</time><extensions><speed>0.000000</speed><course>56.601562</course><hAcc>5.000000</hAcc><vAcc>4.000000</vAcc></extensions></trkpt>
      <trkpt lon="-123.279417" lat="44.563298"><ele>73.675270</ele><time>2020-10-19T22:42:36Z</time><extensions><speed>0.000000</speed><course>56.601562</course><hAcc>5.000000</hAcc><vAcc>4.000000</vAcc></extensions></trkpt>
      <trkpt lon="-123.279417" lat="44.563298"><ele>73.635925</ele><time>2020-10-19T22:42:37Z</time><extensions><speed>0.000000</speed><course>56.601562</course><hAcc>5.000000</hAcc><vAcc>4.000000</vAcc></extensions></trkpt>
      <trkpt lon="-123.279417" lat="44.563298"><ele>73.650864</ele><time>2020-10-19T22:42:38Z</time><extensions><speed>0.000000</speed><course>56.601562</course><hAcc>5.000000</hAcc><vAcc>4.000000</vAcc></extensions></trkpt>
      <trkpt lon="-123.279417" lat="44.563298"><ele>73.809631</ele><time>2020-10-19T22:42:39Z</time><extensions><speed>0.000000</speed><course>56.601562</course><hAcc>5.000000</hAcc><vAcc>4.000000</vAcc></extensions></trkpt>
      <trkpt lon="-123.279417" lat="44.563298"><ele>73.872368</ele><time>2020-10-19T22:42:40Z</time><extensions><speed>0.000000</speed><course>56.601562</course><hAcc>5.000000</hAcc><vAcc>4.000000</vAcc></extensions></trkpt>
      <trkpt lon="-123.279417" lat="44.563298"><ele>73.888519</ele><time>2020-10-19T22:42:41Z</time><extensions><speed>0.000000</speed><course>56.601562</course><hAcc>5.000000</hAcc><vAcc>4.000000</vAcc></extensions></trkpt>
      <trkpt lon="-123.279417" lat="44.563298"><ele>74.000755</ele><time>2020-10-19T22:42:42Z</time><extensions><speed>0.000000</speed><course>56.601562</course><hAcc>5.000000</hAcc><vAcc>4.000000</vAcc></extensions></trkpt>
      <trkpt lon="-123.279417" lat="44.563298"><ele>74.030418</ele><time>2020-10-19T22:42:43Z</time><extensions><speed>0.000000</speed><course>56.601562</course><hAcc>5.000000</hAcc><vAcc>4.000000</vAcc></extensions></trkpt>
      <trkpt lon="-123.279417" lat="44.563298"><ele>74.057976</ele><time>2020-10-19T22:42:44Z</time><extensions><speed>0.000000</speed><course>56.601562</course><hAcc>5.000000</hAcc><vAcc>4.000000</vAcc></extensions></trkpt>
      <trkpt lon="-123.279417" lat="44.563298"><ele>74.104652</ele><time>2020-10-19T22:42:45Z</time><extensions><speed>0.000000</speed><course>56.601562</course><hAcc>5.000000</hAcc><vAcc>4.000000</vAcc></extensions></trkpt>
      <trkpt lon="-123.279417" lat="44.563298"><ele>74.077934</ele><time>2020-10-19T22:42:46Z</time><extensions><speed>0.000000</speed><course>56.601562</course><hAcc>5.000000</hAcc><vAcc>4.000000</vAcc></extensions></trkpt>
      <trkpt lon="-123.279417" lat="44.563298"><ele>74.106056</ele><time>2020-10-19T22:42:47Z</time><extensions><speed>0.000000</speed><course>57.304688</course><hAcc>5.000000</hAcc><vAcc>4.000000</vAcc></extensions></trkpt>
      <trkpt lon="-123.279417" lat="44.563298"><ele>74.273514</ele><time>2020-10-19T22:42:48Z</time><extensions><speed>0.000000</speed><course>57.304688</course><hAcc>5.000000</hAcc><vAcc>4.000000</vAcc></extensions></trkpt>
      <trkpt lon="-123.279417" lat="44.563298"><ele>74.116745</ele><time>2020-10-19T22:42:49Z</time><extensions><speed>0.000000</speed><course>57.304688</course><hAcc>5.000000</hAcc><vAcc>4.000000</vAcc></extensions></trkpt>
      <trkpt lon="-123.279417" lat="44.563298"><ele>74.209801</ele><time>2020-10-19T22:42:50Z</time><extensions><speed>0.000000</speed><course>57.304688</course><hAcc>5.000000</hAcc><vAcc>4.000000</vAcc></extensions></trkpt>
      <trkpt lon="-123.279417" lat="44.563298"><ele>74.205246</ele><time>2020-10-19T22:42:51Z</time><extensions><speed>0.000000</speed><course>57.304688</course><hAcc>5.000000</hAcc><vAcc>3.000000</vAcc></extensions></trkpt>
      <trkpt lon="-123.279417" lat="44.563298"><ele>74.227318</ele><time>2020-10-19T22:42:52Z</time><extensions><speed>0.000000</speed><course>57.304688</course><hAcc>5.000000</hAcc><vAcc>4.000000</vAcc></extensions></trkpt>
      <trkpt lon="-123.279417" lat="44.563298"><ele>74.350395</ele><time>2020-10-19T22:42:53Z</time><extensions><speed>0.000000</speed><course>57.304688</course><hAcc>5.000000</hAcc><vAcc>4.000000</vAcc></extensions></trkpt>
      <trkpt lon="-123.279417" lat="44.563298"><ele>74.265007</ele><time>2020-10-19T22:42:54Z</time><extensions><speed>0.000000</speed><course>57.304688</course><hAcc>5.000000</hAcc><vAcc>4.000000</vAcc></extensions></trkpt>
      <trkpt lon="-123.279417" lat="44.563298"><ele>74.264450</ele><time>2020-10-19T22:42:55Z</time><extensions><speed>0.000000</speed><course>57.304688</course><hAcc>5.000000</hAcc><vAcc>3.000000</vAcc></extensions></trkpt>
      <trkpt lon="-123.279417" lat="44.563298"><ele>74.276680</ele><time>2020-10-19T22:42:56Z</time><extensions><speed>0.000000</speed><course>57.304688</course><hAcc>5.000000</hAcc><vAcc>4.000000</vAcc></extensions></trkpt>
      <trkpt lon="-123.279417" lat="44.563298"><ele>74.263077</ele><time>2020-10-19T22:42:57Z</time><extensions><speed>0.000000</speed><course>57.304688</course><hAcc>5.000000</hAcc><vAcc>3.000000</vAcc></extensions></trkpt>
      <trkpt lon="-123.279417" lat="44.563298"><ele>74.284386</ele><time>2020-10-19T22:42:58Z</time><extensions><speed>0.000000</speed><course>57.304688</course><hAcc>5.000000</hAcc><vAcc>3.000000</vAcc></extensions></trkpt>
      <trkpt lon="-123.279417" lat="44.563298"><ele>74.366722</ele><time>2020-10-19T22:42:59Z</time><extensions><speed>0.000000</speed><course>57.304688</course><hAcc>5.000000</hAcc><vAcc>3.000000</vAcc></extensions></trkpt>
      <trkpt lon="-123.279417" lat="44.563298"><ele>74.290443</ele><time>2020-10-19T22:43:00Z</time><extensions><speed>0.000000</speed><course>57.304688</course><hAcc>5.000000</hAcc><vAcc>3.000000</vAcc></extensions></trkpt>
      <trkpt lon="-123.279417" lat="44.563298"><ele>74.252388</ele><time>2020-10-19T22:43:01Z</time><extensions><speed>0.000000</speed><course>-1.000000</course><hAcc>5.000000</hAcc><vAcc>3.000000</vAcc></extensions></trkpt>
      <trkpt lon="-123.279417" lat="44.563298"><ele>74.431091</ele><time>2020-10-19T22:43:02Z</time><extensions><speed>0.000000</speed><course>-1.000000</course><hAcc>5.000000</hAcc><vAcc>3.000000</vAcc></extensions></trkpt>
      <trkpt lon="-123.279417" lat="44.563298"><ele>74.257339</ele><time>2020-10-19T22:43:03Z</time><extensions><speed>0.000000</speed><course>-1.000000</course><hAcc>5.000000</hAcc><vAcc>3.000000</vAcc></extensions></trkpt>
      <trkpt lon="-123.279427" lat="44.563298"><ele>74.270454</ele><time>2020-10-19T22:43:04Z</time><extensions><speed>0.160000</speed><course>227.460938</course><hAcc>5.000000</hAcc><vAcc>3.000000</vAcc></extensions></trkpt>
      <trkpt lon="-123.279427" lat="44.563298"><ele>74.341759</ele><time>2020-10-19T22:43:05Z</time><extensions><speed>0.000000</speed><course>190.546875</course><hAcc>5.000000</hAcc><vAcc>3.000000</vAcc></extensions></trkpt>
      <trkpt lon="-123.279427" lat="44.563301"><ele>74.348328</ele><time>2020-10-19T22:43:06Z</time><extensions><speed>0.370000</speed><course>332.578125</course><hAcc>5.000000</hAcc><vAcc>3.000000</vAcc></extensions></trkpt>
      <trkpt lon="-123.279434" lat="44.563296"><ele>74.277596</ele><time>2020-10-19T22:43:07Z</time><extensions><speed>0.370000</speed><course>193.710938</course><hAcc>5.000000</hAcc><vAcc>3.000000</vAcc></extensions></trkpt>
      <trkpt lon="-123.279435" lat="44.563285"><ele>74.356995</ele><time>2020-10-19T22:43:08Z</time><extensions><speed>1.060000</speed><course>185.976562</course><hAcc>5.000000</hAcc><vAcc>3.000000</vAcc></extensions></trkpt>
      <trkpt lon="-123.279436" lat="44.563272"><ele>74.263603</ele><time>2020-10-19T22:43:09Z</time><extensions><speed>1.120000</speed><course>182.460938</course><hAcc>5.000000</hAcc><vAcc>3.000000</vAcc></extensions></trkpt>
      <trkpt lon="-123.279438" lat="44.563259"><ele>74.385391</ele><time>2020-10-19T22:43:10Z</time><extensions><speed>1.370000</speed><course>191.250000</course><hAcc>5.000000</hAcc><vAcc>3.000000</vAcc></extensions></trkpt>
      <trkpt lon="-123.279440" lat="44.563246"><ele>74.041977</ele><time>2020-10-19T22:43:11Z</time><extensions><speed>1.450000</speed><course>180.351562</course><hAcc>5.000000</hAcc><vAcc>3.000000</vAcc></extensions></trkpt>
      <trkpt lon="-123.279437" lat="44.563234"><ele>74.055450</ele><time>2020-10-19T22:43:12Z</time><extensions><speed>1.370000</speed><course>120.234375</course><hAcc>5.000000</hAcc><vAcc>3.000000</vAcc></extensions></trkpt>
      <trkpt lon="-123.279431" lat="44.563229"><ele>74.016129</ele><time>2020-10-19T22:43:13Z</time><extensions><speed>1.060000</speed><course>77.343750</course><hAcc>5.000000</hAcc><vAcc>3.000000</vAcc></extensions></trkpt>
      <trkpt lon="-123.279422" lat="44.563225"><ele>73.930618</ele><time>2020-10-19T22:43:14Z</time><extensions><speed>1.060000</speed><course>149.062500</course><hAcc>5.000000</hAcc><vAcc>3.000000</vAcc></extensions></trkpt>
      <trkpt lon="-123.279406" lat="44.563218"><ele>73.569092</ele><time>2020-10-19T22:43:15Z</time><extensions><speed>1.440000</speed><course>117.070312</course><hAcc>5.000000</hAcc><vAcc>3.000000</vAcc></extensions></trkpt>
      <trkpt lon="-123.279390" lat="44.563212"><ele>73.734413</ele><time>2020-10-19T22:43:16Z</time><extensions><speed>1.440000</speed><course>111.796875</course><hAcc>5.000000</hAcc><vAcc>3.000000</vAcc></extensions></trkpt>
      <trkpt lon="-123.279375" lat="44.563207"><ele>73.740059</ele><time>2020-10-19T22:43:17Z</time><extensions><speed>1.300000</speed><course>111.093750</course><hAcc>5.000000</hAcc><vAcc>3.000000</vAcc></extensions></trkpt>
      <trkpt lon="-123.279360" lat="44.563203"><ele>73.585213</ele><time>2020-10-19T22:43:18Z</time><extensions><speed>1.270000</speed><course>113.203125</course><hAcc>5.000000</hAcc><vAcc>3.000000</vAcc></extensions></trkpt>
      <trkpt lon="-123.279343" lat="44.563200"><ele>73.580620</ele><time>2020-10-19T22:43:19Z</time><extensions><speed>1.270000</speed><course>96.328125</course><hAcc>5.000000</hAcc><vAcc>3.000000</vAcc></extensions></trkpt>
      <trkpt lon="-123.279324" lat="44.563198"><ele>73.552910</ele><time>2020-10-19T22:43:20Z</time><extensions><speed>1.500000</speed><course>91.054688</course><hAcc>5.000000</hAcc><vAcc>3.000000</vAcc></extensions></trkpt>
      <trkpt lon="-123.279303" lat="44.563198"><ele>73.623276</ele><time>2020-10-19T22:43:21Z</time><extensions><speed>1.730000</speed><course>87.890625</course><hAcc>5.000000</hAcc><vAcc>3.000000</vAcc></extensions></trkpt>
      <trkpt lon="-123.279282" lat="44.563200"><ele>73.442787</ele><time>2020-10-19T22:43:22Z</time><extensions><speed>1.520000</speed><course>84.726562</course><hAcc>5.000000</hAcc><vAcc>3.000000</vAcc></extensions></trkpt>
      <trkpt lon="-123.279265" lat="44.563203"><ele>73.338783</ele><time>2020-10-19T22:43:23Z</time><extensions><speed>1.520000</speed><course>84.726562</course><hAcc>5.000000</hAcc><vAcc>3.000000</vAcc></extensions></trkpt>
      <trkpt lon="-123.279247" lat="44.563204"><ele>73.543732</ele><time>2020-10-19T22:43:24Z</time><extensions><speed>1.340000</speed><course>91.757812</course><hAcc>5.000000</hAcc><vAcc>3.000000</vAcc></extensions></trkpt>
      <trkpt lon="-123.279228" lat="44.563206"><ele>73.340279</ele><time>2020-10-19T22:43:25Z</time><extensions><speed>1.400000</speed><course>89.648438</course><hAcc>5.000000</hAcc><vAcc>3.000000</vAcc></extensions></trkpt>
      <trkpt lon="-123.279208" lat="44.563206"><ele>73.683403</ele><time>2020-10-19T22:43:26Z</time><extensions><speed>1.420000</speed><course>89.648438</course><hAcc>5.000000</hAcc><vAcc>3.000000</vAcc></extensions></trkpt>
      <trkpt lon="-123.279191" lat="44.563205"><ele>73.515198</ele><time>2020-10-19T22:43:27Z</time><extensions><speed>1.400000</speed><course>95.976562</course><hAcc>5.000000</hAcc><vAcc>3.000000</vAcc></extensions></trkpt>
      <trkpt lon="-123.279177" lat="44.563204"><ele>73.360237</ele><time>2020-10-19T22:43:28Z</time><extensions><speed>1.150000</speed><course>98.789062</course><hAcc>5.000000</hAcc><vAcc>3.000000</vAcc></extensions></trkpt>
      <trkpt lon="-123.279162" lat="44.563202"><ele>73.762878</ele><time>2020-10-19T22:43:29Z</time><extensions><speed>1.150000</speed><course>92.460938</course><hAcc>5.000000</hAcc><vAcc>3.000000</vAcc></extensions></trkpt>
      <trkpt lon="-123.279146" lat="44.563201"><ele>73.416611</ele><time>2020-10-19T22:43:30Z</time><extensions><speed>1.230000</speed><course>95.976562</course><hAcc>5.000000</hAcc><vAcc>3.000000</vAcc></extensions></trkpt>
      <trkpt lon="-123.279129" lat="44.563201"><ele>73.579880</ele><time>2020-10-19T22:43:31Z</time><extensions><speed>1.500000</speed><course>70.664062</course><hAcc>5.000000</hAcc><vAcc>3.000000</vAcc></extensions></trkpt>
      <trkpt lon="-123.279119" lat="44.563204"><ele>73.534264</ele><time>2020-10-19T22:43:32Z</time><extensions><speed>1.230000</speed><course>34.804688</course><hAcc>5.000000</hAcc><vAcc>3.000000</vAcc></extensions></trkpt>
      <trkpt lon="-123.279115" lat="44.563208"><ele>73.438309</ele><time>2020-10-19T22:43:33Z</time><extensions><speed>0.670000</speed><course>48.867188</course><hAcc>5.000000</hAcc><vAcc>3.000000</vAcc></extensions></trkpt>
      <trkpt lon="-123.279112" lat="44.563213"><ele>73.464554</ele><time>2020-10-19T22:43:34Z</time><extensions><speed>0.540000</speed><course>33.398438</course><hAcc>5.000000</hAcc><vAcc>3.000000</vAcc></extensions></trkpt>
      <trkpt lon="-123.279111" lat="44.563220"><ele>73.666153</ele><time>2020-10-19T22:43:35Z</time><extensions><speed>0.570000</speed><course>15.820312</course><hAcc>5.000000</hAcc><vAcc>3.000000</vAcc></extensions></trkpt>
      <trkpt lon="-123.279114" lat="44.563223"><ele>73.569984</ele><time>2020-10-19T22:43:36Z</time><extensions><speed>0.180000</speed><course>278.085938</course><hAcc>5.000000</hAcc><vAcc>3.000000</vAcc></extensions></trkpt>
      <trkpt lon="-123.279115" lat="44.563225"><ele>73.479958</ele><time>2020-10-19T22:43:37Z</time><extensions><speed>0.200000</speed><course>147.304688</course><hAcc>5.000000</hAcc><vAcc>3.000000</vAcc></extensions></trkpt>
      <trkpt lon="-123.279121" lat="44.563227"><ele>73.455887</ele><time>2020-10-19T22:43:38Z</time><extensions><speed>0.200000</speed><course>347.343750</course><hAcc>5.000000</hAcc><vAcc>3.000000</vAcc></extensions></trkpt>
      <trkpt lon="-123.279118" lat="44.563232"><ele>73.483124</ele><time>2020-10-19T22:43:39Z</time><extensions><speed>0.400000</speed><course>43.593750</course><hAcc>5.000000</hAcc><vAcc>3.000000</vAcc></extensions></trkpt>
      <trkpt lon="-123.279117" lat="44.563239"><ele>73.540611</ele><time>2020-10-19T22:43:40Z</time><extensions><speed>0.740000</speed><course>24.609375</course><hAcc>10.000000</hAcc><vAcc>3.000000</vAcc></extensions></trkpt>
      <trkpt lon="-123.279117" lat="44.563239"><ele>73.467323</ele><time>2020-10-19T22:43:41Z</time><extensions><speed>0.000000</speed><course>24.609375</course><hAcc>5.000000</hAcc><vAcc>3.000000</vAcc></extensions></trkpt>
      <trkpt lon="-123.279117" lat="44.563239"><ele>73.393822</ele><time>2020-10-19T22:43:42Z</time><extensions><speed>0.000000</speed><course>92.812500</course><hAcc>5.000000</hAcc><vAcc>3.000000</vAcc></extensions></trkpt>
      <trkpt lon="-123.279117" lat="44.563239"><ele>73.525963</ele><time>2020-10-19T22:43:43Z</time><extensions><speed>0.000000</speed><course>180.703125</course><hAcc>5.000000</hAcc><vAcc>3.000000</vAcc></extensions></trkpt>
      <trkpt lon="-123.279117" lat="44.563239"><ele>73.426224</ele><time>2020-10-19T22:43:44Z</time><extensions><speed>0.000000</speed><course>184.921875</course><hAcc>10.000000</hAcc><vAcc>3.000000</vAcc></extensions></trkpt>
      <trkpt lon="-123.279140" lat="44.563231"><ele>73.376266</ele><time>2020-10-19T22:43:45Z</time><extensions><speed>0.710000</speed><course>249.257812</course><hAcc>10.000000</hAcc><vAcc>3.000000</vAcc></extensions></trkpt>
      <trkpt lon="-123.279161" lat="44.563224"><ele>73.553116</ele><time>2020-10-19T22:43:46Z</time><extensions><speed>1.380000</speed><course>248.203125</course><hAcc>10.000000</hAcc><vAcc>3.000000</vAcc></extensions></trkpt>
      <trkpt lon="-123.279184" lat="44.563214"><ele>73.557938</ele><time>2020-10-19T22:43:47Z</time><extensions><speed>1.380000</speed><course>246.093750</course><hAcc>10.000000</hAcc><vAcc>3.000000</vAcc></extensions></trkpt>
      <trkpt lon="-123.279205" lat="44.563205"><ele>73.478325</ele><time>2020-10-19T22:43:48Z</time><extensions><speed>1.380000</speed><course>242.929688</course><hAcc>10.000000</hAcc><vAcc>3.000000</vAcc></extensions></trkpt>
      <trkpt lon="-123.279219" lat="44.563202"><ele>73.562134</ele><time>2020-10-19T22:43:49Z</time><extensions><speed>1.320000</speed><course>247.500000</course><hAcc>10.000000</hAcc><vAcc>3.000000</vAcc></extensions></trkpt>
      <trkpt lon="-123.279227" lat="44.563199"><ele>73.498985</ele><time>2020-10-19T22:43:50Z</time><extensions><speed>0.730000</speed><course>255.937500</course><hAcc>10.000000</hAcc><vAcc>3.000000</vAcc></extensions></trkpt>
      <trkpt lon="-123.279234" lat="44.563199"><ele>73.539673</ele><time>2020-10-19T22:43:51Z</time><extensions><speed>0.850000</speed><course>267.890625</course><hAcc>10.000000</hAcc><vAcc>3.000000</vAcc></extensions></trkpt>
      <trkpt lon="-123.279245" lat="44.563200"><ele>73.626175</ele><time>2020-10-19T22:43:52Z</time><extensions><speed>0.850000</speed><course>273.515625</course><hAcc>30.000000</hAcc><vAcc>3.000000</vAcc></extensions></trkpt>
      <trkpt lon="-123.279245" lat="44.563200"><ele>73.432732</ele><time>2020-10-19T22:43:53Z</time><extensions><speed>0.000000</speed><course>276.328125</course><hAcc>30.000000</hAcc><vAcc>3.000000</vAcc></extensions></trkpt>
      <trkpt lon="-123.279249" lat="44.563195"><ele>73.813293</ele><time>2020-10-19T22:43:54Z</time><extensions><speed>0.790000</speed><course>226.406250</course><hAcc>10.000000</hAcc><vAcc>3.000000</vAcc></extensions></trkpt>
      <trkpt lon="-123.279239" lat="44.563186"><ele>73.662216</ele><time>2020-10-19T22:43:55Z</time><extensions><speed>1.060000</speed><course>142.382812</course><hAcc>30.000000</hAcc><vAcc>3.000000</vAcc></extensions></trkpt>
      <trkpt lon="-123.279216" lat="44.563183"><ele>73.929176</ele><time>2020-10-19T22:43:56Z</time><extensions><speed>1.330000</speed><course>132.187500</course><hAcc>30.000000</hAcc><vAcc>3.000000</vAcc></extensions></trkpt>
      <trkpt lon="-123.279188" lat="44.563179"><ele>73.671989</ele><time>2020-10-19T22:43:57Z</time><extensions><speed>1.240000</speed><course>115.312500</course><hAcc>30.000000</hAcc><vAcc>3.000000</vAcc></extensions></trkpt>
      <trkpt lon="-123.279174" lat="44.563170"><ele>73.504402</ele><time>2020-10-19T22:43:58Z</time><extensions><speed>1.240000</speed><course>113.554688</course><hAcc>30.000000</hAcc><vAcc>3.000000</vAcc></extensions></trkpt>
      <trkpt lon="-123.279169" lat="44.563176"><ele>73.601631</ele><time>2020-10-19T22:43:59Z</time><extensions><speed>0.790000</speed><course>127.617188</course><hAcc>30.000000</hAcc><vAcc>3.000000</vAcc></extensions></trkpt>
      <trkpt lon="-123.279168" lat="44.563178"><ele>73.691742</ele><time>2020-10-19T22:44:00Z</time><extensions><speed>0.790000</speed><course>160.312500</course><hAcc>30.000000</hAcc><vAcc>3.000000</vAcc></extensions></trkpt>
      <trkpt lon="-123.279169" lat="44.563176"><ele>73.732933</ele><time>2020-10-19T22:44:01Z</time><extensions><speed>0.790000</speed><course>173.671875</course><hAcc>30.000000</hAcc><vAcc>3.000000</vAcc></extensions></trkpt>
      <trkpt lon="-123.279169" lat="44.563176"><ele>73.578682</ele><time>2020-10-19T22:44:02Z</time><extensions><speed>0.000000</speed><course>173.671875</course><hAcc>30.000000</hAcc><vAcc>3.000000</vAcc></extensions></trkpt>
    </trkseg>
  </trk>
</gpx>