<?xml version="1.0" encoding="UTF-8"?>
<gpx version="1.1" creator="Apple Health Export" xmlns="http://www.topografix.com/GPX/1/1" xmlns:xsi="http://www.w3.org/2001/XMLSchema-instance" xsi:schemaLocation="http://www.topografix.com/GPX/1/1 http://www.topografix.com/GPX/1/1/gpx.xsd">
  <metadata>
    <time>2021-02-21T19:24:49Z</time>
  </metadata>
  <trk>
    <name>Route 2021-01-16 6:01pm</name>
    <trkseg>
      <trkpt lon="-123.270144" lat="44.560111"><ele>0.000000</ele><time>2021-01-17T02:01:46Z</time><extensions><speed>-1.000000</speed><course>-1.000000</course><hAcc>0.000000</hAcc><vAcc>-1.000000</vAcc></extensions></trkpt>
      <trkpt lon="-123.270575" lat="44.560245"><ele>0.000000</ele><time>2021-01-17T02:01:46Z</time><extensions><speed>-1.000000</speed><course>-1.000000</course><hAcc>0.000000</hAcc><vAcc>-1.000000</vAcc></extensions></trkpt>
      <trkpt lon="-123.270703" lat="44.560231"><ele>0.000000</ele><time>2021-01-17T02:01:46Z</time><extensions><speed>-1.000000</speed><course>-1.000000</course><hAcc>0.000000</hAcc><vAcc>-1.000000</vAcc></extensions></trkpt>
      <trkpt lon="-123.270935" lat="44.560207"><ele>0.000000</ele><time>2021-01-17T02:01:46Z</time><extensions><speed>-1.000000</speed><course>-1.000000</course><hAcc>0.000000</hAcc><vAcc>-1.000000</vAcc></extensions></trkpt>
      <trkpt lon="-123.271103" lat="44.560203"><ele>0.000000</ele><time>2021-01-17T02:01:46Z</time><extensions><speed>-1.000000</speed><course>-1.000000</course><hAcc>0.000000</hAcc><vAcc>-1.000000</vAcc></extensions></trkpt>
      <trkpt lon="-123.271327" lat="44.560180"><ele>0.000000</ele><time>2021-01-17T02:01:46Z</time><extensions><speed>-1.000000</speed><course>-1.000000</course><hAcc>0.000000</hAcc><vAcc>-1.000000</vAcc></extensions></trkpt>
      <trkpt lon="-123.271498" lat="44.560171"><ele>0.000000</ele><time>2021-01-17T02:01:46Z</time><extensions><speed>-1.000000</speed><course>-1.000000</course><hAcc>0.000000</hAcc><vAcc>-1.000000</vAcc></extensions></trkpt>
      <trkpt lon="-123.271736" lat="44.560185"><ele>0.000000</ele><time>2021-01-17T02:01:46Z</time><extensions><speed>-1.000000</speed><course>-1.000000</course><hAcc>0.000000</hAcc><vAcc>-1.000000</vAcc></extensions></trkpt>
      <trkpt lon="-123.272116" lat="44.560132"><ele>0.000000</ele><time>2021-01-17T02:01:46Z</time><extensions><speed>-1.000000</speed><course>-1.000000</course><hAcc>0.000000</hAcc><vAcc>-1.000000</vAcc></extensions></trkpt>
      <trkpt lon="-123.272463" lat="44.560110"><ele>0.000000</ele><time>2021-01-17T02:01:46Z</time><extensions><speed>-1.000000</speed><course>-1.000000</course><hAcc>0.000000</hAcc><vAcc>-1.000000</vAcc></extensions></trkpt>
      <trkpt lon="-123.272717" lat="44.560095"><ele>0.000000</ele><time>2021-01-17T02:01:46Z</time><extensions><speed>-1.000000</speed><course>-1.000000</course><hAcc>0.000000</hAcc><vAcc>-1.000000</vAcc></extensions></trkpt>
      <trkpt lon="-123.272988" lat="44.560048"><ele>0.000000</ele><time>2021-01-17T02:01:46Z</time><extensions><speed>-1.000000</speed><course>-1.000000</course><hAcc>0.000000</hAcc><vAcc>-1.000000</vAcc></extensions></trkpt>
      <trkpt lon="-123.273227" lat="44.560027"><ele>0.000000</ele><time>2021-01-17T02:01:46Z</time><extensions><speed>-1.000000</speed><course>-1.000000</course><hAcc>0.000000</hAcc><vAcc>-1.000000</vAcc></extensions></trkpt>
      <trkpt lon="-123.273533" lat="44.559992"><ele>0.000000</ele><time>2021-01-17T02:01:46Z</time><extensions><speed>-1.000000</speed><course>-1.000000</course><hAcc>0.000000</hAcc><vAcc>-1.000000</vAcc></extensions></trkpt>
      <trkpt lon="-123.273776" lat="44.559972"><ele>0.000000</ele><time>2021-01-17T02:01:46Z</time><extensions><speed>-1.000000</speed><course>-1.000000</course><hAcc>0.000000</hAcc><vAcc>-1.000000</vAcc></extensions></trkpt>
      <trkpt lon="-123.273963" lat="44.559950"><ele>0.000000</ele><time>2021-01-17T02:01:46Z</time><extensions><speed>-1.000000</speed><course>-1.000000</course><hAcc>0.000000</hAcc><vAcc>-1.000000</vAcc></extensions></trkpt>
      <trkpt lon="-123.274065" lat="44.559942"><ele>0.000000</ele><time>2021-01-17T02:01:46Z</time><extensions><speed>-1.000000</speed><course>-1.000000</course><hAcc>0.000000</hAcc><vAcc>-1.000000</vAcc></extensions></trkpt>
      <trkpt lon="-123.274331" lat="44.559921"><ele>0.000000</ele><time>2021-01-17T02:01:46Z</time><extensions><speed>-1.000000</speed><course>-1.000000</course><hAcc>0.000000</hAcc><vAcc>-1.000000</vAcc></extensions></trkpt>
      <trkpt lon="-123.274646" lat="44.559908"><ele>0.000000</ele><time>2021-01-17T02:01:46Z</time><extensions><speed>-1.000000</speed><course>-1.000000</course><hAcc>0.000000</hAcc><vAcc>-1.000000</vAcc></extensions></trkpt>
      <trkpt lon="-123.275129" lat="44.559853"><ele>0.000000</ele><time>2021-01-17T02:01:46Z</time><extensions><speed>-1.000000</speed><course>-1.000000</course><hAcc>0.000000</hAcc><vAcc>-1.000000</vAcc></extensions></trkpt>
      <trkpt lon="-123.275426" lat="44.559849"><ele>0.000000</ele><time>2021-01-17T02:01:46Z</time><extensions><speed>-1.000000</speed><course>-1.000000</course><hAcc>0.000000</hAcc><vAcc>-1.000000</vAcc></extensions></trkpt>
      <trkpt lon="-123.275856" lat="44.559783"><ele>0.000000</ele><time>2021-01-17T02:01:46Z</time><extensions><speed>-1.000000</speed><course>-1.000000</course><hAcc>0.000000</hAcc><vAcc>-1.000000</vAcc></extensions></trkpt>
      <trkpt lon="-123.276126" lat="44.559735"><ele>0.000000</ele><time>2021-01-17T02:01:46Z</time><extensions><speed>-1.000000</speed><course>-1.000000</course><hAcc>0.000000</hAcc><vAcc>-1.000000</vAcc></extensions></trkpt>
      <trkpt lon="-123.276572" lat="44.559607"><ele>0.000000</ele><time>2021-01-17T02:01:46Z</time><extensions><speed>-1.000000</speed><course>-1.000000</course><hAcc>0.000000</hAcc><vAcc>-1.000000</vAcc></extensions></trkpt>
      <trkpt lon="-123.276859" lat="44.559514"><ele>0.000000</ele><time>2021-01-17T02:01:46Z</time><extensions><speed>-1.000000</speed><course>-1.000000</course><hAcc>0.000000</hAcc><vAcc>-1.000000</vAcc></extensions></trkpt>
      <trkpt lon="-123.276958" lat="44.559474"><ele>0.000000</ele><time>2021-01-17T02:01:46Z</time><extensions><speed>-1.000000</speed><course>-1.000000</course><hAcc>0.000000</hAcc><vAcc>-1.000000</vAcc></extensions></trkpt>
      <trkpt lon="-123.277142" lat="44.559401"><ele>0.000000</ele><time>2021-01-17T02:01:46Z</time><extensions><speed>-1.000000</speed><course>-1.000000</course><hAcc>0.000000</hAcc><vAcc>-1.000000</vAcc></extensions></trkpt>
      <trkpt lon="-123.277414" lat="44.559275"><ele>0.000000</ele><time>2021-01-17T02:01:46Z</time><extensions><speed>-1.000000</speed><course>-1.000000</course><hAcc>0.000000</hAcc><vAcc>-1.000000</vAcc></extensions></trkpt>
      <trkpt lon="-123.277751" lat="44.559076"><ele>0.000000</ele><time>2021-01-17T02:01:46Z</time><extensions><speed>-1.000000</speed><course>-1.000000</course><hAcc>0.000000</hAcc><vAcc>-1.000000</vAcc></extensions></trkpt>
      <trkpt lon="-123.278113" lat="44.558881"><ele>0.000000</ele><time>2021-01-17T02:01:46Z</time><extensions><speed>-1.000000</speed><course>-1.000000</course><hAcc>0.000000</hAcc><vAcc>-1.000000</vAcc></extensions></trkpt>
      <trkpt lon="-123.278366" lat="44.558740"><ele>0.000000</ele><time>2021-01-17T02:01:46Z</time><extensions><speed>-1.000000</speed><course>-1.000000</course><hAcc>0.000000</hAcc><vAcc>-1.000000</vAcc></extensions></trkpt>
      <trkpt lon="-123.278738" lat="44.558543"><ele>0.000000</ele><time>2021-01-17T02:01:46Z</time><extensions><speed>-1.000000</speed><course>-1.000000</course><hAcc>0.000000</hAcc><vAcc>-1.000000</vAcc></extensions></trkpt>
      <trkpt lon="-123.278896" lat="44.558428"><ele>0.000000</ele><time>2021-01-17T02:01:46Z</time><extensions><speed>-1.000000</speed><course>-1.000000</course><hAcc>0.000000</hAcc><vAcc>-1.000000</vAcc></extensions></trkpt>
      <trkpt lon="-123.279118" lat="44.558276"><ele>0.000000</ele><time>2021-01-17T02:01:46Z</time><extensions><speed>-1.000000</speed><course>-1.000000</course><hAcc>0.000000</hAcc><vAcc>-1.000000</vAcc></extensions></trkpt>
      <trkpt lon="-123.279339" lat="44.558194"><ele>0.000000</ele><time>2021-01-17T02:01:46Z</time><extensions><speed>-1.000000</speed><course>-1.000000</course><hAcc>0.000000</hAcc><vAcc>-1.000000</vAcc></extensions></trkpt>
      <trkpt lon="-123.279500" lat="44.558091"><ele>0.000000</ele><time>2021-01-17T02:01:46Z</time><extensions><speed>-1.000000</speed><course>-1.000000</course><hAcc>0.000000</hAcc><vAcc>-1.000000</vAcc></extensions></trkpt>
      <trkpt lon="-123.279822" lat="44.557896"><ele>0.000000</ele><time>2021-01-17T02:01:46Z</time><extensions><speed>-1.000000</speed><course>-1.000000</course><hAcc>0.000000</hAcc><vAcc>-1.000000</vAcc></extensions></trkpt>
      <trkpt lon="-123.280129" lat="44.557743"><ele>0.000000</ele><time>2021-01-17T02:01:46Z</time><extensions><speed>-1.000000</speed><course>-1.000000</course><hAcc>0.000000</hAcc><vAcc>-1.000000</vAcc></extensions></trkpt>
      <trkpt lon="-123.280201" lat="44.557714"><ele>0.000000</ele><time>2021-01-17T02:01:46Z</time><extensions><speed>-1.000000</speed><course>-1.000000</course><hAcc>0.000000</hAcc><vAcc>-1.000000</vAcc></extensions></trkpt>
      <trkpt lon="-123.280525" lat="44.557568"><ele>0.000000</ele><time>2021-01-17T02:01:46Z</time><extensions><speed>-1.000000</speed><course>-1.000000</course><hAcc>0.000000</hAcc><vAcc>-1.000000</vAcc></extensions></trkpt>
      <trkpt lon="-123.280746" lat="44.557488"><ele>0.000000</ele><time>2021-01-17T02:01:46Z</time><extensions><speed>-1.000000</speed><course>-1.000000</course><hAcc>0.000000</hAcc><vAcc>-1.000000</vAcc></extensions></trkpt>
      <trkpt lon="-123.281027" lat="44.557366"><ele>0.000000</ele><time>2021-01-17T02:01:46Z</time><extensions><speed>-1.000000</speed><course>-1.000000</course><hAcc>0.000000</hAcc><vAcc>-1.000000</vAcc></extensions></trkpt>
      <trkpt lon="-123.281342" lat="44.557206"><ele>0.000000</ele><time>2021-01-17T02:01:46Z</time><extensions><speed>-1.000000</speed><course>-1.000000</course><hAcc>0.000000</hAcc><vAcc>-1.000000</vAcc></extensions></trkpt>
      <trkpt lon="-123.281546" lat="44.557142"><ele>0.000000</ele><time>2021-01-17T02:01:46Z</time><extensions><speed>-1.000000</speed><course>-1.000000</course><hAcc>0.000000</hAcc><vAcc>-1.000000</vAcc></extensions></trkpt>
      <trkpt lon="-123.281757" lat="44.557092"><ele>0.000000</ele><time>2021-01-17T02:01:46Z</time><extensions><speed>-1.000000</speed><course>-1.000000</course><hAcc>0.000000</hAcc><vAcc>-1.000000</vAcc></extensions></trkpt>
      <trkpt lon="-123.282196" lat="44.557048"><ele>0.000000</ele><time>2021-01-17T02:01:46Z</time><extensions><speed>-1.000000</speed><course>-1.000000</course><hAcc>0.000000</hAcc><vAcc>-1.000000</vAcc></extensions></trkpt>
      <trkpt lon="-123.282526" lat="44.556984"><ele>0.000000</ele><time>2021-01-17T02:01:46Z</time><extensions><speed>-1.000000</speed><course>-1.000000</course><hAcc>0.000000</hAcc><vAcc>-1.000000</vAcc></extensions></trkpt>
      <trkpt lon="-123.282936" lat="44.556946"><ele>0.000000</ele><time>2021-01-17T02:01:46Z</time><extensions><speed>-1.000000</speed><course>-1.000000</course><hAcc>0.000000</hAcc><vAcc>-1.000000</vAcc></extensions></trkpt>
      <trkpt lon="-123.283285" lat="44.556922"><ele>0.000000</ele><time>2021-01-17T02:01:46Z</time><extensions><speed>-1.000000</speed><course>-1.000000</course><hAcc>0.000000</hAcc><vAcc>-1.000000</vAcc></extensions></trkpt>
      <trkpt lon="-123.283522" lat="44.556924"><ele>0.000000</ele><time>2021-01-17T02:01:46Z</time><extensions><speed>-1.000000</speed><course>-1.000000</course><hAcc>0.000000</hAcc><vAcc>-1.000000</vAcc></extensions></trkpt>
      <trkpt lon="-123.284002" lat="44.556967"><ele>0.000000</ele><time>2021-01-17T02:01:46Z</time><extensions><speed>-1.000000</speed><course>-1.000000</course><hAcc>0.000000</hAcc><vAcc>-1.000000</vAcc></extensions></trkpt>
      <trkpt lon="-123.284416" lat="44.557003"><ele>0.000000</ele><time>2021-01-17T02:01:46Z</time><extensions><speed>-1.000000</speed><course>-1.000000</course><hAcc>0.000000</hAcc><vAcc>-1.000000</vAcc></extensions></trkpt>
      <trkpt lon="-123.284553" lat="44.556994"><ele>0.000000</ele><time>2021-01-17T02:01:46Z</time><extensions><speed>-1.000000</speed><course>-1.000000</course><hAcc>0.000000</hAcc><vAcc>-1.000000</vAcc></extensions></trkpt>
      <trkpt lon="-123.284862" lat="44.556952"><ele>0.000000</ele><time>2021-01-17T02:01:46Z</time><extensions><speed>-1.000000</speed><course>-1.000000</course><hAcc>0.000000</hAcc><vAcc>-1.000000</vAcc></extensions></trkpt>
      <trkpt lon="-123.285074" lat="44.556952"><ele>0.000000</ele><time>2021-01-17T02:01:46Z</time><extensions><speed>-1.000000</speed><course>-1.000000</course><hAcc>0.000000</hAcc><vAcc>-1.000000</vAcc></extensions></trkpt>
      <trkpt lon="-123.285333" lat="44.556961"><ele>0.000000</ele><time>2021-01-17T02:01:46Z</time><extensions><speed>-1.000000</speed><course>-1.000000</course><hAcc>0.000000</hAcc><vAcc>-1.000000</vAcc></extensions></trkpt>
      <trkpt lon="-123.285562" lat="44.556949"><ele>0.000000</ele><time>2021-01-17T02:01:46Z</time><extensions><speed>-1.000000</speed><course>-1.000000</course><hAcc>0.000000</hAcc><vAcc>-1.000000</vAcc></extensions></trkpt>
      <trkpt lon="-123.285925" lat="44.556952"><ele>0.000000</ele><time>2021-01-17T02:01:46Z</time><extensions><speed>-1.000000</speed><course>-1.000000</course><hAcc>0.000000</hAcc><vAcc>-1.000000</vAcc></extensions></trkpt>
      <trkpt lon="-123.286143" lat="44.556956"><ele>0.000000</ele><time>2021-01-17T02:01:46Z</time><extensions><speed>-1.000000</speed><course>-1.000000</course><hAcc>0.000000</hAcc><vAcc>-1.000000</vAcc></extensions></trkpt>
      <trkpt lon="-123.286448" lat="44.556953"><ele>0.000000</ele><time>2021-01-17T02:01:46Z</time><extensions><speed>-1.000000</speed><course>-1.000000</course><hAcc>0.000000</hAcc><vAcc>-1.000000</vAcc></extensions></trkpt>
      <trkpt lon="-123.286788" lat="44.556960"><ele>0.000000</ele><time>2021-01-17T02:01:46Z</time><extensions><speed>-1.000000</speed><course>-1.000000</course><hAcc>0.000000</hAcc><vAcc>-1.000000</vAcc></extensions></trkpt>
      <trkpt lon="-123.287132" lat="44.556970"><ele>0.000000</ele><time>2021-01-17T02:01:46Z</time><extensions><speed>-1.000000</speed><course>-1.000000</course><hAcc>0.000000</hAcc><vAcc>-1.000000</vAcc></extensions></trkpt>
      <trkpt lon="-123.287417" lat="44.556973"><ele>0.000000</ele><time>2021-01-17T02:01:46Z</time><extensions><speed>-1.000000</speed><course>-1.000000</course><hAcc>0.000000</hAcc><vAcc>-1.000000</vAcc></extensions></trkpt>
      <trkpt lon="-123.287777" lat="44.556971"><ele>0.000000</ele><time>2021-01-17T02:01:46Z</time><extensions><speed>-1.000000</speed><course>-1.000000</course><hAcc>0.000000</hAcc><vAcc>-1.000000</vAcc></extensions></trkpt>
      <trkpt lon="-123.288127" lat="44.556970"><ele>0.000000</ele><time>2021-01-17T02:01:46Z</time><extensions><speed>-1.000000</speed><course>-1.000000</course><hAcc>0.000000</hAcc><vAcc>-1.000000</vAcc></extensions></trkpt>
      <trkpt lon="-123.288345" lat="44.556977"><ele>0.000000</ele><time>2021-01-17T02:01:46Z</time><extensions><speed>-1.000000</speed><course>-1.000000</course><hAcc>0.000000</hAcc><vAcc>-1.000000</vAcc></extensions></trkpt>
      <trkpt lon="-123.288550" lat="44.556982"><ele>0.000000</ele><time>2021-01-17T02:01:46Z</time><extensions><speed>-1.000000</speed><course>-1.000000</course><hAcc>0.000000</hAcc><vAcc>-1.000000</vAcc></extensions></trkpt>
      <trkpt lon="-123.289006" lat="44.557010"><ele>0.000000</ele><time>2021-01-17T02:01:46Z</time><extensions><speed>-1.000000</speed><course>-1.000000</course><hAcc>0.000000</hAcc><vAcc>-1.000000</vAcc></extensions></trkpt>
      <trkpt lon="-123.289454" lat="44.557009"><ele>0.000000</ele><time>2021-01-17T02:01:46Z</time><extensions><speed>-1.000000</speed><course>-1.000000</course><hAcc>0.000000</hAcc><vAcc>-1.000000</vAcc></extensions></trkpt>
      <trkpt lon="-123.289487" lat="44.557219"><ele>0.000000</ele><time>2021-01-17T02:01:46Z</time><extensions><speed>-1.000000</speed><course>-1.000000</course><hAcc>0.000000</hAcc><vAcc>-1.000000</vAcc></extensions></trkpt>
      <trkpt lon="-123.289477" lat="44.557537"><ele>0.000000</ele><time>2021-01-17T02:01:46Z</time><extensions><speed>-1.000000</speed><course>-1.000000</course><hAcc>0.000000</hAcc><vAcc>-1.000000</vAcc></extensions></trkpt>
      <trkpt lon="-123.289546" lat="44.557836"><ele>0.000000</ele><time>2021-01-17T02:01:46Z</time><extensions><speed>-1.000000</speed><course>-1.000000</course><hAcc>0.000000</hAcc><vAcc>-1.000000</vAcc></extensions></trkpt>
      <trkpt lon="-123.289547" lat="44.558061"><ele>0.000000</ele><time>2021-01-17T02:01:46Z</time><extensions><speed>-1.000000</speed><course>-1.000000</course><hAcc>0.000000</hAcc><vAcc>-1.000000</vAcc></extensions></trkpt>
      <trkpt lon="-123.289563" lat="44.558307"><ele>0.000000</ele><time>2021-01-17T02:01:46Z</time><extensions><speed>-1.000000</speed><course>-1.000000</course><hAcc>0.000000</hAcc><vAcc>-1.000000</vAcc></extensions></trkpt>
      <trkpt lon="-123.289580" lat="44.558552"><ele>0.000000</ele><time>2021-01-17T02:01:46Z</time><extensions><speed>-1.000000</speed><course>-1.000000</course><hAcc>0.000000</hAcc><vAcc>-1.000000</vAcc></extensions></trkpt>
      <trkpt lon="-123.289561" lat="44.558862"><ele>0.000000</ele><time>2021-01-17T02:01:46Z</time><extensions><speed>-1.000000</speed><course>-1.000000</course><hAcc>0.000000</hAcc><vAcc>-1.000000</vAcc></extensions></trkpt>
      <trkpt lon="-123.289581" lat="44.559120"><ele>0.000000</ele><time>2021-01-17T02:01:46Z</time><extensions><speed>-1.000000</speed><course>-1.000000</course><hAcc>0.000000</hAcc><vAcc>-1.000000</vAcc></extensions></trkpt>
      <trkpt lon="-123.289596" lat="44.559389"><ele>0.000000</ele><time>2021-01-17T02:01:46Z</time><extensions><speed>-1.000000</speed><course>-1.000000</course><hAcc>0.000000</hAcc><vAcc>-1.000000</vAcc></extensions></trkpt>
      <trkpt lon="-123.289602" lat="44.559681"><ele>0.000000</ele><time>2021-01-17T02:01:46Z</time><extensions><speed>-1.000000</speed><course>-1.000000</course><hAcc>0.000000</hAcc><vAcc>-1.000000</vAcc></extensions></trkpt>
      <trkpt lon="-123.289607" lat="44.559902"><ele>0.000000</ele><time>2021-01-17T02:01:46Z</time><extensions><speed>-1.000000</speed><course>-1.000000</course><hAcc>0.000000</hAcc><vAcc>-1.000000</vAcc></extensions></trkpt>
      <trkpt lon="-123.289572" lat="44.560195"><ele>0.000000</ele><time>2021-01-17T02:01:46Z</time><extensions><speed>-1.000000</speed><course>-1.000000</course><hAcc>0.000000</hAcc><vAcc>-1.000000</vAcc></extensions></trkpt>
      <trkpt lon="-123.289581" lat="44.560427"><ele>0.000000</ele><time>2021-01-17T02:01:46Z</time><extensions><speed>-1.000000</speed><course>-1.000000</course><hAcc>0.000000</hAcc><vAcc>-1.000000</vAcc></extensions></trkpt>
      <trkpt lon="-123.289622" lat="44.560515"><ele>0.000000</ele><time>2021-01-17T02:01:46Z</time><extensions><speed>-1.000000</speed><course>-1.000000</course><hAcc>0.000000</hAcc><vAcc>-1.000000</vAcc></extensions></trkpt>
      <trkpt lon="-123.289625" lat="44.560562"><ele>0.000000</ele><time>2021-01-17T02:01:46Z</time><extensions><speed>-1.000000</speed><course>-1.000000</course><hAcc>0.000000</hAcc><vAcc>-1.000000</vAcc></extensions></trkpt>
      <trkpt lon="-123.289622" lat="44.560753"><ele>0.000000</ele><time>2021-01-17T02:01:46Z</time><extensions><speed>-1.000000</speed><course>-1.000000</course><hAcc>0.000000</hAcc><vAcc>-1.000000</vAcc></extensions></trkpt>
      <trkpt lon="-123.289649" lat="44.561055"><ele>0.000000</ele><time>2021-01-17T02:01:46Z</time><extensions><speed>-1.000000</speed><course>-1.000000</course><hAcc>0.000000</hAcc><vAcc>-1.000000</vAcc></extensions></trkpt>
      <trkpt lon="-123.289606" lat="44.561249"><ele>0.000000</ele><time>2021-01-17T02:01:46Z</time><extensions><speed>-1.000000</speed><course>-1.000000</course><hAcc>0.000000</hAcc><vAcc>-1.000000</vAcc></extensions></trkpt>
      <trkpt lon="-123.289606" lat="44.561575"><ele>0.000000</ele><time>2021-01-17T02:01:46Z</time><extensions><speed>-1.000000</speed><course>-1.000000</course><hAcc>0.000000</hAcc><vAcc>-1.000000</vAcc></extensions></trkpt>
      <trkpt lon="-123.289587" lat="44.561877"><ele>0.000000</ele><time>2021-01-17T02:01:46Z</time><extensions><speed>-1.000000</speed><course>-1.000000</course><hAcc>0.000000</hAcc><vAcc>-1.000000</vAcc></extensions></trkpt>
      <trkpt lon="-123.289231" lat="44.561887"><ele>0.000000</ele><time>2021-01-17T02:01:46Z</time><extensions><speed>-1.000000</speed><course>-1.000000</course><hAcc>0.000000</hAcc><vAcc>-1.000000</vAcc></extensions></trkpt>
      <trkpt lon="-123.284615" lat="44.561893"><ele>0.000000</ele><time>2021-01-17T02:01:46Z</time><extensions><speed>-1.000000</speed><course>-1.000000</course><hAcc>0.000000</hAcc><vAcc>-1.000000</vAcc></extensions></trkpt>
      <trkpt lon="-123.284084" lat="44.561894"><ele>0.000000</ele><time>2021-01-17T02:01:46Z</time><extensions><speed>-1.000000</speed><course>-1.000000</course><hAcc>0.000000</hAcc><vAcc>-1.000000</vAcc></extensions></trkpt>
      <trkpt lon="-123.283644" lat="44.561844"><ele>0.000000</ele><time>2021-01-17T02:01:46Z</time><extensions><speed>-1.000000</speed><course>-1.000000</course><hAcc>0.000000</hAcc><vAcc>-1.000000</vAcc></extensions></trkpt>
      <trkpt lon="-123.283163" lat="44.561860"><ele>0.000000</ele><time>2021-01-17T02:01:46Z</time><extensions><speed>-1.000000</speed><course>-1.000000</course><hAcc>0.000000</hAcc><vAcc>-1.000000</vAcc></extensions></trkpt>
      <trkpt lon="-123.282699" lat="44.561865"><ele>0.000000</ele><time>2021-01-17T02:01:46Z</time><extensions><speed>-1.000000</speed><course>-1.000000</course><hAcc>0.000000</hAcc><vAcc>-1.000000</vAcc></extensions></trkpt>
      <trkpt lon="-123.282377" lat="44.561852"><ele>0.000000</ele><time>2021-01-17T02:01:46Z</time><extensions><speed>-1.000000</speed><course>-1.000000</course><hAcc>0.000000</hAcc><vAcc>-1.000000</vAcc></extensions></trkpt>
      <trkpt lon="-123.281889" lat="44.561864"><ele>0.000000</ele><time>2021-01-17T02:01:46Z</time><extensions><speed>-1.000000</speed><course>-1.000000</course><hAcc>0.000000</hAcc><vAcc>-1.000000</vAcc></extensions></trkpt>
      <trkpt lon="-123.281446" lat="44.561799"><ele>0.000000</ele><time>2021-01-17T02:01:46Z</time><extensions><speed>-1.000000</speed><course>-1.000000</course><hAcc>0.000000</hAcc><vAcc>-1.000000</vAcc></extensions></trkpt>
      <trkpt lon="-123.281057" lat="44.561849"><ele>0.000000</ele><time>2021-01-17T02:01:46Z</time><extensions><speed>-1.000000</speed><course>-1.000000</course><hAcc>0.000000</hAcc><vAcc>-1.000000</vAcc></extensions></trkpt>
      <trkpt lon="-123.280601" lat="44.561842"><ele>0.000000</ele><time>2021-01-17T02:01:46Z</time><extensions><speed>-1.000000</speed><course>-1.000000</course><hAcc>0.000000</hAcc><vAcc>-1.000000</vAcc></extensions></trkpt>
      <trkpt lon="-123.280120" lat="44.561793"><ele>0.000000</ele><time>2021-01-17T02:01:46Z</time><extensions><speed>-1.000000</speed><course>-1.000000</course><hAcc>0.000000</hAcc><vAcc>-1.000000</vAcc></extensions></trkpt>
      <trkpt lon="-123.279788" lat="44.561803"><ele>0.000000</ele><time>2021-01-17T02:01:46Z</time><extensions><speed>-1.000000</speed><course>-1.000000</course><hAcc>0.000000</hAcc><vAcc>-1.000000</vAcc></extensions></trkpt>
      <trkpt lon="-123.279602" lat="44.561806"><ele>0.000000</ele><time>2021-01-17T02:01:46Z</time><extensions><speed>-1.000000</speed><course>-1.000000</course><hAcc>0.000000</hAcc><vAcc>-1.000000</vAcc></extensions></trkpt>
      <trkpt lon="-123.279213" lat="44.561785"><ele>0.000000</ele><time>2021-01-17T02:01:46Z</time><extensions><speed>-1.000000</speed><course>-1.000000</course><hAcc>0.000000</hAcc><vAcc>-1.000000</vAcc></extensions></trkpt>
      <trkpt lon="-123.278959" lat="44.561773"><ele>0.000000</ele><time>2021-01-17T02:01:46Z</time><extensions><speed>-1.000000</speed><course>-1.000000</course><hAcc>0.000000</hAcc><vAcc>-1.000000</vAcc></extensions></trkpt>
      <trkpt lon="-123.278746" lat="44.561790"><ele>0.000000</ele><time>2021-01-17T02:01:46Z</time><extensions><speed>-1.000000</speed><course>-1.000000</course><hAcc>0.000000</hAcc><vAcc>-1.000000</vAcc></extensions></trkpt>
      <trkpt lon="-123.278504" lat="44.561785"><ele>0.000000</ele><time>2021-01-17T02:01:46Z</time><extensions><speed>-1.000000</speed><course>-1.000000</course><hAcc>0.000000</hAcc><vAcc>-1.000000</vAcc></extensions></trkpt>
      <trkpt lon="-123.278166" lat="44.561649"><ele>0.000000</ele><time>2021-01-17T02:01:46Z</time><extensions><speed>-1.000000</speed><course>-1.000000</course><hAcc>0.000000</hAcc><vAcc>-1.000000</vAcc></extensions></trkpt>
      <trkpt lon="-123.278046" lat="44.561590"><ele>0.000000</ele><time>2021-01-17T02:01:46Z</time><extensions><speed>-1.000000</speed><course>-1.000000</course><hAcc>0.000000</hAcc><vAcc>-1.000000</vAcc></extensions></trkpt>
      <trkpt lon="-123.277832" lat="44.561417"><ele>0.000000</ele><time>2021-01-17T02:01:46Z</time><extensions><speed>-1.000000</speed><course>-1.000000</course><hAcc>0.000000</hAcc><vAcc>-1.000000</vAcc></extensions></trkpt>
      <trkpt lon="-123.277751" lat="44.561285"><ele>0.000000</ele><time>2021-01-17T02:01:46Z</time><extensions><speed>-1.000000</speed><course>-1.000000</course><hAcc>0.000000</hAcc><vAcc>-1.000000</vAcc></extensions></trkpt>
      <trkpt lon="-123.277542" lat="44.561253"><ele>0.000000</ele><time>2021-01-17T02:01:46Z</time><extensions><speed>-1.000000</speed><course>-1.000000</course><hAcc>0.000000</hAcc><vAcc>-1.000000</vAcc></extensions></trkpt>
      <trkpt lon="-123.277481" lat="44.561256"><ele>0.000000</ele><time>2021-01-17T02:01:46Z</time><extensions><speed>-1.000000</speed><course>-1.000000</course><hAcc>0.000000</hAcc><vAcc>-1.000000</vAcc></extensions></trkpt>
      <trkpt lon="-123.277353" lat="44.561160"><ele>0.000000</ele><time>2021-01-17T02:01:46Z</time><extensions><speed>-1.000000</speed><course>-1.000000</course><hAcc>0.000000</hAcc><vAcc>-1.000000</vAcc></extensions></trkpt>
      <trkpt lon="-123.277349" lat="44.561037"><ele>0.000000</ele><time>2021-01-17T02:01:46Z</time><extensions><speed>-1.000000</speed><course>-1.000000</course><hAcc>0.000000</hAcc><vAcc>-1.000000</vAcc></extensions></trkpt>
      <trkpt lon="-123.277393" lat="44.560934"><ele>0.000000</ele><time>2021-01-17T02:01:46Z</time><extensions><speed>-1.000000</speed><course>-1.000000</course><hAcc>0.000000</hAcc><vAcc>-1.000000</vAcc></extensions></trkpt>
      <trkpt lon="-123.277348" lat="44.560688"><ele>0.000000</ele><time>2021-01-17T02:01:46Z</time><extensions><speed>-1.000000</speed><course>-1.000000</course><hAcc>0.000000</hAcc><vAcc>-1.000000</vAcc></extensions></trkpt>
      <trkpt lon="-123.277112" lat="44.560599"><ele>0.000000</ele><time>2021-01-17T02:01:46Z</time><extensions><speed>-1.000000</speed><course>-1.000000</course><hAcc>0.000000</hAcc><vAcc>-1.000000</vAcc></extensions></trkpt>
      <trkpt lon="-123.276797" lat="44.560572"><ele>0.000000</ele><time>2021-01-17T02:01:46Z</time><extensions><speed>-1.000000</speed><course>-1.000000</course><hAcc>0.000000</hAcc><vAcc>-1.000000</vAcc></extensions></trkpt>
      <trkpt lon="-123.276472" lat="44.560543"><ele>0.000000</ele><time>2021-01-17T02:01:46Z</time><extensions><speed>-1.000000</speed><course>-1.000000</course><hAcc>0.000000</hAcc><vAcc>-1.000000</vAcc></extensions></trkpt>
      <trkpt lon="-123.276090" lat="44.560570"><ele>0.000000</ele><time>2021-01-17T02:01:46Z</time><extensions><speed>-1.000000</speed><course>-1.000000</course><hAcc>0.000000</hAcc><vAcc>-1.000000</vAcc></extensions></trkpt>
      <trkpt lon="-123.275570" lat="44.560628"><ele>0.000000</ele><time>2021-01-17T02:01:46Z</time><extensions><speed>-1.000000</speed><course>-1.000000</course><hAcc>0.000000</hAcc><vAcc>-1.000000</vAcc></extensions></trkpt>
      <trkpt lon="-123.275021" lat="44.560684"><ele>0.000000</ele><time>2021-01-17T02:01:46Z</time><extensions><speed>-1.000000</speed><course>-1.000000</course><hAcc>0.000000</hAcc><vAcc>-1.000000</vAcc></extensions></trkpt>
      <trkpt lon="-123.274739" lat="44.560723"><ele>0.000000</ele><time>2021-01-17T02:01:46Z</time><extensions><speed>-1.000000</speed><course>-1.000000</course><hAcc>0.000000</hAcc><vAcc>-1.000000</vAcc></extensions></trkpt>
      <trkpt lon="-123.274231" lat="44.560766"><ele>0.000000</ele><time>2021-01-17T02:01:46Z</time><extensions><speed>-1.000000</speed><course>-1.000000</course><hAcc>0.000000</hAcc><vAcc>-1.000000</vAcc></extensions></trkpt>
      <trkpt lon="-123.273731" lat="44.560811"><ele>0.000000</ele><time>2021-01-17T02:01:46Z</time><extensions><speed>-1.000000</speed><course>-1.000000</course><hAcc>0.000000</hAcc><vAcc>-1.000000</vAcc></extensions></trkpt>
      <trkpt lon="-123.273381" lat="44.560847"><ele>0.000000</ele><time>2021-01-17T02:01:46Z</time><extensions><speed>-1.000000</speed><course>-1.000000</course><hAcc>0.000000</hAcc><vAcc>-1.000000</vAcc></extensions></trkpt>
      <trkpt lon="-123.273244" lat="44.560866"><ele>0.000000</ele><time>2021-01-17T02:01:46Z</time><extensions><speed>-1.000000</speed><course>-1.000000</course><hAcc>0.000000</hAcc><vAcc>-1.000000</vAcc></extensions></trkpt>
    </trkseg>
  </trk>
</gpx>