<?xml version="1.0" encoding="UTF-8"?>
<gpx version="1.1" creator="Apple Health Export" xmlns="http://www.topografix.com/GPX/1/1" xmlns:xsi="http://www.w3.org/2001/XMLSchema-instance" xsi:schemaLocation="http://www.topografix.com/GPX/1/1 http://www.topografix.com/GPX/1/1/gpx.xsd">
  <metadata>
    <time>2021-02-21T19:24:48Z</time>
  </metadata>
  <trk>
    <name>Route 2021-01-11 1:56am</name>
    <trkseg>
      <trkpt lon="-123.279955" lat="44.563538"><ele>0.000000</ele><time>2021-01-11T09:56:53Z</time><extensions><speed>-1.000000</speed><course>-1.000000</course><hAcc>0.000000</hAcc><vAcc>-1.000000</vAcc></extensions></trkpt>
      <trkpt lon="-123.280144" lat="44.563512"><ele>0.000000</ele><time>2021-01-11T09:56:53Z</time><extensions><speed>-1.000000</speed><course>-1.000000</course><hAcc>0.000000</hAcc><vAcc>-1.000000</vAcc></extensions></trkpt>
      <trkpt lon="-123.280287" lat="44.563495"><ele>0.000000</ele><time>2021-01-11T09:56:53Z</time><extensions><speed>-1.000000</speed><course>-1.000000</course><hAcc>0.000000</hAcc><vAcc>-1.000000</vAcc></extensions></trkpt>
      <trkpt lon="-123.280397" lat="44.563475"><ele>0.000000</ele><time>2021-01-11T09:56:53Z</time><extensions><speed>-1.000000</speed><course>-1.000000</course><hAcc>0.000000</hAcc><vAcc>-1.000000</vAcc></extensions></trkpt>
      <trkpt lon="-123.280495" lat="44.563440"><ele>0.000000</ele><time>2021-01-11T09:56:53Z</time><extensions><speed>-1.000000</speed><course>-1.000000</course><hAcc>0.000000</hAcc><vAcc>-1.000000</vAcc></extensions></trkpt>
      <trkpt lon="-123.280522" lat="44.563408"><ele>0.000000</ele><time>2021-01-11T09:56:53Z</time><extensions><speed>-1.000000</speed><course>-1.000000</course><hAcc>0.000000</hAcc><vAcc>-1.000000</vAcc></extensions></trkpt>
      <trkpt lon="-123.280628" lat="44.563363"><ele>0.000000</ele><time>2021-01-11T09:56:53Z</time><extensions><speed>-1.000000</speed><course>-1.000000</course><hAcc>0.000000</hAcc><vAcc>-1.000000</vAcc></extensions></trkpt>
      <trkpt lon="-123.280822" lat="44.563364"><ele>0.000000</ele><time>2021-01-11T09:56:53Z</time><extensions><speed>-1.000000</speed><course>-1.000000</course><hAcc>0.000000</hAcc><vAcc>-1.000000</vAcc></extensions></trkpt>
      <trkpt lon="-123.280943" lat="44.563364"><ele>0.000000</ele><time>2021-01-11T09:56:53Z</time><extensions><speed>-1.000000</speed><course>-1.000000</course><hAcc>0.000000</hAcc><vAcc>-1.000000</vAcc></extensions></trkpt>
      <trkpt lon="-123.281161" lat="44.563375"><ele>0.000000</ele><time>2021-01-11T09:56:53Z</time><extensions><speed>-1.000000</speed><course>-1.000000</course><hAcc>0.000000</hAcc><vAcc>-1.000000</vAcc></extensions></trkpt>
      <trkpt lon="-123.281468" lat="44.563387"><ele>0.000000</ele><time>2021-01-11T09:56:53Z</time><extensions><speed>-1.000000</speed><course>-1.000000</course><hAcc>0.000000</hAcc><vAcc>-1.000000</vAcc></extensions></trkpt>
      <trkpt lon="-123.281666" lat="44.563395"><ele>0.000000</ele><time>2021-01-11T09:56:53Z</time><extensions><speed>-1.000000</speed><course>-1.000000</course><hAcc>0.000000</hAcc><vAcc>-1.000000</vAcc></extensions></trkpt>
      <trkpt lon="-123.281863" lat="44.563238"><ele>0.000000</ele><time>2021-01-11T09:56:53Z</time><extensions><speed>-1.000000</speed><course>-1.000000</course><hAcc>0.000000</hAcc><vAcc>-1.000000</vAcc></extensions></trkpt>
      <trkpt lon="-123.281837" lat="44.563016"><ele>0.000000</ele><time>2021-01-11T09:56:53Z</time><extensions><speed>-1.000000</speed><course>-1.000000</course><hAcc>0.000000</hAcc><vAcc>-1.000000</vAcc></extensions></trkpt>
      <trkpt lon="-123.281859" lat="44.562769"><ele>0.000000</ele><time>2021-01-11T09:56:53Z</time><extensions><speed>-1.000000</speed><course>-1.000000</course><hAcc>0.000000</hAcc><vAcc>-1.000000</vAcc></extensions></trkpt>
      <trkpt lon="-123.281865" lat="44.562567"><ele>0.000000</ele><time>2021-01-11T09:56:53Z</time><extensions><speed>-1.000000</speed><course>-1.000000</course><hAcc>0.000000</hAcc><vAcc>-1.000000</vAcc></extensions></trkpt>
      <trkpt lon="-123.281878" lat="44.562338"><ele>0.000000</ele><time>2021-01-11T09:56:53Z</time><extensions><speed>-1.000000</speed><course>-1.000000</course><hAcc>0.000000</hAcc><vAcc>-1.000000</vAcc></extensions></trkpt>
      <trkpt lon="-123.281665" lat="44.562173"><ele>0.000000</ele><time>2021-01-11T09:56:53Z</time><extensions><speed>-1.000000</speed><course>-1.000000</course><hAcc>0.000000</hAcc><vAcc>-1.000000</vAcc></extensions></trkpt>
      <trkpt lon="-123.281222" lat="44.562158"><ele>0.000000</ele><time>2021-01-11T09:56:53Z</time><extensions><speed>-1.000000</speed><course>-1.000000</course><hAcc>0.000000</hAcc><vAcc>-1.000000</vAcc></extensions></trkpt>
      <trkpt lon="-123.280932" lat="44.562170"><ele>0.000000</ele><time>2021-01-11T09:56:53Z</time><extensions><speed>-1.000000</speed><course>-1.000000</course><hAcc>0.000000</hAcc><vAcc>-1.000000</vAcc></extensions></trkpt>
      <trkpt lon="-123.280599" lat="44.562180"><ele>0.000000</ele><time>2021-01-11T09:56:53Z</time><extensions><speed>-1.000000</speed><course>-1.000000</course><hAcc>0.000000</hAcc><vAcc>-1.000000</vAcc></extensions></trkpt>
      <trkpt lon="-123.280166" lat="44.562174"><ele>0.000000</ele><time>2021-01-11T09:56:53Z</time><extensions><speed>-1.000000</speed><course>-1.000000</course><hAcc>0.000000</hAcc><vAcc>-1.000000</vAcc></extensions></trkpt>
      <trkpt lon="-123.279863" lat="44.562210"><ele>0.000000</ele><time>2021-01-11T09:56:53Z</time><extensions><speed>-1.000000</speed><course>-1.000000</course><hAcc>0.000000</hAcc><vAcc>-1.000000</vAcc></extensions></trkpt>
      <trkpt lon="-123.279826" lat="44.562485"><ele>0.000000</ele><time>2021-01-11T09:56:53Z</time><extensions><speed>-1.000000</speed><course>-1.000000</course><hAcc>0.000000</hAcc><vAcc>-1.000000</vAcc></extensions></trkpt>
      <trkpt lon="-123.279824" lat="44.562783"><ele>0.000000</ele><time>2021-01-11T09:56:53Z</time><extensions><speed>-1.000000</speed><course>-1.000000</course><hAcc>0.000000</hAcc><vAcc>-1.000000</vAcc></extensions></trkpt>
      <trkpt lon="-123.279732" lat="44.563073"><ele>0.000000</ele><time>2021-01-11T09:56:53Z</time><extensions><speed>-1.000000</speed><course>-1.000000</course><hAcc>0.000000</hAcc><vAcc>-1.000000</vAcc></extensions></trkpt>
      <trkpt lon="-123.279772" lat="44.563388"><ele>0.000000</ele><time>2021-01-11T09:56:53Z</time><extensions><speed>-1.000000</speed><course>-1.000000</course><hAcc>0.000000</hAcc><vAcc>-1.000000</vAcc></extensions></trkpt>
      <trkpt lon="-123.279814" lat="44.563540"><ele>0.000000</ele><time>2021-01-11T09:56:53Z</time><extensions><speed>-1.000000</speed><course>-1.000000</course><hAcc>0.000000</hAcc><vAcc>-1.000000</vAcc></extensions></trkpt>
      <trkpt lon="-123.279806" lat="44.563730"><ele>0.000000</ele><time>2021-01-11T09:56:53Z</time><extensions><speed>-1.000000</speed><course>-1.000000</course><hAcc>0.000000</hAcc><vAcc>-1.000000</vAcc></extensions></trkpt>
      <trkpt lon="-123.279807" lat="44.563861"><ele>0.000000</ele><time>2021-01-11T09:56:53Z</time><extensions><speed>-1.000000</speed><course>-1.000000</course><hAcc>0.000000</hAcc><vAcc>-1.000000</vAcc></extensions></trkpt>
      <trkpt lon="-123.279797" lat="44.563937"><ele>0.000000</ele><time>2021-01-11T09:56:53Z</time><extensions><speed>-1.000000</speed><course>-1.000000</course><hAcc>0.000000</hAcc><vAcc>-1.000000</vAcc></extensions></trkpt>
      <trkpt lon="-123.279878" lat="44.564172"><ele>0.000000</ele><time>2021-01-11T09:56:53Z</time><extensions><speed>-1.000000</speed><course>-1.000000</course><hAcc>0.000000</hAcc><vAcc>-1.000000</vAcc></extensions></trkpt>
      <trkpt lon="-123.279868" lat="44.564330"><ele>0.000000</ele><time>2021-01-11T09:56:53Z</time><extensions><speed>-1.000000</speed><course>-1.000000</course><hAcc>0.000000</hAcc><vAcc>-1.000000</vAcc></extensions></trkpt>
      <trkpt lon="-123.279757" lat="44.564574"><ele>0.000000</ele><time>2021-01-11T09:56:53Z</time><extensions><speed>-1.000000</speed><course>-1.000000</course><hAcc>0.000000</hAcc><vAcc>-1.000000</vAcc></extensions></trkpt>
      <trkpt lon="-123.279244" lat="44.564616"><ele>0.000000</ele><time>2021-01-11T09:56:53Z</time><extensions><speed>-1.000000</speed><course>-1.000000</course><hAcc>0.000000</hAcc><vAcc>-1.000000</vAcc></extensions></trkpt>
      <trkpt lon="-123.279161" lat="44.564611"><ele>0.000000</ele><time>2021-01-11T09:56:53Z</time><extensions><speed>-1.000000</speed><course>-1.000000</course><hAcc>0.000000</hAcc><vAcc>-1.000000</vAcc></extensions></trkpt>
      <trkpt lon="-123.278944" lat="44.564588"><ele>0.000000</ele><time>2021-01-11T09:56:53Z</time><extensions><speed>-1.000000</speed><course>-1.000000</course><hAcc>0.000000</hAcc><vAcc>-1.000000</vAcc></extensions></trkpt>
      <trkpt lon="-123.278738" lat="44.564604"><ele>0.000000</ele><time>2021-01-11T09:56:53Z</time><extensions><speed>-1.000000</speed><course>-1.000000</course><hAcc>0.000000</hAcc><vAcc>-1.000000</vAcc></extensions></trkpt>
      <trkpt lon="-123.278549" lat="44.564593"><ele>0.000000</ele><time>2021-01-11T09:56:53Z</time><extensions><speed>-1.000000</speed><course>-1.000000</course><hAcc>0.000000</hAcc><vAcc>-1.000000</vAcc></extensions></trkpt>
      <trkpt lon="-123.278429" lat="44.564593"><ele>0.000000</ele><time>2021-01-11T09:56:53Z</time><extensions><speed>-1.000000</speed><course>-1.000000</course><hAcc>0.000000</hAcc><vAcc>-1.000000</vAcc></extensions></trkpt>
      <trkpt lon="-123.278107" lat="44.564614"><ele>0.000000</ele><time>2021-01-11T09:56:53Z</time><extensions><speed>-1.000000</speed><course>-1.000000</course><hAcc>0.000000</hAcc><vAcc>-1.000000</vAcc></extensions></trkpt>
      <trkpt lon="-123.277876" lat="44.564609"><ele>0.000000</ele><time>2021-01-11T09:56:53Z</time><extensions><speed>-1.000000</speed><course>-1.000000</course><hAcc>0.000000</hAcc><vAcc>-1.000000</vAcc></extensions></trkpt>
      <trkpt lon="-123.277726" lat="44.564521"><ele>0.000000</ele><time>2021-01-11T09:56:53Z</time><extensions><speed>-1.000000</speed><course>-1.000000</course><hAcc>0.000000</hAcc><vAcc>-1.000000</vAcc></extensions></trkpt>
      <trkpt lon="-123.277714" lat="44.564512"><ele>0.000000</ele><time>2021-01-11T09:56:53Z</time><extensions><speed>-1.000000</speed><course>-1.000000</course><hAcc>0.000000</hAcc><vAcc>-1.000000</vAcc></extensions></trkpt>
      <trkpt lon="-123.277443" lat="44.564542"><ele>0.000000</ele><time>2021-01-11T09:56:53Z</time><extensions><speed>-1.000000</speed><course>-1.000000</course><hAcc>0.000000</hAcc><vAcc>-1.000000</vAcc></extensions></trkpt>
      <trkpt lon="-123.277334" lat="44.564551"><ele>0.000000</ele><time>2021-01-11T09:56:53Z</time><extensions><speed>-1.000000</speed><course>-1.000000</course><hAcc>0.000000</hAcc><vAcc>-1.000000</vAcc></extensions></trkpt>
      <trkpt lon="-123.277128" lat="44.564530"><ele>0.000000</ele><time>2021-01-11T09:56:53Z</time><extensions><speed>-1.000000</speed><course>-1.000000</course><hAcc>0.000000</hAcc><vAcc>-1.000000</vAcc></extensions></trkpt>
      <trkpt lon="-123.276938" lat="44.564490"><ele>0.000000</ele><time>2021-01-11T09:56:53Z</time><extensions><speed>-1.000000</speed><course>-1.000000</course><hAcc>0.000000</hAcc><vAcc>-1.000000</vAcc></extensions></trkpt>
      <trkpt lon="-123.276725" lat="44.564454"><ele>0.000000</ele><time>2021-01-11T09:56:53Z</time><extensions><speed>-1.000000</speed><course>-1.000000</course><hAcc>0.000000</hAcc><vAcc>-1.000000</vAcc></extensions></trkpt>
      <trkpt lon="-123.276640" lat="44.564485"><ele>0.000000</ele><time>2021-01-11T09:56:53Z</time><extensions><speed>-1.000000</speed><course>-1.000000</course><hAcc>0.000000</hAcc><vAcc>-1.000000</vAcc></extensions></trkpt>
      <trkpt lon="-123.276404" lat="44.564476"><ele>0.000000</ele><time>2021-01-11T09:56:53Z</time><extensions><speed>-1.000000</speed><course>-1.000000</course><hAcc>0.000000</hAcc><vAcc>-1.000000</vAcc></extensions></trkpt>
      <trkpt lon="-123.276152" lat="44.564484"><ele>0.000000</ele><time>2021-01-11T09:56:53Z</time><extensions><speed>-1.000000</speed><course>-1.000000</course><hAcc>0.000000</hAcc><vAcc>-1.000000</vAcc></extensions></trkpt>
      <trkpt lon="-123.275853" lat="44.564377"><ele>0.000000</ele><time>2021-01-11T09:56:53Z</time><extensions><speed>-1.000000</speed><course>-1.000000</course><hAcc>0.000000</hAcc><vAcc>-1.000000</vAcc></extensions></trkpt>
      <trkpt lon="-123.275293" lat="44.564492"><ele>0.000000</ele><time>2021-01-11T09:56:53Z</time><extensions><speed>-1.000000</speed><course>-1.000000</course><hAcc>0.000000</hAcc><vAcc>-1.000000</vAcc></extensions></trkpt>
      <trkpt lon="-123.275492" lat="44.564511"><ele>0.000000</ele><time>2021-01-11T09:56:53Z</time><extensions><speed>-1.000000</speed><course>-1.000000</course><hAcc>0.000000</hAcc><vAcc>-1.000000</vAcc></extensions></trkpt>
      <trkpt lon="-123.275617" lat="44.564504"><ele>0.000000</ele><time>2021-01-11T09:56:53Z</time><extensions><speed>-1.000000</speed><course>-1.000000</course><hAcc>0.000000</hAcc><vAcc>-1.000000</vAcc></extensions></trkpt>
      <trkpt lon="-123.276019" lat="44.564502"><ele>0.000000</ele><time>2021-01-11T09:56:53Z</time><extensions><speed>-1.000000</speed><course>-1.000000</course><hAcc>0.000000</hAcc><vAcc>-1.000000</vAcc></extensions></trkpt>
      <trkpt lon="-123.276489" lat="44.564544"><ele>0.000000</ele><time>2021-01-11T09:56:53Z</time><extensions><speed>-1.000000</speed><course>-1.000000</course><hAcc>0.000000</hAcc><vAcc>-1.000000</vAcc></extensions></trkpt>
      <trkpt lon="-123.276770" lat="44.564556"><ele>0.000000</ele><time>2021-01-11T09:56:53Z</time><extensions><speed>-1.000000</speed><course>-1.000000</course><hAcc>0.000000</hAcc><vAcc>-1.000000</vAcc></extensions></trkpt>
      <trkpt lon="-123.277233" lat="44.564535"><ele>0.000000</ele><time>2021-01-11T09:56:53Z</time><extensions><speed>-1.000000</speed><course>-1.000000</course><hAcc>0.000000</hAcc><vAcc>-1.000000</vAcc></extensions></trkpt>
      <trkpt lon="-123.277687" lat="44.564542"><ele>0.000000</ele><time>2021-01-11T09:56:53Z</time><extensions><speed>-1.000000</speed><course>-1.000000</course><hAcc>0.000000</hAcc><vAcc>-1.000000</vAcc></extensions></trkpt>
      <trkpt lon="-123.278000" lat="44.564581"><ele>0.000000</ele><time>2021-01-11T09:56:53Z</time><extensions><speed>-1.000000</speed><course>-1.000000</course><hAcc>0.000000</hAcc><vAcc>-1.000000</vAcc></extensions></trkpt>
      <trkpt lon="-123.278461" lat="44.564560"><ele>0.000000</ele><time>2021-01-11T09:56:53Z</time><extensions><speed>-1.000000</speed><course>-1.000000</course><hAcc>0.000000</hAcc><vAcc>-1.000000</vAcc></extensions></trkpt>
      <trkpt lon="-123.278912" lat="44.564545"><ele>0.000000</ele><time>2021-01-11T09:56:53Z</time><extensions><speed>-1.000000</speed><course>-1.000000</course><hAcc>0.000000</hAcc><vAcc>-1.000000</vAcc></extensions></trkpt>
      <trkpt lon="-123.279248" lat="44.564531"><ele>0.000000</ele><time>2021-01-11T09:56:53Z</time><extensions><speed>-1.000000</speed><course>-1.000000</course><hAcc>0.000000</hAcc><vAcc>-1.000000</vAcc></extensions></trkpt>
      <trkpt lon="-123.279624" lat="44.564552"><ele>0.000000</ele><time>2021-01-11T09:56:53Z</time><extensions><speed>-1.000000</speed><course>-1.000000</course><hAcc>0.000000</hAcc><vAcc>-1.000000</vAcc></extensions></trkpt>
      <trkpt lon="-123.280051" lat="44.564467"><ele>0.000000</ele><time>2021-01-11T09:56:53Z</time><extensions><speed>-1.000000</speed><course>-1.000000</course><hAcc>0.000000</hAcc><vAcc>-1.000000</vAcc></extensions></trkpt>
      <trkpt lon="-123.280345" lat="44.564255"><ele>0.000000</ele><time>2021-01-11T09:56:53Z</time><extensions><speed>-1.000000</speed><course>-1.000000</course><hAcc>0.000000</hAcc><vAcc>-1.000000</vAcc></extensions></trkpt>
      <trkpt lon="-123.280644" lat="44.564075"><ele>0.000000</ele><time>2021-01-11T09:56:53Z</time><extensions><speed>-1.000000</speed><course>-1.000000</course><hAcc>0.000000</hAcc><vAcc>-1.000000</vAcc></extensions></trkpt>
      <trkpt lon="-123.280324" lat="44.564176"><ele>0.000000</ele><time>2021-01-11T09:56:53Z</time><extensions><speed>-1.000000</speed><course>-1.000000</course><hAcc>0.000000</hAcc><vAcc>-1.000000</vAcc></extensions></trkpt>
      <trkpt lon="-123.280010" lat="44.564457"><ele>0.000000</ele><time>2021-01-11T09:56:53Z</time><extensions><speed>-1.000000</speed><course>-1.000000</course><hAcc>0.000000</hAcc><vAcc>-1.000000</vAcc></extensions></trkpt>
      <trkpt lon="-123.279607" lat="44.564560"><ele>0.000000</ele><time>2021-01-11T09:56:53Z</time><extensions><speed>-1.000000</speed><course>-1.000000</course><hAcc>0.000000</hAcc><vAcc>-1.000000</vAcc></extensions></trkpt>
      <trkpt lon="-123.279366" lat="44.564792"><ele>0.000000</ele><time>2021-01-11T09:56:53Z</time><extensions><speed>-1.000000</speed><course>-1.000000</course><hAcc>0.000000</hAcc><vAcc>-1.000000</vAcc></extensions></trkpt>
    </trkseg>
  </trk>
</gpx>