<?xml version="1.0" encoding="UTF-8"?>
<gpx version="1.1" creator="Apple Health Export" xmlns="http://www.topografix.com/GPX/1/1" xmlns:xsi="http://www.w3.org/2001/XMLSchema-instance" xsi:schemaLocation="http://www.topografix.com/GPX/1/1 http://www.topografix.com/GPX/1/1/gpx.xsd">
  <metadata>
    <time>2021-02-21T19:24:47Z</time>
  </metadata>
  <trk>
    <name>Route 2020-09-28 5:56pm</name>
    <trkseg>
      <trkpt lon="-123.280516" lat="44.569285"><ele>77.451668</ele><time>2020-09-29T00:52:51Z</time><extensions><speed>5.830000</speed><course>144.140625</course><hAcc>5.000000</hAcc><vAcc>3.000000</vAcc></extensions></trkpt>
      <trkpt lon="-123.280516" lat="44.569285"><ele>77.451668</ele><time>2020-09-29T00:52:51Z</time><extensions><speed>5.830000</speed><course>144.140625</course><hAcc>5.000000</hAcc><vAcc>3.000000</vAcc></extensions></trkpt>
      <trkpt lon="-123.280495" lat="44.569241"><ele>77.027412</ele><time>2020-09-29T00:52:52Z</time><extensions><speed>5.600000</speed><course>151.171875</course><hAcc>5.000000</hAcc><vAcc>3.000000</vAcc></extensions></trkpt>
      <trkpt lon="-123.280448" lat="44.569205"><ele>77.009468</ele><time>2020-09-29T00:52:53Z</time><extensions><speed>5.340000</speed><course>138.164062</course><hAcc>5.000000</hAcc><vAcc>3.000000</vAcc></extensions></trkpt>
      <trkpt lon="-123.280393" lat="44.569171"><ele>77.541267</ele><time>2020-09-29T00:52:54Z</time><extensions><speed>5.340000</speed><course>131.484375</course><hAcc>5.000000</hAcc><vAcc>3.000000</vAcc></extensions></trkpt>
      <trkpt lon="-123.280348" lat="44.569139"><ele>77.617256</ele><time>2020-09-29T00:52:55Z</time><extensions><speed>4.610000</speed><course>136.054688</course><hAcc>5.000000</hAcc><vAcc>3.000000</vAcc></extensions></trkpt>
      <trkpt lon="-123.280305" lat="44.569105"><ele>77.537178</ele><time>2020-09-29T00:52:56Z</time><extensions><speed>5.200000</speed><course>136.054688</course><hAcc>5.000000</hAcc><vAcc>3.000000</vAcc></extensions></trkpt>
      <trkpt lon="-123.280258" lat="44.569066"><ele>77.500008</ele><time>2020-09-29T00:52:57Z</time><extensions><speed>5.200000</speed><course>137.460938</course><hAcc>5.000000</hAcc><vAcc>3.000000</vAcc></extensions></trkpt>
      <trkpt lon="-123.280209" lat="44.569028"><ele>77.036629</ele><time>2020-09-29T00:52:58Z</time><extensions><speed>5.230000</speed><course>136.757812</course><hAcc>5.000000</hAcc><vAcc>3.000000</vAcc></extensions></trkpt>
      <trkpt lon="-123.280161" lat="44.568991"><ele>77.080574</ele><time>2020-09-29T00:52:59Z</time><extensions><speed>5.560000</speed><course>136.757812</course><hAcc>5.000000</hAcc><vAcc>3.000000</vAcc></extensions></trkpt>
      <trkpt lon="-123.280123" lat="44.568943"><ele>76.527229</ele><time>2020-09-29T00:53:00Z</time><extensions><speed>5.170000</speed><course>157.148438</course><hAcc>5.000000</hAcc><vAcc>3.000000</vAcc></extensions></trkpt>
      <trkpt lon="-123.280077" lat="44.568895"><ele>75.729866</ele><time>2020-09-29T00:53:01Z</time><extensions><speed>5.570000</speed><course>164.179688</course><hAcc>5.000000</hAcc><vAcc>3.000000</vAcc></extensions></trkpt>
      <trkpt lon="-123.280065" lat="44.568827"><ele>76.656197</ele><time>2020-09-29T00:53:02Z</time><extensions><speed>5.570000</speed><course>174.375000</course><hAcc>5.000000</hAcc><vAcc>3.000000</vAcc></extensions></trkpt>
      <trkpt lon="-123.280055" lat="44.568776"><ele>76.364388</ele><time>2020-09-29T00:53:03Z</time><extensions><speed>5.990000</speed><course>175.078125</course><hAcc>5.000000</hAcc><vAcc>3.000000</vAcc></extensions></trkpt>
      <trkpt lon="-123.280046" lat="44.568729"><ele>76.283638</ele><time>2020-09-29T00:53:04Z</time><extensions><speed>5.990000</speed><course>174.375000</course><hAcc>5.000000</hAcc><vAcc>3.000000</vAcc></extensions></trkpt>
      <trkpt lon="-123.280037" lat="44.568680"><ele>75.982674</ele><time>2020-09-29T00:53:05Z</time><extensions><speed>5.660000</speed><course>178.945312</course><hAcc>5.000000</hAcc><vAcc>3.000000</vAcc></extensions></trkpt>
      <trkpt lon="-123.280038" lat="44.568633"><ele>76.419136</ele><time>2020-09-29T00:53:06Z</time><extensions><speed>5.660000</speed><course>179.648438</course><hAcc>5.000000</hAcc><vAcc>3.000000</vAcc></extensions></trkpt>
      <trkpt lon="-123.280033" lat="44.568580"><ele>76.320869</ele><time>2020-09-29T00:53:07Z</time><extensions><speed>5.650000</speed><course>178.593750</course><hAcc>5.000000</hAcc><vAcc>3.000000</vAcc></extensions></trkpt>
      <trkpt lon="-123.280049" lat="44.568539"><ele>76.946297</ele><time>2020-09-29T00:53:08Z</time><extensions><speed>5.490000</speed><course>182.812500</course><hAcc>5.000000</hAcc><vAcc>3.000000</vAcc></extensions></trkpt>
      <trkpt lon="-123.280027" lat="44.568496"><ele>77.673897</ele><time>2020-09-29T00:53:09Z</time><extensions><speed>5.320000</speed><course>174.023438</course><hAcc>5.000000</hAcc><vAcc>3.000000</vAcc></extensions></trkpt>
      <trkpt lon="-123.280015" lat="44.568440"><ele>77.603035</ele><time>2020-09-29T00:53:10Z</time><extensions><speed>5.620000</speed><course>175.429688</course><hAcc>5.000000</hAcc><vAcc>3.000000</vAcc></extensions></trkpt>
      <trkpt lon="-123.280014" lat="44.568383"><ele>77.369148</ele><time>2020-09-29T00:53:11Z</time><extensions><speed>5.620000</speed><course>177.187500</course><hAcc>5.000000</hAcc><vAcc>3.000000</vAcc></extensions></trkpt>
      <trkpt lon="-123.280024" lat="44.568331"><ele>77.841133</ele><time>2020-09-29T00:53:12Z</time><extensions><speed>5.880000</speed><course>181.406250</course><hAcc>5.000000</hAcc><vAcc>3.000000</vAcc></extensions></trkpt>
      <trkpt lon="-123.280033" lat="44.568287"><ele>78.024544</ele><time>2020-09-29T00:53:13Z</time><extensions><speed>5.880000</speed><course>184.570312</course><hAcc>5.000000</hAcc><vAcc>3.000000</vAcc></extensions></trkpt>
      <trkpt lon="-123.280043" lat="44.568258"><ele>79.321297</ele><time>2020-09-29T00:53:14Z</time><extensions><speed>5.260000</speed><course>179.296875</course><hAcc>5.000000</hAcc><vAcc>3.000000</vAcc></extensions></trkpt>
      <trkpt lon="-123.280028" lat="44.568206"><ele>79.339973</ele><time>2020-09-29T00:53:15Z</time><extensions><speed>5.260000</speed><course>176.484375</course><hAcc>5.000000</hAcc><vAcc>3.000000</vAcc></extensions></trkpt>
      <trkpt lon="-123.280024" lat="44.568162"><ele>79.343147</ele><time>2020-09-29T00:53:16Z</time><extensions><speed>4.920000</speed><course>176.484375</course><hAcc>5.000000</hAcc><vAcc>3.000000</vAcc></extensions></trkpt>
      <trkpt lon="-123.280031" lat="44.568115"><ele>80.348274</ele><time>2020-09-29T00:53:17Z</time><extensions><speed>4.920000</speed><course>177.539062</course><hAcc>5.000000</hAcc><vAcc>3.000000</vAcc></extensions></trkpt>
      <trkpt lon="-123.280019" lat="44.568068"><ele>80.114815</ele><time>2020-09-29T00:53:18Z</time><extensions><speed>5.640000</speed><course>178.242188</course><hAcc>5.000000</hAcc><vAcc>3.000000</vAcc></extensions></trkpt>
      <trkpt lon="-123.280034" lat="44.568000"><ele>78.645760</ele><time>2020-09-29T00:53:19Z</time><extensions><speed>5.640000</speed><course>178.593750</course><hAcc>5.000000</hAcc><vAcc>3.000000</vAcc></extensions></trkpt>
      <trkpt lon="-123.280038" lat="44.567939"><ele>77.392036</ele><time>2020-09-29T00:53:20Z</time><extensions><speed>5.480000</speed><course>180.351562</course><hAcc>5.000000</hAcc><vAcc>3.000000</vAcc></extensions></trkpt>
      <trkpt lon="-123.280027" lat="44.567879"><ele>77.132637</ele><time>2020-09-29T00:53:21Z</time><extensions><speed>5.480000</speed><course>179.648438</course><hAcc>5.000000</hAcc><vAcc>3.000000</vAcc></extensions></trkpt>
      <trkpt lon="-123.280027" lat="44.567823"><ele>77.750191</ele><time>2020-09-29T00:53:22Z</time><extensions><speed>5.670000</speed><course>180.000000</course><hAcc>5.000000</hAcc><vAcc>3.000000</vAcc></extensions></trkpt>
      <trkpt lon="-123.280017" lat="44.567763"><ele>76.930122</ele><time>2020-09-29T00:53:23Z</time><extensions><speed>5.560000</speed><course>176.132812</course><hAcc>5.000000</hAcc><vAcc>3.000000</vAcc></extensions></trkpt>
      <trkpt lon="-123.280014" lat="44.567713"><ele>77.083443</ele><time>2020-09-29T00:53:24Z</time><extensions><speed>5.560000</speed><course>174.726562</course><hAcc>5.000000</hAcc><vAcc>3.000000</vAcc></extensions></trkpt>
      <trkpt lon="-123.280009" lat="44.567666"><ele>77.107307</ele><time>2020-09-29T00:53:25Z</time><extensions><speed>5.390000</speed><course>175.078125</course><hAcc>5.000000</hAcc><vAcc>3.000000</vAcc></extensions></trkpt>
      <trkpt lon="-123.280017" lat="44.567624"><ele>77.275093</ele><time>2020-09-29T00:53:26Z</time><extensions><speed>5.390000</speed><course>178.593750</course><hAcc>5.000000</hAcc><vAcc>3.000000</vAcc></extensions></trkpt>
      <trkpt lon="-123.280027" lat="44.567577"><ele>77.642220</ele><time>2020-09-29T00:53:27Z</time><extensions><speed>5.220000</speed><course>177.539062</course><hAcc>5.000000</hAcc><vAcc>3.000000</vAcc></extensions></trkpt>
      <trkpt lon="-123.280024" lat="44.567530"><ele>77.697029</ele><time>2020-09-29T00:53:28Z</time><extensions><speed>5.220000</speed><course>177.539062</course><hAcc>5.000000</hAcc><vAcc>3.000000</vAcc></extensions></trkpt>
      <trkpt lon="-123.280012" lat="44.567487"><ele>77.261787</ele><time>2020-09-29T00:53:29Z</time><extensions><speed>5.220000</speed><course>178.242188</course><hAcc>5.000000</hAcc><vAcc>3.000000</vAcc></extensions></trkpt>
      <trkpt lon="-123.280041" lat="44.567446"><ele>77.752937</ele><time>2020-09-29T00:53:30Z</time><extensions><speed>5.220000</speed><course>182.109375</course><hAcc>5.000000</hAcc><vAcc>3.000000</vAcc></extensions></trkpt>
      <trkpt lon="-123.280040" lat="44.567382"><ele>78.005440</ele><time>2020-09-29T00:53:31Z</time><extensions><speed>5.930000</speed><course>172.265625</course><hAcc>5.000000</hAcc><vAcc>3.000000</vAcc></extensions></trkpt>
      <trkpt lon="-123.280030" lat="44.567329"><ele>78.099251</ele><time>2020-09-29T00:53:32Z</time><extensions><speed>5.950000</speed><course>172.265625</course><hAcc>5.000000</hAcc><vAcc>4.000000</vAcc></extensions></trkpt>
      <trkpt lon="-123.280013" lat="44.567279"><ele>78.194038</ele><time>2020-09-29T00:53:33Z</time><extensions><speed>5.930000</speed><course>183.164062</course><hAcc>5.000000</hAcc><vAcc>4.000000</vAcc></extensions></trkpt>
      <trkpt lon="-123.279997" lat="44.567216"><ele>78.227547</ele><time>2020-09-29T00:53:34Z</time><extensions><speed>5.920000</speed><course>172.265625</course><hAcc>5.000000</hAcc><vAcc>4.000000</vAcc></extensions></trkpt>
      <trkpt lon="-123.279996" lat="44.567178"><ele>78.416878</ele><time>2020-09-29T00:53:35Z</time><extensions><speed>5.740000</speed><course>183.867188</course><hAcc>5.000000</hAcc><vAcc>4.000000</vAcc></extensions></trkpt>
      <trkpt lon="-123.279986" lat="44.567134"><ele>78.360298</ele><time>2020-09-29T00:53:36Z</time><extensions><speed>5.240000</speed><course>178.945312</course><hAcc>5.000000</hAcc><vAcc>4.000000</vAcc></extensions></trkpt>
      <trkpt lon="-123.279979" lat="44.567099"><ele>78.739937</ele><time>2020-09-29T00:53:37Z</time><extensions><speed>5.240000</speed><course>180.351562</course><hAcc>5.000000</hAcc><vAcc>4.000000</vAcc></extensions></trkpt>
      <trkpt lon="-123.279979" lat="44.567029"><ele>78.892525</ele><time>2020-09-29T00:53:38Z</time><extensions><speed>5.240000</speed><course>180.703125</course><hAcc>5.000000</hAcc><vAcc>4.000000</vAcc></extensions></trkpt>
      <trkpt lon="-123.279979" lat="44.566979"><ele>79.202461</ele><time>2020-09-29T00:53:39Z</time><extensions><speed>5.790000</speed><course>180.351562</course><hAcc>5.000000</hAcc><vAcc>4.000000</vAcc></extensions></trkpt>
      <trkpt lon="-123.279993" lat="44.566933"><ele>79.502022</ele><time>2020-09-29T00:53:40Z</time><extensions><speed>5.970000</speed><course>181.054688</course><hAcc>5.000000</hAcc><vAcc>4.000000</vAcc></extensions></trkpt>
      <trkpt lon="-123.279999" lat="44.566884"><ele>80.286995</ele><time>2020-09-29T00:53:41Z</time><extensions><speed>6.150000</speed><course>185.273438</course><hAcc>5.000000</hAcc><vAcc>4.000000</vAcc></extensions></trkpt>
      <trkpt lon="-123.280010" lat="44.566828"><ele>79.871529</ele><time>2020-09-29T00:53:42Z</time><extensions><speed>5.970000</speed><course>187.382812</course><hAcc>5.000000</hAcc><vAcc>4.000000</vAcc></extensions></trkpt>
      <trkpt lon="-123.280022" lat="44.566786"><ele>79.913948</ele><time>2020-09-29T00:53:43Z</time><extensions><speed>5.740000</speed><course>180.351562</course><hAcc>5.000000</hAcc><vAcc>4.000000</vAcc></extensions></trkpt>
      <trkpt lon="-123.280023" lat="44.566743"><ele>79.916939</ele><time>2020-09-29T00:53:44Z</time><extensions><speed>4.840000</speed><course>180.351562</course><hAcc>5.000000</hAcc><vAcc>4.000000</vAcc></extensions></trkpt>
      <trkpt lon="-123.280021" lat="44.566680"><ele>79.911018</ele><time>2020-09-29T00:53:45Z</time><extensions><speed>6.160000</speed><course>181.757812</course><hAcc>5.000000</hAcc><vAcc>4.000000</vAcc></extensions></trkpt>
      <trkpt lon="-123.280040" lat="44.566587"><ele>79.918800</ele><time>2020-09-29T00:53:46Z</time><extensions><speed>6.530000</speed><course>181.406250</course><hAcc>5.000000</hAcc><vAcc>4.000000</vAcc></extensions></trkpt>
      <trkpt lon="-123.280027" lat="44.566518"><ele>79.138664</ele><time>2020-09-29T00:53:47Z</time><extensions><speed>6.370000</speed><course>177.187500</course><hAcc>5.000000</hAcc><vAcc>4.000000</vAcc></extensions></trkpt>
      <trkpt lon="-123.280023" lat="44.566461"><ele>78.686661</ele><time>2020-09-29T00:53:48Z</time><extensions><speed>6.370000</speed><course>177.187500</course><hAcc>5.000000</hAcc><vAcc>4.000000</vAcc></extensions></trkpt>
      <trkpt lon="-123.280000" lat="44.566409"><ele>78.818352</ele><time>2020-09-29T00:53:49Z</time><extensions><speed>6.370000</speed><course>180.000000</course><hAcc>5.000000</hAcc><vAcc>4.000000</vAcc></extensions></trkpt>
      <trkpt lon="-123.279979" lat="44.566361"><ele>78.322952</ele><time>2020-09-29T00:53:50Z</time><extensions><speed>5.310000</speed><course>178.593750</course><hAcc>5.000000</hAcc><vAcc>4.000000</vAcc></extensions></trkpt>
      <trkpt lon="-123.279960" lat="44.566306"><ele>78.077805</ele><time>2020-09-29T00:53:51Z</time><extensions><speed>6.170000</speed><course>175.781250</course><hAcc>5.000000</hAcc><vAcc>4.000000</vAcc></extensions></trkpt>
      <trkpt lon="-123.279954" lat="44.566251"><ele>77.949661</ele><time>2020-09-29T00:53:52Z</time><extensions><speed>6.170000</speed><course>175.781250</course><hAcc>5.000000</hAcc><vAcc>4.000000</vAcc></extensions></trkpt>
      <trkpt lon="-123.279954" lat="44.566202"><ele>78.055046</ele><time>2020-09-29T00:53:53Z</time><extensions><speed>6.170000</speed><course>176.835938</course><hAcc>5.000000</hAcc><vAcc>4.000000</vAcc></extensions></trkpt>
      <trkpt lon="-123.279955" lat="44.566149"><ele>77.483009</ele><time>2020-09-29T00:53:54Z</time><extensions><speed>5.710000</speed><course>179.648438</course><hAcc>5.000000</hAcc><vAcc>4.000000</vAcc></extensions></trkpt>
      <trkpt lon="-123.279955" lat="44.566098"><ele>77.215622</ele><time>2020-09-29T00:53:55Z</time><extensions><speed>5.660000</speed><course>179.648438</course><hAcc>5.000000</hAcc><vAcc>4.000000</vAcc></extensions></trkpt>
      <trkpt lon="-123.279968" lat="44.566066"><ele>77.379456</ele><time>2020-09-29T00:53:56Z</time><extensions><speed>5.660000</speed><course>189.140625</course><hAcc>10.000000</hAcc><vAcc>4.000000</vAcc></extensions></trkpt>
      <trkpt lon="-123.279977" lat="44.566027"><ele>76.926918</ele><time>2020-09-29T00:53:57Z</time><extensions><speed>4.310000</speed><course>189.140625</course><hAcc>10.000000</hAcc><vAcc>4.000000</vAcc></extensions></trkpt>
      <trkpt lon="-123.280013" lat="44.565987"><ele>77.050423</ele><time>2020-09-29T00:53:58Z</time><extensions><speed>4.310000</speed><course>181.406250</course><hAcc>5.000000</hAcc><vAcc>4.000000</vAcc></extensions></trkpt>
      <trkpt lon="-123.280014" lat="44.565941"><ele>76.853699</ele><time>2020-09-29T00:53:59Z</time><extensions><speed>5.080000</speed><course>181.406250</course><hAcc>10.000000</hAcc><vAcc>4.000000</vAcc></extensions></trkpt>
      <trkpt lon="-123.279965" lat="44.565839"><ele>77.111092</ele><time>2020-09-29T00:54:00Z</time><extensions><speed>6.250000</speed><course>174.375000</course><hAcc>5.000000</hAcc><vAcc>4.000000</vAcc></extensions></trkpt>
      <trkpt lon="-123.279957" lat="44.565773"><ele>76.398911</ele><time>2020-09-29T00:54:01Z</time><extensions><speed>6.250000</speed><course>176.132812</course><hAcc>5.000000</hAcc><vAcc>4.000000</vAcc></extensions></trkpt>
      <trkpt lon="-123.279973" lat="44.565692"><ele>76.148849</ele><time>2020-09-29T00:54:02Z</time><extensions><speed>6.250000</speed><course>183.867188</course><hAcc>5.000000</hAcc><vAcc>4.000000</vAcc></extensions></trkpt>
      <trkpt lon="-123.279971" lat="44.565638"><ele>76.213654</ele><time>2020-09-29T00:54:03Z</time><extensions><speed>5.280000</speed><course>184.218750</course><hAcc>5.000000</hAcc><vAcc>4.000000</vAcc></extensions></trkpt>
      <trkpt lon="-123.279967" lat="44.565606"><ele>76.098923</ele><time>2020-09-29T00:54:04Z</time><extensions><speed>5.280000</speed><course>176.484375</course><hAcc>5.000000</hAcc><vAcc>4.000000</vAcc></extensions></trkpt>
      <trkpt lon="-123.279956" lat="44.565554"><ele>76.029922</ele><time>2020-09-29T00:54:05Z</time><extensions><speed>5.280000</speed><course>165.585938</course><hAcc>5.000000</hAcc><vAcc>4.000000</vAcc></extensions></trkpt>
      <trkpt lon="-123.279941" lat="44.565495"><ele>75.876801</ele><time>2020-09-29T00:54:06Z</time><extensions><speed>5.410000</speed><course>174.023438</course><hAcc>5.000000</hAcc><vAcc>4.000000</vAcc></extensions></trkpt>
      <trkpt lon="-123.279924" lat="44.565444"><ele>75.829231</ele><time>2020-09-29T00:54:07Z</time><extensions><speed>5.470000</speed><course>168.046875</course><hAcc>5.000000</hAcc><vAcc>4.000000</vAcc></extensions></trkpt>
      <trkpt lon="-123.279919" lat="44.565409"><ele>75.628052</ele><time>2020-09-29T00:54:08Z</time><extensions><speed>4.830000</speed><course>174.375000</course><hAcc>5.000000</hAcc><vAcc>4.000000</vAcc></extensions></trkpt>
      <trkpt lon="-123.279930" lat="44.565363"><ele>76.074898</ele><time>2020-09-29T00:54:09Z</time><extensions><speed>5.060000</speed><course>198.632812</course><hAcc>5.000000</hAcc><vAcc>4.000000</vAcc></extensions></trkpt>
      <trkpt lon="-123.279947" lat="44.565315"><ele>76.097275</ele><time>2020-09-29T00:54:10Z</time><extensions><speed>5.060000</speed><course>188.085938</course><hAcc>5.000000</hAcc><vAcc>4.000000</vAcc></extensions></trkpt>
      <trkpt lon="-123.279953" lat="44.565258"><ele>75.773537</ele><time>2020-09-29T00:54:11Z</time><extensions><speed>5.060000</speed><course>179.648438</course><hAcc>5.000000</hAcc><vAcc>4.000000</vAcc></extensions></trkpt>
      <trkpt lon="-123.279951" lat="44.565217"><ele>75.603935</ele><time>2020-09-29T00:54:12Z</time><extensions><speed>5.120000</speed><course>184.218750</course><hAcc>5.000000</hAcc><vAcc>4.000000</vAcc></extensions></trkpt>
      <trkpt lon="-123.279956" lat="44.565165"><ele>75.582230</ele><time>2020-09-29T00:54:13Z</time><extensions><speed>5.120000</speed><course>178.945312</course><hAcc>5.000000</hAcc><vAcc>4.000000</vAcc></extensions></trkpt>
      <trkpt lon="-123.279946" lat="44.565117"><ele>75.770943</ele><time>2020-09-29T00:54:14Z</time><extensions><speed>4.840000</speed><course>170.507812</course><hAcc>5.000000</hAcc><vAcc>4.000000</vAcc></extensions></trkpt>
      <trkpt lon="-123.279941" lat="44.565071"><ele>75.781425</ele><time>2020-09-29T00:54:15Z</time><extensions><speed>4.840000</speed><course>173.320312</course><hAcc>5.000000</hAcc><vAcc>4.000000</vAcc></extensions></trkpt>
      <trkpt lon="-123.279930" lat="44.565018"><ele>75.726082</ele><time>2020-09-29T00:54:16Z</time><extensions><speed>5.490000</speed><course>173.320312</course><hAcc>5.000000</hAcc><vAcc>4.000000</vAcc></extensions></trkpt>
      <trkpt lon="-123.279947" lat="44.564970"><ele>75.761856</ele><time>2020-09-29T00:54:17Z</time><extensions><speed>5.240000</speed><course>181.757812</course><hAcc>5.000000</hAcc><vAcc>4.000000</vAcc></extensions></trkpt>
      <trkpt lon="-123.279949" lat="44.564922"><ele>75.788559</ele><time>2020-09-29T00:54:18Z</time><extensions><speed>5.250000</speed><course>181.757812</course><hAcc>10.000000</hAcc><vAcc>4.000000</vAcc></extensions></trkpt>
      <trkpt lon="-123.279936" lat="44.564877"><ele>75.904800</ele><time>2020-09-29T00:54:19Z</time><extensions><speed>5.240000</speed><course>175.078125</course><hAcc>5.000000</hAcc><vAcc>4.000000</vAcc></extensions></trkpt>
      <trkpt lon="-123.279940" lat="44.564826"><ele>75.850609</ele><time>2020-09-29T00:54:20Z</time><extensions><speed>5.110000</speed><course>181.757812</course><hAcc>5.000000</hAcc><vAcc>4.000000</vAcc></extensions></trkpt>
      <trkpt lon="-123.279938" lat="44.564776"><ele>75.812553</ele><time>2020-09-29T00:54:21Z</time><extensions><speed>4.870000</speed><course>177.890625</course><hAcc>5.000000</hAcc><vAcc>4.000000</vAcc></extensions></trkpt>
      <trkpt lon="-123.279941" lat="44.564724"><ele>75.835365</ele><time>2020-09-29T00:54:22Z</time><extensions><speed>5.560000</speed><course>177.539062</course><hAcc>5.000000</hAcc><vAcc>4.000000</vAcc></extensions></trkpt>
      <trkpt lon="-123.279938" lat="44.564675"><ele>75.848282</ele><time>2020-09-29T00:54:23Z</time><extensions><speed>5.560000</speed><course>176.484375</course><hAcc>5.000000</hAcc><vAcc>4.000000</vAcc></extensions></trkpt>
      <trkpt lon="-123.279938" lat="44.564618"><ele>75.687843</ele><time>2020-09-29T00:54:24Z</time><extensions><speed>5.190000</speed><course>184.921875</course><hAcc>5.000000</hAcc><vAcc>4.000000</vAcc></extensions></trkpt>
      <trkpt lon="-123.279927" lat="44.564584"><ele>76.066574</ele><time>2020-09-29T00:54:25Z</time><extensions><speed>4.970000</speed><course>180.000000</course><hAcc>5.000000</hAcc><vAcc>4.000000</vAcc></extensions></trkpt>
      <trkpt lon="-123.279927" lat="44.564535"><ele>75.631119</ele><time>2020-09-29T00:54:26Z</time><extensions><speed>4.890000</speed><course>183.867188</course><hAcc>5.000000</hAcc><vAcc>4.000000</vAcc></extensions></trkpt>
      <trkpt lon="-123.279925" lat="44.564474"><ele>75.524490</ele><time>2020-09-29T00:54:27Z</time><extensions><speed>5.200000</speed><course>182.109375</course><hAcc>5.000000</hAcc><vAcc>4.000000</vAcc></extensions></trkpt>
      <trkpt lon="-123.279944" lat="44.564432"><ele>75.324188</ele><time>2020-09-29T00:54:28Z</time><extensions><speed>5.320000</speed><course>181.406250</course><hAcc>5.000000</hAcc><vAcc>4.000000</vAcc></extensions></trkpt>
      <trkpt lon="-123.279946" lat="44.564384"><ele>75.379166</ele><time>2020-09-29T00:54:29Z</time><extensions><speed>5.320000</speed><course>181.406250</course><hAcc>5.000000</hAcc><vAcc>4.000000</vAcc></extensions></trkpt>
      <trkpt lon="-123.279943" lat="44.564334"><ele>75.417526</ele><time>2020-09-29T00:54:30Z</time><extensions><speed>5.320000</speed><course>179.296875</course><hAcc>5.000000</hAcc><vAcc>3.000000</vAcc></extensions></trkpt>
      <trkpt lon="-123.279932" lat="44.564288"><ele>75.258987</ele><time>2020-09-29T00:54:31Z</time><extensions><speed>4.820000</speed><course>180.000000</course><hAcc>5.000000</hAcc><vAcc>4.000000</vAcc></extensions></trkpt>
      <trkpt lon="-123.279959" lat="44.564234"><ele>75.920181</ele><time>2020-09-29T00:54:32Z</time><extensions><speed>5.900000</speed><course>180.351562</course><hAcc>5.000000</hAcc><vAcc>4.000000</vAcc></extensions></trkpt>
      <trkpt lon="-123.279960" lat="44.564182"><ele>75.370224</ele><time>2020-09-29T00:54:33Z</time><extensions><speed>5.880000</speed><course>180.351562</course><hAcc>5.000000</hAcc><vAcc>4.000000</vAcc></extensions></trkpt>
      <trkpt lon="-123.279934" lat="44.564129"><ele>74.747597</ele><time>2020-09-29T00:54:34Z</time><extensions><speed>5.900000</speed><course>168.046875</course><hAcc>5.000000</hAcc><vAcc>4.000000</vAcc></extensions></trkpt>
      <trkpt lon="-123.279917" lat="44.564075"><ele>74.594902</ele><time>2020-09-29T00:54:35Z</time><extensions><speed>6.300000</speed><course>164.531250</course><hAcc>5.000000</hAcc><vAcc>4.000000</vAcc></extensions></trkpt>
      <trkpt lon="-123.279891" lat="44.564021"><ele>74.427910</ele><time>2020-09-29T00:54:36Z</time><extensions><speed>6.300000</speed><course>165.937500</course><hAcc>5.000000</hAcc><vAcc>4.000000</vAcc></extensions></trkpt>
      <trkpt lon="-123.279890" lat="44.563967"><ele>74.103485</ele><time>2020-09-29T00:54:37Z</time><extensions><speed>6.300000</speed><course>178.593750</course><hAcc>5.000000</hAcc><vAcc>4.000000</vAcc></extensions></trkpt>
      <trkpt lon="-123.279890" lat="44.563910"><ele>73.927628</ele><time>2020-09-29T00:54:38Z</time><extensions><speed>6.320000</speed><course>176.132812</course><hAcc>5.000000</hAcc><vAcc>4.000000</vAcc></extensions></trkpt>
      <trkpt lon="-123.279884" lat="44.563853"><ele>73.876549</ele><time>2020-09-29T00:54:39Z</time><extensions><speed>6.350000</speed><course>175.781250</course><hAcc>5.000000</hAcc><vAcc>4.000000</vAcc></extensions></trkpt>
      <trkpt lon="-123.279834" lat="44.563784"><ele>73.579018</ele><time>2020-09-29T00:54:40Z</time><extensions><speed>7.280000</speed><course>160.312500</course><hAcc>5.000000</hAcc><vAcc>4.000000</vAcc></extensions></trkpt>
      <trkpt lon="-123.279803" lat="44.563722"><ele>73.332275</ele><time>2020-09-29T00:54:41Z</time><extensions><speed>7.280000</speed><course>160.312500</course><hAcc>5.000000</hAcc><vAcc>4.000000</vAcc></extensions></trkpt>
      <trkpt lon="-123.279789" lat="44.563625"><ele>73.261116</ele><time>2020-09-29T00:54:42Z</time><extensions><speed>7.280000</speed><course>169.804688</course><hAcc>5.000000</hAcc><vAcc>4.000000</vAcc></extensions></trkpt>
      <trkpt lon="-123.279752" lat="44.563560"><ele>72.269836</ele><time>2020-09-29T00:54:43Z</time><extensions><speed>8.090000</speed><course>163.476562</course><hAcc>5.000000</hAcc><vAcc>4.000000</vAcc></extensions></trkpt>
      <trkpt lon="-123.279717" lat="44.563499"><ele>72.445610</ele><time>2020-09-29T00:54:44Z</time><extensions><speed>7.710000</speed><course>159.960938</course><hAcc>5.000000</hAcc><vAcc>3.000000</vAcc></extensions></trkpt>
      <trkpt lon="-123.279683" lat="44.563437"><ele>72.126030</ele><time>2020-09-29T00:54:45Z</time><extensions><speed>7.580000</speed><course>156.445312</course><hAcc>5.000000</hAcc><vAcc>3.000000</vAcc></extensions></trkpt>
      <trkpt lon="-123.279670" lat="44.563360"><ele>71.965126</ele><time>2020-09-29T00:54:46Z</time><extensions><speed>7.760000</speed><course>162.773438</course><hAcc>5.000000</hAcc><vAcc>3.000000</vAcc></extensions></trkpt>
      <trkpt lon="-123.279657" lat="44.563296"><ele>71.592567</ele><time>2020-09-29T00:54:47Z</time><extensions><speed>6.890000</speed><course>161.718750</course><hAcc>5.000000</hAcc><vAcc>3.000000</vAcc></extensions></trkpt>
      <trkpt lon="-123.279622" lat="44.563248"><ele>71.342606</ele><time>2020-09-29T00:54:48Z</time><extensions><speed>5.390000</speed><course>145.195312</course><hAcc>5.000000</hAcc><vAcc>3.000000</vAcc></extensions></trkpt>
      <trkpt lon="-123.279579" lat="44.563218"><ele>71.268501</ele><time>2020-09-29T00:54:49Z</time><extensions><speed>4.820000</speed><course>137.109375</course><hAcc>5.000000</hAcc><vAcc>3.000000</vAcc></extensions></trkpt>
      <trkpt lon="-123.279538" lat="44.563208"><ele>70.881279</ele><time>2020-09-29T00:54:50Z</time><extensions><speed>3.600000</speed><course>116.015625</course><hAcc>5.000000</hAcc><vAcc>3.000000</vAcc></extensions></trkpt>
      <trkpt lon="-123.279481" lat="44.563224"><ele>70.715919</ele><time>2020-09-29T00:54:51Z</time><extensions><speed>2.600000</speed><course>76.640625</course><hAcc>5.000000</hAcc><vAcc>3.000000</vAcc></extensions></trkpt>
      <trkpt lon="-123.279449" lat="44.563229"><ele>70.714874</ele><time>2020-09-29T00:54:52Z</time><extensions><speed>2.600000</speed><course>76.289062</course><hAcc>5.000000</hAcc><vAcc>3.000000</vAcc></extensions></trkpt>
      <trkpt lon="-123.279415" lat="44.563247"><ele>70.681763</ele><time>2020-09-29T00:54:53Z</time><extensions><speed>2.600000</speed><course>19.335938</course><hAcc>5.000000</hAcc><vAcc>3.000000</vAcc></extensions></trkpt>
      <trkpt lon="-123.279437" lat="44.563261"><ele>70.734398</ele><time>2020-09-29T00:54:54Z</time><extensions><speed>1.120000</speed><course>18.632812</course><hAcc>5.000000</hAcc><vAcc>3.000000</vAcc></extensions></trkpt>
      <trkpt lon="-123.279430" lat="44.563268"><ele>70.709465</ele><time>2020-09-29T00:54:55Z</time><extensions><speed>0.210000</speed><course>138.867188</course><hAcc>5.000000</hAcc><vAcc>4.000000</vAcc></extensions></trkpt>
      <trkpt lon="-123.279439" lat="44.563256"><ele>70.684792</ele><time>2020-09-29T00:54:56Z</time><extensions><speed>0.430000</speed><course>202.148438</course><hAcc>5.000000</hAcc><vAcc>4.000000</vAcc></extensions></trkpt>
      <trkpt lon="-123.279434" lat="44.563270"><ele>70.789085</ele><time>2020-09-29T00:54:57Z</time><extensions><speed>0.210000</speed><course>138.867188</course><hAcc>5.000000</hAcc><vAcc>4.000000</vAcc></extensions></trkpt>
      <trkpt lon="-123.279434" lat="44.563270"><ele>70.699341</ele><time>2020-09-29T00:54:58Z</time><extensions><speed>0.000000</speed><course>138.867188</course><hAcc>5.000000</hAcc><vAcc>4.000000</vAcc></extensions></trkpt>
      <trkpt lon="-123.279434" lat="44.563270"><ele>70.722862</ele><time>2020-09-29T00:54:59Z</time><extensions><speed>0.000000</speed><course>138.867188</course><hAcc>5.000000</hAcc><vAcc>4.000000</vAcc></extensions></trkpt>
      <trkpt lon="-123.279434" lat="44.563270"><ele>70.711502</ele><time>2020-09-29T00:55:00Z</time><extensions><speed>0.000000</speed><course>138.867188</course><hAcc>5.000000</hAcc><vAcc>4.000000</vAcc></extensions></trkpt>
      <trkpt lon="-123.279434" lat="44.563270"><ele>70.712334</ele><time>2020-09-29T00:55:01Z</time><extensions><speed>0.000000</speed><course>138.867188</course><hAcc>5.000000</hAcc><vAcc>4.000000</vAcc></extensions></trkpt>
      <trkpt lon="-123.279434" lat="44.563270"><ele>70.698631</ele><time>2020-09-29T00:55:02Z</time><extensions><speed>0.000000</speed><course>138.867188</course><hAcc>5.000000</hAcc><vAcc>4.000000</vAcc></extensions></trkpt>
      <trkpt lon="-123.279434" lat="44.563270"><ele>70.726364</ele><time>2020-09-29T00:55:03Z</time><extensions><speed>0.000000</speed><course>138.867188</course><hAcc>5.000000</hAcc><vAcc>4.000000</vAcc></extensions></trkpt>
      <trkpt lon="-123.279434" lat="44.563270"><ele>70.661308</ele><time>2020-09-29T00:55:04Z</time><extensions><speed>0.000000</speed><course>138.867188</course><hAcc>5.000000</hAcc><vAcc>4.000000</vAcc></extensions></trkpt>
      <trkpt lon="-123.279434" lat="44.563270"><ele>70.674583</ele><time>2020-09-29T00:55:05Z</time><extensions><speed>0.000000</speed><course>138.867188</course><hAcc>5.000000</hAcc><vAcc>4.000000</vAcc></extensions></trkpt>
      <trkpt lon="-123.279434" lat="44.563270"><ele>70.790077</ele><time>2020-09-29T00:55:06Z</time><extensions><speed>0.000000</speed><course>138.867188</course><hAcc>5.000000</hAcc><vAcc>4.000000</vAcc></extensions></trkpt>
      <trkpt lon="-123.279434" lat="44.563270"><ele>70.801361</ele><time>2020-09-29T00:55:07Z</time><extensions><speed>0.000000</speed><course>138.867188</course><hAcc>5.000000</hAcc><vAcc>4.000000</vAcc></extensions></trkpt>
      <trkpt lon="-123.279434" lat="44.563270"><ele>70.847336</ele><time>2020-09-29T00:55:08Z</time><extensions><speed>0.000000</speed><course>138.867188</course><hAcc>5.000000</hAcc><vAcc>3.000000</vAcc></extensions></trkpt>
      <trkpt lon="-123.279434" lat="44.563270"><ele>70.860222</ele><time>2020-09-29T00:55:09Z</time><extensions><speed>0.000000</speed><course>138.867188</course><hAcc>5.000000</hAcc><vAcc>3.000000</vAcc></extensions></trkpt>
      <trkpt lon="-123.279434" lat="44.563270"><ele>70.860756</ele><time>2020-09-29T00:55:10Z</time><extensions><speed>0.000000</speed><course>138.867188</course><hAcc>5.000000</hAcc><vAcc>3.000000</vAcc></extensions></trkpt>
      <trkpt lon="-123.279434" lat="44.563270"><ele>70.839279</ele><time>2020-09-29T00:55:11Z</time><extensions><speed>0.000000</speed><course>138.867188</course><hAcc>5.000000</hAcc><vAcc>3.000000</vAcc></extensions></trkpt>
      <trkpt lon="-123.279434" lat="44.563270"><ele>70.729919</ele><time>2020-09-29T00:55:12Z</time><extensions><speed>0.000000</speed><course>138.867188</course><hAcc>5.000000</hAcc><vAcc>3.000000</vAcc></extensions></trkpt>
      <trkpt lon="-123.279434" lat="44.563270"><ele>70.781898</ele><time>2020-09-29T00:55:13Z</time><extensions><speed>0.000000</speed><course>138.867188</course><hAcc>5.000000</hAcc><vAcc>3.000000</vAcc></extensions></trkpt>
      <trkpt lon="-123.279434" lat="44.563270"><ele>70.757767</ele><time>2020-09-29T00:55:14Z</time><extensions><speed>0.000000</speed><course>138.867188</course><hAcc>5.000000</hAcc><vAcc>3.000000</vAcc></extensions></trkpt>
      <trkpt lon="-123.279434" lat="44.563270"><ele>70.727753</ele><time>2020-09-29T00:55:15Z</time><extensions><speed>0.000000</speed><course>138.867188</course><hAcc>5.000000</hAcc><vAcc>3.000000</vAcc></extensions></trkpt>
      <trkpt lon="-123.279434" lat="44.563270"><ele>70.681168</ele><time>2020-09-29T00:55:16Z</time><extensions><speed>0.000000</speed><course>138.867188</course><hAcc>5.000000</hAcc><vAcc>3.000000</vAcc></extensions></trkpt>
      <trkpt lon="-123.279434" lat="44.563270"><ele>70.670967</ele><time>2020-09-29T00:55:17Z</time><extensions><speed>0.000000</speed><course>138.867188</course><hAcc>5.000000</hAcc><vAcc>3.000000</vAcc></extensions></trkpt>
      <trkpt lon="-123.279434" lat="44.563270"><ele>70.588043</ele><time>2020-09-29T00:55:18Z</time><extensions><speed>0.000000</speed><course>138.867188</course><hAcc>5.000000</hAcc><vAcc>3.000000</vAcc></extensions></trkpt>
      <trkpt lon="-123.279434" lat="44.563270"><ele>70.555809</ele><time>2020-09-29T00:55:19Z</time><extensions><speed>0.000000</speed><course>138.867188</course><hAcc>5.000000</hAcc><vAcc>3.000000</vAcc></extensions></trkpt>
      <trkpt lon="-123.279434" lat="44.563270"><ele>70.558647</ele><time>2020-09-29T00:55:20Z</time><extensions><speed>0.000000</speed><course>138.867188</course><hAcc>5.000000</hAcc><vAcc>3.000000</vAcc></extensions></trkpt>
      <trkpt lon="-123.279434" lat="44.563270"><ele>70.517265</ele><time>2020-09-29T00:55:21Z</time><extensions><speed>0.000000</speed><course>138.867188</course><hAcc>5.000000</hAcc><vAcc>3.000000</vAcc></extensions></trkpt>
      <trkpt lon="-123.279434" lat="44.563270"><ele>70.512329</ele><time>2020-09-29T00:55:22Z</time><extensions><speed>0.000000</speed><course>138.867188</course><hAcc>5.000000</hAcc><vAcc>3.000000</vAcc></extensions></trkpt>
      <trkpt lon="-123.279434" lat="44.563270"><ele>70.533653</ele><time>2020-09-29T00:55:23Z</time><extensions><speed>0.000000</speed><course>138.867188</course><hAcc>5.000000</hAcc><vAcc>3.000000</vAcc></extensions></trkpt>
      <trkpt lon="-123.279434" lat="44.563270"><ele>70.536987</ele><time>2020-09-29T00:55:24Z</time><extensions><speed>0.000000</speed><course>138.867188</course><hAcc>5.000000</hAcc><vAcc>3.000000</vAcc></extensions></trkpt>
      <trkpt lon="-123.279434" lat="44.563270"><ele>70.444382</ele><time>2020-09-29T00:55:25Z</time><extensions><speed>0.000000</speed><course>138.867188</course><hAcc>5.000000</hAcc><vAcc>3.000000</vAcc></extensions></trkpt>
      <trkpt lon="-123.279434" lat="44.563270"><ele>70.375137</ele><time>2020-09-29T00:55:26Z</time><extensions><speed>0.000000</speed><course>138.867188</course><hAcc>5.000000</hAcc><vAcc>3.000000</vAcc></extensions></trkpt>
      <trkpt lon="-123.279434" lat="44.563270"><ele>70.412506</ele><time>2020-09-29T00:55:27Z</time><extensions><speed>0.000000</speed><course>138.867188</course><hAcc>5.000000</hAcc><vAcc>3.000000</vAcc></extensions></trkpt>
      <trkpt lon="-123.279434" lat="44.563270"><ele>70.446892</ele><time>2020-09-29T00:55:28Z</time><extensions><speed>0.000000</speed><course>-1.000000</course><hAcc>5.000000</hAcc><vAcc>3.000000</vAcc></extensions></trkpt>
      <trkpt lon="-123.279434" lat="44.563270"><ele>70.441048</ele><time>2020-09-29T00:55:29Z</time><extensions><speed>0.000000</speed><course>-1.000000</course><hAcc>5.000000</hAcc><vAcc>3.000000</vAcc></extensions></trkpt>
      <trkpt lon="-123.279434" lat="44.563270"><ele>70.431847</ele><time>2020-09-29T00:55:30Z</time><extensions><speed>0.000000</speed><course>-1.000000</course><hAcc>5.000000</hAcc><vAcc>3.000000</vAcc></extensions></trkpt>
      <trkpt lon="-123.279434" lat="44.563270"><ele>70.488762</ele><time>2020-09-29T00:55:31Z</time><extensions><speed>0.000000</speed><course>220.781250</course><hAcc>5.000000</hAcc><vAcc>3.000000</vAcc></extensions></trkpt>
      <trkpt lon="-123.279410" lat="44.563286"><ele>70.371620</ele><time>2020-09-29T00:55:32Z</time><extensions><speed>0.710000</speed><course>221.132812</course><hAcc>5.000000</hAcc><vAcc>3.000000</vAcc></extensions></trkpt>
      <trkpt lon="-123.279414" lat="44.563282"><ele>70.500160</ele><time>2020-09-29T00:55:33Z</time><extensions><speed>0.850000</speed><course>190.195312</course><hAcc>5.000000</hAcc><vAcc>3.000000</vAcc></extensions></trkpt>
      <trkpt lon="-123.279421" lat="44.563271"><ele>70.420303</ele><time>2020-09-29T00:55:34Z</time><extensions><speed>0.850000</speed><course>191.953125</course><hAcc>5.000000</hAcc><vAcc>3.000000</vAcc></extensions></trkpt>
      <trkpt lon="-123.279421" lat="44.563265"><ele>70.324745</ele><time>2020-09-29T00:55:35Z</time><extensions><speed>0.800000</speed><course>187.031250</course><hAcc>5.000000</hAcc><vAcc>3.000000</vAcc></extensions></trkpt>
      <trkpt lon="-123.279425" lat="44.563257"><ele>70.231506</ele><time>2020-09-29T00:55:36Z</time><extensions><speed>0.800000</speed><course>190.898438</course><hAcc>5.000000</hAcc><vAcc>3.000000</vAcc></extensions></trkpt>
      <trkpt lon="-123.279431" lat="44.563248"><ele>70.120377</ele><time>2020-09-29T00:55:37Z</time><extensions><speed>0.480000</speed><course>177.187500</course><hAcc>5.000000</hAcc><vAcc>3.000000</vAcc></extensions></trkpt>
      <trkpt lon="-123.279427" lat="44.563243"><ele>70.130493</ele><time>2020-09-29T00:55:38Z</time><extensions><speed>0.700000</speed><course>173.320312</course><hAcc>5.000000</hAcc><vAcc>3.000000</vAcc></extensions></trkpt>
      <trkpt lon="-123.279425" lat="44.563237"><ele>70.217407</ele><time>2020-09-29T00:55:39Z</time><extensions><speed>0.700000</speed><course>173.320312</course><hAcc>5.000000</hAcc><vAcc>3.000000</vAcc></extensions></trkpt>
      <trkpt lon="-123.279421" lat="44.563231"><ele>70.645279</ele><time>2020-09-29T00:55:40Z</time><extensions><speed>0.700000</speed><course>130.429688</course><hAcc>5.000000</hAcc><vAcc>3.000000</vAcc></extensions></trkpt>
      <trkpt lon="-123.279416" lat="44.563226"><ele>70.267807</ele><time>2020-09-29T00:55:41Z</time><extensions><speed>0.850000</speed><course>106.523438</course><hAcc>5.000000</hAcc><vAcc>3.000000</vAcc></extensions></trkpt>
      <trkpt lon="-123.279406" lat="44.563222"><ele>70.305420</ele><time>2020-09-29T00:55:42Z</time><extensions><speed>1.310000</speed><course>123.046875</course><hAcc>5.000000</hAcc><vAcc>3.000000</vAcc></extensions></trkpt>
      <trkpt lon="-123.279392" lat="44.563217"><ele>70.143745</ele><time>2020-09-29T00:55:43Z</time><extensions><speed>1.530000</speed><course>116.367188</course><hAcc>5.000000</hAcc><vAcc>3.000000</vAcc></extensions></trkpt>
      <trkpt lon="-123.279372" lat="44.563212"><ele>69.978561</ele><time>2020-09-29T00:55:44Z</time><extensions><speed>1.530000</speed><course>110.742188</course><hAcc>5.000000</hAcc><vAcc>3.000000</vAcc></extensions></trkpt>
      <trkpt lon="-123.279353" lat="44.563209"><ele>70.153687</ele><time>2020-09-29T00:55:45Z</time><extensions><speed>1.530000</speed><course>96.679688</course><hAcc>5.000000</hAcc><vAcc>3.000000</vAcc></extensions></trkpt>
      <trkpt lon="-123.279343" lat="44.563209"><ele>69.948380</ele><time>2020-09-29T00:55:46Z</time><extensions><speed>0.900000</speed><course>98.789062</course><hAcc>5.000000</hAcc><vAcc>3.000000</vAcc></extensions></trkpt>
      <trkpt lon="-123.279339" lat="44.563210"><ele>70.006493</ele><time>2020-09-29T00:55:47Z</time><extensions><speed>0.900000</speed><course>124.453125</course><hAcc>5.000000</hAcc><vAcc>3.000000</vAcc></extensions></trkpt>
      <trkpt lon="-123.279335" lat="44.563211"><ele>69.857018</ele><time>2020-09-29T00:55:48Z</time><extensions><speed>0.900000</speed><course>101.953125</course><hAcc>5.000000</hAcc><vAcc>3.000000</vAcc></extensions></trkpt>
      <trkpt lon="-123.279325" lat="44.563211"><ele>69.974449</ele><time>2020-09-29T00:55:49Z</time><extensions><speed>0.900000</speed><course>106.875000</course><hAcc>5.000000</hAcc><vAcc>3.000000</vAcc></extensions></trkpt>
      <trkpt lon="-123.279311" lat="44.563209"><ele>69.950844</ele><time>2020-09-29T00:55:50Z</time><extensions><speed>1.200000</speed><course>104.062500</course><hAcc>5.000000</hAcc><vAcc>3.000000</vAcc></extensions></trkpt>
      <trkpt lon="-123.279293" lat="44.563207"><ele>69.990196</ele><time>2020-09-29T00:55:51Z</time><extensions><speed>1.510000</speed><course>92.460938</course><hAcc>5.000000</hAcc><vAcc>3.000000</vAcc></extensions></trkpt>
      <trkpt lon="-123.279273" lat="44.563206"><ele>69.626297</ele><time>2020-09-29T00:55:52Z</time><extensions><speed>1.510000</speed><course>92.460938</course><hAcc>5.000000</hAcc><vAcc>3.000000</vAcc></extensions></trkpt>
      <trkpt lon="-123.279249" lat="44.563209"><ele>69.804283</ele><time>2020-09-29T00:55:53Z</time><extensions><speed>1.510000</speed><course>76.640625</course><hAcc>5.000000</hAcc><vAcc>3.000000</vAcc></extensions></trkpt>
      <trkpt lon="-123.279227" lat="44.563210"><ele>69.598274</ele><time>2020-09-29T00:55:54Z</time><extensions><speed>1.540000</speed><course>99.140625</course><hAcc>5.000000</hAcc><vAcc>3.000000</vAcc></extensions></trkpt>
      <trkpt lon="-123.279204" lat="44.563211"><ele>69.771080</ele><time>2020-09-29T00:55:55Z</time><extensions><speed>1.630000</speed><course>99.140625</course><hAcc>5.000000</hAcc><vAcc>3.000000</vAcc></extensions></trkpt>
      <trkpt lon="-123.279183" lat="44.563210"><ele>69.506531</ele><time>2020-09-29T00:55:56Z</time><extensions><speed>1.460000</speed><course>91.054688</course><hAcc>5.000000</hAcc><vAcc>3.000000</vAcc></extensions></trkpt>
      <trkpt lon="-123.279167" lat="44.563210"><ele>69.475761</ele><time>2020-09-29T00:55:57Z</time><extensions><speed>1.460000</speed><course>70.664062</course><hAcc>5.000000</hAcc><vAcc>3.000000</vAcc></extensions></trkpt>
      <trkpt lon="-123.279157" lat="44.563214"><ele>69.346764</ele><time>2020-09-29T00:55:58Z</time><extensions><speed>0.960000</speed><course>23.554688</course><hAcc>5.000000</hAcc><vAcc>3.000000</vAcc></extensions></trkpt>
      <trkpt lon="-123.279145" lat="44.563219"><ele>69.789307</ele><time>2020-09-29T00:55:59Z</time><extensions><speed>0.960000</speed><course>57.304688</course><hAcc>5.000000</hAcc><vAcc>3.000000</vAcc></extensions></trkpt>
      <trkpt lon="-123.279128" lat="44.563224"><ele>69.562782</ele><time>2020-09-29T00:56:00Z</time><extensions><speed>1.210000</speed><course>68.906250</course><hAcc>5.000000</hAcc><vAcc>3.000000</vAcc></extensions></trkpt>
      <trkpt lon="-123.279106" lat="44.563226"><ele>69.559448</ele><time>2020-09-29T00:56:01Z</time><extensions><speed>1.690000</speed><course>86.132812</course><hAcc>5.000000</hAcc><vAcc>3.000000</vAcc></extensions></trkpt>
      <trkpt lon="-123.279094" lat="44.563225"><ele>69.632858</ele><time>2020-09-29T00:56:02Z</time><extensions><speed>1.690000</speed><course>86.484375</course><hAcc>5.000000</hAcc><vAcc>3.000000</vAcc></extensions></trkpt>
      <trkpt lon="-123.279085" lat="44.563225"><ele>69.671860</ele><time>2020-09-29T00:56:03Z</time><extensions><speed>0.890000</speed><course>87.890625</course><hAcc>5.000000</hAcc><vAcc>3.000000</vAcc></extensions></trkpt>
      <trkpt lon="-123.279075" lat="44.563226"><ele>69.716751</ele><time>2020-09-29T00:56:04Z</time><extensions><speed>0.720000</speed><course>79.804688</course><hAcc>5.000000</hAcc><vAcc>3.000000</vAcc></extensions></trkpt>
      <trkpt lon="-123.279064" lat="44.563227"><ele>69.585442</ele><time>2020-09-29T00:56:05Z</time><extensions><speed>0.900000</speed><course>76.992188</course><hAcc>5.000000</hAcc><vAcc>3.000000</vAcc></extensions></trkpt>
      <trkpt lon="-123.279051" lat="44.563224"><ele>69.422310</ele><time>2020-09-29T00:56:06Z</time><extensions><speed>1.220000</speed><course>96.328125</course><hAcc>5.000000</hAcc><vAcc>3.000000</vAcc></extensions></trkpt>
      <trkpt lon="-123.279041" lat="44.563219"><ele>69.437462</ele><time>2020-09-29T00:56:07Z</time><extensions><speed>0.900000</speed><course>112.851562</course><hAcc>5.000000</hAcc><vAcc>3.000000</vAcc></extensions></trkpt>
      <trkpt lon="-123.279037" lat="44.563213"><ele>69.327721</ele><time>2020-09-29T00:56:08Z</time><extensions><speed>0.740000</speed><course>135.000000</course><hAcc>10.000000</hAcc><vAcc>3.000000</vAcc></extensions></trkpt>
      <trkpt lon="-123.279032" lat="44.563213"><ele>69.328392</ele><time>2020-09-29T00:56:09Z</time><extensions><speed>0.180000</speed><course>138.867188</course><hAcc>10.000000</hAcc><vAcc>3.000000</vAcc></extensions></trkpt>
      <trkpt lon="-123.279031" lat="44.563209"><ele>69.342690</ele><time>2020-09-29T00:56:10Z</time><extensions><speed>0.570000</speed><course>154.687500</course><hAcc>10.000000</hAcc><vAcc>3.000000</vAcc></extensions></trkpt>
      <trkpt lon="-123.279026" lat="44.563209"><ele>69.360115</ele><time>2020-09-29T00:56:11Z</time><extensions><speed>0.570000</speed><course>136.406250</course><hAcc>10.000000</hAcc><vAcc>3.000000</vAcc></extensions></trkpt>
      <trkpt lon="-123.279022" lat="44.563211"><ele>69.385094</ele><time>2020-09-29T00:56:12Z</time><extensions><speed>0.490000</speed><course>129.375000</course><hAcc>10.000000</hAcc><vAcc>3.000000</vAcc></extensions></trkpt>
      <trkpt lon="-123.279019" lat="44.563208"><ele>69.335892</ele><time>2020-09-29T00:56:13Z</time><extensions><speed>0.490000</speed><course>136.406250</course><hAcc>10.000000</hAcc><vAcc>3.000000</vAcc></extensions></trkpt>
      <trkpt lon="-123.279021" lat="44.563202"><ele>69.310051</ele><time>2020-09-29T00:56:14Z</time><extensions><speed>0.810000</speed><course>174.375000</course><hAcc>10.000000</hAcc><vAcc>3.000000</vAcc></extensions></trkpt>
      <trkpt lon="-123.279028" lat="44.563193"><ele>69.301613</ele><time>2020-09-29T00:56:15Z</time><extensions><speed>0.930000</speed><course>197.578125</course><hAcc>10.000000</hAcc><vAcc>3.000000</vAcc></extensions></trkpt>
      <trkpt lon="-123.279034" lat="44.563187"><ele>69.362946</ele><time>2020-09-29T00:56:16Z</time><extensions><speed>0.810000</speed><course>202.148438</course><hAcc>10.000000</hAcc><vAcc>3.000000</vAcc></extensions></trkpt>
      <trkpt lon="-123.279038" lat="44.563183"><ele>69.517441</ele><time>2020-09-29T00:56:17Z</time><extensions><speed>0.580000</speed><course>191.250000</course><hAcc>10.000000</hAcc><vAcc>3.000000</vAcc></extensions></trkpt>
      <trkpt lon="-123.279042" lat="44.563173"><ele>69.251640</ele><time>2020-09-29T00:56:18Z</time><extensions><speed>0.740000</speed><course>178.593750</course><hAcc>10.000000</hAcc><vAcc>3.000000</vAcc></extensions></trkpt>
      <trkpt lon="-123.279045" lat="44.563163"><ele>69.348427</ele><time>2020-09-29T00:56:19Z</time><extensions><speed>0.740000</speed><course>175.429688</course><hAcc>10.000000</hAcc><vAcc>3.000000</vAcc></extensions></trkpt>
      <trkpt lon="-123.279050" lat="44.563154"><ele>69.327408</ele><time>2020-09-29T00:56:20Z</time><extensions><speed>0.740000</speed><course>185.976562</course><hAcc>10.000000</hAcc><vAcc>3.000000</vAcc></extensions></trkpt>
      <trkpt lon="-123.279050" lat="44.563154"><ele>69.276100</ele><time>2020-09-29T00:56:21Z</time><extensions><speed>0.000000</speed><course>203.554688</course><hAcc>10.000000</hAcc><vAcc>3.000000</vAcc></extensions></trkpt>
      <trkpt lon="-123.279050" lat="44.563154"><ele>69.339989</ele><time>2020-09-29T00:56:22Z</time><extensions><speed>0.000000</speed><course>91.757812</course><hAcc>30.000000</hAcc><vAcc>3.000000</vAcc></extensions></trkpt>
      <trkpt lon="-123.279050" lat="44.563154"><ele>69.446480</ele><time>2020-09-29T00:56:23Z</time><extensions><speed>0.000000</speed><course>91.054688</course><hAcc>30.000000</hAcc><vAcc>3.000000</vAcc></extensions></trkpt>
      <trkpt lon="-123.279050" lat="44.563154"><ele>69.301994</ele><time>2020-09-29T00:56:24Z</time><extensions><speed>0.000000</speed><course>165.585938</course><hAcc>30.000000</hAcc><vAcc>4.000000</vAcc></extensions></trkpt>
      <trkpt lon="-123.279050" lat="44.563154"><ele>69.291008</ele><time>2020-09-29T00:56:25Z</time><extensions><speed>0.000000</speed><course>104.062500</course><hAcc>30.000000</hAcc><vAcc>4.000000</vAcc></extensions></trkpt>
      <trkpt lon="-123.279050" lat="44.563154"><ele>69.333488</ele><time>2020-09-29T00:56:26Z</time><extensions><speed>0.000000</speed><course>248.906250</course><hAcc>30.000000</hAcc><vAcc>4.000000</vAcc></extensions></trkpt>
      <trkpt lon="-123.279050" lat="44.563154"><ele>69.334213</ele><time>2020-09-29T00:56:27Z</time><extensions><speed>0.000000</speed><course>248.906250</course><hAcc>30.000000</hAcc><vAcc>4.000000</vAcc></extensions></trkpt>
      <trkpt lon="-123.279050" lat="44.563154"><ele>69.344543</ele><time>2020-09-29T00:56:28Z</time><extensions><speed>0.000000</speed><course>248.906250</course><hAcc>30.000000</hAcc><vAcc>4.000000</vAcc></extensions></trkpt>
      <trkpt lon="-123.279050" lat="44.563154"><ele>69.340118</ele><time>2020-09-29T00:56:29Z</time><extensions><speed>0.000000</speed><course>51.679688</course><hAcc>30.000000</hAcc><vAcc>4.000000</vAcc></extensions></trkpt>
      <trkpt lon="-123.279050" lat="44.563154"><ele>69.308296</ele><time>2020-09-29T00:56:30Z</time><extensions><speed>0.000000</speed><course>118.125000</course><hAcc>30.000000</hAcc><vAcc>4.000000</vAcc></extensions></trkpt>
      <trkpt lon="-123.279050" lat="44.563154"><ele>69.466698</ele><time>2020-09-29T00:56:31Z</time><extensions><speed>0.000000</speed><course>200.742188</course><hAcc>30.000000</hAcc><vAcc>4.000000</vAcc></extensions></trkpt>
      <trkpt lon="-123.279050" lat="44.563154"><ele>69.415749</ele><time>2020-09-29T00:56:32Z</time><extensions><speed>0.000000</speed><course>104.414062</course><hAcc>30.000000</hAcc><vAcc>4.000000</vAcc></extensions></trkpt>
      <trkpt lon="-123.279047" lat="44.563135"><ele>69.528847</ele><time>2020-09-29T00:56:33Z</time><extensions><speed>1.350000</speed><course>280.898438</course><hAcc>30.000000</hAcc><vAcc>4.000000</vAcc></extensions></trkpt>
      <trkpt lon="-123.279068" lat="44.563129"><ele>69.495529</ele><time>2020-09-29T00:56:34Z</time><extensions><speed>1.350000</speed><course>275.273438</course><hAcc>30.000000</hAcc><vAcc>4.000000</vAcc></extensions></trkpt>
      <trkpt lon="-123.279054" lat="44.563152"><ele>69.513237</ele><time>2020-09-29T00:56:35Z</time><extensions><speed>1.350000</speed><course>281.953125</course><hAcc>30.000000</hAcc><vAcc>4.000000</vAcc></extensions></trkpt>
      <trkpt lon="-123.279037" lat="44.563172"><ele>69.593140</ele><time>2020-09-29T00:56:36Z</time><extensions><speed>0.810000</speed><course>289.335938</course><hAcc>30.000000</hAcc><vAcc>4.000000</vAcc></extensions></trkpt>
      <trkpt lon="-123.279020" lat="44.563189"><ele>69.453369</ele><time>2020-09-29T00:56:37Z</time><extensions><speed>0.810000</speed><course>315.703125</course><hAcc>30.000000</hAcc><vAcc>4.000000</vAcc></extensions></trkpt>
      <trkpt lon="-123.279020" lat="44.563189"><ele>69.437561</ele><time>2020-09-29T00:56:38Z</time><extensions><speed>0.000000</speed><course>286.523438</course><hAcc>30.000000</hAcc><vAcc>4.000000</vAcc></extensions></trkpt>
      <trkpt lon="-123.279020" lat="44.563189"><ele>69.547302</ele><time>2020-09-29T00:56:39Z</time><extensions><speed>0.000000</speed><course>137.812500</course><hAcc>30.000000</hAcc><vAcc>4.000000</vAcc></extensions></trkpt>
      <trkpt lon="-123.278947" lat="44.563218"><ele>69.443375</ele><time>2020-09-29T00:56:40Z</time><extensions><speed>0.000000</speed><course>137.812500</course><hAcc>30.000000</hAcc><vAcc>4.000000</vAcc></extensions></trkpt>
      <trkpt lon="-123.278947" lat="44.563218"><ele>69.391045</ele><time>2020-09-29T00:56:41Z</time><extensions><speed>0.000000</speed><course>137.812500</course><hAcc>30.000000</hAcc><vAcc>4.000000</vAcc></extensions></trkpt>
      <trkpt lon="-123.278947" lat="44.563218"><ele>69.480484</ele><time>2020-09-29T00:56:42Z</time><extensions><speed>0.000000</speed><course>137.812500</course><hAcc>30.000000</hAcc><vAcc>4.000000</vAcc></extensions></trkpt>
      <trkpt lon="-123.278947" lat="44.563218"><ele>69.426933</ele><time>2020-09-29T00:56:43Z</time><extensions><speed>0.000000</speed><course>137.812500</course><hAcc>30.000000</hAcc><vAcc>4.000000</vAcc></extensions></trkpt>
    </trkseg>
  </trk>
</gpx>