<?xml version="1.0" encoding="UTF-8"?>
<gpx version="1.1" creator="Apple Health Export" xmlns="http://www.topografix.com/GPX/1/1" xmlns:xsi="http://www.w3.org/2001/XMLSchema-instance" xsi:schemaLocation="http://www.topografix.com/GPX/1/1 http://www.topografix.com/GPX/1/1/gpx.xsd">
  <metadata>
    <time>2021-02-21T19:24:49Z</time>
  </metadata>
  <trk>
    <name>Route 2021-01-24 10:10pm</name>
    <trkseg>
      <trkpt lon="-123.328914" lat="44.563833"><ele>0.000000</ele><time>2021-01-25T06:10:48Z</time><extensions><speed>-1.000000</speed><course>-1.000000</course><hAcc>0.000000</hAcc><vAcc>-1.000000</vAcc></extensions></trkpt>
      <trkpt lon="-123.328764" lat="44.564150"><ele>0.000000</ele><time>2021-01-25T06:10:48Z</time><extensions><speed>-1.000000</speed><course>-1.000000</course><hAcc>0.000000</hAcc><vAcc>-1.000000</vAcc></extensions></trkpt>
      <trkpt lon="-123.328698" lat="44.564300"><ele>0.000000</ele><time>2021-01-25T06:10:48Z</time><extensions><speed>-1.000000</speed><course>-1.000000</course><hAcc>0.000000</hAcc><vAcc>-1.000000</vAcc></extensions></trkpt>
      <trkpt lon="-123.328670" lat="44.564392"><ele>0.000000</ele><time>2021-01-25T06:10:48Z</time><extensions><speed>-1.000000</speed><course>-1.000000</course><hAcc>0.000000</hAcc><vAcc>-1.000000</vAcc></extensions></trkpt>
      <trkpt lon="-123.328628" lat="44.564545"><ele>0.000000</ele><time>2021-01-25T06:10:48Z</time><extensions><speed>-1.000000</speed><course>-1.000000</course><hAcc>0.000000</hAcc><vAcc>-1.000000</vAcc></extensions></trkpt>
      <trkpt lon="-123.328564" lat="44.564597"><ele>0.000000</ele><time>2021-01-25T06:10:48Z</time><extensions><speed>-1.000000</speed><course>-1.000000</course><hAcc>0.000000</hAcc><vAcc>-1.000000</vAcc></extensions></trkpt>
      <trkpt lon="-123.328558" lat="44.564697"><ele>0.000000</ele><time>2021-01-25T06:10:48Z</time><extensions><speed>-1.000000</speed><course>-1.000000</course><hAcc>0.000000</hAcc><vAcc>-1.000000</vAcc></extensions></trkpt>
      <trkpt lon="-123.328629" lat="44.564846"><ele>0.000000</ele><time>2021-01-25T06:10:48Z</time><extensions><speed>-1.000000</speed><course>-1.000000</course><hAcc>0.000000</hAcc><vAcc>-1.000000</vAcc></extensions></trkpt>
      <trkpt lon="-123.328673" lat="44.565027"><ele>0.000000</ele><time>2021-01-25T06:10:48Z</time><extensions><speed>-1.000000</speed><course>-1.000000</course><hAcc>0.000000</hAcc><vAcc>-1.000000</vAcc></extensions></trkpt>
      <trkpt lon="-123.328710" lat="44.565199"><ele>0.000000</ele><time>2021-01-25T06:10:48Z</time><extensions><speed>-1.000000</speed><course>-1.000000</course><hAcc>0.000000</hAcc><vAcc>-1.000000</vAcc></extensions></trkpt>
      <trkpt lon="-123.328763" lat="44.565347"><ele>0.000000</ele><time>2021-01-25T06:10:48Z</time><extensions><speed>-1.000000</speed><course>-1.000000</course><hAcc>0.000000</hAcc><vAcc>-1.000000</vAcc></extensions></trkpt>
      <trkpt lon="-123.328714" lat="44.565579"><ele>0.000000</ele><time>2021-01-25T06:10:48Z</time><extensions><speed>-1.000000</speed><course>-1.000000</course><hAcc>0.000000</hAcc><vAcc>-1.000000</vAcc></extensions></trkpt>
      <trkpt lon="-123.328622" lat="44.565653"><ele>0.000000</ele><time>2021-01-25T06:10:48Z</time><extensions><speed>-1.000000</speed><course>-1.000000</course><hAcc>0.000000</hAcc><vAcc>-1.000000</vAcc></extensions></trkpt>
      <trkpt lon="-123.328612" lat="44.565729"><ele>0.000000</ele><time>2021-01-25T06:10:48Z</time><extensions><speed>-1.000000</speed><course>-1.000000</course><hAcc>0.000000</hAcc><vAcc>-1.000000</vAcc></extensions></trkpt>
      <trkpt lon="-123.328695" lat="44.565926"><ele>0.000000</ele><time>2021-01-25T06:10:48Z</time><extensions><speed>-1.000000</speed><course>-1.000000</course><hAcc>0.000000</hAcc><vAcc>-1.000000</vAcc></extensions></trkpt>
      <trkpt lon="-123.328858" lat="44.566088"><ele>0.000000</ele><time>2021-01-25T06:10:48Z</time><extensions><speed>-1.000000</speed><course>-1.000000</course><hAcc>0.000000</hAcc><vAcc>-1.000000</vAcc></extensions></trkpt>
      <trkpt lon="-123.328923" lat="44.565909"><ele>0.000000</ele><time>2021-01-25T06:10:48Z</time><extensions><speed>-1.000000</speed><course>-1.000000</course><hAcc>0.000000</hAcc><vAcc>-1.000000</vAcc></extensions></trkpt>
      <trkpt lon="-123.329012" lat="44.565775"><ele>0.000000</ele><time>2021-01-25T06:10:48Z</time><extensions><speed>-1.000000</speed><course>-1.000000</course><hAcc>0.000000</hAcc><vAcc>-1.000000</vAcc></extensions></trkpt>
      <trkpt lon="-123.329235" lat="44.565641"><ele>0.000000</ele><time>2021-01-25T06:10:48Z</time><extensions><speed>-1.000000</speed><course>-1.000000</course><hAcc>0.000000</hAcc><vAcc>-1.000000</vAcc></extensions></trkpt>
      <trkpt lon="-123.329433" lat="44.565611"><ele>0.000000</ele><time>2021-01-25T06:10:48Z</time><extensions><speed>-1.000000</speed><course>-1.000000</course><hAcc>0.000000</hAcc><vAcc>-1.000000</vAcc></extensions></trkpt>
      <trkpt lon="-123.329516" lat="44.565553"><ele>0.000000</ele><time>2021-01-25T06:10:48Z</time><extensions><speed>-1.000000</speed><course>-1.000000</course><hAcc>0.000000</hAcc><vAcc>-1.000000</vAcc></extensions></trkpt>
      <trkpt lon="-123.329615" lat="44.565461"><ele>0.000000</ele><time>2021-01-25T06:10:48Z</time><extensions><speed>-1.000000</speed><course>-1.000000</course><hAcc>0.000000</hAcc><vAcc>-1.000000</vAcc></extensions></trkpt>
      <trkpt lon="-123.329792" lat="44.565303"><ele>0.000000</ele><time>2021-01-25T06:10:48Z</time><extensions><speed>-1.000000</speed><course>-1.000000</course><hAcc>0.000000</hAcc><vAcc>-1.000000</vAcc></extensions></trkpt>
      <trkpt lon="-123.329903" lat="44.565213"><ele>0.000000</ele><time>2021-01-25T06:10:48Z</time><extensions><speed>-1.000000</speed><course>-1.000000</course><hAcc>0.000000</hAcc><vAcc>-1.000000</vAcc></extensions></trkpt>
      <trkpt lon="-123.330106" lat="44.565366"><ele>0.000000</ele><time>2021-01-25T06:10:48Z</time><extensions><speed>-1.000000</speed><course>-1.000000</course><hAcc>0.000000</hAcc><vAcc>-1.000000</vAcc></extensions></trkpt>
      <trkpt lon="-123.330142" lat="44.565468"><ele>0.000000</ele><time>2021-01-25T06:10:48Z</time><extensions><speed>-1.000000</speed><course>-1.000000</course><hAcc>0.000000</hAcc><vAcc>-1.000000</vAcc></extensions></trkpt>
      <trkpt lon="-123.330215" lat="44.565569"><ele>0.000000</ele><time>2021-01-25T06:10:48Z</time><extensions><speed>-1.000000</speed><course>-1.000000</course><hAcc>0.000000</hAcc><vAcc>-1.000000</vAcc></extensions></trkpt>
      <trkpt lon="-123.330247" lat="44.565634"><ele>0.000000</ele><time>2021-01-25T06:10:48Z</time><extensions><speed>-1.000000</speed><course>-1.000000</course><hAcc>0.000000</hAcc><vAcc>-1.000000</vAcc></extensions></trkpt>
      <trkpt lon="-123.330264" lat="44.565823"><ele>0.000000</ele><time>2021-01-25T06:10:48Z</time><extensions><speed>-1.000000</speed><course>-1.000000</course><hAcc>0.000000</hAcc><vAcc>-1.000000</vAcc></extensions></trkpt>
      <trkpt lon="-123.330327" lat="44.565923"><ele>0.000000</ele><time>2021-01-25T06:10:48Z</time><extensions><speed>-1.000000</speed><course>-1.000000</course><hAcc>0.000000</hAcc><vAcc>-1.000000</vAcc></extensions></trkpt>
      <trkpt lon="-123.330296" lat="44.565954"><ele>0.000000</ele><time>2021-01-25T06:10:48Z</time><extensions><speed>-1.000000</speed><course>-1.000000</course><hAcc>0.000000</hAcc><vAcc>-1.000000</vAcc></extensions></trkpt>
      <trkpt lon="-123.330373" lat="44.566084"><ele>0.000000</ele><time>2021-01-25T06:10:48Z</time><extensions><speed>-1.000000</speed><course>-1.000000</course><hAcc>0.000000</hAcc><vAcc>-1.000000</vAcc></extensions></trkpt>
      <trkpt lon="-123.330498" lat="44.566182"><ele>0.000000</ele><time>2021-01-25T06:10:48Z</time><extensions><speed>-1.000000</speed><course>-1.000000</course><hAcc>0.000000</hAcc><vAcc>-1.000000</vAcc></extensions></trkpt>
      <trkpt lon="-123.330622" lat="44.566200"><ele>0.000000</ele><time>2021-01-25T06:10:48Z</time><extensions><speed>-1.000000</speed><course>-1.000000</course><hAcc>0.000000</hAcc><vAcc>-1.000000</vAcc></extensions></trkpt>
      <trkpt lon="-123.330623" lat="44.566143"><ele>0.000000</ele><time>2021-01-25T06:10:48Z</time><extensions><speed>-1.000000</speed><course>-1.000000</course><hAcc>0.000000</hAcc><vAcc>-1.000000</vAcc></extensions></trkpt>
      <trkpt lon="-123.330643" lat="44.566085"><ele>0.000000</ele><time>2021-01-25T06:10:48Z</time><extensions><speed>-1.000000</speed><course>-1.000000</course><hAcc>0.000000</hAcc><vAcc>-1.000000</vAcc></extensions></trkpt>
      <trkpt lon="-123.330674" lat="44.565984"><ele>0.000000</ele><time>2021-01-25T06:10:48Z</time><extensions><speed>-1.000000</speed><course>-1.000000</course><hAcc>0.000000</hAcc><vAcc>-1.000000</vAcc></extensions></trkpt>
      <trkpt lon="-123.330678" lat="44.565888"><ele>0.000000</ele><time>2021-01-25T06:10:48Z</time><extensions><speed>-1.000000</speed><course>-1.000000</course><hAcc>0.000000</hAcc><vAcc>-1.000000</vAcc></extensions></trkpt>
      <trkpt lon="-123.330663" lat="44.565818"><ele>0.000000</ele><time>2021-01-25T06:10:48Z</time><extensions><speed>-1.000000</speed><course>-1.000000</course><hAcc>0.000000</hAcc><vAcc>-1.000000</vAcc></extensions></trkpt>
      <trkpt lon="-123.330685" lat="44.565680"><ele>0.000000</ele><time>2021-01-25T06:10:48Z</time><extensions><speed>-1.000000</speed><course>-1.000000</course><hAcc>0.000000</hAcc><vAcc>-1.000000</vAcc></extensions></trkpt>
      <trkpt lon="-123.330813" lat="44.565591"><ele>0.000000</ele><time>2021-01-25T06:10:48Z</time><extensions><speed>-1.000000</speed><course>-1.000000</course><hAcc>0.000000</hAcc><vAcc>-1.000000</vAcc></extensions></trkpt>
      <trkpt lon="-123.330951" lat="44.565529"><ele>0.000000</ele><time>2021-01-25T06:10:48Z</time><extensions><speed>-1.000000</speed><course>-1.000000</course><hAcc>0.000000</hAcc><vAcc>-1.000000</vAcc></extensions></trkpt>
      <trkpt lon="-123.331039" lat="44.565497"><ele>0.000000</ele><time>2021-01-25T06:10:48Z</time><extensions><speed>-1.000000</speed><course>-1.000000</course><hAcc>0.000000</hAcc><vAcc>-1.000000</vAcc></extensions></trkpt>
      <trkpt lon="-123.331194" lat="44.565442"><ele>0.000000</ele><time>2021-01-25T06:10:48Z</time><extensions><speed>-1.000000</speed><course>-1.000000</course><hAcc>0.000000</hAcc><vAcc>-1.000000</vAcc></extensions></trkpt>
      <trkpt lon="-123.331419" lat="44.565355"><ele>0.000000</ele><time>2021-01-25T06:10:48Z</time><extensions><speed>-1.000000</speed><course>-1.000000</course><hAcc>0.000000</hAcc><vAcc>-1.000000</vAcc></extensions></trkpt>
      <trkpt lon="-123.331572" lat="44.565267"><ele>0.000000</ele><time>2021-01-25T06:10:48Z</time><extensions><speed>-1.000000</speed><course>-1.000000</course><hAcc>0.000000</hAcc><vAcc>-1.000000</vAcc></extensions></trkpt>
      <trkpt lon="-123.331720" lat="44.565221"><ele>0.000000</ele><time>2021-01-25T06:10:48Z</time><extensions><speed>-1.000000</speed><course>-1.000000</course><hAcc>0.000000</hAcc><vAcc>-1.000000</vAcc></extensions></trkpt>
      <trkpt lon="-123.331767" lat="44.565201"><ele>0.000000</ele><time>2021-01-25T06:10:48Z</time><extensions><speed>-1.000000</speed><course>-1.000000</course><hAcc>0.000000</hAcc><vAcc>-1.000000</vAcc></extensions></trkpt>
      <trkpt lon="-123.331659" lat="44.565285"><ele>0.000000</ele><time>2021-01-25T06:10:48Z</time><extensions><speed>-1.000000</speed><course>-1.000000</course><hAcc>0.000000</hAcc><vAcc>-1.000000</vAcc></extensions></trkpt>
      <trkpt lon="-123.331559" lat="44.565389"><ele>0.000000</ele><time>2021-01-25T06:10:48Z</time><extensions><speed>-1.000000</speed><course>-1.000000</course><hAcc>0.000000</hAcc><vAcc>-1.000000</vAcc></extensions></trkpt>
      <trkpt lon="-123.331472" lat="44.565500"><ele>0.000000</ele><time>2021-01-25T06:10:48Z</time><extensions><speed>-1.000000</speed><course>-1.000000</course><hAcc>0.000000</hAcc><vAcc>-1.000000</vAcc></extensions></trkpt>
      <trkpt lon="-123.331455" lat="44.565636"><ele>0.000000</ele><time>2021-01-25T06:10:48Z</time><extensions><speed>-1.000000</speed><course>-1.000000</course><hAcc>0.000000</hAcc><vAcc>-1.000000</vAcc></extensions></trkpt>
      <trkpt lon="-123.331447" lat="44.565780"><ele>0.000000</ele><time>2021-01-25T06:10:48Z</time><extensions><speed>-1.000000</speed><course>-1.000000</course><hAcc>0.000000</hAcc><vAcc>-1.000000</vAcc></extensions></trkpt>
      <trkpt lon="-123.331513" lat="44.565849"><ele>0.000000</ele><time>2021-01-25T06:10:48Z</time><extensions><speed>-1.000000</speed><course>-1.000000</course><hAcc>0.000000</hAcc><vAcc>-1.000000</vAcc></extensions></trkpt>
      <trkpt lon="-123.331591" lat="44.565721"><ele>0.000000</ele><time>2021-01-25T06:10:48Z</time><extensions><speed>-1.000000</speed><course>-1.000000</course><hAcc>0.000000</hAcc><vAcc>-1.000000</vAcc></extensions></trkpt>
      <trkpt lon="-123.331725" lat="44.565566"><ele>0.000000</ele><time>2021-01-25T06:10:48Z</time><extensions><speed>-1.000000</speed><course>-1.000000</course><hAcc>0.000000</hAcc><vAcc>-1.000000</vAcc></extensions></trkpt>
      <trkpt lon="-123.331876" lat="44.565466"><ele>0.000000</ele><time>2021-01-25T06:10:48Z</time><extensions><speed>-1.000000</speed><course>-1.000000</course><hAcc>0.000000</hAcc><vAcc>-1.000000</vAcc></extensions></trkpt>
      <trkpt lon="-123.332107" lat="44.565350"><ele>0.000000</ele><time>2021-01-25T06:10:48Z</time><extensions><speed>-1.000000</speed><course>-1.000000</course><hAcc>0.000000</hAcc><vAcc>-1.000000</vAcc></extensions></trkpt>
      <trkpt lon="-123.332246" lat="44.565341"><ele>0.000000</ele><time>2021-01-25T06:10:48Z</time><extensions><speed>-1.000000</speed><course>-1.000000</course><hAcc>0.000000</hAcc><vAcc>-1.000000</vAcc></extensions></trkpt>
      <trkpt lon="-123.332477" lat="44.565193"><ele>0.000000</ele><time>2021-01-25T06:10:48Z</time><extensions><speed>-1.000000</speed><course>-1.000000</course><hAcc>0.000000</hAcc><vAcc>-1.000000</vAcc></extensions></trkpt>
      <trkpt lon="-123.332396" lat="44.565355"><ele>0.000000</ele><time>2021-01-25T06:10:48Z</time><extensions><speed>-1.000000</speed><course>-1.000000</course><hAcc>0.000000</hAcc><vAcc>-1.000000</vAcc></extensions></trkpt>
      <trkpt lon="-123.332290" lat="44.565430"><ele>0.000000</ele><time>2021-01-25T06:10:48Z</time><extensions><speed>-1.000000</speed><course>-1.000000</course><hAcc>0.000000</hAcc><vAcc>-1.000000</vAcc></extensions></trkpt>
      <trkpt lon="-123.332198" lat="44.565540"><ele>0.000000</ele><time>2021-01-25T06:10:48Z</time><extensions><speed>-1.000000</speed><course>-1.000000</course><hAcc>0.000000</hAcc><vAcc>-1.000000</vAcc></extensions></trkpt>
      <trkpt lon="-123.332136" lat="44.565647"><ele>0.000000</ele><time>2021-01-25T06:10:48Z</time><extensions><speed>-1.000000</speed><course>-1.000000</course><hAcc>0.000000</hAcc><vAcc>-1.000000</vAcc></extensions></trkpt>
      <trkpt lon="-123.332175" lat="44.565824"><ele>0.000000</ele><time>2021-01-25T06:10:48Z</time><extensions><speed>-1.000000</speed><course>-1.000000</course><hAcc>0.000000</hAcc><vAcc>-1.000000</vAcc></extensions></trkpt>
      <trkpt lon="-123.332226" lat="44.565938"><ele>0.000000</ele><time>2021-01-25T06:10:48Z</time><extensions><speed>-1.000000</speed><course>-1.000000</course><hAcc>0.000000</hAcc><vAcc>-1.000000</vAcc></extensions></trkpt>
      <trkpt lon="-123.332339" lat="44.565743"><ele>0.000000</ele><time>2021-01-25T06:10:48Z</time><extensions><speed>-1.000000</speed><course>-1.000000</course><hAcc>0.000000</hAcc><vAcc>-1.000000</vAcc></extensions></trkpt>
      <trkpt lon="-123.332531" lat="44.565687"><ele>0.000000</ele><time>2021-01-25T06:10:48Z</time><extensions><speed>-1.000000</speed><course>-1.000000</course><hAcc>0.000000</hAcc><vAcc>-1.000000</vAcc></extensions></trkpt>
      <trkpt lon="-123.332707" lat="44.565661"><ele>0.000000</ele><time>2021-01-25T06:10:48Z</time><extensions><speed>-1.000000</speed><course>-1.000000</course><hAcc>0.000000</hAcc><vAcc>-1.000000</vAcc></extensions></trkpt>
      <trkpt lon="-123.332882" lat="44.565637"><ele>0.000000</ele><time>2021-01-25T06:10:48Z</time><extensions><speed>-1.000000</speed><course>-1.000000</course><hAcc>0.000000</hAcc><vAcc>-1.000000</vAcc></extensions></trkpt>
      <trkpt lon="-123.333701" lat="44.565307"><ele>0.000000</ele><time>2021-01-25T06:10:48Z</time><extensions><speed>-1.000000</speed><course>-1.000000</course><hAcc>0.000000</hAcc><vAcc>-1.000000</vAcc></extensions></trkpt>
      <trkpt lon="-123.334012" lat="44.565239"><ele>0.000000</ele><time>2021-01-25T06:10:48Z</time><extensions><speed>-1.000000</speed><course>-1.000000</course><hAcc>0.000000</hAcc><vAcc>-1.000000</vAcc></extensions></trkpt>
      <trkpt lon="-123.334210" lat="44.565165"><ele>0.000000</ele><time>2021-01-25T06:10:48Z</time><extensions><speed>-1.000000</speed><course>-1.000000</course><hAcc>0.000000</hAcc><vAcc>-1.000000</vAcc></extensions></trkpt>
      <trkpt lon="-123.334508" lat="44.565136"><ele>0.000000</ele><time>2021-01-25T06:10:48Z</time><extensions><speed>-1.000000</speed><course>-1.000000</course><hAcc>0.000000</hAcc><vAcc>-1.000000</vAcc></extensions></trkpt>
      <trkpt lon="-123.334649" lat="44.565092"><ele>0.000000</ele><time>2021-01-25T06:10:48Z</time><extensions><speed>-1.000000</speed><course>-1.000000</course><hAcc>0.000000</hAcc><vAcc>-1.000000</vAcc></extensions></trkpt>
      <trkpt lon="-123.334779" lat="44.565059"><ele>0.000000</ele><time>2021-01-25T06:10:48Z</time><extensions><speed>-1.000000</speed><course>-1.000000</course><hAcc>0.000000</hAcc><vAcc>-1.000000</vAcc></extensions></trkpt>
      <trkpt lon="-123.335010" lat="44.564967"><ele>0.000000</ele><time>2021-01-25T06:10:48Z</time><extensions><speed>-1.000000</speed><course>-1.000000</course><hAcc>0.000000</hAcc><vAcc>-1.000000</vAcc></extensions></trkpt>
      <trkpt lon="-123.335283" lat="44.564927"><ele>0.000000</ele><time>2021-01-25T06:10:48Z</time><extensions><speed>-1.000000</speed><course>-1.000000</course><hAcc>0.000000</hAcc><vAcc>-1.000000</vAcc></extensions></trkpt>
      <trkpt lon="-123.335483" lat="44.564924"><ele>0.000000</ele><time>2021-01-25T06:10:48Z</time><extensions><speed>-1.000000</speed><course>-1.000000</course><hAcc>0.000000</hAcc><vAcc>-1.000000</vAcc></extensions></trkpt>
      <trkpt lon="-123.335640" lat="44.564911"><ele>0.000000</ele><time>2021-01-25T06:10:48Z</time><extensions><speed>-1.000000</speed><course>-1.000000</course><hAcc>0.000000</hAcc><vAcc>-1.000000</vAcc></extensions></trkpt>
      <trkpt lon="-123.335942" lat="44.564951"><ele>0.000000</ele><time>2021-01-25T06:10:48Z</time><extensions><speed>-1.000000</speed><course>-1.000000</course><hAcc>0.000000</hAcc><vAcc>-1.000000</vAcc></extensions></trkpt>
      <trkpt lon="-123.336009" lat="44.564962"><ele>0.000000</ele><time>2021-01-25T06:10:48Z</time><extensions><speed>-1.000000</speed><course>-1.000000</course><hAcc>0.000000</hAcc><vAcc>-1.000000</vAcc></extensions></trkpt>
      <trkpt lon="-123.336289" lat="44.565019"><ele>0.000000</ele><time>2021-01-25T06:10:48Z</time><extensions><speed>-1.000000</speed><course>-1.000000</course><hAcc>0.000000</hAcc><vAcc>-1.000000</vAcc></extensions></trkpt>
      <trkpt lon="-123.336560" lat="44.565080"><ele>0.000000</ele><time>2021-01-25T06:10:48Z</time><extensions><speed>-1.000000</speed><course>-1.000000</course><hAcc>0.000000</hAcc><vAcc>-1.000000</vAcc></extensions></trkpt>
      <trkpt lon="-123.336611" lat="44.565111"><ele>0.000000</ele><time>2021-01-25T06:10:48Z</time><extensions><speed>-1.000000</speed><course>-1.000000</course><hAcc>0.000000</hAcc><vAcc>-1.000000</vAcc></extensions></trkpt>
      <trkpt lon="-123.337467" lat="44.566275"><ele>0.000000</ele><time>2021-01-25T06:10:48Z</time><extensions><speed>-1.000000</speed><course>-1.000000</course><hAcc>0.000000</hAcc><vAcc>-1.000000</vAcc></extensions></trkpt>
      <trkpt lon="-123.337748" lat="44.566213"><ele>0.000000</ele><time>2021-01-25T06:10:48Z</time><extensions><speed>-1.000000</speed><course>-1.000000</course><hAcc>0.000000</hAcc><vAcc>-1.000000</vAcc></extensions></trkpt>
      <trkpt lon="-123.337938" lat="44.566186"><ele>0.000000</ele><time>2021-01-25T06:10:48Z</time><extensions><speed>-1.000000</speed><course>-1.000000</course><hAcc>0.000000</hAcc><vAcc>-1.000000</vAcc></extensions></trkpt>
      <trkpt lon="-123.338270" lat="44.566212"><ele>0.000000</ele><time>2021-01-25T06:10:48Z</time><extensions><speed>-1.000000</speed><course>-1.000000</course><hAcc>0.000000</hAcc><vAcc>-1.000000</vAcc></extensions></trkpt>
      <trkpt lon="-123.338460" lat="44.566256"><ele>0.000000</ele><time>2021-01-25T06:10:48Z</time><extensions><speed>-1.000000</speed><course>-1.000000</course><hAcc>0.000000</hAcc><vAcc>-1.000000</vAcc></extensions></trkpt>
      <trkpt lon="-123.338753" lat="44.566384"><ele>0.000000</ele><time>2021-01-25T06:10:48Z</time><extensions><speed>-1.000000</speed><course>-1.000000</course><hAcc>0.000000</hAcc><vAcc>-1.000000</vAcc></extensions></trkpt>
      <trkpt lon="-123.338998" lat="44.566435"><ele>0.000000</ele><time>2021-01-25T06:10:48Z</time><extensions><speed>-1.000000</speed><course>-1.000000</course><hAcc>0.000000</hAcc><vAcc>-1.000000</vAcc></extensions></trkpt>
      <trkpt lon="-123.339343" lat="44.566352"><ele>0.000000</ele><time>2021-01-25T06:10:48Z</time><extensions><speed>-1.000000</speed><course>-1.000000</course><hAcc>0.000000</hAcc><vAcc>-1.000000</vAcc></extensions></trkpt>
      <trkpt lon="-123.339616" lat="44.566275"><ele>0.000000</ele><time>2021-01-25T06:10:48Z</time><extensions><speed>-1.000000</speed><course>-1.000000</course><hAcc>0.000000</hAcc><vAcc>-1.000000</vAcc></extensions></trkpt>
      <trkpt lon="-123.339860" lat="44.566198"><ele>0.000000</ele><time>2021-01-25T06:10:48Z</time><extensions><speed>-1.000000</speed><course>-1.000000</course><hAcc>0.000000</hAcc><vAcc>-1.000000</vAcc></extensions></trkpt>
      <trkpt lon="-123.339731" lat="44.566366"><ele>0.000000</ele><time>2021-01-25T06:10:48Z</time><extensions><speed>-1.000000</speed><course>-1.000000</course><hAcc>0.000000</hAcc><vAcc>-1.000000</vAcc></extensions></trkpt>
      <trkpt lon="-123.339657" lat="44.566524"><ele>0.000000</ele><time>2021-01-25T06:10:48Z</time><extensions><speed>-1.000000</speed><course>-1.000000</course><hAcc>0.000000</hAcc><vAcc>-1.000000</vAcc></extensions></trkpt>
      <trkpt lon="-123.339518" lat="44.566651"><ele>0.000000</ele><time>2021-01-25T06:10:48Z</time><extensions><speed>-1.000000</speed><course>-1.000000</course><hAcc>0.000000</hAcc><vAcc>-1.000000</vAcc></extensions></trkpt>
      <trkpt lon="-123.339368" lat="44.566831"><ele>0.000000</ele><time>2021-01-25T06:10:48Z</time><extensions><speed>-1.000000</speed><course>-1.000000</course><hAcc>0.000000</hAcc><vAcc>-1.000000</vAcc></extensions></trkpt>
      <trkpt lon="-123.339224" lat="44.566990"><ele>0.000000</ele><time>2021-01-25T06:10:48Z</time><extensions><speed>-1.000000</speed><course>-1.000000</course><hAcc>0.000000</hAcc><vAcc>-1.000000</vAcc></extensions></trkpt>
      <trkpt lon="-123.339027" lat="44.567026"><ele>0.000000</ele><time>2021-01-25T06:10:48Z</time><extensions><speed>-1.000000</speed><course>-1.000000</course><hAcc>0.000000</hAcc><vAcc>-1.000000</vAcc></extensions></trkpt>
      <trkpt lon="-123.338746" lat="44.567062"><ele>0.000000</ele><time>2021-01-25T06:10:48Z</time><extensions><speed>-1.000000</speed><course>-1.000000</course><hAcc>0.000000</hAcc><vAcc>-1.000000</vAcc></extensions></trkpt>
      <trkpt lon="-123.338523" lat="44.567013"><ele>0.000000</ele><time>2021-01-25T06:10:48Z</time><extensions><speed>-1.000000</speed><course>-1.000000</course><hAcc>0.000000</hAcc><vAcc>-1.000000</vAcc></extensions></trkpt>
      <trkpt lon="-123.338261" lat="44.566991"><ele>0.000000</ele><time>2021-01-25T06:10:48Z</time><extensions><speed>-1.000000</speed><course>-1.000000</course><hAcc>0.000000</hAcc><vAcc>-1.000000</vAcc></extensions></trkpt>
      <trkpt lon="-123.338116" lat="44.567003"><ele>0.000000</ele><time>2021-01-25T06:10:48Z</time><extensions><speed>-1.000000</speed><course>-1.000000</course><hAcc>0.000000</hAcc><vAcc>-1.000000</vAcc></extensions></trkpt>
      <trkpt lon="-123.338575" lat="44.567016"><ele>0.000000</ele><time>2021-01-25T06:10:48Z</time><extensions><speed>-1.000000</speed><course>-1.000000</course><hAcc>0.000000</hAcc><vAcc>-1.000000</vAcc></extensions></trkpt>
      <trkpt lon="-123.338828" lat="44.567001"><ele>0.000000</ele><time>2021-01-25T06:10:48Z</time><extensions><speed>-1.000000</speed><course>-1.000000</course><hAcc>0.000000</hAcc><vAcc>-1.000000</vAcc></extensions></trkpt>
      <trkpt lon="-123.338872" lat="44.566979"><ele>0.000000</ele><time>2021-01-25T06:10:48Z</time><extensions><speed>-1.000000</speed><course>-1.000000</course><hAcc>0.000000</hAcc><vAcc>-1.000000</vAcc></extensions></trkpt>
      <trkpt lon="-123.338964" lat="44.567000"><ele>0.000000</ele><time>2021-01-25T06:10:48Z</time><extensions><speed>-1.000000</speed><course>-1.000000</course><hAcc>0.000000</hAcc><vAcc>-1.000000</vAcc></extensions></trkpt>
      <trkpt lon="-123.339188" lat="44.566984"><ele>0.000000</ele><time>2021-01-25T06:10:48Z</time><extensions><speed>-1.000000</speed><course>-1.000000</course><hAcc>0.000000</hAcc><vAcc>-1.000000</vAcc></extensions></trkpt>
      <trkpt lon="-123.339456" lat="44.566832"><ele>0.000000</ele><time>2021-01-25T06:10:48Z</time><extensions><speed>-1.000000</speed><course>-1.000000</course><hAcc>0.000000</hAcc><vAcc>-1.000000</vAcc></extensions></trkpt>
      <trkpt lon="-123.339568" lat="44.566705"><ele>0.000000</ele><time>2021-01-25T06:10:48Z</time><extensions><speed>-1.000000</speed><course>-1.000000</course><hAcc>0.000000</hAcc><vAcc>-1.000000</vAcc></extensions></trkpt>
      <trkpt lon="-123.339665" lat="44.566517"><ele>0.000000</ele><time>2021-01-25T06:10:48Z</time><extensions><speed>-1.000000</speed><course>-1.000000</course><hAcc>0.000000</hAcc><vAcc>-1.000000</vAcc></extensions></trkpt>
      <trkpt lon="-123.339795" lat="44.566374"><ele>0.000000</ele><time>2021-01-25T06:10:48Z</time><extensions><speed>-1.000000</speed><course>-1.000000</course><hAcc>0.000000</hAcc><vAcc>-1.000000</vAcc></extensions></trkpt>
      <trkpt lon="-123.339006" lat="44.566437"><ele>0.000000</ele><time>2021-01-25T06:10:48Z</time><extensions><speed>-1.000000</speed><course>-1.000000</course><hAcc>0.000000</hAcc><vAcc>-1.000000</vAcc></extensions></trkpt>
      <trkpt lon="-123.338803" lat="44.566372"><ele>0.000000</ele><time>2021-01-25T06:10:48Z</time><extensions><speed>-1.000000</speed><course>-1.000000</course><hAcc>0.000000</hAcc><vAcc>-1.000000</vAcc></extensions></trkpt>
      <trkpt lon="-123.338523" lat="44.566287"><ele>0.000000</ele><time>2021-01-25T06:10:48Z</time><extensions><speed>-1.000000</speed><course>-1.000000</course><hAcc>0.000000</hAcc><vAcc>-1.000000</vAcc></extensions></trkpt>
      <trkpt lon="-123.338335" lat="44.566250"><ele>0.000000</ele><time>2021-01-25T06:10:48Z</time><extensions><speed>-1.000000</speed><course>-1.000000</course><hAcc>0.000000</hAcc><vAcc>-1.000000</vAcc></extensions></trkpt>
      <trkpt lon="-123.338088" lat="44.566222"><ele>0.000000</ele><time>2021-01-25T06:10:48Z</time><extensions><speed>-1.000000</speed><course>-1.000000</course><hAcc>0.000000</hAcc><vAcc>-1.000000</vAcc></extensions></trkpt>
      <trkpt lon="-123.337854" lat="44.566202"><ele>0.000000</ele><time>2021-01-25T06:10:48Z</time><extensions><speed>-1.000000</speed><course>-1.000000</course><hAcc>0.000000</hAcc><vAcc>-1.000000</vAcc></extensions></trkpt>
      <trkpt lon="-123.337589" lat="44.566293"><ele>0.000000</ele><time>2021-01-25T06:10:48Z</time><extensions><speed>-1.000000</speed><course>-1.000000</course><hAcc>0.000000</hAcc><vAcc>-1.000000</vAcc></extensions></trkpt>
      <trkpt lon="-123.337410" lat="44.566287"><ele>0.000000</ele><time>2021-01-25T06:10:48Z</time><extensions><speed>-1.000000</speed><course>-1.000000</course><hAcc>0.000000</hAcc><vAcc>-1.000000</vAcc></extensions></trkpt>
      <trkpt lon="-123.337111" lat="44.566358"><ele>0.000000</ele><time>2021-01-25T06:10:48Z</time><extensions><speed>-1.000000</speed><course>-1.000000</course><hAcc>0.000000</hAcc><vAcc>-1.000000</vAcc></extensions></trkpt>
      <trkpt lon="-123.336893" lat="44.566420"><ele>0.000000</ele><time>2021-01-25T06:10:48Z</time><extensions><speed>-1.000000</speed><course>-1.000000</course><hAcc>0.000000</hAcc><vAcc>-1.000000</vAcc></extensions></trkpt>
      <trkpt lon="-123.335776" lat="44.566290"><ele>0.000000</ele><time>2021-01-25T06:10:48Z</time><extensions><speed>-1.000000</speed><course>-1.000000</course><hAcc>0.000000</hAcc><vAcc>-1.000000</vAcc></extensions></trkpt>
      <trkpt lon="-123.335991" lat="44.566202"><ele>0.000000</ele><time>2021-01-25T06:10:48Z</time><extensions><speed>-1.000000</speed><course>-1.000000</course><hAcc>0.000000</hAcc><vAcc>-1.000000</vAcc></extensions></trkpt>
      <trkpt lon="-123.336227" lat="44.566128"><ele>0.000000</ele><time>2021-01-25T06:10:48Z</time><extensions><speed>-1.000000</speed><course>-1.000000</course><hAcc>0.000000</hAcc><vAcc>-1.000000</vAcc></extensions></trkpt>
      <trkpt lon="-123.336326" lat="44.566057"><ele>0.000000</ele><time>2021-01-25T06:10:48Z</time><extensions><speed>-1.000000</speed><course>-1.000000</course><hAcc>0.000000</hAcc><vAcc>-1.000000</vAcc></extensions></trkpt>
      <trkpt lon="-123.336488" lat="44.565910"><ele>0.000000</ele><time>2021-01-25T06:10:48Z</time><extensions><speed>-1.000000</speed><course>-1.000000</course><hAcc>0.000000</hAcc><vAcc>-1.000000</vAcc></extensions></trkpt>
      <trkpt lon="-123.336615" lat="44.565799"><ele>0.000000</ele><time>2021-01-25T06:10:48Z</time><extensions><speed>-1.000000</speed><course>-1.000000</course><hAcc>0.000000</hAcc><vAcc>-1.000000</vAcc></extensions></trkpt>
      <trkpt lon="-123.336819" lat="44.565658"><ele>0.000000</ele><time>2021-01-25T06:10:48Z</time><extensions><speed>-1.000000</speed><course>-1.000000</course><hAcc>0.000000</hAcc><vAcc>-1.000000</vAcc></extensions></trkpt>
      <trkpt lon="-123.335055" lat="44.564943"><ele>0.000000</ele><time>2021-01-25T06:10:48Z</time><extensions><speed>-1.000000</speed><course>-1.000000</course><hAcc>0.000000</hAcc><vAcc>-1.000000</vAcc></extensions></trkpt>
      <trkpt lon="-123.334827" lat="44.565045"><ele>0.000000</ele><time>2021-01-25T06:10:48Z</time><extensions><speed>-1.000000</speed><course>-1.000000</course><hAcc>0.000000</hAcc><vAcc>-1.000000</vAcc></extensions></trkpt>
      <trkpt lon="-123.334542" lat="44.565111"><ele>0.000000</ele><time>2021-01-25T06:10:48Z</time><extensions><speed>-1.000000</speed><course>-1.000000</course><hAcc>0.000000</hAcc><vAcc>-1.000000</vAcc></extensions></trkpt>
      <trkpt lon="-123.334326" lat="44.565127"><ele>0.000000</ele><time>2021-01-25T06:10:48Z</time><extensions><speed>-1.000000</speed><course>-1.000000</course><hAcc>0.000000</hAcc><vAcc>-1.000000</vAcc></extensions></trkpt>
      <trkpt lon="-123.334082" lat="44.565187"><ele>0.000000</ele><time>2021-01-25T06:10:48Z</time><extensions><speed>-1.000000</speed><course>-1.000000</course><hAcc>0.000000</hAcc><vAcc>-1.000000</vAcc></extensions></trkpt>
      <trkpt lon="-123.333826" lat="44.565223"><ele>0.000000</ele><time>2021-01-25T06:10:48Z</time><extensions><speed>-1.000000</speed><course>-1.000000</course><hAcc>0.000000</hAcc><vAcc>-1.000000</vAcc></extensions></trkpt>
      <trkpt lon="-123.333572" lat="44.565322"><ele>0.000000</ele><time>2021-01-25T06:10:48Z</time><extensions><speed>-1.000000</speed><course>-1.000000</course><hAcc>0.000000</hAcc><vAcc>-1.000000</vAcc></extensions></trkpt>
      <trkpt lon="-123.333388" lat="44.565416"><ele>0.000000</ele><time>2021-01-25T06:10:48Z</time><extensions><speed>-1.000000</speed><course>-1.000000</course><hAcc>0.000000</hAcc><vAcc>-1.000000</vAcc></extensions></trkpt>
      <trkpt lon="-123.333156" lat="44.565514"><ele>0.000000</ele><time>2021-01-25T06:10:48Z</time><extensions><speed>-1.000000</speed><course>-1.000000</course><hAcc>0.000000</hAcc><vAcc>-1.000000</vAcc></extensions></trkpt>
      <trkpt lon="-123.332966" lat="44.565575"><ele>0.000000</ele><time>2021-01-25T06:10:48Z</time><extensions><speed>-1.000000</speed><course>-1.000000</course><hAcc>0.000000</hAcc><vAcc>-1.000000</vAcc></extensions></trkpt>
      <trkpt lon="-123.332660" lat="44.565651"><ele>0.000000</ele><time>2021-01-25T06:10:48Z</time><extensions><speed>-1.000000</speed><course>-1.000000</course><hAcc>0.000000</hAcc><vAcc>-1.000000</vAcc></extensions></trkpt>
      <trkpt lon="-123.332372" lat="44.565730"><ele>0.000000</ele><time>2021-01-25T06:10:48Z</time><extensions><speed>-1.000000</speed><course>-1.000000</course><hAcc>0.000000</hAcc><vAcc>-1.000000</vAcc></extensions></trkpt>
      <trkpt lon="-123.332305" lat="44.565863"><ele>0.000000</ele><time>2021-01-25T06:10:48Z</time><extensions><speed>-1.000000</speed><course>-1.000000</course><hAcc>0.000000</hAcc><vAcc>-1.000000</vAcc></extensions></trkpt>
      <trkpt lon="-123.332183" lat="44.565847"><ele>0.000000</ele><time>2021-01-25T06:10:48Z</time><extensions><speed>-1.000000</speed><course>-1.000000</course><hAcc>0.000000</hAcc><vAcc>-1.000000</vAcc></extensions></trkpt>
      <trkpt lon="-123.332148" lat="44.565730"><ele>0.000000</ele><time>2021-01-25T06:10:48Z</time><extensions><speed>-1.000000</speed><course>-1.000000</course><hAcc>0.000000</hAcc><vAcc>-1.000000</vAcc></extensions></trkpt>
      <trkpt lon="-123.332127" lat="44.565550"><ele>0.000000</ele><time>2021-01-25T06:10:48Z</time><extensions><speed>-1.000000</speed><course>-1.000000</course><hAcc>0.000000</hAcc><vAcc>-1.000000</vAcc></extensions></trkpt>
      <trkpt lon="-123.332323" lat="44.565411"><ele>0.000000</ele><time>2021-01-25T06:10:48Z</time><extensions><speed>-1.000000</speed><course>-1.000000</course><hAcc>0.000000</hAcc><vAcc>-1.000000</vAcc></extensions></trkpt>
      <trkpt lon="-123.332438" lat="44.565276"><ele>0.000000</ele><time>2021-01-25T06:10:48Z</time><extensions><speed>-1.000000</speed><course>-1.000000</course><hAcc>0.000000</hAcc><vAcc>-1.000000</vAcc></extensions></trkpt>
      <trkpt lon="-123.332324" lat="44.565270"><ele>0.000000</ele><time>2021-01-25T06:10:48Z</time><extensions><speed>-1.000000</speed><course>-1.000000</course><hAcc>0.000000</hAcc><vAcc>-1.000000</vAcc></extensions></trkpt>
      <trkpt lon="-123.332089" lat="44.565329"><ele>0.000000</ele><time>2021-01-25T06:10:48Z</time><extensions><speed>-1.000000</speed><course>-1.000000</course><hAcc>0.000000</hAcc><vAcc>-1.000000</vAcc></extensions></trkpt>
      <trkpt lon="-123.331938" lat="44.565414"><ele>0.000000</ele><time>2021-01-25T06:10:48Z</time><extensions><speed>-1.000000</speed><course>-1.000000</course><hAcc>0.000000</hAcc><vAcc>-1.000000</vAcc></extensions></trkpt>
      <trkpt lon="-123.331782" lat="44.565547"><ele>0.000000</ele><time>2021-01-25T06:10:48Z</time><extensions><speed>-1.000000</speed><course>-1.000000</course><hAcc>0.000000</hAcc><vAcc>-1.000000</vAcc></extensions></trkpt>
      <trkpt lon="-123.331667" lat="44.565575"><ele>0.000000</ele><time>2021-01-25T06:10:48Z</time><extensions><speed>-1.000000</speed><course>-1.000000</course><hAcc>0.000000</hAcc><vAcc>-1.000000</vAcc></extensions></trkpt>
      <trkpt lon="-123.331643" lat="44.565562"><ele>0.000000</ele><time>2021-01-25T06:10:48Z</time><extensions><speed>-1.000000</speed><course>-1.000000</course><hAcc>0.000000</hAcc><vAcc>-1.000000</vAcc></extensions></trkpt>
      <trkpt lon="-123.331510" lat="44.565503"><ele>0.000000</ele><time>2021-01-25T06:10:48Z</time><extensions><speed>-1.000000</speed><course>-1.000000</course><hAcc>0.000000</hAcc><vAcc>-1.000000</vAcc></extensions></trkpt>
      <trkpt lon="-123.331624" lat="44.565379"><ele>0.000000</ele><time>2021-01-25T06:10:48Z</time><extensions><speed>-1.000000</speed><course>-1.000000</course><hAcc>0.000000</hAcc><vAcc>-1.000000</vAcc></extensions></trkpt>
      <trkpt lon="-123.331720" lat="44.565220"><ele>0.000000</ele><time>2021-01-25T06:10:48Z</time><extensions><speed>-1.000000</speed><course>-1.000000</course><hAcc>0.000000</hAcc><vAcc>-1.000000</vAcc></extensions></trkpt>
      <trkpt lon="-123.331499" lat="44.565341"><ele>0.000000</ele><time>2021-01-25T06:10:48Z</time><extensions><speed>-1.000000</speed><course>-1.000000</course><hAcc>0.000000</hAcc><vAcc>-1.000000</vAcc></extensions></trkpt>
      <trkpt lon="-123.331346" lat="44.565393"><ele>0.000000</ele><time>2021-01-25T06:10:48Z</time><extensions><speed>-1.000000</speed><course>-1.000000</course><hAcc>0.000000</hAcc><vAcc>-1.000000</vAcc></extensions></trkpt>
      <trkpt lon="-123.331082" lat="44.565423"><ele>0.000000</ele><time>2021-01-25T06:10:48Z</time><extensions><speed>-1.000000</speed><course>-1.000000</course><hAcc>0.000000</hAcc><vAcc>-1.000000</vAcc></extensions></trkpt>
      <trkpt lon="-123.330900" lat="44.565456"><ele>0.000000</ele><time>2021-01-25T06:10:48Z</time><extensions><speed>-1.000000</speed><course>-1.000000</course><hAcc>0.000000</hAcc><vAcc>-1.000000</vAcc></extensions></trkpt>
      <trkpt lon="-123.330652" lat="44.565616"><ele>0.000000</ele><time>2021-01-25T06:10:48Z</time><extensions><speed>-1.000000</speed><course>-1.000000</course><hAcc>0.000000</hAcc><vAcc>-1.000000</vAcc></extensions></trkpt>
      <trkpt lon="-123.330674" lat="44.565768"><ele>0.000000</ele><time>2021-01-25T06:10:48Z</time><extensions><speed>-1.000000</speed><course>-1.000000</course><hAcc>0.000000</hAcc><vAcc>-1.000000</vAcc></extensions></trkpt>
      <trkpt lon="-123.330684" lat="44.565960"><ele>0.000000</ele><time>2021-01-25T06:10:48Z</time><extensions><speed>-1.000000</speed><course>-1.000000</course><hAcc>0.000000</hAcc><vAcc>-1.000000</vAcc></extensions></trkpt>
      <trkpt lon="-123.330646" lat="44.566087"><ele>0.000000</ele><time>2021-01-25T06:10:48Z</time><extensions><speed>-1.000000</speed><course>-1.000000</course><hAcc>0.000000</hAcc><vAcc>-1.000000</vAcc></extensions></trkpt>
      <trkpt lon="-123.330470" lat="44.566087"><ele>0.000000</ele><time>2021-01-25T06:10:48Z</time><extensions><speed>-1.000000</speed><course>-1.000000</course><hAcc>0.000000</hAcc><vAcc>-1.000000</vAcc></extensions></trkpt>
      <trkpt lon="-123.330326" lat="44.565990"><ele>0.000000</ele><time>2021-01-25T06:10:48Z</time><extensions><speed>-1.000000</speed><course>-1.000000</course><hAcc>0.000000</hAcc><vAcc>-1.000000</vAcc></extensions></trkpt>
      <trkpt lon="-123.330308" lat="44.565796"><ele>0.000000</ele><time>2021-01-25T06:10:48Z</time><extensions><speed>-1.000000</speed><course>-1.000000</course><hAcc>0.000000</hAcc><vAcc>-1.000000</vAcc></extensions></trkpt>
      <trkpt lon="-123.330209" lat="44.565656"><ele>0.000000</ele><time>2021-01-25T06:10:48Z</time><extensions><speed>-1.000000</speed><course>-1.000000</course><hAcc>0.000000</hAcc><vAcc>-1.000000</vAcc></extensions></trkpt>
      <trkpt lon="-123.330163" lat="44.565468"><ele>0.000000</ele><time>2021-01-25T06:10:48Z</time><extensions><speed>-1.000000</speed><course>-1.000000</course><hAcc>0.000000</hAcc><vAcc>-1.000000</vAcc></extensions></trkpt>
      <trkpt lon="-123.330171" lat="44.565319"><ele>0.000000</ele><time>2021-01-25T06:10:48Z</time><extensions><speed>-1.000000</speed><course>-1.000000</course><hAcc>0.000000</hAcc><vAcc>-1.000000</vAcc></extensions></trkpt>
      <trkpt lon="-123.330212" lat="44.565093"><ele>0.000000</ele><time>2021-01-25T06:10:48Z</time><extensions><speed>-1.000000</speed><course>-1.000000</course><hAcc>0.000000</hAcc><vAcc>-1.000000</vAcc></extensions></trkpt>
      <trkpt lon="-123.330225" lat="44.564960"><ele>0.000000</ele><time>2021-01-25T06:10:48Z</time><extensions><speed>-1.000000</speed><course>-1.000000</course><hAcc>0.000000</hAcc><vAcc>-1.000000</vAcc></extensions></trkpt>
      <trkpt lon="-123.330022" lat="44.565135"><ele>0.000000</ele><time>2021-01-25T06:10:48Z</time><extensions><speed>-1.000000</speed><course>-1.000000</course><hAcc>0.000000</hAcc><vAcc>-1.000000</vAcc></extensions></trkpt>
      <trkpt lon="-123.329915" lat="44.565206"><ele>0.000000</ele><time>2021-01-25T06:10:48Z</time><extensions><speed>-1.000000</speed><course>-1.000000</course><hAcc>0.000000</hAcc><vAcc>-1.000000</vAcc></extensions></trkpt>
      <trkpt lon="-123.329661" lat="44.565366"><ele>0.000000</ele><time>2021-01-25T06:10:48Z</time><extensions><speed>-1.000000</speed><course>-1.000000</course><hAcc>0.000000</hAcc><vAcc>-1.000000</vAcc></extensions></trkpt>
      <trkpt lon="-123.329622" lat="44.565402"><ele>0.000000</ele><time>2021-01-25T06:10:48Z</time><extensions><speed>-1.000000</speed><course>-1.000000</course><hAcc>0.000000</hAcc><vAcc>-1.000000</vAcc></extensions></trkpt>
      <trkpt lon="-123.329525" lat="44.565524"><ele>0.000000</ele><time>2021-01-25T06:10:48Z</time><extensions><speed>-1.000000</speed><course>-1.000000</course><hAcc>0.000000</hAcc><vAcc>-1.000000</vAcc></extensions></trkpt>
      <trkpt lon="-123.329285" lat="44.565650"><ele>0.000000</ele><time>2021-01-25T06:10:48Z</time><extensions><speed>-1.000000</speed><course>-1.000000</course><hAcc>0.000000</hAcc><vAcc>-1.000000</vAcc></extensions></trkpt>
      <trkpt lon="-123.329055" lat="44.565719"><ele>0.000000</ele><time>2021-01-25T06:10:48Z</time><extensions><speed>-1.000000</speed><course>-1.000000</course><hAcc>0.000000</hAcc><vAcc>-1.000000</vAcc></extensions></trkpt>
      <trkpt lon="-123.328945" lat="44.565884"><ele>0.000000</ele><time>2021-01-25T06:10:48Z</time><extensions><speed>-1.000000</speed><course>-1.000000</course><hAcc>0.000000</hAcc><vAcc>-1.000000</vAcc></extensions></trkpt>
      <trkpt lon="-123.328863" lat="44.566009"><ele>0.000000</ele><time>2021-01-25T06:10:48Z</time><extensions><speed>-1.000000</speed><course>-1.000000</course><hAcc>0.000000</hAcc><vAcc>-1.000000</vAcc></extensions></trkpt>
      <trkpt lon="-123.328858" lat="44.566088"><ele>0.000000</ele><time>2021-01-25T06:10:48Z</time><extensions><speed>-1.000000</speed><course>-1.000000</course><hAcc>0.000000</hAcc><vAcc>-1.000000</vAcc></extensions></trkpt>
      <trkpt lon="-123.328638" lat="44.565882"><ele>0.000000</ele><time>2021-01-25T06:10:48Z</time><extensions><speed>-1.000000</speed><course>-1.000000</course><hAcc>0.000000</hAcc><vAcc>-1.000000</vAcc></extensions></trkpt>
      <trkpt lon="-123.328635" lat="44.565758"><ele>0.000000</ele><time>2021-01-25T06:10:48Z</time><extensions><speed>-1.000000</speed><course>-1.000000</course><hAcc>0.000000</hAcc><vAcc>-1.000000</vAcc></extensions></trkpt>
      <trkpt lon="-123.328759" lat="44.565536"><ele>0.000000</ele><time>2021-01-25T06:10:48Z</time><extensions><speed>-1.000000</speed><course>-1.000000</course><hAcc>0.000000</hAcc><vAcc>-1.000000</vAcc></extensions></trkpt>
      <trkpt lon="-123.328728" lat="44.565362"><ele>0.000000</ele><time>2021-01-25T06:10:48Z</time><extensions><speed>-1.000000</speed><course>-1.000000</course><hAcc>0.000000</hAcc><vAcc>-1.000000</vAcc></extensions></trkpt>
      <trkpt lon="-123.328674" lat="44.565161"><ele>0.000000</ele><time>2021-01-25T06:10:48Z</time><extensions><speed>-1.000000</speed><course>-1.000000</course><hAcc>0.000000</hAcc><vAcc>-1.000000</vAcc></extensions></trkpt>
      <trkpt lon="-123.328661" lat="44.564968"><ele>0.000000</ele><time>2021-01-25T06:10:48Z</time><extensions><speed>-1.000000</speed><course>-1.000000</course><hAcc>0.000000</hAcc><vAcc>-1.000000</vAcc></extensions></trkpt>
      <trkpt lon="-123.328594" lat="44.564718"><ele>0.000000</ele><time>2021-01-25T06:10:48Z</time><extensions><speed>-1.000000</speed><course>-1.000000</course><hAcc>0.000000</hAcc><vAcc>-1.000000</vAcc></extensions></trkpt>
      <trkpt lon="-123.328635" lat="44.564514"><ele>0.000000</ele><time>2021-01-25T06:10:48Z</time><extensions><speed>-1.000000</speed><course>-1.000000</course><hAcc>0.000000</hAcc><vAcc>-1.000000</vAcc></extensions></trkpt>
      <trkpt lon="-123.328781" lat="44.564253"><ele>0.000000</ele><time>2021-01-25T06:10:48Z</time><extensions><speed>-1.000000</speed><course>-1.000000</course><hAcc>0.000000</hAcc><vAcc>-1.000000</vAcc></extensions></trkpt>
      <trkpt lon="-123.328879" lat="44.564028"><ele>0.000000</ele><time>2021-01-25T06:10:48Z</time><extensions><speed>-1.000000</speed><course>-1.000000</course><hAcc>0.000000</hAcc><vAcc>-1.000000</vAcc></extensions></trkpt>
      <trkpt lon="-123.328983" lat="44.563791"><ele>0.000000</ele><time>2021-01-25T06:10:48Z</time><extensions><speed>-1.000000</speed><course>-1.000000</course><hAcc>0.000000</hAcc><vAcc>-1.000000</vAcc></extensions></trkpt>
      <trkpt lon="-123.329088" lat="44.563588"><ele>0.000000</ele><time>2021-01-25T06:10:48Z</time><extensions><speed>-1.000000</speed><course>-1.000000</course><hAcc>0.000000</hAcc><vAcc>-1.000000</vAcc></extensions></trkpt>
      <trkpt lon="-123.329188" lat="44.563344"><ele>0.000000</ele><time>2021-01-25T06:10:48Z</time><extensions><speed>-1.000000</speed><course>-1.000000</course><hAcc>0.000000</hAcc><vAcc>-1.000000</vAcc></extensions></trkpt>
      <trkpt lon="-123.329300" lat="44.563127"><ele>0.000000</ele><time>2021-01-25T06:10:48Z</time><extensions><speed>-1.000000</speed><course>-1.000000</course><hAcc>0.000000</hAcc><vAcc>-1.000000</vAcc></extensions></trkpt>
      <trkpt lon="-123.329388" lat="44.562840"><ele>0.000000</ele><time>2021-01-25T06:10:48Z</time><extensions><speed>-1.000000</speed><course>-1.000000</course><hAcc>0.000000</hAcc><vAcc>-1.000000</vAcc></extensions></trkpt>
      <trkpt lon="-123.329415" lat="44.562620"><ele>0.000000</ele><time>2021-01-25T06:10:48Z</time><extensions><speed>-1.000000</speed><course>-1.000000</course><hAcc>0.000000</hAcc><vAcc>-1.000000</vAcc></extensions></trkpt>
      <trkpt lon="-123.329427" lat="44.562563"><ele>0.000000</ele><time>2021-01-25T06:10:48Z</time><extensions><speed>-1.000000</speed><course>-1.000000</course><hAcc>0.000000</hAcc><vAcc>-1.000000</vAcc></extensions></trkpt>
      <trkpt lon="-123.329440" lat="44.562487"><ele>0.000000</ele><time>2021-01-25T06:10:48Z</time><extensions><speed>-1.000000</speed><course>-1.000000</course><hAcc>0.000000</hAcc><vAcc>-1.000000</vAcc></extensions></trkpt>
      <trkpt lon="-123.329336" lat="44.562220"><ele>0.000000</ele><time>2021-01-25T06:10:48Z</time><extensions><speed>-1.000000</speed><course>-1.000000</course><hAcc>0.000000</hAcc><vAcc>-1.000000</vAcc></extensions></trkpt>
      <trkpt lon="-123.329145" lat="44.562047"><ele>0.000000</ele><time>2021-01-25T06:10:48Z</time><extensions><speed>-1.000000</speed><course>-1.000000</course><hAcc>0.000000</hAcc><vAcc>-1.000000</vAcc></extensions></trkpt>
      <trkpt lon="-123.328962" lat="44.561877"><ele>0.000000</ele><time>2021-01-25T06:10:48Z</time><extensions><speed>-1.000000</speed><course>-1.000000</course><hAcc>0.000000</hAcc><vAcc>-1.000000</vAcc></extensions></trkpt>
      <trkpt lon="-123.328777" lat="44.561627"><ele>0.000000</ele><time>2021-01-25T06:10:48Z</time><extensions><speed>-1.000000</speed><course>-1.000000</course><hAcc>0.000000</hAcc><vAcc>-1.000000</vAcc></extensions></trkpt>
      <trkpt lon="-123.328814" lat="44.561434"><ele>0.000000</ele><time>2021-01-25T06:10:48Z</time><extensions><speed>-1.000000</speed><course>-1.000000</course><hAcc>0.000000</hAcc><vAcc>-1.000000</vAcc></extensions></trkpt>
      <trkpt lon="-123.328883" lat="44.561157"><ele>0.000000</ele><time>2021-01-25T06:10:48Z</time><extensions><speed>-1.000000</speed><course>-1.000000</course><hAcc>0.000000</hAcc><vAcc>-1.000000</vAcc></extensions></trkpt>
    </trkseg>
  </trk>
</gpx>