<?xml version="1.0" encoding="UTF-8"?>
<gpx version="1.1" creator="Apple Health Export" xmlns="http://www.topografix.com/GPX/1/1" xmlns:xsi="http://www.w3.org/2001/XMLSchema-instance" xsi:schemaLocation="http://www.topografix.com/GPX/1/1 http://www.topografix.com/GPX/1/1/gpx.xsd">
  <metadata>
    <time>2021-02-21T19:24:48Z</time>
  </metadata>
  <trk>
    <name>Route 2020-10-15 4:29pm</name>
    <trkseg>
      <trkpt lon="-123.273404" lat="44.559992"><ele>65.738106</ele><time>2020-10-15T23:24:56Z</time><extensions><speed>3.830000</speed><course>264.375000</course><hAcc>10.000000</hAcc><vAcc>12.000000</vAcc></extensions></trkpt>
      <trkpt lon="-123.273607" lat="44.559927"><ele>70.253670</ele><time>2020-10-15T23:24:57Z</time><extensions><speed>3.830000</speed><course>271.054688</course><hAcc>10.000000</hAcc><vAcc>3.000000</vAcc></extensions></trkpt>
      <trkpt lon="-123.274078" lat="44.559662"><ele>71.107552</ele><time>2020-10-15T23:24:58Z</time><extensions><speed>3.370000</speed><course>266.835938</course><hAcc>30.000000</hAcc><vAcc>4.000000</vAcc></extensions></trkpt>
      <trkpt lon="-123.274105" lat="44.559671"><ele>71.662788</ele><time>2020-10-15T23:24:59Z</time><extensions><speed>3.370000</speed><course>267.890625</course><hAcc>10.000000</hAcc><vAcc>4.000000</vAcc></extensions></trkpt>
      <trkpt lon="-123.274129" lat="44.559702"><ele>71.999886</ele><time>2020-10-15T23:25:00Z</time><extensions><speed>3.750000</speed><course>267.539062</course><hAcc>10.000000</hAcc><vAcc>4.000000</vAcc></extensions></trkpt>
      <trkpt lon="-123.274169" lat="44.559715"><ele>72.098518</ele><time>2020-10-15T23:25:01Z</time><extensions><speed>4.640000</speed><course>266.484375</course><hAcc>10.000000</hAcc><vAcc>4.000000</vAcc></extensions></trkpt>
      <trkpt lon="-123.274211" lat="44.559729"><ele>72.195564</ele><time>2020-10-15T23:25:02Z</time><extensions><speed>5.160000</speed><course>265.781250</course><hAcc>10.000000</hAcc><vAcc>4.000000</vAcc></extensions></trkpt>
      <trkpt lon="-123.274254" lat="44.559744"><ele>72.800423</ele><time>2020-10-15T23:25:03Z</time><extensions><speed>4.950000</speed><course>266.484375</course><hAcc>10.000000</hAcc><vAcc>4.000000</vAcc></extensions></trkpt>
      <trkpt lon="-123.274289" lat="44.559767"><ele>72.447029</ele><time>2020-10-15T23:25:04Z</time><extensions><speed>4.950000</speed><course>271.054688</course><hAcc>10.000000</hAcc><vAcc>4.000000</vAcc></extensions></trkpt>
      <trkpt lon="-123.274114" lat="44.559933"><ele>72.499947</ele><time>2020-10-15T23:25:05Z</time><extensions><speed>4.650000</speed><course>326.953125</course><hAcc>5.000000</hAcc><vAcc>4.000000</vAcc></extensions></trkpt>
      <trkpt lon="-123.274089" lat="44.559971"><ele>71.836861</ele><time>2020-10-15T23:25:06Z</time><extensions><speed>3.410000</speed><course>356.132812</course><hAcc>5.000000</hAcc><vAcc>4.000000</vAcc></extensions></trkpt>
      <trkpt lon="-123.274074" lat="44.560019"><ele>71.168282</ele><time>2020-10-15T23:25:07Z</time><extensions><speed>4.550000</speed><course>352.617188</course><hAcc>5.000000</hAcc><vAcc>4.000000</vAcc></extensions></trkpt>
      <trkpt lon="-123.274066" lat="44.560072"><ele>71.330574</ele><time>2020-10-15T23:25:08Z</time><extensions><speed>4.550000</speed><course>352.265625</course><hAcc>5.000000</hAcc><vAcc>3.000000</vAcc></extensions></trkpt>
      <trkpt lon="-123.274009" lat="44.560141"><ele>71.265877</ele><time>2020-10-15T23:25:09Z</time><extensions><speed>4.820000</speed><course>355.429688</course><hAcc>5.000000</hAcc><vAcc>3.000000</vAcc></extensions></trkpt>
      <trkpt lon="-123.273980" lat="44.560206"><ele>70.535103</ele><time>2020-10-15T23:25:10Z</time><extensions><speed>4.970000</speed><course>351.210938</course><hAcc>5.000000</hAcc><vAcc>3.000000</vAcc></extensions></trkpt>
      <trkpt lon="-123.273982" lat="44.560256"><ele>70.199593</ele><time>2020-10-15T23:25:11Z</time><extensions><speed>5.880000</speed><course>356.484375</course><hAcc>5.000000</hAcc><vAcc>3.000000</vAcc></extensions></trkpt>
      <trkpt lon="-123.274000" lat="44.560294"><ele>71.015144</ele><time>2020-10-15T23:25:12Z</time><extensions><speed>5.880000</speed><course>347.695312</course><hAcc>5.000000</hAcc><vAcc>3.000000</vAcc></extensions></trkpt>
      <trkpt lon="-123.274002" lat="44.560325"><ele>71.344368</ele><time>2020-10-15T23:25:13Z</time><extensions><speed>5.170000</speed><course>344.531250</course><hAcc>5.000000</hAcc><vAcc>3.000000</vAcc></extensions></trkpt>
      <trkpt lon="-123.274019" lat="44.560365"><ele>71.741829</ele><time>2020-10-15T23:25:14Z</time><extensions><speed>4.950000</speed><course>343.476562</course><hAcc>5.000000</hAcc><vAcc>3.000000</vAcc></extensions></trkpt>
      <trkpt lon="-123.274033" lat="44.560398"><ele>71.631966</ele><time>2020-10-15T23:25:15Z</time><extensions><speed>4.500000</speed><course>344.531250</course><hAcc>5.000000</hAcc><vAcc>3.000000</vAcc></extensions></trkpt>
      <trkpt lon="-123.274044" lat="44.560438"><ele>71.882637</ele><time>2020-10-15T23:25:16Z</time><extensions><speed>5.040000</speed><course>351.210938</course><hAcc>5.000000</hAcc><vAcc>3.000000</vAcc></extensions></trkpt>
      <trkpt lon="-123.274072" lat="44.560485"><ele>72.125069</ele><time>2020-10-15T23:25:17Z</time><extensions><speed>5.040000</speed><course>344.882812</course><hAcc>5.000000</hAcc><vAcc>3.000000</vAcc></extensions></trkpt>
      <trkpt lon="-123.274078" lat="44.560508"><ele>72.802620</ele><time>2020-10-15T23:25:18Z</time><extensions><speed>5.040000</speed><course>341.367188</course><hAcc>5.000000</hAcc><vAcc>3.000000</vAcc></extensions></trkpt>
      <trkpt lon="-123.274100" lat="44.560540"><ele>73.234932</ele><time>2020-10-15T23:25:19Z</time><extensions><speed>4.330000</speed><course>338.906250</course><hAcc>5.000000</hAcc><vAcc>3.000000</vAcc></extensions></trkpt>
      <trkpt lon="-123.274102" lat="44.560577"><ele>74.009041</ele><time>2020-10-15T23:25:20Z</time><extensions><speed>4.470000</speed><course>348.750000</course><hAcc>5.000000</hAcc><vAcc>3.000000</vAcc></extensions></trkpt>
      <trkpt lon="-123.274105" lat="44.560613"><ele>74.142769</ele><time>2020-10-15T23:25:21Z</time><extensions><speed>4.470000</speed><course>357.187500</course><hAcc>5.000000</hAcc><vAcc>3.000000</vAcc></extensions></trkpt>
      <trkpt lon="-123.274113" lat="44.560651"><ele>73.349861</ele><time>2020-10-15T23:25:22Z</time><extensions><speed>4.640000</speed><course>352.617188</course><hAcc>5.000000</hAcc><vAcc>3.000000</vAcc></extensions></trkpt>
      <trkpt lon="-123.274129" lat="44.560679"><ele>73.791634</ele><time>2020-10-15T23:25:23Z</time><extensions><speed>4.640000</speed><course>347.695312</course><hAcc>5.000000</hAcc><vAcc>3.000000</vAcc></extensions></trkpt>
      <trkpt lon="-123.274177" lat="44.560716"><ele>75.420967</ele><time>2020-10-15T23:25:24Z</time><extensions><speed>4.100000</speed><course>324.140625</course><hAcc>5.000000</hAcc><vAcc>3.000000</vAcc></extensions></trkpt>
      <trkpt lon="-123.274206" lat="44.560738"><ele>76.528999</ele><time>2020-10-15T23:25:25Z</time><extensions><speed>4.100000</speed><course>315.703125</course><hAcc>5.000000</hAcc><vAcc>3.000000</vAcc></extensions></trkpt>
      <trkpt lon="-123.274251" lat="44.560770"><ele>75.173592</ele><time>2020-10-15T23:25:26Z</time><extensions><speed>4.100000</speed><course>312.539062</course><hAcc>5.000000</hAcc><vAcc>3.000000</vAcc></extensions></trkpt>
      <trkpt lon="-123.274289" lat="44.560780"><ele>76.771736</ele><time>2020-10-15T23:25:27Z</time><extensions><speed>4.240000</speed><course>294.609375</course><hAcc>5.000000</hAcc><vAcc>3.000000</vAcc></extensions></trkpt>
      <trkpt lon="-123.274390" lat="44.560809"><ele>74.439522</ele><time>2020-10-15T23:25:28Z</time><extensions><speed>4.260000</speed><course>277.734375</course><hAcc>5.000000</hAcc><vAcc>3.000000</vAcc></extensions></trkpt>
      <trkpt lon="-123.274457" lat="44.560813"><ele>74.435493</ele><time>2020-10-15T23:25:29Z</time><extensions><speed>5.180000</speed><course>277.031250</course><hAcc>5.000000</hAcc><vAcc>3.000000</vAcc></extensions></trkpt>
      <trkpt lon="-123.274522" lat="44.560819"><ele>74.311958</ele><time>2020-10-15T23:25:30Z</time><extensions><speed>5.190000</speed><course>277.031250</course><hAcc>5.000000</hAcc><vAcc>3.000000</vAcc></extensions></trkpt>
      <trkpt lon="-123.274594" lat="44.560813"><ele>74.490547</ele><time>2020-10-15T23:25:31Z</time><extensions><speed>5.190000</speed><course>266.484375</course><hAcc>5.000000</hAcc><vAcc>3.000000</vAcc></extensions></trkpt>
      <trkpt lon="-123.274691" lat="44.560816"><ele>74.160774</ele><time>2020-10-15T23:25:32Z</time><extensions><speed>5.780000</speed><course>275.625000</course><hAcc>5.000000</hAcc><vAcc>3.000000</vAcc></extensions></trkpt>
      <trkpt lon="-123.274772" lat="44.560817"><ele>74.247993</ele><time>2020-10-15T23:25:33Z</time><extensions><speed>5.780000</speed><course>271.757812</course><hAcc>5.000000</hAcc><vAcc>3.000000</vAcc></extensions></trkpt>
      <trkpt lon="-123.274837" lat="44.560801"><ele>74.145943</ele><time>2020-10-15T23:25:34Z</time><extensions><speed>5.360000</speed><course>260.156250</course><hAcc>5.000000</hAcc><vAcc>3.000000</vAcc></extensions></trkpt>
      <trkpt lon="-123.274902" lat="44.560792"><ele>73.943794</ele><time>2020-10-15T23:25:35Z</time><extensions><speed>5.480000</speed><course>260.507812</course><hAcc>5.000000</hAcc><vAcc>3.000000</vAcc></extensions></trkpt>
      <trkpt lon="-123.274971" lat="44.560783"><ele>73.826485</ele><time>2020-10-15T23:25:36Z</time><extensions><speed>5.480000</speed><course>260.507812</course><hAcc>5.000000</hAcc><vAcc>3.000000</vAcc></extensions></trkpt>
      <trkpt lon="-123.275086" lat="44.560771"><ele>72.790962</ele><time>2020-10-15T23:25:37Z</time><extensions><speed>5.490000</speed><course>260.507812</course><hAcc>5.000000</hAcc><vAcc>3.000000</vAcc></extensions></trkpt>
      <trkpt lon="-123.275182" lat="44.560762"><ele>72.118660</ele><time>2020-10-15T23:25:38Z</time><extensions><speed>7.080000</speed><course>261.562500</course><hAcc>5.000000</hAcc><vAcc>3.000000</vAcc></extensions></trkpt>
      <trkpt lon="-123.275288" lat="44.560753"><ele>71.005318</ele><time>2020-10-15T23:25:39Z</time><extensions><speed>6.780000</speed><course>259.804688</course><hAcc>5.000000</hAcc><vAcc>3.000000</vAcc></extensions></trkpt>
      <trkpt lon="-123.275381" lat="44.560727"><ele>70.468513</ele><time>2020-10-15T23:25:40Z</time><extensions><speed>6.870000</speed><course>258.750000</course><hAcc>5.000000</hAcc><vAcc>3.000000</vAcc></extensions></trkpt>
      <trkpt lon="-123.275454" lat="44.560708"><ele>71.058113</ele><time>2020-10-15T23:25:41Z</time><extensions><speed>6.780000</speed><course>264.023438</course><hAcc>5.000000</hAcc><vAcc>3.000000</vAcc></extensions></trkpt>
      <trkpt lon="-123.275527" lat="44.560696"><ele>71.454781</ele><time>2020-10-15T23:25:42Z</time><extensions><speed>5.980000</speed><course>263.320312</course><hAcc>5.000000</hAcc><vAcc>3.000000</vAcc></extensions></trkpt>
      <trkpt lon="-123.275596" lat="44.560687"><ele>71.504158</ele><time>2020-10-15T23:25:43Z</time><extensions><speed>5.860000</speed><course>257.695312</course><hAcc>5.000000</hAcc><vAcc>3.000000</vAcc></extensions></trkpt>
      <trkpt lon="-123.275657" lat="44.560664"><ele>70.939400</ele><time>2020-10-15T23:25:44Z</time><extensions><speed>5.860000</speed><course>260.156250</course><hAcc>5.000000</hAcc><vAcc>3.000000</vAcc></extensions></trkpt>
      <trkpt lon="-123.275745" lat="44.560659"><ele>70.577400</ele><time>2020-10-15T23:25:45Z</time><extensions><speed>5.850000</speed><course>262.968750</course><hAcc>5.000000</hAcc><vAcc>3.000000</vAcc></extensions></trkpt>
      <trkpt lon="-123.275834" lat="44.560652"><ele>70.385353</ele><time>2020-10-15T23:25:46Z</time><extensions><speed>5.850000</speed><course>254.531250</course><hAcc>5.000000</hAcc><vAcc>3.000000</vAcc></extensions></trkpt>
      <trkpt lon="-123.275903" lat="44.560649"><ele>70.274689</ele><time>2020-10-15T23:25:47Z</time><extensions><speed>5.850000</speed><course>262.265625</course><hAcc>5.000000</hAcc><vAcc>3.000000</vAcc></extensions></trkpt>
      <trkpt lon="-123.275965" lat="44.560646"><ele>70.271088</ele><time>2020-10-15T23:25:48Z</time><extensions><speed>5.260000</speed><course>266.132812</course><hAcc>5.000000</hAcc><vAcc>3.000000</vAcc></extensions></trkpt>
      <trkpt lon="-123.276031" lat="44.560647"><ele>70.059952</ele><time>2020-10-15T23:25:49Z</time><extensions><speed>6.220000</speed><course>269.648438</course><hAcc>5.000000</hAcc><vAcc>3.000000</vAcc></extensions></trkpt>
      <trkpt lon="-123.276099" lat="44.560634"><ele>70.166710</ele><time>2020-10-15T23:25:50Z</time><extensions><speed>5.330000</speed><course>270.000000</course><hAcc>5.000000</hAcc><vAcc>3.000000</vAcc></extensions></trkpt>
      <trkpt lon="-123.276133" lat="44.560666"><ele>69.833076</ele><time>2020-10-15T23:25:51Z</time><extensions><speed>5.330000</speed><course>303.750000</course><hAcc>5.000000</hAcc><vAcc>3.000000</vAcc></extensions></trkpt>
      <trkpt lon="-123.276186" lat="44.560692"><ele>70.361542</ele><time>2020-10-15T23:25:52Z</time><extensions><speed>5.090000</speed><course>303.750000</course><hAcc>5.000000</hAcc><vAcc>3.000000</vAcc></extensions></trkpt>
      <trkpt lon="-123.276228" lat="44.560728"><ele>70.483109</ele><time>2020-10-15T23:25:53Z</time><extensions><speed>5.270000</speed><course>323.085938</course><hAcc>5.000000</hAcc><vAcc>3.000000</vAcc></extensions></trkpt>
      <trkpt lon="-123.276228" lat="44.560794"><ele>70.792786</ele><time>2020-10-15T23:25:54Z</time><extensions><speed>5.270000</speed><course>337.851562</course><hAcc>5.000000</hAcc><vAcc>4.000000</vAcc></extensions></trkpt>
      <trkpt lon="-123.276195" lat="44.560815"><ele>70.986755</ele><time>2020-10-15T23:25:55Z</time><extensions><speed>5.270000</speed><course>347.695312</course><hAcc>5.000000</hAcc><vAcc>4.000000</vAcc></extensions></trkpt>
      <trkpt lon="-123.276206" lat="44.560870"><ele>70.976982</ele><time>2020-10-15T23:25:56Z</time><extensions><speed>4.470000</speed><course>347.695312</course><hAcc>5.000000</hAcc><vAcc>4.000000</vAcc></extensions></trkpt>
      <trkpt lon="-123.276225" lat="44.560890"><ele>71.119469</ele><time>2020-10-15T23:25:57Z</time><extensions><speed>4.080000</speed><course>350.859375</course><hAcc>5.000000</hAcc><vAcc>4.000000</vAcc></extensions></trkpt>
      <trkpt lon="-123.276217" lat="44.560937"><ele>70.605881</ele><time>2020-10-15T23:25:58Z</time><extensions><speed>4.250000</speed><course>355.781250</course><hAcc>5.000000</hAcc><vAcc>4.000000</vAcc></extensions></trkpt>
      <trkpt lon="-123.276217" lat="44.560978"><ele>71.195412</ele><time>2020-10-15T23:25:59Z</time><extensions><speed>4.250000</speed><course>0.000000</course><hAcc>5.000000</hAcc><vAcc>4.000000</vAcc></extensions></trkpt>
      <trkpt lon="-123.276176" lat="44.561013"><ele>70.851646</ele><time>2020-10-15T23:26:00Z</time><extensions><speed>4.250000</speed><course>21.796875</course><hAcc>5.000000</hAcc><vAcc>4.000000</vAcc></extensions></trkpt>
      <trkpt lon="-123.276177" lat="44.561040"><ele>70.505333</ele><time>2020-10-15T23:26:01Z</time><extensions><speed>2.620000</speed><course>0.351562</course><hAcc>5.000000</hAcc><vAcc>4.000000</vAcc></extensions></trkpt>
      <trkpt lon="-123.276171" lat="44.561063"><ele>70.470978</ele><time>2020-10-15T23:26:02Z</time><extensions><speed>2.620000</speed><course>355.781250</course><hAcc>5.000000</hAcc><vAcc>4.000000</vAcc></extensions></trkpt>
      <trkpt lon="-123.276189" lat="44.561091"><ele>70.545937</ele><time>2020-10-15T23:26:03Z</time><extensions><speed>2.020000</speed><course>331.171875</course><hAcc>5.000000</hAcc><vAcc>4.000000</vAcc></extensions></trkpt>
      <trkpt lon="-123.276273" lat="44.561131"><ele>70.284988</ele><time>2020-10-15T23:26:04Z</time><extensions><speed>2.020000</speed><course>296.718750</course><hAcc>5.000000</hAcc><vAcc>4.000000</vAcc></extensions></trkpt>
      <trkpt lon="-123.276281" lat="44.561134"><ele>70.340126</ele><time>2020-10-15T23:26:05Z</time><extensions><speed>1.910000</speed><course>275.976562</course><hAcc>5.000000</hAcc><vAcc>4.000000</vAcc></extensions></trkpt>
      <trkpt lon="-123.276288" lat="44.561121"><ele>70.261444</ele><time>2020-10-15T23:26:06Z</time><extensions><speed>1.930000</speed><course>198.281250</course><hAcc>5.000000</hAcc><vAcc>4.000000</vAcc></extensions></trkpt>
      <trkpt lon="-123.276293" lat="44.561104"><ele>70.344955</ele><time>2020-10-15T23:26:07Z</time><extensions><speed>1.930000</speed><course>214.453125</course><hAcc>5.000000</hAcc><vAcc>4.000000</vAcc></extensions></trkpt>
      <trkpt lon="-123.276296" lat="44.561093"><ele>70.339500</ele><time>2020-10-15T23:26:08Z</time><extensions><speed>1.670000</speed><course>183.164062</course><hAcc>5.000000</hAcc><vAcc>4.000000</vAcc></extensions></trkpt>
      <trkpt lon="-123.276293" lat="44.561081"><ele>70.242577</ele><time>2020-10-15T23:26:09Z</time><extensions><speed>1.670000</speed><course>178.242188</course><hAcc>5.000000</hAcc><vAcc>4.000000</vAcc></extensions></trkpt>
      <trkpt lon="-123.276277" lat="44.561082"><ele>70.264526</ele><time>2020-10-15T23:26:10Z</time><extensions><speed>1.720000</speed><course>181.757812</course><hAcc>5.000000</hAcc><vAcc>4.000000</vAcc></extensions></trkpt>
      <trkpt lon="-123.276282" lat="44.561080"><ele>70.403976</ele><time>2020-10-15T23:26:11Z</time><extensions><speed>1.720000</speed><course>178.242188</course><hAcc>5.000000</hAcc><vAcc>4.000000</vAcc></extensions></trkpt>
      <trkpt lon="-123.276282" lat="44.561073"><ele>70.392670</ele><time>2020-10-15T23:26:12Z</time><extensions><speed>1.030000</speed><course>170.507812</course><hAcc>5.000000</hAcc><vAcc>4.000000</vAcc></extensions></trkpt>
      <trkpt lon="-123.276281" lat="44.561066"><ele>70.544365</ele><time>2020-10-15T23:26:13Z</time><extensions><speed>0.920000</speed><course>173.671875</course><hAcc>5.000000</hAcc><vAcc>4.000000</vAcc></extensions></trkpt>
      <trkpt lon="-123.276275" lat="44.561072"><ele>70.828117</ele><time>2020-10-15T23:26:14Z</time><extensions><speed>0.920000</speed><course>358.593750</course><hAcc>5.000000</hAcc><vAcc>4.000000</vAcc></extensions></trkpt>
      <trkpt lon="-123.276265" lat="44.561084"><ele>70.585579</ele><time>2020-10-15T23:26:15Z</time><extensions><speed>1.470000</speed><course>4.570312</course><hAcc>5.000000</hAcc><vAcc>4.000000</vAcc></extensions></trkpt>
      <trkpt lon="-123.276265" lat="44.561116"><ele>70.676300</ele><time>2020-10-15T23:26:16Z</time><extensions><speed>1.690000</speed><course>4.218750</course><hAcc>5.000000</hAcc><vAcc>4.000000</vAcc></extensions></trkpt>
      <trkpt lon="-123.276265" lat="44.561123"><ele>70.900848</ele><time>2020-10-15T23:26:17Z</time><extensions><speed>1.690000</speed><course>345.585938</course><hAcc>5.000000</hAcc><vAcc>4.000000</vAcc></extensions></trkpt>
      <trkpt lon="-123.276262" lat="44.561144"><ele>70.944061</ele><time>2020-10-15T23:26:18Z</time><extensions><speed>1.990000</speed><course>1.757812</course><hAcc>5.000000</hAcc><vAcc>4.000000</vAcc></extensions></trkpt>
      <trkpt lon="-123.276271" lat="44.561182"><ele>71.391434</ele><time>2020-10-15T23:26:19Z</time><extensions><speed>2.920000</speed><course>346.992188</course><hAcc>5.000000</hAcc><vAcc>4.000000</vAcc></extensions></trkpt>
      <trkpt lon="-123.276289" lat="44.561217"><ele>71.785110</ele><time>2020-10-15T23:26:20Z</time><extensions><speed>3.870000</speed><course>346.289062</course><hAcc>5.000000</hAcc><vAcc>4.000000</vAcc></extensions></trkpt>
      <trkpt lon="-123.276299" lat="44.561254"><ele>71.517677</ele><time>2020-10-15T23:26:21Z</time><extensions><speed>4.630000</speed><course>348.750000</course><hAcc>5.000000</hAcc><vAcc>4.000000</vAcc></extensions></trkpt>
      <trkpt lon="-123.276305" lat="44.561291"><ele>71.447594</ele><time>2020-10-15T23:26:22Z</time><extensions><speed>4.230000</speed><course>350.156250</course><hAcc>5.000000</hAcc><vAcc>3.000000</vAcc></extensions></trkpt>
      <trkpt lon="-123.276309" lat="44.561329"><ele>71.393150</ele><time>2020-10-15T23:26:23Z</time><extensions><speed>4.480000</speed><course>351.914062</course><hAcc>5.000000</hAcc><vAcc>3.000000</vAcc></extensions></trkpt>
      <trkpt lon="-123.276295" lat="44.561361"><ele>71.679611</ele><time>2020-10-15T23:26:24Z</time><extensions><speed>5.220000</speed><course>351.210938</course><hAcc>5.000000</hAcc><vAcc>4.000000</vAcc></extensions></trkpt>
      <trkpt lon="-123.276296" lat="44.561406"><ele>71.707321</ele><time>2020-10-15T23:26:25Z</time><extensions><speed>5.570000</speed><course>348.750000</course><hAcc>5.000000</hAcc><vAcc>4.000000</vAcc></extensions></trkpt>
      <trkpt lon="-123.276307" lat="44.561461"><ele>71.594505</ele><time>2020-10-15T23:26:26Z</time><extensions><speed>5.570000</speed><course>348.046875</course><hAcc>5.000000</hAcc><vAcc>4.000000</vAcc></extensions></trkpt>
      <trkpt lon="-123.276322" lat="44.561511"><ele>71.418976</ele><time>2020-10-15T23:26:27Z</time><extensions><speed>5.700000</speed><course>348.046875</course><hAcc>5.000000</hAcc><vAcc>4.000000</vAcc></extensions></trkpt>
      <trkpt lon="-123.276310" lat="44.561544"><ele>71.921898</ele><time>2020-10-15T23:26:28Z</time><extensions><speed>4.900000</speed><course>352.265625</course><hAcc>5.000000</hAcc><vAcc>4.000000</vAcc></extensions></trkpt>
      <trkpt lon="-123.276319" lat="44.561588"><ele>71.949509</ele><time>2020-10-15T23:26:29Z</time><extensions><speed>4.910000</speed><course>352.265625</course><hAcc>5.000000</hAcc><vAcc>4.000000</vAcc></extensions></trkpt>
      <trkpt lon="-123.276330" lat="44.561629"><ele>71.405693</ele><time>2020-10-15T23:26:30Z</time><extensions><speed>4.900000</speed><course>358.242188</course><hAcc>5.000000</hAcc><vAcc>4.000000</vAcc></extensions></trkpt>
      <trkpt lon="-123.276331" lat="44.561667"><ele>71.275780</ele><time>2020-10-15T23:26:31Z</time><extensions><speed>4.370000</speed><course>358.242188</course><hAcc>10.000000</hAcc><vAcc>4.000000</vAcc></extensions></trkpt>
      <trkpt lon="-123.276364" lat="44.561694"><ele>70.627312</ele><time>2020-10-15T23:26:32Z</time><extensions><speed>4.310000</speed><course>345.937500</course><hAcc>5.000000</hAcc><vAcc>4.000000</vAcc></extensions></trkpt>
      <trkpt lon="-123.276349" lat="44.561749"><ele>70.875336</ele><time>2020-10-15T23:26:33Z</time><extensions><speed>4.690000</speed><course>355.781250</course><hAcc>5.000000</hAcc><vAcc>4.000000</vAcc></extensions></trkpt>
      <trkpt lon="-123.276344" lat="44.561776"><ele>70.948830</ele><time>2020-10-15T23:26:34Z</time><extensions><speed>4.690000</speed><course>355.781250</course><hAcc>5.000000</hAcc><vAcc>4.000000</vAcc></extensions></trkpt>
      <trkpt lon="-123.276353" lat="44.561813"><ele>71.474632</ele><time>2020-10-15T23:26:35Z</time><extensions><speed>3.840000</speed><course>344.531250</course><hAcc>5.000000</hAcc><vAcc>4.000000</vAcc></extensions></trkpt>
      <trkpt lon="-123.276368" lat="44.561844"><ele>71.251251</ele><time>2020-10-15T23:26:36Z</time><extensions><speed>3.840000</speed><course>335.039062</course><hAcc>5.000000</hAcc><vAcc>3.000000</vAcc></extensions></trkpt>
      <trkpt lon="-123.276395" lat="44.561872"><ele>71.077934</ele><time>2020-10-15T23:26:37Z</time><extensions><speed>3.310000</speed><course>323.437500</course><hAcc>5.000000</hAcc><vAcc>3.000000</vAcc></extensions></trkpt>
      <trkpt lon="-123.276496" lat="44.561905"><ele>70.891693</ele><time>2020-10-15T23:26:38Z</time><extensions><speed>5.180000</speed><course>284.414062</course><hAcc>5.000000</hAcc><vAcc>3.000000</vAcc></extensions></trkpt>
      <trkpt lon="-123.276557" lat="44.561915"><ele>70.476685</ele><time>2020-10-15T23:26:39Z</time><extensions><speed>5.180000</speed><course>279.843750</course><hAcc>5.000000</hAcc><vAcc>3.000000</vAcc></extensions></trkpt>
      <trkpt lon="-123.276621" lat="44.561925"><ele>70.939919</ele><time>2020-10-15T23:26:40Z</time><extensions><speed>4.600000</speed><course>273.164062</course><hAcc>5.000000</hAcc><vAcc>3.000000</vAcc></extensions></trkpt>
      <trkpt lon="-123.276678" lat="44.561922"><ele>70.661354</ele><time>2020-10-15T23:26:41Z</time><extensions><speed>4.600000</speed><course>273.867188</course><hAcc>5.000000</hAcc><vAcc>3.000000</vAcc></extensions></trkpt>
      <trkpt lon="-123.276747" lat="44.561931"><ele>70.931961</ele><time>2020-10-15T23:26:42Z</time><extensions><speed>5.280000</speed><course>276.328125</course><hAcc>5.000000</hAcc><vAcc>3.000000</vAcc></extensions></trkpt>
      <trkpt lon="-123.276822" lat="44.561928"><ele>70.905251</ele><time>2020-10-15T23:26:43Z</time><extensions><speed>6.080000</speed><course>269.648438</course><hAcc>5.000000</hAcc><vAcc>3.000000</vAcc></extensions></trkpt>
      <trkpt lon="-123.276904" lat="44.561928"><ele>71.261726</ele><time>2020-10-15T23:26:44Z</time><extensions><speed>6.080000</speed><course>267.187500</course><hAcc>5.000000</hAcc><vAcc>3.000000</vAcc></extensions></trkpt>
      <trkpt lon="-123.276982" lat="44.561927"><ele>71.185898</ele><time>2020-10-15T23:26:45Z</time><extensions><speed>5.930000</speed><course>268.593750</course><hAcc>5.000000</hAcc><vAcc>3.000000</vAcc></extensions></trkpt>
      <trkpt lon="-123.277072" lat="44.561938"><ele>71.386887</ele><time>2020-10-15T23:26:46Z</time><extensions><speed>5.930000</speed><course>269.648438</course><hAcc>5.000000</hAcc><vAcc>3.000000</vAcc></extensions></trkpt>
      <trkpt lon="-123.277160" lat="44.561938"><ele>71.405403</ele><time>2020-10-15T23:26:47Z</time><extensions><speed>6.930000</speed><course>269.648438</course><hAcc>5.000000</hAcc><vAcc>3.000000</vAcc></extensions></trkpt>
      <trkpt lon="-123.277235" lat="44.561930"><ele>71.315964</ele><time>2020-10-15T23:26:48Z</time><extensions><speed>6.930000</speed><course>270.000000</course><hAcc>5.000000</hAcc><vAcc>3.000000</vAcc></extensions></trkpt>
      <trkpt lon="-123.277330" lat="44.561939"><ele>71.395050</ele><time>2020-10-15T23:26:49Z</time><extensions><speed>6.730000</speed><course>272.109375</course><hAcc>5.000000</hAcc><vAcc>3.000000</vAcc></extensions></trkpt>
      <trkpt lon="-123.277414" lat="44.561941"><ele>71.673477</ele><time>2020-10-15T23:26:50Z</time><extensions><speed>6.730000</speed><course>272.109375</course><hAcc>5.000000</hAcc><vAcc>3.000000</vAcc></extensions></trkpt>
      <trkpt lon="-123.277502" lat="44.561935"><ele>71.468010</ele><time>2020-10-15T23:26:51Z</time><extensions><speed>6.730000</speed><course>270.000000</course><hAcc>5.000000</hAcc><vAcc>3.000000</vAcc></extensions></trkpt>
      <trkpt lon="-123.277581" lat="44.561933"><ele>71.648659</ele><time>2020-10-15T23:26:52Z</time><extensions><speed>6.130000</speed><course>265.781250</course><hAcc>5.000000</hAcc><vAcc>3.000000</vAcc></extensions></trkpt>
      <trkpt lon="-123.277667" lat="44.561944"><ele>71.375664</ele><time>2020-10-15T23:26:53Z</time><extensions><speed>6.390000</speed><course>270.000000</course><hAcc>5.000000</hAcc><vAcc>3.000000</vAcc></extensions></trkpt>
      <trkpt lon="-123.277745" lat="44.561949"><ele>71.438217</ele><time>2020-10-15T23:26:54Z</time><extensions><speed>6.250000</speed><course>273.867188</course><hAcc>5.000000</hAcc><vAcc>3.000000</vAcc></extensions></trkpt>
      <trkpt lon="-123.277828" lat="44.561949"><ele>71.237747</ele><time>2020-10-15T23:26:55Z</time><extensions><speed>6.300000</speed><course>272.460938</course><hAcc>5.000000</hAcc><vAcc>3.000000</vAcc></extensions></trkpt>
      <trkpt lon="-123.277925" lat="44.561948"><ele>71.621071</ele><time>2020-10-15T23:26:56Z</time><extensions><speed>6.300000</speed><course>266.484375</course><hAcc>5.000000</hAcc><vAcc>3.000000</vAcc></extensions></trkpt>
      <trkpt lon="-123.278006" lat="44.561942"><ele>71.572380</ele><time>2020-10-15T23:26:57Z</time><extensions><speed>6.220000</speed><course>265.429688</course><hAcc>5.000000</hAcc><vAcc>3.000000</vAcc></extensions></trkpt>
      <trkpt lon="-123.278085" lat="44.561932"><ele>71.677391</ele><time>2020-10-15T23:26:58Z</time><extensions><speed>6.680000</speed><course>267.890625</course><hAcc>5.000000</hAcc><vAcc>3.000000</vAcc></extensions></trkpt>
      <trkpt lon="-123.278177" lat="44.561939"><ele>71.510422</ele><time>2020-10-15T23:26:59Z</time><extensions><speed>6.360000</speed><course>272.109375</course><hAcc>5.000000</hAcc><vAcc>3.000000</vAcc></extensions></trkpt>
      <trkpt lon="-123.278257" lat="44.561941"><ele>71.689407</ele><time>2020-10-15T23:27:00Z</time><extensions><speed>6.360000</speed><course>272.109375</course><hAcc>5.000000</hAcc><vAcc>3.000000</vAcc></extensions></trkpt>
      <trkpt lon="-123.278322" lat="44.561938"><ele>71.775406</ele><time>2020-10-15T23:27:01Z</time><extensions><speed>6.340000</speed><course>267.539062</course><hAcc>5.000000</hAcc><vAcc>3.000000</vAcc></extensions></trkpt>
      <trkpt lon="-123.278402" lat="44.561928"><ele>71.789261</ele><time>2020-10-15T23:27:02Z</time><extensions><speed>6.300000</speed><course>265.429688</course><hAcc>5.000000</hAcc><vAcc>3.000000</vAcc></extensions></trkpt>
      <trkpt lon="-123.278472" lat="44.561923"><ele>71.751930</ele><time>2020-10-15T23:27:03Z</time><extensions><speed>6.300000</speed><course>267.890625</course><hAcc>5.000000</hAcc><vAcc>3.000000</vAcc></extensions></trkpt>
      <trkpt lon="-123.278564" lat="44.561919"><ele>71.701149</ele><time>2020-10-15T23:27:04Z</time><extensions><speed>6.270000</speed><course>272.109375</course><hAcc>5.000000</hAcc><vAcc>3.000000</vAcc></extensions></trkpt>
      <trkpt lon="-123.278637" lat="44.561922"><ele>71.835052</ele><time>2020-10-15T23:27:05Z</time><extensions><speed>6.030000</speed><course>270.000000</course><hAcc>5.000000</hAcc><vAcc>3.000000</vAcc></extensions></trkpt>
      <trkpt lon="-123.278707" lat="44.561922"><ele>72.141830</ele><time>2020-10-15T23:27:06Z</time><extensions><speed>5.600000</speed><course>270.000000</course><hAcc>5.000000</hAcc><vAcc>3.000000</vAcc></extensions></trkpt>
      <trkpt lon="-123.278783" lat="44.561911"><ele>71.902817</ele><time>2020-10-15T23:27:07Z</time><extensions><speed>5.680000</speed><course>270.351562</course><hAcc>5.000000</hAcc><vAcc>3.000000</vAcc></extensions></trkpt>
      <trkpt lon="-123.278854" lat="44.561916"><ele>71.752083</ele><time>2020-10-15T23:27:08Z</time><extensions><speed>5.680000</speed><course>266.132812</course><hAcc>5.000000</hAcc><vAcc>3.000000</vAcc></extensions></trkpt>
      <trkpt lon="-123.278920" lat="44.561913"><ele>71.553612</ele><time>2020-10-15T23:27:09Z</time><extensions><speed>5.280000</speed><course>266.132812</course><hAcc>5.000000</hAcc><vAcc>3.000000</vAcc></extensions></trkpt>
      <trkpt lon="-123.278986" lat="44.561912"><ele>72.113121</ele><time>2020-10-15T23:27:10Z</time><extensions><speed>5.280000</speed><course>272.109375</course><hAcc>5.000000</hAcc><vAcc>3.000000</vAcc></extensions></trkpt>
      <trkpt lon="-123.279064" lat="44.561896"><ele>71.500748</ele><time>2020-10-15T23:27:11Z</time><extensions><speed>5.530000</speed><course>265.781250</course><hAcc>5.000000</hAcc><vAcc>3.000000</vAcc></extensions></trkpt>
      <trkpt lon="-123.279134" lat="44.561892"><ele>72.034058</ele><time>2020-10-15T23:27:12Z</time><extensions><speed>5.530000</speed><course>265.781250</course><hAcc>5.000000</hAcc><vAcc>3.000000</vAcc></extensions></trkpt>
      <trkpt lon="-123.279190" lat="44.561895"><ele>72.110794</ele><time>2020-10-15T23:27:13Z</time><extensions><speed>5.530000</speed><course>269.648438</course><hAcc>5.000000</hAcc><vAcc>3.000000</vAcc></extensions></trkpt>
      <trkpt lon="-123.279257" lat="44.561894"><ele>72.146423</ele><time>2020-10-15T23:27:14Z</time><extensions><speed>5.310000</speed><course>269.648438</course><hAcc>5.000000</hAcc><vAcc>3.000000</vAcc></extensions></trkpt>
      <trkpt lon="-123.279323" lat="44.561886"><ele>72.165764</ele><time>2020-10-15T23:27:15Z</time><extensions><speed>5.310000</speed><course>270.351562</course><hAcc>5.000000</hAcc><vAcc>4.000000</vAcc></extensions></trkpt>
      <trkpt lon="-123.279359" lat="44.561862"><ele>71.984596</ele><time>2020-10-15T23:27:16Z</time><extensions><speed>5.040000</speed><course>259.804688</course><hAcc>5.000000</hAcc><vAcc>4.000000</vAcc></extensions></trkpt>
      <trkpt lon="-123.279424" lat="44.561861"><ele>72.275429</ele><time>2020-10-15T23:27:17Z</time><extensions><speed>5.040000</speed><course>260.859375</course><hAcc>5.000000</hAcc><vAcc>4.000000</vAcc></extensions></trkpt>
      <trkpt lon="-123.279473" lat="44.561861"><ele>72.736061</ele><time>2020-10-15T23:27:18Z</time><extensions><speed>4.550000</speed><course>272.812500</course><hAcc>5.000000</hAcc><vAcc>4.000000</vAcc></extensions></trkpt>
      <trkpt lon="-123.279528" lat="44.561877"><ele>72.372406</ele><time>2020-10-15T23:27:19Z</time><extensions><speed>4.530000</speed><course>286.523438</course><hAcc>5.000000</hAcc><vAcc>4.000000</vAcc></extensions></trkpt>
      <trkpt lon="-123.279556" lat="44.561896"><ele>72.736694</ele><time>2020-10-15T23:27:20Z</time><extensions><speed>4.190000</speed><course>303.750000</course><hAcc>5.000000</hAcc><vAcc>4.000000</vAcc></extensions></trkpt>
      <trkpt lon="-123.279594" lat="44.561917"><ele>72.650993</ele><time>2020-10-15T23:27:21Z</time><extensions><speed>3.760000</speed><course>307.968750</course><hAcc>5.000000</hAcc><vAcc>4.000000</vAcc></extensions></trkpt>
      <trkpt lon="-123.279631" lat="44.561938"><ele>72.173279</ele><time>2020-10-15T23:27:22Z</time><extensions><speed>3.760000</speed><course>307.968750</course><hAcc>10.000000</hAcc><vAcc>4.000000</vAcc></extensions></trkpt>
      <trkpt lon="-123.279573" lat="44.561961"><ele>72.944031</ele><time>2020-10-15T23:27:23Z</time><extensions><speed>3.760000</speed><course>1.406250</course><hAcc>5.000000</hAcc><vAcc>4.000000</vAcc></extensions></trkpt>
      <trkpt lon="-123.279554" lat="44.562058"><ele>72.468040</ele><time>2020-10-15T23:27:24Z</time><extensions><speed>3.760000</speed><course>9.843750</course><hAcc>5.000000</hAcc><vAcc>4.000000</vAcc></extensions></trkpt>
      <trkpt lon="-123.279548" lat="44.562111"><ele>72.098732</ele><time>2020-10-15T23:27:25Z</time><extensions><speed>4.700000</speed><course>2.812500</course><hAcc>5.000000</hAcc><vAcc>4.000000</vAcc></extensions></trkpt>
      <trkpt lon="-123.279545" lat="44.562153"><ele>72.625008</ele><time>2020-10-15T23:27:26Z</time><extensions><speed>4.700000</speed><course>2.812500</course><hAcc>5.000000</hAcc><vAcc>4.000000</vAcc></extensions></trkpt>
      <trkpt lon="-123.279556" lat="44.562211"><ele>72.778915</ele><time>2020-10-15T23:27:27Z</time><extensions><speed>4.700000</speed><course>0.351562</course><hAcc>5.000000</hAcc><vAcc>4.000000</vAcc></extensions></trkpt>
      <trkpt lon="-123.279579" lat="44.562277"><ele>73.130547</ele><time>2020-10-15T23:27:28Z</time><extensions><speed>4.730000</speed><course>350.507812</course><hAcc>5.000000</hAcc><vAcc>4.000000</vAcc></extensions></trkpt>
      <trkpt lon="-123.279574" lat="44.562304"><ele>72.529953</ele><time>2020-10-15T23:27:29Z</time><extensions><speed>4.730000</speed><course>349.453125</course><hAcc>5.000000</hAcc><vAcc>4.000000</vAcc></extensions></trkpt>
      <trkpt lon="-123.279599" lat="44.562353"><ele>73.085815</ele><time>2020-10-15T23:27:30Z</time><extensions><speed>3.370000</speed><course>351.210938</course><hAcc>5.000000</hAcc><vAcc>4.000000</vAcc></extensions></trkpt>
      <trkpt lon="-123.279595" lat="44.562394"><ele>72.979240</ele><time>2020-10-15T23:27:31Z</time><extensions><speed>3.780000</speed><course>359.648438</course><hAcc>5.000000</hAcc><vAcc>4.000000</vAcc></extensions></trkpt>
      <trkpt lon="-123.279582" lat="44.562440"><ele>73.606400</ele><time>2020-10-15T23:27:32Z</time><extensions><speed>3.780000</speed><course>4.921875</course><hAcc>5.000000</hAcc><vAcc>4.000000</vAcc></extensions></trkpt>
      <trkpt lon="-123.279567" lat="44.562479"><ele>73.483536</ele><time>2020-10-15T23:27:33Z</time><extensions><speed>4.280000</speed><course>5.976562</course><hAcc>5.000000</hAcc><vAcc>4.000000</vAcc></extensions></trkpt>
      <trkpt lon="-123.279546" lat="44.562546"><ele>73.264664</ele><time>2020-10-15T23:27:34Z</time><extensions><speed>5.000000</speed><course>5.976562</course><hAcc>5.000000</hAcc><vAcc>4.000000</vAcc></extensions></trkpt>
      <trkpt lon="-123.279517" lat="44.562563"><ele>73.480392</ele><time>2020-10-15T23:27:35Z</time><extensions><speed>5.000000</speed><course>356.835938</course><hAcc>5.000000</hAcc><vAcc>4.000000</vAcc></extensions></trkpt>
      <trkpt lon="-123.279539" lat="44.562617"><ele>73.614914</ele><time>2020-10-15T23:27:36Z</time><extensions><speed>5.000000</speed><course>358.593750</course><hAcc>5.000000</hAcc><vAcc>4.000000</vAcc></extensions></trkpt>
      <trkpt lon="-123.279522" lat="44.562668"><ele>73.433968</ele><time>2020-10-15T23:27:37Z</time><extensions><speed>5.120000</speed><course>3.515625</course><hAcc>5.000000</hAcc><vAcc>4.000000</vAcc></extensions></trkpt>
      <trkpt lon="-123.279511" lat="44.562709"><ele>73.556686</ele><time>2020-10-15T23:27:38Z</time><extensions><speed>5.120000</speed><course>4.921875</course><hAcc>5.000000</hAcc><vAcc>4.000000</vAcc></extensions></trkpt>
      <trkpt lon="-123.279501" lat="44.562759"><ele>73.892113</ele><time>2020-10-15T23:27:39Z</time><extensions><speed>5.280000</speed><course>1.406250</course><hAcc>5.000000</hAcc><vAcc>4.000000</vAcc></extensions></trkpt>
      <trkpt lon="-123.279495" lat="44.562809"><ele>73.919685</ele><time>2020-10-15T23:27:40Z</time><extensions><speed>5.380000</speed><course>359.648438</course><hAcc>5.000000</hAcc><vAcc>4.000000</vAcc></extensions></trkpt>
      <trkpt lon="-123.279495" lat="44.562858"><ele>73.472694</ele><time>2020-10-15T23:27:41Z</time><extensions><speed>5.380000</speed><course>359.648438</course><hAcc>5.000000</hAcc><vAcc>4.000000</vAcc></extensions></trkpt>
      <trkpt lon="-123.279497" lat="44.562873"><ele>73.616203</ele><time>2020-10-15T23:27:42Z</time><extensions><speed>5.380000</speed><course>351.914062</course><hAcc>5.000000</hAcc><vAcc>4.000000</vAcc></extensions></trkpt>
      <trkpt lon="-123.279552" lat="44.562933"><ele>73.520348</ele><time>2020-10-15T23:27:43Z</time><extensions><speed>4.250000</speed><course>354.726562</course><hAcc>5.000000</hAcc><vAcc>4.000000</vAcc></extensions></trkpt>
      <trkpt lon="-123.279541" lat="44.562975"><ele>73.547897</ele><time>2020-10-15T23:27:44Z</time><extensions><speed>4.550000</speed><course>5.625000</course><hAcc>5.000000</hAcc><vAcc>4.000000</vAcc></extensions></trkpt>
      <trkpt lon="-123.279528" lat="44.563007"><ele>73.691559</ele><time>2020-10-15T23:27:45Z</time><extensions><speed>4.250000</speed><course>1.406250</course><hAcc>5.000000</hAcc><vAcc>4.000000</vAcc></extensions></trkpt>
      <trkpt lon="-123.279518" lat="44.563045"><ele>73.650795</ele><time>2020-10-15T23:27:46Z</time><extensions><speed>4.130000</speed><course>1.406250</course><hAcc>5.000000</hAcc><vAcc>4.000000</vAcc></extensions></trkpt>
      <trkpt lon="-123.279516" lat="44.563083"><ele>73.685219</ele><time>2020-10-15T23:27:47Z</time><extensions><speed>3.960000</speed><course>3.515625</course><hAcc>5.000000</hAcc><vAcc>4.000000</vAcc></extensions></trkpt>
      <trkpt lon="-123.279454" lat="44.563125"><ele>73.421585</ele><time>2020-10-15T23:27:48Z</time><extensions><speed>4.340000</speed><course>38.320312</course><hAcc>5.000000</hAcc><vAcc>4.000000</vAcc></extensions></trkpt>
      <trkpt lon="-123.279422" lat="44.563165"><ele>73.581017</ele><time>2020-10-15T23:27:49Z</time><extensions><speed>4.340000</speed><course>22.500000</course><hAcc>5.000000</hAcc><vAcc>4.000000</vAcc></extensions></trkpt>
      <trkpt lon="-123.279400" lat="44.563193"><ele>73.496681</ele><time>2020-10-15T23:27:50Z</time><extensions><speed>4.040000</speed><course>20.742188</course><hAcc>5.000000</hAcc><vAcc>4.000000</vAcc></extensions></trkpt>
      <trkpt lon="-123.279374" lat="44.563221"><ele>73.485748</ele><time>2020-10-15T23:27:51Z</time><extensions><speed>3.220000</speed><course>34.101562</course><hAcc>5.000000</hAcc><vAcc>4.000000</vAcc></extensions></trkpt>
      <trkpt lon="-123.279363" lat="44.563235"><ele>73.624390</ele><time>2020-10-15T23:27:52Z</time><extensions><speed>2.700000</speed><course>19.335938</course><hAcc>5.000000</hAcc><vAcc>4.000000</vAcc></extensions></trkpt>
      <trkpt lon="-123.279353" lat="44.563248"><ele>73.512657</ele><time>2020-10-15T23:27:53Z</time><extensions><speed>1.970000</speed><course>32.343750</course><hAcc>5.000000</hAcc><vAcc>4.000000</vAcc></extensions></trkpt>
      <trkpt lon="-123.279344" lat="44.563258"><ele>73.674461</ele><time>2020-10-15T23:27:54Z</time><extensions><speed>1.970000</speed><course>23.906250</course><hAcc>5.000000</hAcc><vAcc>4.000000</vAcc></extensions></trkpt>
      <trkpt lon="-123.279341" lat="44.563272"><ele>73.822548</ele><time>2020-10-15T23:27:55Z</time><extensions><speed>1.820000</speed><course>19.687500</course><hAcc>5.000000</hAcc><vAcc>4.000000</vAcc></extensions></trkpt>
      <trkpt lon="-123.279345" lat="44.563279"><ele>73.925011</ele><time>2020-10-15T23:27:56Z</time><extensions><speed>0.620000</speed><course>21.093750</course><hAcc>5.000000</hAcc><vAcc>4.000000</vAcc></extensions></trkpt>
      <trkpt lon="-123.279345" lat="44.563279"><ele>73.827820</ele><time>2020-10-15T23:27:57Z</time><extensions><speed>0.000000</speed><course>21.093750</course><hAcc>5.000000</hAcc><vAcc>4.000000</vAcc></extensions></trkpt>
      <trkpt lon="-123.279345" lat="44.563279"><ele>73.937073</ele><time>2020-10-15T23:27:58Z</time><extensions><speed>0.000000</speed><course>21.093750</course><hAcc>5.000000</hAcc><vAcc>4.000000</vAcc></extensions></trkpt>
      <trkpt lon="-123.279345" lat="44.563279"><ele>74.003769</ele><time>2020-10-15T23:27:59Z</time><extensions><speed>0.000000</speed><course>21.093750</course><hAcc>5.000000</hAcc><vAcc>4.000000</vAcc></extensions></trkpt>
      <trkpt lon="-123.279345" lat="44.563279"><ele>73.925659</ele><time>2020-10-15T23:28:00Z</time><extensions><speed>0.000000</speed><course>21.093750</course><hAcc>5.000000</hAcc><vAcc>4.000000</vAcc></extensions></trkpt>
      <trkpt lon="-123.279345" lat="44.563279"><ele>74.118568</ele><time>2020-10-15T23:28:01Z</time><extensions><speed>0.000000</speed><course>21.093750</course><hAcc>5.000000</hAcc><vAcc>4.000000</vAcc></extensions></trkpt>
      <trkpt lon="-123.279345" lat="44.563279"><ele>74.104637</ele><time>2020-10-15T23:28:02Z</time><extensions><speed>0.000000</speed><course>21.093750</course><hAcc>5.000000</hAcc><vAcc>4.000000</vAcc></extensions></trkpt>
      <trkpt lon="-123.279345" lat="44.563279"><ele>74.178307</ele><time>2020-10-15T23:28:03Z</time><extensions><speed>0.000000</speed><course>21.093750</course><hAcc>5.000000</hAcc><vAcc>4.000000</vAcc></extensions></trkpt>
      <trkpt lon="-123.279345" lat="44.563279"><ele>74.275276</ele><time>2020-10-15T23:28:04Z</time><extensions><speed>0.000000</speed><course>21.093750</course><hAcc>5.000000</hAcc><vAcc>4.000000</vAcc></extensions></trkpt>
      <trkpt lon="-123.279345" lat="44.563279"><ele>74.347275</ele><time>2020-10-15T23:28:05Z</time><extensions><speed>0.000000</speed><course>21.093750</course><hAcc>5.000000</hAcc><vAcc>4.000000</vAcc></extensions></trkpt>
      <trkpt lon="-123.279345" lat="44.563279"><ele>74.409622</ele><time>2020-10-15T23:28:06Z</time><extensions><speed>0.000000</speed><course>21.093750</course><hAcc>5.000000</hAcc><vAcc>4.000000</vAcc></extensions></trkpt>
      <trkpt lon="-123.279345" lat="44.563279"><ele>74.601189</ele><time>2020-10-15T23:28:07Z</time><extensions><speed>0.000000</speed><course>21.093750</course><hAcc>5.000000</hAcc><vAcc>4.000000</vAcc></extensions></trkpt>
      <trkpt lon="-123.279345" lat="44.563279"><ele>74.641556</ele><time>2020-10-15T23:28:08Z</time><extensions><speed>0.000000</speed><course>21.093750</course><hAcc>5.000000</hAcc><vAcc>4.000000</vAcc></extensions></trkpt>
      <trkpt lon="-123.279345" lat="44.563279"><ele>74.757133</ele><time>2020-10-15T23:28:09Z</time><extensions><speed>0.000000</speed><course>21.093750</course><hAcc>5.000000</hAcc><vAcc>4.000000</vAcc></extensions></trkpt>
      <trkpt lon="-123.279345" lat="44.563279"><ele>74.857300</ele><time>2020-10-15T23:28:10Z</time><extensions><speed>0.000000</speed><course>21.093750</course><hAcc>5.000000</hAcc><vAcc>4.000000</vAcc></extensions></trkpt>
      <trkpt lon="-123.279345" lat="44.563279"><ele>74.925980</ele><time>2020-10-15T23:28:11Z</time><extensions><speed>0.000000</speed><course>21.093750</course><hAcc>5.000000</hAcc><vAcc>3.000000</vAcc></extensions></trkpt>
      <trkpt lon="-123.279345" lat="44.563279"><ele>75.040237</ele><time>2020-10-15T23:28:12Z</time><extensions><speed>0.000000</speed><course>21.093750</course><hAcc>5.000000</hAcc><vAcc>4.000000</vAcc></extensions></trkpt>
      <trkpt lon="-123.279345" lat="44.563279"><ele>75.127396</ele><time>2020-10-15T23:28:13Z</time><extensions><speed>0.000000</speed><course>21.093750</course><hAcc>5.000000</hAcc><vAcc>4.000000</vAcc></extensions></trkpt>
      <trkpt lon="-123.279345" lat="44.563279"><ele>75.214478</ele><time>2020-10-15T23:28:14Z</time><extensions><speed>0.000000</speed><course>221.132812</course><hAcc>5.000000</hAcc><vAcc>3.000000</vAcc></extensions></trkpt>
      <trkpt lon="-123.279345" lat="44.563279"><ele>75.253227</ele><time>2020-10-15T23:28:15Z</time><extensions><speed>0.000000</speed><course>216.562500</course><hAcc>5.000000</hAcc><vAcc>3.000000</vAcc></extensions></trkpt>
      <trkpt lon="-123.279345" lat="44.563279"><ele>75.488586</ele><time>2020-10-15T23:28:16Z</time><extensions><speed>0.000000</speed><course>146.250000</course><hAcc>5.000000</hAcc><vAcc>3.000000</vAcc></extensions></trkpt>
      <trkpt lon="-123.279345" lat="44.563279"><ele>75.384521</ele><time>2020-10-15T23:28:17Z</time><extensions><speed>0.000000</speed><course>184.921875</course><hAcc>5.000000</hAcc><vAcc>3.000000</vAcc></extensions></trkpt>
      <trkpt lon="-123.279342" lat="44.563251"><ele>75.520363</ele><time>2020-10-15T23:28:18Z</time><extensions><speed>0.520000</speed><course>180.351562</course><hAcc>5.000000</hAcc><vAcc>3.000000</vAcc></extensions></trkpt>
      <trkpt lon="-123.279349" lat="44.563243"><ele>75.570679</ele><time>2020-10-15T23:28:19Z</time><extensions><speed>0.990000</speed><course>199.687500</course><hAcc>5.000000</hAcc><vAcc>3.000000</vAcc></extensions></trkpt>
      <trkpt lon="-123.279366" lat="44.563237"><ele>75.655594</ele><time>2020-10-15T23:28:20Z</time><extensions><speed>0.990000</speed><course>221.484375</course><hAcc>5.000000</hAcc><vAcc>3.000000</vAcc></extensions></trkpt>
      <trkpt lon="-123.279379" lat="44.563230"><ele>75.877823</ele><time>2020-10-15T23:28:21Z</time><extensions><speed>0.970000</speed><course>207.421875</course><hAcc>5.000000</hAcc><vAcc>3.000000</vAcc></extensions></trkpt>
      <trkpt lon="-123.279388" lat="44.563225"><ele>75.739693</ele><time>2020-10-15T23:28:22Z</time><extensions><speed>0.920000</speed><course>200.742188</course><hAcc>5.000000</hAcc><vAcc>3.000000</vAcc></extensions></trkpt>
      <trkpt lon="-123.279395" lat="44.563219"><ele>75.666786</ele><time>2020-10-15T23:28:23Z</time><extensions><speed>0.860000</speed><course>193.359375</course><hAcc>5.000000</hAcc><vAcc>3.000000</vAcc></extensions></trkpt>
      <trkpt lon="-123.279400" lat="44.563210"><ele>75.634132</ele><time>2020-10-15T23:28:24Z</time><extensions><speed>1.030000</speed><course>184.570312</course><hAcc>5.000000</hAcc><vAcc>3.000000</vAcc></extensions></trkpt>
      <trkpt lon="-123.279400" lat="44.563202"><ele>75.634430</ele><time>2020-10-15T23:28:25Z</time><extensions><speed>1.030000</speed><course>165.937500</course><hAcc>5.000000</hAcc><vAcc>3.000000</vAcc></extensions></trkpt>
      <trkpt lon="-123.279394" lat="44.563197"><ele>75.900711</ele><time>2020-10-15T23:28:26Z</time><extensions><speed>1.010000</speed><course>151.875000</course><hAcc>5.000000</hAcc><vAcc>3.000000</vAcc></extensions></trkpt>
      <trkpt lon="-123.279386" lat="44.563193"><ele>76.022629</ele><time>2020-10-15T23:28:27Z</time><extensions><speed>0.770000</speed><course>143.789062</course><hAcc>5.000000</hAcc><vAcc>3.000000</vAcc></extensions></trkpt>
      <trkpt lon="-123.279376" lat="44.563185"><ele>75.884880</ele><time>2020-10-15T23:28:28Z</time><extensions><speed>1.410000</speed><course>149.062500</course><hAcc>5.000000</hAcc><vAcc>3.000000</vAcc></extensions></trkpt>
      <trkpt lon="-123.279365" lat="44.563177"><ele>75.405853</ele><time>2020-10-15T23:28:29Z</time><extensions><speed>1.410000</speed><course>133.593750</course><hAcc>5.000000</hAcc><vAcc>3.000000</vAcc></extensions></trkpt>
      <trkpt lon="-123.279351" lat="44.563173"><ele>75.303574</ele><time>2020-10-15T23:28:30Z</time><extensions><speed>1.190000</speed><course>100.898438</course><hAcc>5.000000</hAcc><vAcc>3.000000</vAcc></extensions></trkpt>
      <trkpt lon="-123.279338" lat="44.563170"><ele>75.321594</ele><time>2020-10-15T23:28:31Z</time><extensions><speed>1.090000</speed><course>98.789062</course><hAcc>5.000000</hAcc><vAcc>3.000000</vAcc></extensions></trkpt>
      <trkpt lon="-123.279325" lat="44.563170"><ele>75.241051</ele><time>2020-10-15T23:28:32Z</time><extensions><speed>1.120000</speed><course>80.507812</course><hAcc>5.000000</hAcc><vAcc>3.000000</vAcc></extensions></trkpt>
      <trkpt lon="-123.279309" lat="44.563173"><ele>75.130646</ele><time>2020-10-15T23:28:33Z</time><extensions><speed>1.390000</speed><course>58.359375</course><hAcc>5.000000</hAcc><vAcc>3.000000</vAcc></extensions></trkpt>
      <trkpt lon="-123.279292" lat="44.563183"><ele>75.037262</ele><time>2020-10-15T23:28:34Z</time><extensions><speed>1.390000</speed><course>33.750000</course><hAcc>5.000000</hAcc><vAcc>3.000000</vAcc></extensions></trkpt>
      <trkpt lon="-123.279278" lat="44.563192"><ele>75.037971</ele><time>2020-10-15T23:28:35Z</time><extensions><speed>1.390000</speed><course>50.976562</course><hAcc>5.000000</hAcc><vAcc>3.000000</vAcc></extensions></trkpt>
      <trkpt lon="-123.279263" lat="44.563197"><ele>75.002060</ele><time>2020-10-15T23:28:36Z</time><extensions><speed>1.150000</speed><course>91.054688</course><hAcc>5.000000</hAcc><vAcc>3.000000</vAcc></extensions></trkpt>
      <trkpt lon="-123.279246" lat="44.563197"><ele>74.821945</ele><time>2020-10-15T23:28:37Z</time><extensions><speed>1.390000</speed><course>96.328125</course><hAcc>5.000000</hAcc><vAcc>3.000000</vAcc></extensions></trkpt>
      <trkpt lon="-123.279227" lat="44.563196"><ele>74.693893</ele><time>2020-10-15T23:28:38Z</time><extensions><speed>1.220000</speed><course>91.054688</course><hAcc>5.000000</hAcc><vAcc>3.000000</vAcc></extensions></trkpt>
      <trkpt lon="-123.279212" lat="44.563192"><ele>74.725563</ele><time>2020-10-15T23:28:39Z</time><extensions><speed>1.220000</speed><course>93.515625</course><hAcc>5.000000</hAcc><vAcc>3.000000</vAcc></extensions></trkpt>
      <trkpt lon="-123.279196" lat="44.563189"><ele>74.527313</ele><time>2020-10-15T23:28:40Z</time><extensions><speed>1.220000</speed><course>98.085938</course><hAcc>5.000000</hAcc><vAcc>3.000000</vAcc></extensions></trkpt>
      <trkpt lon="-123.279178" lat="44.563186"><ele>74.441315</ele><time>2020-10-15T23:28:41Z</time><extensions><speed>1.470000</speed><course>87.890625</course><hAcc>5.000000</hAcc><vAcc>3.000000</vAcc></extensions></trkpt>
      <trkpt lon="-123.279160" lat="44.563184"><ele>74.328011</ele><time>2020-10-15T23:28:42Z</time><extensions><speed>1.440000</speed><course>82.968750</course><hAcc>5.000000</hAcc><vAcc>3.000000</vAcc></extensions></trkpt>
      <trkpt lon="-123.279140" lat="44.563183"><ele>74.260651</ele><time>2020-10-15T23:28:43Z</time><extensions><speed>1.470000</speed><course>86.132812</course><hAcc>5.000000</hAcc><vAcc>3.000000</vAcc></extensions></trkpt>
      <trkpt lon="-123.279120" lat="44.563183"><ele>74.446693</ele><time>2020-10-15T23:28:44Z</time><extensions><speed>1.480000</speed><course>85.078125</course><hAcc>5.000000</hAcc><vAcc>3.000000</vAcc></extensions></trkpt>
      <trkpt lon="-123.279104" lat="44.563184"><ele>74.414543</ele><time>2020-10-15T23:28:45Z</time><extensions><speed>1.370000</speed><course>81.562500</course><hAcc>5.000000</hAcc><vAcc>3.000000</vAcc></extensions></trkpt>
      <trkpt lon="-123.279086" lat="44.563187"><ele>74.443039</ele><time>2020-10-15T23:28:46Z</time><extensions><speed>1.800000</speed><course>74.531250</course><hAcc>5.000000</hAcc><vAcc>3.000000</vAcc></extensions></trkpt>
      <trkpt lon="-123.279067" lat="44.563191"><ele>74.361076</ele><time>2020-10-15T23:28:47Z</time><extensions><speed>1.590000</speed><course>67.851562</course><hAcc>5.000000</hAcc><vAcc>3.000000</vAcc></extensions></trkpt>
      <trkpt lon="-123.279056" lat="44.563194"><ele>74.410698</ele><time>2020-10-15T23:28:48Z</time><extensions><speed>1.590000</speed><course>82.265625</course><hAcc>5.000000</hAcc><vAcc>3.000000</vAcc></extensions></trkpt>
      <trkpt lon="-123.279045" lat="44.563195"><ele>74.381729</ele><time>2020-10-15T23:28:49Z</time><extensions><speed>1.370000</speed><course>74.882812</course><hAcc>5.000000</hAcc><vAcc>3.000000</vAcc></extensions></trkpt>
      <trkpt lon="-123.279027" lat="44.563198"><ele>74.144470</ele><time>2020-10-15T23:28:50Z</time><extensions><speed>1.640000</speed><course>79.453125</course><hAcc>5.000000</hAcc><vAcc>3.000000</vAcc></extensions></trkpt>
      <trkpt lon="-123.279012" lat="44.563199"><ele>74.155708</ele><time>2020-10-15T23:28:51Z</time><extensions><speed>1.370000</speed><course>78.750000</course><hAcc>5.000000</hAcc><vAcc>3.000000</vAcc></extensions></trkpt>
      <trkpt lon="-123.279001" lat="44.563201"><ele>74.007507</ele><time>2020-10-15T23:28:52Z</time><extensions><speed>1.310000</speed><course>75.585938</course><hAcc>10.000000</hAcc><vAcc>3.000000</vAcc></extensions></trkpt>
      <trkpt lon="-123.278995" lat="44.563200"><ele>74.053474</ele><time>2020-10-15T23:28:53Z</time><extensions><speed>1.000000</speed><course>85.429688</course><hAcc>10.000000</hAcc><vAcc>3.000000</vAcc></extensions></trkpt>
      <trkpt lon="-123.279002" lat="44.563194"><ele>73.930542</ele><time>2020-10-15T23:28:54Z</time><extensions><speed>0.930000</speed><course>122.695312</course><hAcc>10.000000</hAcc><vAcc>3.000000</vAcc></extensions></trkpt>
      <trkpt lon="-123.279026" lat="44.563187"><ele>73.938744</ele><time>2020-10-15T23:28:55Z</time><extensions><speed>1.660000</speed><course>240.117188</course><hAcc>10.000000</hAcc><vAcc>3.000000</vAcc></extensions></trkpt>
      <trkpt lon="-123.279059" lat="44.563180"><ele>73.945442</ele><time>2020-10-15T23:28:56Z</time><extensions><speed>1.410000</speed><course>254.531250</course><hAcc>10.000000</hAcc><vAcc>3.000000</vAcc></extensions></trkpt>
      <trkpt lon="-123.279094" lat="44.563176"><ele>73.929108</ele><time>2020-10-15T23:28:57Z</time><extensions><speed>1.660000</speed><course>258.750000</course><hAcc>10.000000</hAcc><vAcc>3.000000</vAcc></extensions></trkpt>
      <trkpt lon="-123.279094" lat="44.563176"><ele>73.968758</ele><time>2020-10-15T23:28:58Z</time><extensions><speed>0.000000</speed><course>268.242188</course><hAcc>10.000000</hAcc><vAcc>3.000000</vAcc></extensions></trkpt>
      <trkpt lon="-123.279094" lat="44.563176"><ele>74.048096</ele><time>2020-10-15T23:28:59Z</time><extensions><speed>0.000000</speed><course>85.078125</course><hAcc>10.000000</hAcc><vAcc>3.000000</vAcc></extensions></trkpt>
      <trkpt lon="-123.279094" lat="44.563176"><ele>73.994858</ele><time>2020-10-15T23:29:00Z</time><extensions><speed>0.000000</speed><course>87.539062</course><hAcc>10.000000</hAcc><vAcc>3.000000</vAcc></extensions></trkpt>
      <trkpt lon="-123.279094" lat="44.563176"><ele>73.872833</ele><time>2020-10-15T23:29:01Z</time><extensions><speed>0.000000</speed><course>245.390625</course><hAcc>10.000000</hAcc><vAcc>3.000000</vAcc></extensions></trkpt>
      <trkpt lon="-123.279128" lat="44.563170"><ele>73.903015</ele><time>2020-10-15T23:29:02Z</time><extensions><speed>0.350000</speed><course>252.070312</course><hAcc>10.000000</hAcc><vAcc>3.000000</vAcc></extensions></trkpt>
      <trkpt lon="-123.279136" lat="44.563170"><ele>73.896866</ele><time>2020-10-15T23:29:03Z</time><extensions><speed>0.540000</speed><course>261.210938</course><hAcc>30.000000</hAcc><vAcc>3.000000</vAcc></extensions></trkpt>
      <trkpt lon="-123.279138" lat="44.563150"><ele>73.869400</ele><time>2020-10-15T23:29:04Z</time><extensions><speed>1.390000</speed><course>223.945312</course><hAcc>10.000000</hAcc><vAcc>3.000000</vAcc></extensions></trkpt>
      <trkpt lon="-123.279138" lat="44.563150"><ele>73.824806</ele><time>2020-10-15T23:29:05Z</time><extensions><speed>0.000000</speed><course>272.812500</course><hAcc>10.000000</hAcc><vAcc>3.000000</vAcc></extensions></trkpt>
      <trkpt lon="-123.279138" lat="44.563150"><ele>73.734924</ele><time>2020-10-15T23:29:06Z</time><extensions><speed>0.000000</speed><course>90.703125</course><hAcc>30.000000</hAcc><vAcc>3.000000</vAcc></extensions></trkpt>
      <trkpt lon="-123.279115" lat="44.563100"><ele>73.760490</ele><time>2020-10-15T23:29:07Z</time><extensions><speed>0.000000</speed><course>131.835938</course><hAcc>30.000000</hAcc><vAcc>3.000000</vAcc></extensions></trkpt>
      <trkpt lon="-123.279115" lat="44.563100"><ele>73.908890</ele><time>2020-10-15T23:29:08Z</time><extensions><speed>0.000000</speed><course>131.835938</course><hAcc>30.000000</hAcc><vAcc>3.000000</vAcc></extensions></trkpt>
      <trkpt lon="-123.279115" lat="44.563100"><ele>73.845459</ele><time>2020-10-15T23:29:09Z</time><extensions><speed>0.000000</speed><course>131.835938</course><hAcc>30.000000</hAcc><vAcc>3.000000</vAcc></extensions></trkpt>
      <trkpt lon="-123.279115" lat="44.563100"><ele>73.947800</ele><time>2020-10-15T23:29:10Z</time><extensions><speed>0.000000</speed><course>114.609375</course><hAcc>30.000000</hAcc><vAcc>3.000000</vAcc></extensions></trkpt>
      <trkpt lon="-123.279115" lat="44.563100"><ele>74.136024</ele><time>2020-10-15T23:29:11Z</time><extensions><speed>0.000000</speed><course>163.476562</course><hAcc>30.000000</hAcc><vAcc>3.000000</vAcc></extensions></trkpt>
      <trkpt lon="-123.279088" lat="44.563085"><ele>74.148819</ele><time>2020-10-15T23:29:12Z</time><extensions><speed>0.250000</speed><course>136.054688</course><hAcc>30.000000</hAcc><vAcc>3.000000</vAcc></extensions></trkpt>
      <trkpt lon="-123.279083" lat="44.563101"><ele>74.087654</ele><time>2020-10-15T23:29:13Z</time><extensions><speed>1.110000</speed><course>54.140625</course><hAcc>30.000000</hAcc><vAcc>3.000000</vAcc></extensions></trkpt>
      <trkpt lon="-123.279070" lat="44.563120"><ele>74.149483</ele><time>2020-10-15T23:29:14Z</time><extensions><speed>1.230000</speed><course>34.101562</course><hAcc>30.000000</hAcc><vAcc>3.000000</vAcc></extensions></trkpt>
      <trkpt lon="-123.279050" lat="44.563184"><ele>74.182709</ele><time>2020-10-15T23:29:15Z</time><extensions><speed>1.230000</speed><course>22.500000</course><hAcc>30.000000</hAcc><vAcc>3.000000</vAcc></extensions></trkpt>
      <trkpt lon="-123.279044" lat="44.563208"><ele>74.049072</ele><time>2020-10-15T23:29:16Z</time><extensions><speed>1.420000</speed><course>16.171875</course><hAcc>30.000000</hAcc><vAcc>4.000000</vAcc></extensions></trkpt>
      <trkpt lon="-123.279049" lat="44.563249"><ele>74.142136</ele><time>2020-10-15T23:29:17Z</time><extensions><speed>2.210000</speed><course>10.898438</course><hAcc>30.000000</hAcc><vAcc>4.000000</vAcc></extensions></trkpt>
      <trkpt lon="-123.279058" lat="44.563282"><ele>74.004402</ele><time>2020-10-15T23:29:18Z</time><extensions><speed>2.210000</speed><course>0.703125</course><hAcc>30.000000</hAcc><vAcc>4.000000</vAcc></extensions></trkpt>
      <trkpt lon="-123.279074" lat="44.563282"><ele>73.973129</ele><time>2020-10-15T23:29:19Z</time><extensions><speed>1.620000</speed><course>349.453125</course><hAcc>30.000000</hAcc><vAcc>4.000000</vAcc></extensions></trkpt>
      <trkpt lon="-123.279091" lat="44.563286"><ele>73.961411</ele><time>2020-10-15T23:29:20Z</time><extensions><speed>0.420000</speed><course>326.601562</course><hAcc>30.000000</hAcc><vAcc>4.000000</vAcc></extensions></trkpt>
      <trkpt lon="-123.279104" lat="44.563281"><ele>74.110466</ele><time>2020-10-15T23:29:21Z</time><extensions><speed>0.250000</speed><course>274.570312</course><hAcc>30.000000</hAcc><vAcc>4.000000</vAcc></extensions></trkpt>
      <trkpt lon="-123.279113" lat="44.563272"><ele>74.031433</ele><time>2020-10-15T23:29:22Z</time><extensions><speed>0.280000</speed><course>249.257812</course><hAcc>30.000000</hAcc><vAcc>4.000000</vAcc></extensions></trkpt>
      <trkpt lon="-123.279118" lat="44.563257"><ele>74.043259</ele><time>2020-10-15T23:29:23Z</time><extensions><speed>0.280000</speed><course>187.734375</course><hAcc>30.000000</hAcc><vAcc>4.000000</vAcc></extensions></trkpt>
      <trkpt lon="-123.279121" lat="44.563242"><ele>74.153381</ele><time>2020-10-15T23:29:24Z</time><extensions><speed>0.540000</speed><course>174.023438</course><hAcc>30.000000</hAcc><vAcc>4.000000</vAcc></extensions></trkpt>
      <trkpt lon="-123.279122" lat="44.563233"><ele>74.149162</ele><time>2020-10-15T23:29:25Z</time><extensions><speed>0.540000</speed><course>174.726562</course><hAcc>30.000000</hAcc><vAcc>4.000000</vAcc></extensions></trkpt>
      <trkpt lon="-123.279122" lat="44.563233"><ele>74.327049</ele><time>2020-10-15T23:29:26Z</time><extensions><speed>0.000000</speed><course>177.890625</course><hAcc>30.000000</hAcc><vAcc>4.000000</vAcc></extensions></trkpt>
      <trkpt lon="-123.279122" lat="44.563233"><ele>74.076965</ele><time>2020-10-15T23:29:27Z</time><extensions><speed>0.000000</speed><course>177.890625</course><hAcc>30.000000</hAcc><vAcc>4.000000</vAcc></extensions></trkpt>
      <trkpt lon="-123.279122" lat="44.563233"><ele>74.091148</ele><time>2020-10-15T23:29:28Z</time><extensions><speed>0.000000</speed><course>177.890625</course><hAcc>30.000000</hAcc><vAcc>4.000000</vAcc></extensions></trkpt>
    </trkseg>
  </trk>
</gpx>