<?xml version="1.0" encoding="UTF-8"?>
<gpx version="1.1" creator="Apple Health Export" xmlns="http://www.topografix.com/GPX/1/1" xmlns:xsi="http://www.w3.org/2001/XMLSchema-instance" xsi:schemaLocation="http://www.topografix.com/GPX/1/1 http://www.topografix.com/GPX/1/1/gpx.xsd">
  <metadata>
    <time>2021-02-21T19:24:47Z</time>
  </metadata>
  <trk>
    <name>Route 2020-09-24 7:48pm</name>
    <trkseg>
      <trkpt lon="-123.279992" lat="44.568372"><ele>88.275703</ele><time>2020-09-25T02:46:49Z</time><extensions><speed>5.990000</speed><course>180.703125</course><hAcc>5.000000</hAcc><vAcc>8.000000</vAcc></extensions></trkpt>
      <trkpt lon="-123.279992" lat="44.568372"><ele>88.275703</ele><time>2020-09-25T02:46:51Z</time><extensions><speed>5.990000</speed><course>180.703125</course><hAcc>5.000000</hAcc><vAcc>8.000000</vAcc></extensions></trkpt>
      <trkpt lon="-123.280005" lat="44.568257"><ele>77.474983</ele><time>2020-09-25T02:46:51Z</time><extensions><speed>5.990000</speed><course>176.835938</course><hAcc>5.000000</hAcc><vAcc>3.000000</vAcc></extensions></trkpt>
      <trkpt lon="-123.279992" lat="44.568205"><ele>77.516304</ele><time>2020-09-25T02:46:52Z</time><extensions><speed>6.090000</speed><course>177.187500</course><hAcc>5.000000</hAcc><vAcc>3.000000</vAcc></extensions></trkpt>
      <trkpt lon="-123.279987" lat="44.568146"><ele>77.663277</ele><time>2020-09-25T02:46:53Z</time><extensions><speed>6.210000</speed><course>176.484375</course><hAcc>5.000000</hAcc><vAcc>3.000000</vAcc></extensions></trkpt>
      <trkpt lon="-123.279984" lat="44.568091"><ele>78.058907</ele><time>2020-09-25T02:46:54Z</time><extensions><speed>6.210000</speed><course>177.187500</course><hAcc>5.000000</hAcc><vAcc>3.000000</vAcc></extensions></trkpt>
      <trkpt lon="-123.279975" lat="44.568035"><ele>78.603462</ele><time>2020-09-25T02:46:55Z</time><extensions><speed>6.120000</speed><course>178.593750</course><hAcc>5.000000</hAcc><vAcc>3.000000</vAcc></extensions></trkpt>
      <trkpt lon="-123.279961" lat="44.567977"><ele>79.266975</ele><time>2020-09-25T02:46:56Z</time><extensions><speed>6.120000</speed><course>176.484375</course><hAcc>5.000000</hAcc><vAcc>3.000000</vAcc></extensions></trkpt>
      <trkpt lon="-123.279950" lat="44.567920"><ele>79.576973</ele><time>2020-09-25T02:46:57Z</time><extensions><speed>6.020000</speed><course>176.835938</course><hAcc>5.000000</hAcc><vAcc>3.000000</vAcc></extensions></trkpt>
      <trkpt lon="-123.279936" lat="44.567863"><ele>79.925545</ele><time>2020-09-25T02:46:58Z</time><extensions><speed>6.130000</speed><course>174.023438</course><hAcc>5.000000</hAcc><vAcc>3.000000</vAcc></extensions></trkpt>
      <trkpt lon="-123.279936" lat="44.567806"><ele>80.216621</ele><time>2020-09-25T02:46:59Z</time><extensions><speed>6.090000</speed><course>179.296875</course><hAcc>5.000000</hAcc><vAcc>3.000000</vAcc></extensions></trkpt>
      <trkpt lon="-123.279940" lat="44.567751"><ele>80.533455</ele><time>2020-09-25T02:47:00Z</time><extensions><speed>6.110000</speed><course>180.703125</course><hAcc>5.000000</hAcc><vAcc>3.000000</vAcc></extensions></trkpt>
      <trkpt lon="-123.279941" lat="44.567702"><ele>80.783577</ele><time>2020-09-25T02:47:01Z</time><extensions><speed>5.740000</speed><course>183.164062</course><hAcc>5.000000</hAcc><vAcc>3.000000</vAcc></extensions></trkpt>
      <trkpt lon="-123.279945" lat="44.567651"><ele>80.981514</ele><time>2020-09-25T02:47:02Z</time><extensions><speed>5.880000</speed><course>179.648438</course><hAcc>5.000000</hAcc><vAcc>3.000000</vAcc></extensions></trkpt>
      <trkpt lon="-123.279950" lat="44.567595"><ele>80.921272</ele><time>2020-09-25T02:47:03Z</time><extensions><speed>5.880000</speed><course>180.000000</course><hAcc>5.000000</hAcc><vAcc>3.000000</vAcc></extensions></trkpt>
      <trkpt lon="-123.279969" lat="44.567547"><ele>81.337227</ele><time>2020-09-25T02:47:04Z</time><extensions><speed>5.880000</speed><course>189.140625</course><hAcc>5.000000</hAcc><vAcc>3.000000</vAcc></extensions></trkpt>
      <trkpt lon="-123.279972" lat="44.567493"><ele>81.204292</ele><time>2020-09-25T02:47:05Z</time><extensions><speed>5.960000</speed><course>182.109375</course><hAcc>5.000000</hAcc><vAcc>3.000000</vAcc></extensions></trkpt>
      <trkpt lon="-123.279978" lat="44.567438"><ele>81.458382</ele><time>2020-09-25T02:47:06Z</time><extensions><speed>5.960000</speed><course>183.867188</course><hAcc>5.000000</hAcc><vAcc>3.000000</vAcc></extensions></trkpt>
      <trkpt lon="-123.279985" lat="44.567381"><ele>81.554146</ele><time>2020-09-25T02:47:07Z</time><extensions><speed>5.960000</speed><course>183.867188</course><hAcc>5.000000</hAcc><vAcc>3.000000</vAcc></extensions></trkpt>
      <trkpt lon="-123.279992" lat="44.567324"><ele>81.645088</ele><time>2020-09-25T02:47:08Z</time><extensions><speed>6.130000</speed><course>184.570312</course><hAcc>5.000000</hAcc><vAcc>3.000000</vAcc></extensions></trkpt>
      <trkpt lon="-123.280003" lat="44.567271"><ele>81.682747</ele><time>2020-09-25T02:47:09Z</time><extensions><speed>5.640000</speed><course>190.546875</course><hAcc>5.000000</hAcc><vAcc>3.000000</vAcc></extensions></trkpt>
      <trkpt lon="-123.280011" lat="44.567219"><ele>81.451607</ele><time>2020-09-25T02:47:10Z</time><extensions><speed>5.810000</speed><course>186.679688</course><hAcc>5.000000</hAcc><vAcc>3.000000</vAcc></extensions></trkpt>
      <trkpt lon="-123.280014" lat="44.567164"><ele>81.374397</ele><time>2020-09-25T02:47:11Z</time><extensions><speed>5.810000</speed><course>177.187500</course><hAcc>5.000000</hAcc><vAcc>3.000000</vAcc></extensions></trkpt>
      <trkpt lon="-123.279991" lat="44.567096"><ele>81.217537</ele><time>2020-09-25T02:47:12Z</time><extensions><speed>6.300000</speed><course>174.726562</course><hAcc>5.000000</hAcc><vAcc>3.000000</vAcc></extensions></trkpt>
      <trkpt lon="-123.280000" lat="44.567049"><ele>80.591011</ele><time>2020-09-25T02:47:13Z</time><extensions><speed>5.810000</speed><course>183.867188</course><hAcc>5.000000</hAcc><vAcc>3.000000</vAcc></extensions></trkpt>
      <trkpt lon="-123.280005" lat="44.566988"><ele>80.959236</ele><time>2020-09-25T02:47:14Z</time><extensions><speed>6.340000</speed><course>180.351562</course><hAcc>5.000000</hAcc><vAcc>3.000000</vAcc></extensions></trkpt>
      <trkpt lon="-123.280005" lat="44.566929"><ele>81.127266</ele><time>2020-09-25T02:47:15Z</time><extensions><speed>6.340000</speed><course>179.648438</course><hAcc>5.000000</hAcc><vAcc>3.000000</vAcc></extensions></trkpt>
      <trkpt lon="-123.279993" lat="44.566881"><ele>80.780586</ele><time>2020-09-25T02:47:16Z</time><extensions><speed>6.340000</speed><course>181.406250</course><hAcc>5.000000</hAcc><vAcc>3.000000</vAcc></extensions></trkpt>
      <trkpt lon="-123.280008" lat="44.566812"><ele>80.348946</ele><time>2020-09-25T02:47:17Z</time><extensions><speed>6.410000</speed><course>184.570312</course><hAcc>5.000000</hAcc><vAcc>3.000000</vAcc></extensions></trkpt>
      <trkpt lon="-123.280003" lat="44.566735"><ele>80.680733</ele><time>2020-09-25T02:47:18Z</time><extensions><speed>6.640000</speed><course>184.218750</course><hAcc>5.000000</hAcc><vAcc>3.000000</vAcc></extensions></trkpt>
      <trkpt lon="-123.280009" lat="44.566665"><ele>81.025887</ele><time>2020-09-25T02:47:19Z</time><extensions><speed>6.640000</speed><course>182.109375</course><hAcc>5.000000</hAcc><vAcc>3.000000</vAcc></extensions></trkpt>
      <trkpt lon="-123.279991" lat="44.566609"><ele>80.257820</ele><time>2020-09-25T02:47:20Z</time><extensions><speed>7.170000</speed><course>178.242188</course><hAcc>5.000000</hAcc><vAcc>3.000000</vAcc></extensions></trkpt>
      <trkpt lon="-123.280034" lat="44.566556"><ele>79.886482</ele><time>2020-09-25T02:47:21Z</time><extensions><speed>7.140000</speed><course>180.351562</course><hAcc>5.000000</hAcc><vAcc>3.000000</vAcc></extensions></trkpt>
      <trkpt lon="-123.280033" lat="44.566500"><ele>79.688789</ele><time>2020-09-25T02:47:22Z</time><extensions><speed>7.140000</speed><course>178.945312</course><hAcc>5.000000</hAcc><vAcc>3.000000</vAcc></extensions></trkpt>
      <trkpt lon="-123.280018" lat="44.566444"><ele>79.625069</ele><time>2020-09-25T02:47:23Z</time><extensions><speed>6.800000</speed><course>172.265625</course><hAcc>5.000000</hAcc><vAcc>3.000000</vAcc></extensions></trkpt>
      <trkpt lon="-123.280010" lat="44.566377"><ele>79.413216</ele><time>2020-09-25T02:47:24Z</time><extensions><speed>7.410000</speed><course>173.320312</course><hAcc>5.000000</hAcc><vAcc>3.000000</vAcc></extensions></trkpt>
      <trkpt lon="-123.279938" lat="44.566334"><ele>78.318794</ele><time>2020-09-25T02:47:25Z</time><extensions><speed>6.570000</speed><course>175.078125</course><hAcc>5.000000</hAcc><vAcc>3.000000</vAcc></extensions></trkpt>
      <trkpt lon="-123.279960" lat="44.566265"><ele>78.041023</ele><time>2020-09-25T02:47:26Z</time><extensions><speed>6.830000</speed><course>182.109375</course><hAcc>5.000000</hAcc><vAcc>3.000000</vAcc></extensions></trkpt>
      <trkpt lon="-123.279961" lat="44.566214"><ele>77.919930</ele><time>2020-09-25T02:47:27Z</time><extensions><speed>6.170000</speed><course>182.109375</course><hAcc>5.000000</hAcc><vAcc>3.000000</vAcc></extensions></trkpt>
      <trkpt lon="-123.279972" lat="44.566168"><ele>77.679390</ele><time>2020-09-25T02:47:28Z</time><extensions><speed>5.020000</speed><course>184.218750</course><hAcc>5.000000</hAcc><vAcc>3.000000</vAcc></extensions></trkpt>
      <trkpt lon="-123.279963" lat="44.566094"><ele>77.712532</ele><time>2020-09-25T02:47:29Z</time><extensions><speed>6.130000</speed><course>181.054688</course><hAcc>5.000000</hAcc><vAcc>3.000000</vAcc></extensions></trkpt>
      <trkpt lon="-123.279947" lat="44.566061"><ele>77.186775</ele><time>2020-09-25T02:47:30Z</time><extensions><speed>5.880000</speed><course>175.429688</course><hAcc>5.000000</hAcc><vAcc>3.000000</vAcc></extensions></trkpt>
      <trkpt lon="-123.279918" lat="44.566017"><ele>77.043221</ele><time>2020-09-25T02:47:31Z</time><extensions><speed>5.880000</speed><course>166.640625</course><hAcc>5.000000</hAcc><vAcc>3.000000</vAcc></extensions></trkpt>
      <trkpt lon="-123.279913" lat="44.565951"><ele>77.071602</ele><time>2020-09-25T02:47:33Z</time><extensions><speed>5.880000</speed><course>172.968750</course><hAcc>5.000000</hAcc><vAcc>3.000000</vAcc></extensions></trkpt>
      <trkpt lon="-123.279874" lat="44.565893"><ele>77.124275</ele><time>2020-09-25T02:47:34Z</time><extensions><speed>6.100000</speed><course>161.015625</course><hAcc>5.000000</hAcc><vAcc>3.000000</vAcc></extensions></trkpt>
      <trkpt lon="-123.279908" lat="44.565815"><ele>77.025581</ele><time>2020-09-25T02:47:35Z</time><extensions><speed>6.560000</speed><course>170.156250</course><hAcc>5.000000</hAcc><vAcc>3.000000</vAcc></extensions></trkpt>
      <trkpt lon="-123.279939" lat="44.565734"><ele>77.676582</ele><time>2020-09-25T02:47:36Z</time><extensions><speed>6.560000</speed><course>174.726562</course><hAcc>5.000000</hAcc><vAcc>3.000000</vAcc></extensions></trkpt>
      <trkpt lon="-123.279938" lat="44.565668"><ele>77.616402</ele><time>2020-09-25T02:47:37Z</time><extensions><speed>6.430000</speed><course>175.429688</course><hAcc>5.000000</hAcc><vAcc>3.000000</vAcc></extensions></trkpt>
      <trkpt lon="-123.279940" lat="44.565607"><ele>77.631721</ele><time>2020-09-25T02:47:38Z</time><extensions><speed>6.430000</speed><course>178.945312</course><hAcc>5.000000</hAcc><vAcc>3.000000</vAcc></extensions></trkpt>
      <trkpt lon="-123.279941" lat="44.565547"><ele>77.684273</ele><time>2020-09-25T02:47:39Z</time><extensions><speed>6.620000</speed><course>180.351562</course><hAcc>5.000000</hAcc><vAcc>3.000000</vAcc></extensions></trkpt>
      <trkpt lon="-123.279966" lat="44.565489"><ele>77.520515</ele><time>2020-09-25T02:47:40Z</time><extensions><speed>6.620000</speed><course>186.679688</course><hAcc>5.000000</hAcc><vAcc>3.000000</vAcc></extensions></trkpt>
      <trkpt lon="-123.279963" lat="44.565431"><ele>77.797310</ele><time>2020-09-25T02:47:41Z</time><extensions><speed>6.200000</speed><course>181.406250</course><hAcc>5.000000</hAcc><vAcc>3.000000</vAcc></extensions></trkpt>
      <trkpt lon="-123.279966" lat="44.565375"><ele>77.517281</ele><time>2020-09-25T02:47:42Z</time><extensions><speed>6.200000</speed><course>187.382812</course><hAcc>5.000000</hAcc><vAcc>3.000000</vAcc></extensions></trkpt>
      <trkpt lon="-123.279975" lat="44.565320"><ele>77.500435</ele><time>2020-09-25T02:47:43Z</time><extensions><speed>6.520000</speed><course>185.625000</course><hAcc>5.000000</hAcc><vAcc>3.000000</vAcc></extensions></trkpt>
      <trkpt lon="-123.279977" lat="44.565261"><ele>77.677193</ele><time>2020-09-25T02:47:44Z</time><extensions><speed>6.540000</speed><course>183.867188</course><hAcc>5.000000</hAcc><vAcc>3.000000</vAcc></extensions></trkpt>
      <trkpt lon="-123.279968" lat="44.565202"><ele>77.667366</ele><time>2020-09-25T02:47:45Z</time><extensions><speed>6.540000</speed><course>175.781250</course><hAcc>5.000000</hAcc><vAcc>3.000000</vAcc></extensions></trkpt>
      <trkpt lon="-123.280013" lat="44.565143"><ele>77.964485</ele><time>2020-09-25T02:47:46Z</time><extensions><speed>6.830000</speed><course>191.250000</course><hAcc>5.000000</hAcc><vAcc>3.000000</vAcc></extensions></trkpt>
      <trkpt lon="-123.279993" lat="44.565083"><ele>77.392403</ele><time>2020-09-25T02:47:47Z</time><extensions><speed>7.040000</speed><course>176.835938</course><hAcc>5.000000</hAcc><vAcc>3.000000</vAcc></extensions></trkpt>
      <trkpt lon="-123.280008" lat="44.565022"><ele>77.086861</ele><time>2020-09-25T02:47:48Z</time><extensions><speed>7.040000</speed><course>185.976562</course><hAcc>5.000000</hAcc><vAcc>3.000000</vAcc></extensions></trkpt>
      <trkpt lon="-123.279989" lat="44.564967"><ele>76.388130</ele><time>2020-09-25T02:47:49Z</time><extensions><speed>6.370000</speed><course>177.539062</course><hAcc>5.000000</hAcc><vAcc>3.000000</vAcc></extensions></trkpt>
      <trkpt lon="-123.279991" lat="44.564912"><ele>76.083076</ele><time>2020-09-25T02:47:50Z</time><extensions><speed>6.370000</speed><course>177.539062</course><hAcc>5.000000</hAcc><vAcc>3.000000</vAcc></extensions></trkpt>
      <trkpt lon="-123.279996" lat="44.564859"><ele>77.463387</ele><time>2020-09-25T02:47:51Z</time><extensions><speed>6.480000</speed><course>178.593750</course><hAcc>5.000000</hAcc><vAcc>3.000000</vAcc></extensions></trkpt>
      <trkpt lon="-123.280006" lat="44.564802"><ele>77.695686</ele><time>2020-09-25T02:47:52Z</time><extensions><speed>6.480000</speed><course>184.921875</course><hAcc>5.000000</hAcc><vAcc>3.000000</vAcc></extensions></trkpt>
      <trkpt lon="-123.280000" lat="44.564758"><ele>76.951668</ele><time>2020-09-25T02:47:53Z</time><extensions><speed>6.350000</speed><course>185.273438</course><hAcc>5.000000</hAcc><vAcc>3.000000</vAcc></extensions></trkpt>
      <trkpt lon="-123.279999" lat="44.564700"><ele>76.983589</ele><time>2020-09-25T02:47:54Z</time><extensions><speed>6.010000</speed><course>180.351562</course><hAcc>5.000000</hAcc><vAcc>3.000000</vAcc></extensions></trkpt>
      <trkpt lon="-123.280002" lat="44.564653"><ele>76.962349</ele><time>2020-09-25T02:47:55Z</time><extensions><speed>5.160000</speed><course>181.757812</course><hAcc>5.000000</hAcc><vAcc>3.000000</vAcc></extensions></trkpt>
      <trkpt lon="-123.280013" lat="44.564615"><ele>76.066963</ele><time>2020-09-25T02:47:56Z</time><extensions><speed>5.260000</speed><course>198.984375</course><hAcc>5.000000</hAcc><vAcc>3.000000</vAcc></extensions></trkpt>
      <trkpt lon="-123.279987" lat="44.564557"><ele>76.685860</ele><time>2020-09-25T02:47:57Z</time><extensions><speed>5.260000</speed><course>188.437500</course><hAcc>5.000000</hAcc><vAcc>3.000000</vAcc></extensions></trkpt>
      <trkpt lon="-123.279974" lat="44.564499"><ele>76.824654</ele><time>2020-09-25T02:47:58Z</time><extensions><speed>6.030000</speed><course>176.132812</course><hAcc>5.000000</hAcc><vAcc>3.000000</vAcc></extensions></trkpt>
      <trkpt lon="-123.279977" lat="44.564436"><ele>76.342415</ele><time>2020-09-25T02:47:59Z</time><extensions><speed>7.060000</speed><course>179.648438</course><hAcc>5.000000</hAcc><vAcc>3.000000</vAcc></extensions></trkpt>
      <trkpt lon="-123.279966" lat="44.564377"><ele>76.317085</ele><time>2020-09-25T02:48:00Z</time><extensions><speed>7.060000</speed><course>174.375000</course><hAcc>5.000000</hAcc><vAcc>3.000000</vAcc></extensions></trkpt>
      <trkpt lon="-123.279982" lat="44.564316"><ele>77.122566</ele><time>2020-09-25T02:48:01Z</time><extensions><speed>6.740000</speed><course>187.734375</course><hAcc>5.000000</hAcc><vAcc>3.000000</vAcc></extensions></trkpt>
      <trkpt lon="-123.280007" lat="44.564259"><ele>76.873055</ele><time>2020-09-25T02:48:02Z</time><extensions><speed>6.480000</speed><course>190.195312</course><hAcc>5.000000</hAcc><vAcc>3.000000</vAcc></extensions></trkpt>
      <trkpt lon="-123.280010" lat="44.564200"><ele>77.181160</ele><time>2020-09-25T02:48:03Z</time><extensions><speed>6.600000</speed><course>182.460938</course><hAcc>5.000000</hAcc><vAcc>3.000000</vAcc></extensions></trkpt>
      <trkpt lon="-123.280007" lat="44.564144"><ele>76.476082</ele><time>2020-09-25T02:48:04Z</time><extensions><speed>6.600000</speed><course>182.109375</course><hAcc>5.000000</hAcc><vAcc>3.000000</vAcc></extensions></trkpt>
      <trkpt lon="-123.279993" lat="44.564089"><ele>76.341988</ele><time>2020-09-25T02:48:05Z</time><extensions><speed>6.230000</speed><course>177.187500</course><hAcc>5.000000</hAcc><vAcc>3.000000</vAcc></extensions></trkpt>
      <trkpt lon="-123.279945" lat="44.564037"><ele>76.278023</ele><time>2020-09-25T02:48:06Z</time><extensions><speed>6.230000</speed><course>158.203125</course><hAcc>5.000000</hAcc><vAcc>3.000000</vAcc></extensions></trkpt>
      <trkpt lon="-123.279890" lat="44.563990"><ele>76.445442</ele><time>2020-09-25T02:48:07Z</time><extensions><speed>6.860000</speed><course>152.578125</course><hAcc>5.000000</hAcc><vAcc>3.000000</vAcc></extensions></trkpt>
      <trkpt lon="-123.279879" lat="44.563914"><ele>76.734871</ele><time>2020-09-25T02:48:08Z</time><extensions><speed>6.890000</speed><course>163.828125</course><hAcc>5.000000</hAcc><vAcc>3.000000</vAcc></extensions></trkpt>
      <trkpt lon="-123.279877" lat="44.563847"><ele>76.772469</ele><time>2020-09-25T02:48:09Z</time><extensions><speed>7.280000</speed><course>174.023438</course><hAcc>5.000000</hAcc><vAcc>3.000000</vAcc></extensions></trkpt>
      <trkpt lon="-123.279863" lat="44.563770"><ele>76.810738</ele><time>2020-09-25T02:48:10Z</time><extensions><speed>7.340000</speed><course>168.750000</course><hAcc>5.000000</hAcc><vAcc>3.000000</vAcc></extensions></trkpt>
      <trkpt lon="-123.279826" lat="44.563696"><ele>76.866707</ele><time>2020-09-25T02:48:11Z</time><extensions><speed>7.660000</speed><course>160.312500</course><hAcc>5.000000</hAcc><vAcc>3.000000</vAcc></extensions></trkpt>
      <trkpt lon="-123.279800" lat="44.563632"><ele>76.726814</ele><time>2020-09-25T02:48:12Z</time><extensions><speed>7.370000</speed><course>160.664062</course><hAcc>5.000000</hAcc><vAcc>4.000000</vAcc></extensions></trkpt>
      <trkpt lon="-123.279771" lat="44.563563"><ele>76.434029</ele><time>2020-09-25T02:48:13Z</time><extensions><speed>7.640000</speed><course>161.367188</course><hAcc>5.000000</hAcc><vAcc>4.000000</vAcc></extensions></trkpt>
      <trkpt lon="-123.279746" lat="44.563492"><ele>75.909004</ele><time>2020-09-25T02:48:14Z</time><extensions><speed>7.790000</speed><course>163.828125</course><hAcc>5.000000</hAcc><vAcc>4.000000</vAcc></extensions></trkpt>
      <trkpt lon="-123.279741" lat="44.563426"><ele>75.677376</ele><time>2020-09-25T02:48:15Z</time><extensions><speed>7.640000</speed><course>173.320312</course><hAcc>5.000000</hAcc><vAcc>4.000000</vAcc></extensions></trkpt>
      <trkpt lon="-123.279719" lat="44.563366"><ele>75.167122</ele><time>2020-09-25T02:48:16Z</time><extensions><speed>7.020000</speed><course>164.531250</course><hAcc>5.000000</hAcc><vAcc>4.000000</vAcc></extensions></trkpt>
      <trkpt lon="-123.279684" lat="44.563310"><ele>74.931770</ele><time>2020-09-25T02:48:17Z</time><extensions><speed>6.930000</speed><course>153.984375</course><hAcc>5.000000</hAcc><vAcc>4.000000</vAcc></extensions></trkpt>
      <trkpt lon="-123.279630" lat="44.563272"><ele>75.199532</ele><time>2020-09-25T02:48:18Z</time><extensions><speed>5.940000</speed><course>148.359375</course><hAcc>5.000000</hAcc><vAcc>3.000000</vAcc></extensions></trkpt>
      <trkpt lon="-123.279580" lat="44.563244"><ele>75.268745</ele><time>2020-09-25T02:48:19Z</time><extensions><speed>4.850000</speed><course>130.781250</course><hAcc>5.000000</hAcc><vAcc>3.000000</vAcc></extensions></trkpt>
      <trkpt lon="-123.279519" lat="44.563234"><ele>75.435860</ele><time>2020-09-25T02:48:20Z</time><extensions><speed>4.530000</speed><course>95.625000</course><hAcc>5.000000</hAcc><vAcc>3.000000</vAcc></extensions></trkpt>
      <trkpt lon="-123.279461" lat="44.563248"><ele>75.958199</ele><time>2020-09-25T02:48:21Z</time><extensions><speed>4.180000</speed><course>58.710938</course><hAcc>5.000000</hAcc><vAcc>3.000000</vAcc></extensions></trkpt>
      <trkpt lon="-123.279425" lat="44.563281"><ele>75.772530</ele><time>2020-09-25T02:48:22Z</time><extensions><speed>3.370000</speed><course>39.726562</course><hAcc>5.000000</hAcc><vAcc>3.000000</vAcc></extensions></trkpt>
      <trkpt lon="-123.279410" lat="44.563297"><ele>75.817757</ele><time>2020-09-25T02:48:23Z</time><extensions><speed>3.370000</speed><course>11.250000</course><hAcc>5.000000</hAcc><vAcc>3.000000</vAcc></extensions></trkpt>
      <trkpt lon="-123.279413" lat="44.563312"><ele>75.614326</ele><time>2020-09-25T02:48:24Z</time><extensions><speed>2.160000</speed><course>340.312500</course><hAcc>5.000000</hAcc><vAcc>3.000000</vAcc></extensions></trkpt>
      <trkpt lon="-123.279418" lat="44.563320"><ele>75.506844</ele><time>2020-09-25T02:48:25Z</time><extensions><speed>1.460000</speed><course>329.062500</course><hAcc>5.000000</hAcc><vAcc>3.000000</vAcc></extensions></trkpt>
      <trkpt lon="-123.279418" lat="44.563320"><ele>75.276375</ele><time>2020-09-25T02:48:26Z</time><extensions><speed>0.000000</speed><course>311.835938</course><hAcc>5.000000</hAcc><vAcc>3.000000</vAcc></extensions></trkpt>
      <trkpt lon="-123.279412" lat="44.563326"><ele>75.404488</ele><time>2020-09-25T02:48:27Z</time><extensions><speed>0.190000</speed><course>316.054688</course><hAcc>5.000000</hAcc><vAcc>3.000000</vAcc></extensions></trkpt>
      <trkpt lon="-123.279410" lat="44.563329"><ele>75.331490</ele><time>2020-09-25T02:48:28Z</time><extensions><speed>0.190000</speed><course>322.382812</course><hAcc>5.000000</hAcc><vAcc>3.000000</vAcc></extensions></trkpt>
      <trkpt lon="-123.279405" lat="44.563331"><ele>75.343086</ele><time>2020-09-25T02:48:29Z</time><extensions><speed>0.390000</speed><course>322.734375</course><hAcc>5.000000</hAcc><vAcc>3.000000</vAcc></extensions></trkpt>
      <trkpt lon="-123.279402" lat="44.563331"><ele>74.549202</ele><time>2020-09-25T02:48:30Z</time><extensions><speed>0.340000</speed><course>322.734375</course><hAcc>5.000000</hAcc><vAcc>3.000000</vAcc></extensions></trkpt>
      <trkpt lon="-123.279405" lat="44.563327"><ele>74.843025</ele><time>2020-09-25T02:48:31Z</time><extensions><speed>0.660000</speed><course>322.734375</course><hAcc>5.000000</hAcc><vAcc>3.000000</vAcc></extensions></trkpt>
      <trkpt lon="-123.279406" lat="44.563323"><ele>74.538582</ele><time>2020-09-25T02:48:32Z</time><extensions><speed>0.190000</speed><course>322.734375</course><hAcc>5.000000</hAcc><vAcc>3.000000</vAcc></extensions></trkpt>
      <trkpt lon="-123.279402" lat="44.563316"><ele>73.748055</ele><time>2020-09-25T02:48:33Z</time><extensions><speed>0.660000</speed><course>322.734375</course><hAcc>5.000000</hAcc><vAcc>3.000000</vAcc></extensions></trkpt>
      <trkpt lon="-123.279402" lat="44.563316"><ele>74.188850</ele><time>2020-09-25T02:48:34Z</time><extensions><speed>0.000000</speed><course>322.734375</course><hAcc>5.000000</hAcc><vAcc>3.000000</vAcc></extensions></trkpt>
      <trkpt lon="-123.279393" lat="44.563305"><ele>74.185661</ele><time>2020-09-25T02:48:35Z</time><extensions><speed>0.230000</speed><course>322.734375</course><hAcc>5.000000</hAcc><vAcc>3.000000</vAcc></extensions></trkpt>
      <trkpt lon="-123.279394" lat="44.563299"><ele>74.266731</ele><time>2020-09-25T02:48:36Z</time><extensions><speed>0.230000</speed><course>322.734375</course><hAcc>5.000000</hAcc><vAcc>3.000000</vAcc></extensions></trkpt>
      <trkpt lon="-123.279406" lat="44.563296"><ele>74.383575</ele><time>2020-09-25T02:48:37Z</time><extensions><speed>0.460000</speed><course>322.734375</course><hAcc>5.000000</hAcc><vAcc>3.000000</vAcc></extensions></trkpt>
      <trkpt lon="-123.279406" lat="44.563296"><ele>74.257530</ele><time>2020-09-25T02:48:38Z</time><extensions><speed>0.000000</speed><course>322.734375</course><hAcc>5.000000</hAcc><vAcc>3.000000</vAcc></extensions></trkpt>
      <trkpt lon="-123.279406" lat="44.563296"><ele>74.282059</ele><time>2020-09-25T02:48:39Z</time><extensions><speed>0.000000</speed><course>322.734375</course><hAcc>5.000000</hAcc><vAcc>3.000000</vAcc></extensions></trkpt>
      <trkpt lon="-123.279406" lat="44.563296"><ele>74.161652</ele><time>2020-09-25T02:48:40Z</time><extensions><speed>0.000000</speed><course>322.734375</course><hAcc>5.000000</hAcc><vAcc>3.000000</vAcc></extensions></trkpt>
      <trkpt lon="-123.279406" lat="44.563296"><ele>74.138069</ele><time>2020-09-25T02:48:41Z</time><extensions><speed>0.000000</speed><course>322.734375</course><hAcc>5.000000</hAcc><vAcc>3.000000</vAcc></extensions></trkpt>
      <trkpt lon="-123.279406" lat="44.563293"><ele>74.140961</ele><time>2020-09-25T02:48:42Z</time><extensions><speed>0.200000</speed><course>171.914062</course><hAcc>5.000000</hAcc><vAcc>3.000000</vAcc></extensions></trkpt>
    </trkseg>
  </trk>
</gpx>