<?xml version="1.0" encoding="UTF-8"?>
<gpx version="1.1" creator="Apple Health Export" xmlns="http://www.topografix.com/GPX/1/1" xmlns:xsi="http://www.w3.org/2001/XMLSchema-instance" xsi:schemaLocation="http://www.topografix.com/GPX/1/1 http://www.topografix.com/GPX/1/1/gpx.xsd">
  <metadata>
    <time>2021-02-21T19:24:48Z</time>
  </metadata>
  <trk>
    <name>Route 2021-01-01 1:48pm</name>
    <trkseg>
      <trkpt lon="-123.280056" lat="44.563377"><ele>71.609810</ele><time>2021-01-01T21:35:35Z</time><extensions><speed>3.666132</speed><course>274.218719</course><hAcc>2.289892</hAcc><vAcc>1.173627</vAcc></extensions></trkpt>
      <trkpt lon="-123.280104" lat="44.563375"><ele>71.605064</ele><time>2021-01-01T21:35:36Z</time><extensions><speed>3.861725</speed><course>271.054657</course><hAcc>1.857975</hAcc><vAcc>1.027916</vAcc></extensions></trkpt>
      <trkpt lon="-123.280156" lat="44.563374"><ele>71.598091</ele><time>2021-01-01T21:35:37Z</time><extensions><speed>4.515574</speed><course>271.406219</course><hAcc>1.980949</hAcc><vAcc>0.913282</vAcc></extensions></trkpt>
      <trkpt lon="-123.280219" lat="44.563372"><ele>71.586998</ele><time>2021-01-01T21:35:38Z</time><extensions><speed>5.460233</speed><course>271.054657</course><hAcc>1.978249</hAcc><vAcc>0.828454</vAcc></extensions></trkpt>
      <trkpt lon="-123.280291" lat="44.563371"><ele>71.570541</ele><time>2021-01-01T21:35:39Z</time><extensions><speed>5.929228</speed><course>271.406219</course><hAcc>1.940051</hAcc><vAcc>0.770080</vAcc></extensions></trkpt>
      <trkpt lon="-123.280360" lat="44.563370"><ele>71.547821</ele><time>2021-01-01T21:35:40Z</time><extensions><speed>5.083396</speed><course>269.265625</course><hAcc>1.912313</hAcc><vAcc>0.733186</vAcc></extensions></trkpt>
      <trkpt lon="-123.280413" lat="44.563366"><ele>71.518509</ele><time>2021-01-01T21:35:41Z</time><extensions><speed>3.462059</speed><course>272.143921</course><hAcc>1.901250</hAcc><vAcc>0.712129</vAcc></extensions></trkpt>
      <trkpt lon="-123.280449" lat="44.563358"><ele>71.483704</ele><time>2021-01-01T21:35:42Z</time><extensions><speed>2.412109</speed><course>263.392334</course><hAcc>1.902327</hAcc><vAcc>0.701608</vAcc></extensions></trkpt>
      <trkpt lon="-123.280473" lat="44.563349"><ele>71.445686</ele><time>2021-01-01T21:35:43Z</time><extensions><speed>2.048689</speed><course>229.764664</course><hAcc>1.907163</hAcc><vAcc>0.697340</vAcc></extensions></trkpt>
      <trkpt lon="-123.280500" lat="44.563342"><ele>71.407776</ele><time>2021-01-01T21:35:44Z</time><extensions><speed>2.491253</speed><course>194.506042</course><hAcc>1.908895</hAcc><vAcc>0.696285</vAcc></extensions></trkpt>
      <trkpt lon="-123.280542" lat="44.563342"><ele>71.375359</ele><time>2021-01-01T21:35:45Z</time><extensions><speed>4.353715</speed><course>190.490494</course><hAcc>1.907670</hAcc><vAcc>0.696532</vAcc></extensions></trkpt>
      <trkpt lon="-123.280607" lat="44.563348"><ele>71.355255</ele><time>2021-01-01T21:35:46Z</time><extensions><speed>5.995394</speed><course>258.269440</course><hAcc>1.908042</hAcc><vAcc>0.697037</vAcc></extensions></trkpt>
      <trkpt lon="-123.280685" lat="44.563355"><ele>71.352264</ele><time>2021-01-01T21:35:47Z</time><extensions><speed>6.480879</speed><course>269.059387</course><hAcc>1.909133</hAcc><vAcc>0.697334</vAcc></extensions></trkpt>
      <trkpt lon="-123.280765" lat="44.563360"><ele>71.367020</ele><time>2021-01-01T21:35:48Z</time><extensions><speed>6.265745</speed><course>265.457520</course><hAcc>1.909661</hAcc><vAcc>0.697314</vAcc></extensions></trkpt>
      <trkpt lon="-123.280840" lat="44.563364"><ele>71.396584</ele><time>2021-01-01T21:35:49Z</time><extensions><speed>5.734099</speed><course>271.754272</course><hAcc>1.909755</hAcc><vAcc>0.697064</vAcc></extensions></trkpt>
      <trkpt lon="-123.280910" lat="44.563367"><ele>71.436478</ele><time>2021-01-01T21:35:50Z</time><extensions><speed>5.377203</speed><course>269.394165</course><hAcc>1.909851</hAcc><vAcc>0.696743</vAcc></extensions></trkpt>
      <trkpt lon="-123.280977" lat="44.563370"><ele>71.482948</ele><time>2021-01-01T21:35:51Z</time><extensions><speed>5.290801</speed><course>270.795380</course><hAcc>1.910388</hAcc><vAcc>0.696517</vAcc></extensions></trkpt>
      <trkpt lon="-123.281044" lat="44.563372"><ele>71.533974</ele><time>2021-01-01T21:35:52Z</time><extensions><speed>5.313128</speed><course>272.435455</course><hAcc>1.911076</hAcc><vAcc>0.696503</vAcc></extensions></trkpt>
      <trkpt lon="-123.281110" lat="44.563374"><ele>71.588921</ele><time>2021-01-01T21:35:53Z</time><extensions><speed>5.202716</speed><course>269.414124</course><hAcc>1.911719</hAcc><vAcc>0.696750</vAcc></extensions></trkpt>
      <trkpt lon="-123.281174" lat="44.563375"><ele>71.647911</ele><time>2021-01-01T21:35:54Z</time><extensions><speed>5.046953</speed><course>272.528015</course><hAcc>1.912296</hAcc><vAcc>0.697228</vAcc></extensions></trkpt>
      <trkpt lon="-123.281237" lat="44.563374"><ele>71.711029</ele><time>2021-01-01T21:35:55Z</time><extensions><speed>4.919301</speed><course>269.818268</course><hAcc>1.912611</hAcc><vAcc>0.697836</vAcc></extensions></trkpt>
      <trkpt lon="-123.281297" lat="44.563373"><ele>71.778076</ele><time>2021-01-01T21:35:56Z</time><extensions><speed>4.671760</speed><course>265.691528</course><hAcc>1.912730</hAcc><vAcc>0.698421</vAcc></extensions></trkpt>
      <trkpt lon="-123.281354" lat="44.563373"><ele>71.848946</ele><time>2021-01-01T21:35:57Z</time><extensions><speed>4.293993</speed><course>271.499847</course><hAcc>1.912907</hAcc><vAcc>0.698817</vAcc></extensions></trkpt>
      <trkpt lon="-123.281405" lat="44.563374"><ele>71.924065</ele><time>2021-01-01T21:35:58Z</time><extensions><speed>3.869043</speed><course>264.060577</course><hAcc>1.913124</hAcc><vAcc>0.698905</vAcc></extensions></trkpt>
      <trkpt lon="-123.281453" lat="44.563377"><ele>72.004387</ele><time>2021-01-01T21:35:59Z</time><extensions><speed>3.818949</speed><course>269.076904</course><hAcc>1.913270</hAcc><vAcc>0.698714</vAcc></extensions></trkpt>
      <trkpt lon="-123.281502" lat="44.563379"><ele>72.090294</ele><time>2021-01-01T21:36:00Z</time><extensions><speed>4.009544</speed><course>277.125946</course><hAcc>1.913365</hAcc><vAcc>0.698562</vAcc></extensions></trkpt>
      <trkpt lon="-123.281553" lat="44.563379"><ele>72.180878</ele><time>2021-01-01T21:36:01Z</time><extensions><speed>4.052159</speed><course>281.251465</course><hAcc>1.913501</hAcc><vAcc>0.699261</vAcc></extensions></trkpt>
      <trkpt lon="-123.281603" lat="44.563375"><ele>72.274765</ele><time>2021-01-01T21:36:02Z</time><extensions><speed>3.875566</speed><course>259.620880</course><hAcc>1.913707</hAcc><vAcc>0.702365</vAcc></extensions></trkpt>
      <trkpt lon="-123.281650" lat="44.563369"><ele>72.370918</ele><time>2021-01-01T21:36:03Z</time><extensions><speed>3.725724</speed><course>258.723206</course><hAcc>1.913851</hAcc><vAcc>0.710447</vAcc></extensions></trkpt>
      <trkpt lon="-123.281696" lat="44.563360"><ele>72.468712</ele><time>2021-01-01T21:36:04Z</time><extensions><speed>3.930374</speed><course>258.250885</course><hAcc>1.914026</hAcc><vAcc>0.727287</vAcc></extensions></trkpt>
      <trkpt lon="-123.281743" lat="44.563344"><ele>72.568192</ele><time>2021-01-01T21:36:05Z</time><extensions><speed>4.389781</speed><course>255.470932</course><hAcc>1.916370</hAcc><vAcc>0.757803</vAcc></extensions></trkpt>
      <trkpt lon="-123.281789" lat="44.563319"><ele>72.786850</ele><time>2021-01-01T21:36:06Z</time><extensions><speed>4.802067</speed><course>269.265625</course><hAcc>1.914411</hAcc><vAcc>0.725727</vAcc></extensions></trkpt>
      <trkpt lon="-123.281827" lat="44.563286"><ele>72.839737</ele><time>2021-01-01T21:36:07Z</time><extensions><speed>4.641758</speed><course>272.143921</course><hAcc>1.913621</hAcc><vAcc>0.707925</vAcc></extensions></trkpt>
      <trkpt lon="-123.281849" lat="44.563252"><ele>72.897614</ele><time>2021-01-01T21:36:08Z</time><extensions><speed>3.791470</speed><course>263.392334</course><hAcc>1.913818</hAcc><vAcc>0.699808</vAcc></extensions></trkpt>
      <trkpt lon="-123.281852" lat="44.563222"><ele>72.960243</ele><time>2021-01-01T21:36:09Z</time><extensions><speed>3.100366</speed><course>229.764664</course><hAcc>1.913617</hAcc><vAcc>0.697110</vAcc></extensions></trkpt>
      <trkpt lon="-123.281842" lat="44.563196"><ele>73.027214</ele><time>2021-01-01T21:36:10Z</time><extensions><speed>3.001516</speed><course>194.506042</course><hAcc>1.912943</hAcc><vAcc>0.696917</vAcc></extensions></trkpt>
      <trkpt lon="-123.281831" lat="44.563168"><ele>73.098358</ele><time>2021-01-01T21:36:11Z</time><extensions><speed>3.435625</speed><course>190.490494</course><hAcc>1.912561</hAcc><vAcc>0.697459</vAcc></extensions></trkpt>
      <trkpt lon="-123.281827" lat="44.563134"><ele>73.173836</ele><time>2021-01-01T21:36:12Z</time><extensions><speed>4.237311</speed><course>258.269440</course><hAcc>1.912777</hAcc><vAcc>0.697811</vAcc></extensions></trkpt>
      <trkpt lon="-123.281830" lat="44.563094"><ele>73.252945</ele><time>2021-01-01T21:36:13Z</time><extensions><speed>4.717484</speed><course>269.059387</course><hAcc>1.912684</hAcc><vAcc>0.697603</vAcc></extensions></trkpt>
      <trkpt lon="-123.281835" lat="44.563051"><ele>73.333450</ele><time>2021-01-01T21:36:14Z</time><extensions><speed>4.810259</speed><course>265.457520</course><hAcc>1.911990</hAcc><vAcc>0.696797</vAcc></extensions></trkpt>
      <trkpt lon="-123.281842" lat="44.563009"><ele>73.411873</ele><time>2021-01-01T21:36:15Z</time><extensions><speed>4.523804</speed><course>271.754272</course><hAcc>1.911412</hAcc><vAcc>0.695531</vAcc></extensions></trkpt>
      <trkpt lon="-123.281849" lat="44.562970"><ele>73.483757</ele><time>2021-01-01T21:36:16Z</time><extensions><speed>4.226400</speed><course>269.394165</course><hAcc>1.911392</hAcc><vAcc>0.694009</vAcc></extensions></trkpt>
      <trkpt lon="-123.281856" lat="44.562933"><ele>73.544525</ele><time>2021-01-01T21:36:17Z</time><extensions><speed>4.149086</speed><course>270.795380</course><hAcc>1.911648</hAcc><vAcc>0.692444</vAcc></extensions></trkpt>
      <trkpt lon="-123.281860" lat="44.562895"><ele>73.590393</ele><time>2021-01-01T21:36:18Z</time><extensions><speed>4.170124</speed><course>272.435455</course><hAcc>1.911841</hAcc><vAcc>0.691018</vAcc></extensions></trkpt>
      <trkpt lon="-123.281861" lat="44.562858"><ele>73.618164</ele><time>2021-01-01T21:36:19Z</time><extensions><speed>4.148138</speed><course>269.414124</course><hAcc>1.911953</hAcc><vAcc>0.689876</vAcc></extensions></trkpt>
      <trkpt lon="-123.281862" lat="44.562821"><ele>73.625114</ele><time>2021-01-01T21:36:20Z</time><extensions><speed>4.119739</speed><course>272.528015</course><hAcc>1.911920</hAcc><vAcc>0.689116</vAcc></extensions></trkpt>
      <trkpt lon="-123.281863" lat="44.562784"><ele>73.609871</ele><time>2021-01-01T21:36:21Z</time><extensions><speed>4.126481</speed><course>269.818268</course><hAcc>1.911830</hAcc><vAcc>0.688797</vAcc></extensions></trkpt>
      <trkpt lon="-123.281863" lat="44.562747"><ele>73.572922</ele><time>2021-01-01T21:36:22Z</time><extensions><speed>4.102071</speed><course>265.691528</course><hAcc>1.911765</hAcc><vAcc>0.688937</vAcc></extensions></trkpt>
      <trkpt lon="-123.281862" lat="44.562710"><ele>73.516441</ele><time>2021-01-01T21:36:23Z</time><extensions><speed>3.983628</speed><course>271.499847</course><hAcc>1.911755</hAcc><vAcc>0.689521</vAcc></extensions></trkpt>
      <trkpt lon="-123.281862" lat="44.562675"><ele>73.443619</ele><time>2021-01-01T21:36:24Z</time><extensions><speed>3.877550</speed><course>264.060577</course><hAcc>1.911913</hAcc><vAcc>0.690495</vAcc></extensions></trkpt>
      <trkpt lon="-123.281863" lat="44.562640"><ele>73.357903</ele><time>2021-01-01T21:36:25Z</time><extensions><speed>4.005164</speed><course>269.076904</course><hAcc>1.912221</hAcc><vAcc>0.691770</vAcc></extensions></trkpt>
      <trkpt lon="-123.281865" lat="44.562603"><ele>73.262154</ele><time>2021-01-01T21:36:26Z</time><extensions><speed>4.203975</speed><course>277.125946</course><hAcc>1.912361</hAcc><vAcc>0.693215</vAcc></extensions></trkpt>
      <trkpt lon="-123.281866" lat="44.562565"><ele>73.158081</ele><time>2021-01-01T21:36:27Z</time><extensions><speed>4.239294</speed><course>281.251465</course><hAcc>1.912182</hAcc><vAcc>0.694671</vAcc></extensions></trkpt>
      <trkpt lon="-123.281868" lat="44.562527"><ele>73.046577</ele><time>2021-01-01T21:36:28Z</time><extensions><speed>4.183917</speed><course>259.620880</course><hAcc>1.911960</hAcc><vAcc>0.695955</vAcc></extensions></trkpt>
      <trkpt lon="-123.281868" lat="44.562490"><ele>72.928810</ele><time>2021-01-01T21:36:29Z</time><extensions><speed>4.049403</speed><course>258.723206</course><hAcc>1.911972</hAcc><vAcc>0.696896</vAcc></extensions></trkpt>
      <trkpt lon="-123.281870" lat="44.562454"><ele>72.806870</ele><time>2021-01-01T21:36:30Z</time><extensions><speed>3.905848</speed><course>258.250885</course><hAcc>1.911999</hAcc><vAcc>0.697384</vAcc></extensions></trkpt>
      <trkpt lon="-123.281872" lat="44.562419"><ele>72.683479</ele><time>2021-01-01T21:36:31Z</time><extensions><speed>3.846486</speed><course>255.470932</course><hAcc>1.911949</hAcc><vAcc>0.697464</vAcc></extensions></trkpt>
      <trkpt lon="-123.281877" lat="44.562385"><ele>72.561264</ele><time>2021-01-01T21:36:32Z</time><extensions><speed>3.856246</speed><course>241.983673</course><hAcc>1.911952</hAcc><vAcc>0.697472</vAcc></extensions></trkpt>
      <trkpt lon="-123.281881" lat="44.562350"><ele>72.442162</ele><time>2021-01-01T21:36:33Z</time><extensions><speed>3.895726</speed><course>220.427841</course><hAcc>1.911970</hAcc><vAcc>0.698234</vAcc></extensions></trkpt>
      <trkpt lon="-123.281885" lat="44.562315"><ele>72.326752</ele><time>2021-01-01T21:36:34Z</time><extensions><speed>3.902899</speed><course>212.969193</course><hAcc>1.911959</hAcc><vAcc>0.701315</vAcc></extensions></trkpt>
      <trkpt lon="-123.281885" lat="44.562280"><ele>72.214371</ele><time>2021-01-01T21:36:35Z</time><extensions><speed>3.872295</speed><course>190.711441</course><hAcc>1.911873</hAcc><vAcc>0.709298</vAcc></extensions></trkpt>
      <trkpt lon="-123.281877" lat="44.562246"><ele>72.104034</ele><time>2021-01-01T21:36:36Z</time><extensions><speed>3.801701</speed><course>166.647324</course><hAcc>1.911880</hAcc><vAcc>0.725970</vAcc></extensions></trkpt>
      <trkpt lon="-123.281859" lat="44.562215"><ele>71.994751</ele><time>2021-01-01T21:36:37Z</time><extensions><speed>3.687503</speed><course>138.934799</course><hAcc>1.914059</hAcc><vAcc>0.756264</vAcc></extensions></trkpt>
      <trkpt lon="-123.281828" lat="44.562191"><ele>71.867928</ele><time>2021-01-01T21:36:38Z</time><extensions><speed>3.703096</speed><course>269.265625</course><hAcc>1.912081</hAcc><vAcc>0.724414</vAcc></extensions></trkpt>
      <trkpt lon="-123.281787" lat="44.562174"><ele>71.849152</ele><time>2021-01-01T21:36:39Z</time><extensions><speed>3.834441</speed><course>272.143921</course><hAcc>1.911249</hAcc><vAcc>0.706695</vAcc></extensions></trkpt>
      <trkpt lon="-123.281741" lat="44.562164"><ele>71.828735</ele><time>2021-01-01T21:36:40Z</time><extensions><speed>3.966260</speed><course>263.392334</course><hAcc>1.911158</hAcc><vAcc>0.698665</vAcc></extensions></trkpt>
      <trkpt lon="-123.281691" lat="44.562159"><ele>71.807930</ele><time>2021-01-01T21:36:41Z</time><extensions><speed>4.029709</speed><course>229.764664</course><hAcc>1.910917</hAcc><vAcc>0.696066</vAcc></extensions></trkpt>
      <trkpt lon="-123.281640" lat="44.562157"><ele>71.787392</ele><time>2021-01-01T21:36:42Z</time><extensions><speed>3.980360</speed><course>194.506042</course><hAcc>1.910801</hAcc><vAcc>0.695994</vAcc></extensions></trkpt>
      <trkpt lon="-123.281592" lat="44.562155"><ele>71.767105</ele><time>2021-01-01T21:36:43Z</time><extensions><speed>3.797801</speed><course>190.490494</course><hAcc>1.910790</hAcc><vAcc>0.696692</vAcc></extensions></trkpt>
      <trkpt lon="-123.281546" lat="44.562154"><ele>71.746666</ele><time>2021-01-01T21:36:44Z</time><extensions><speed>3.521061</speed><course>258.269440</course><hAcc>1.910740</hAcc><vAcc>0.697247</vAcc></extensions></trkpt>
      <trkpt lon="-123.281502" lat="44.562154"><ele>71.725159</ele><time>2021-01-01T21:36:45Z</time><extensions><speed>3.329290</speed><course>269.059387</course><hAcc>1.910650</hAcc><vAcc>0.697304</vAcc></extensions></trkpt>
      <trkpt lon="-123.281460" lat="44.562155"><ele>71.700966</ele><time>2021-01-01T21:36:46Z</time><extensions><speed>3.394908</speed><course>265.457520</course><hAcc>1.910684</hAcc><vAcc>0.696836</vAcc></extensions></trkpt>
      <trkpt lon="-123.281417" lat="44.562154"><ele>71.672630</ele><time>2021-01-01T21:36:47Z</time><extensions><speed>3.538458</speed><course>271.754272</course><hAcc>1.910879</hAcc><vAcc>0.695986</vAcc></extensions></trkpt>
      <trkpt lon="-123.281372" lat="44.562152"><ele>71.640419</ele><time>2021-01-01T21:36:48Z</time><extensions><speed>3.530821</speed><course>269.394165</course><hAcc>1.910967</hAcc><vAcc>0.694964</vAcc></extensions></trkpt>
      <trkpt lon="-123.281329" lat="44.562151"><ele>71.606964</ele><time>2021-01-01T21:36:49Z</time><extensions><speed>3.405137</speed><course>270.795380</course><hAcc>1.910944</hAcc><vAcc>0.693975</vAcc></extensions></trkpt>
      <trkpt lon="-123.281286" lat="44.562152"><ele>71.576477</ele><time>2021-01-01T21:36:50Z</time><extensions><speed>3.301434</speed><course>272.435455</course><hAcc>1.911085</hAcc><vAcc>0.693186</vAcc></extensions></trkpt>
      <trkpt lon="-123.281244" lat="44.562153"><ele>71.553421</ele><time>2021-01-01T21:36:51Z</time><extensions><speed>3.462931</speed><course>269.414124</course><hAcc>1.911346</hAcc><vAcc>0.692704</vAcc></extensions></trkpt>
      <trkpt lon="-123.281198" lat="44.562152"><ele>71.541634</ele><time>2021-01-01T21:36:52Z</time><extensions><speed>3.811174</speed><course>272.528015</course><hAcc>1.911453</hAcc><vAcc>0.692570</vAcc></extensions></trkpt>
      <trkpt lon="-123.281149" lat="44.562151"><ele>71.543549</ele><time>2021-01-01T21:36:53Z</time><extensions><speed>4.007571</speed><course>269.818268</course><hAcc>1.911376</hAcc><vAcc>0.692760</vAcc></extensions></trkpt>
      <trkpt lon="-123.281099" lat="44.562150"><ele>71.559402</ele><time>2021-01-01T21:36:54Z</time><extensions><speed>3.955521</speed><course>265.691528</course><hAcc>1.911239</hAcc><vAcc>0.693189</vAcc></extensions></trkpt>
      <trkpt lon="-123.281050" lat="44.562150"><ele>71.587799</ele><time>2021-01-01T21:36:55Z</time><extensions><speed>3.805040</speed><course>271.499847</course><hAcc>1.911045</hAcc><vAcc>0.693729</vAcc></extensions></trkpt>
      <trkpt lon="-123.281002" lat="44.562150"><ele>71.627060</ele><time>2021-01-01T21:36:56Z</time><extensions><speed>3.736648</speed><course>264.060577</course><hAcc>1.910912</hAcc><vAcc>0.694223</vAcc></extensions></trkpt>
      <trkpt lon="-123.280955" lat="44.562151"><ele>71.675369</ele><time>2021-01-01T21:36:57Z</time><extensions><speed>3.734179</speed><course>269.076904</course><hAcc>1.910842</hAcc><vAcc>0.694530</vAcc></extensions></trkpt>
      <trkpt lon="-123.280909" lat="44.562152"><ele>71.730499</ele><time>2021-01-01T21:36:58Z</time><extensions><speed>3.709356</speed><course>277.125946</course><hAcc>1.910700</hAcc><vAcc>0.694578</vAcc></extensions></trkpt>
      <trkpt lon="-123.280863" lat="44.562153"><ele>71.790283</ele><time>2021-01-01T21:36:59Z</time><extensions><speed>3.621020</speed><course>281.251465</course><hAcc>1.910527</hAcc><vAcc>0.694457</vAcc></extensions></trkpt>
      <trkpt lon="-123.280818" lat="44.562155"><ele>71.852951</ele><time>2021-01-01T21:37:00Z</time><extensions><speed>3.518326</speed><course>259.620880</course><hAcc>1.910450</hAcc><vAcc>0.694547</vAcc></extensions></trkpt>
      <trkpt lon="-123.280774" lat="44.562156"><ele>71.917030</ele><time>2021-01-01T21:37:01Z</time><extensions><speed>3.495650</speed><course>258.723206</course><hAcc>1.910426</hAcc><vAcc>0.695703</vAcc></extensions></trkpt>
      <trkpt lon="-123.280729" lat="44.562157"><ele>71.980972</ele><time>2021-01-01T21:37:02Z</time><extensions><speed>3.567349</speed><course>258.250885</course><hAcc>1.910402</hAcc><vAcc>0.699465</vAcc></extensions></trkpt>
      <trkpt lon="-123.280684" lat="44.562156"><ele>72.042763</ele><time>2021-01-01T21:37:03Z</time><extensions><speed>3.597300</speed><course>255.470932</course><hAcc>1.910515</hAcc><vAcc>0.708287</vAcc></extensions></trkpt>
      <trkpt lon="-123.280639" lat="44.562156"><ele>72.100090</ele><time>2021-01-01T21:37:04Z</time><extensions><speed>3.494779</speed><course>241.983673</course><hAcc>1.911144</hAcc><vAcc>0.725669</vAcc></extensions></trkpt>
      <trkpt lon="-123.280596" lat="44.562157"><ele>72.150803</ele><time>2021-01-01T21:37:05Z</time><extensions><speed>3.369737</speed><course>220.427841</course><hAcc>1.913247</hAcc><vAcc>0.756052</vAcc></extensions></trkpt>
      <trkpt lon="-123.280555" lat="44.562159"><ele>72.193542</ele><time>2021-01-01T21:37:06Z</time><extensions><speed>3.134658</speed><course>212.969193</course><hAcc>1.916838</hAcc><vAcc>0.804337</vAcc></extensions></trkpt>
      <trkpt lon="-123.280519" lat="44.562161"><ele>72.228294</ele><time>2021-01-01T21:37:07Z</time><extensions><speed>2.687082</speed><course>190.711441</course><hAcc>1.913106</hAcc><vAcc>0.875059</vAcc></extensions></trkpt>
      <trkpt lon="-123.280489" lat="44.562163"><ele>72.256126</ele><time>2021-01-01T21:37:08Z</time><extensions><speed>2.168111</speed><course>166.647324</course><hAcc>1.896538</hAcc><vAcc>0.971497</vAcc></extensions></trkpt>
      <trkpt lon="-123.280464" lat="44.562164"><ele>72.278473</ele><time>2021-01-01T21:37:09Z</time><extensions><speed>1.780064</speed><course>138.934799</course><hAcc>2.013851</hAcc><vAcc>1.095125</vAcc></extensions></trkpt>
      <trkpt lon="-123.280443" lat="44.562164"><ele>72.296295</ele><time>2021-01-01T21:37:10Z</time><extensions><speed>1.550340</speed><course>172.521896</course><hAcc>2.658774</hAcc><vAcc>1.245509</vAcc></extensions></trkpt>
      <trkpt lon="-123.279792" lat="44.563244"><ele>73.065422</ele><time>2021-01-01T21:39:18Z</time><extensions><speed>2.147628</speed><course>269.265625</course><hAcc>2.660336</hAcc><vAcc>1.238857</vAcc></extensions></trkpt>
      <trkpt lon="-123.279801" lat="44.563263"><ele>72.983498</ele><time>2021-01-01T21:39:19Z</time><extensions><speed>2.251179</speed><course>272.143921</course><hAcc>2.015954</hAcc><vAcc>1.091813</vAcc></extensions></trkpt>
      <trkpt lon="-123.279813" lat="44.563282"><ele>72.896126</ele><time>2021-01-01T21:39:20Z</time><extensions><speed>2.451887</speed><course>263.392334</course><hAcc>1.899044</hAcc><vAcc>0.970628</vAcc></extensions></trkpt>
      <trkpt lon="-123.279834" lat="44.563301"><ele>72.804489</ele><time>2021-01-01T21:39:21Z</time><extensions><speed>3.038899</speed><course>229.764664</course><hAcc>1.916486</hAcc><vAcc>0.875796</vAcc></extensions></trkpt>
      <trkpt lon="-123.279869" lat="44.563320"><ele>72.711723</ele><time>2021-01-01T21:39:22Z</time><extensions><speed>3.921814</speed><course>194.506042</course><hAcc>1.920532</hAcc><vAcc>0.805951</vAcc></extensions></trkpt>
      <trkpt lon="-123.279917" lat="44.563338"><ele>72.623550</ele><time>2021-01-01T21:39:23Z</time><extensions><speed>4.754467</speed><course>190.490494</course><hAcc>1.916743</hAcc><vAcc>0.757976</vAcc></extensions></trkpt>
      <trkpt lon="-123.279979" lat="44.563351"><ele>72.546867</ele><time>2021-01-01T21:39:24Z</time><extensions><speed>5.551009</speed><course>258.269440</course><hAcc>1.914589</hAcc><vAcc>0.727536</vAcc></extensions></trkpt>
      <trkpt lon="-123.280050" lat="44.563359"><ele>72.486809</ele><time>2021-01-01T21:39:24Z</time><extensions><speed>5.853585</speed><course>269.059387</course><hAcc>1.913931</hAcc><vAcc>0.709933</vAcc></extensions></trkpt>
      <trkpt lon="-123.280122" lat="44.563363"><ele>72.445183</ele><time>2021-01-01T21:39:25Z</time><extensions><speed>5.650498</speed><course>265.457520</course><hAcc>1.913607</hAcc><vAcc>0.700834</vAcc></extensions></trkpt>
      <trkpt lon="-123.280192" lat="44.563364"><ele>72.421661</ele><time>2021-01-01T21:39:26Z</time><extensions><speed>5.377565</speed><course>271.754272</course><hAcc>1.913342</hAcc><vAcc>0.696823</vAcc></extensions></trkpt>
      <trkpt lon="-123.280257" lat="44.563365"><ele>72.414680</ele><time>2021-01-01T21:39:27Z</time><extensions><speed>5.042428</speed><course>269.394165</course><hAcc>1.913262</hAcc><vAcc>0.695472</vAcc></extensions></trkpt>
      <trkpt lon="-123.280319" lat="44.563365"><ele>72.422050</ele><time>2021-01-01T21:39:28Z</time><extensions><speed>4.732589</speed><course>270.795380</course><hAcc>1.913327</hAcc><vAcc>0.695226</vAcc></extensions></trkpt>
      <trkpt lon="-123.280377" lat="44.563365"><ele>72.441162</ele><time>2021-01-01T21:39:29Z</time><extensions><speed>4.568776</speed><course>272.435455</course><hAcc>1.913626</hAcc><vAcc>0.695203</vAcc></extensions></trkpt>
      <trkpt lon="-123.280434" lat="44.563365"><ele>72.469421</ele><time>2021-01-01T21:39:30Z</time><extensions><speed>4.428557</speed><course>269.414124</course><hAcc>1.914150</hAcc><vAcc>0.694977</vAcc></extensions></trkpt>
      <trkpt lon="-123.280489" lat="44.563366"><ele>72.504799</ele><time>2021-01-01T21:39:31Z</time><extensions><speed>4.306935</speed><course>272.528015</course><hAcc>1.914591</hAcc><vAcc>0.694413</vAcc></extensions></trkpt>
      <trkpt lon="-123.280543" lat="44.563368"><ele>72.546173</ele><time>2021-01-01T21:39:32Z</time><extensions><speed>4.309455</speed><course>269.818268</course><hAcc>1.914714</hAcc><vAcc>0.693542</vAcc></extensions></trkpt>
      <trkpt lon="-123.280598" lat="44.563372"><ele>72.593109</ele><time>2021-01-01T21:39:34Z</time><extensions><speed>4.378829</speed><course>265.691528</course><hAcc>1.914414</hAcc><vAcc>0.692460</vAcc></extensions></trkpt>
      <trkpt lon="-123.280653" lat="44.563375"><ele>72.645233</ele><time>2021-01-01T21:39:35Z</time><extensions><speed>4.485241</speed><course>271.499847</course><hAcc>1.913938</hAcc><vAcc>0.691304</vAcc></extensions></trkpt>
      <trkpt lon="-123.280710" lat="44.563377"><ele>72.702423</ele><time>2021-01-01T21:39:36Z</time><extensions><speed>4.562634</speed><course>264.060577</course><hAcc>1.913896</hAcc><vAcc>0.690213</vAcc></extensions></trkpt>
      <trkpt lon="-123.280767" lat="44.563379"><ele>72.764679</ele><time>2021-01-01T21:39:37Z</time><extensions><speed>4.524928</speed><course>269.076904</course><hAcc>1.914263</hAcc><vAcc>0.689294</vAcc></extensions></trkpt>
      <trkpt lon="-123.280823" lat="44.563379"><ele>72.831581</ele><time>2021-01-01T21:39:38Z</time><extensions><speed>4.403301</speed><course>277.125946</course><hAcc>1.914643</hAcc><vAcc>0.688628</vAcc></extensions></trkpt>
      <trkpt lon="-123.280878" lat="44.563377"><ele>72.901863</ele><time>2021-01-01T21:39:39Z</time><extensions><speed>4.327715</speed><course>281.251465</course><hAcc>1.914897</hAcc><vAcc>0.688267</vAcc></extensions></trkpt>
      <trkpt lon="-123.280932" lat="44.563376"><ele>72.973351</ele><time>2021-01-01T21:39:40Z</time><extensions><speed>4.190882</speed><course>259.620880</course><hAcc>1.915348</hAcc><vAcc>0.688247</vAcc></extensions></trkpt>
      <trkpt lon="-123.280984" lat="44.563376"><ele>73.042702</ele><time>2021-01-01T21:39:41Z</time><extensions><speed>4.113107</speed><course>258.723206</course><hAcc>1.915733</hAcc><vAcc>0.688583</vAcc></extensions></trkpt>
      <trkpt lon="-123.281037" lat="44.563377"><ele>73.106422</ele><time>2021-01-01T21:39:42Z</time><extensions><speed>4.236404</speed><course>258.250885</course><hAcc>1.915478</hAcc><vAcc>0.689272</vAcc></extensions></trkpt>
      <trkpt lon="-123.281091" lat="44.563379"><ele>73.162643</ele><time>2021-01-01T21:39:43Z</time><extensions><speed>4.432303</speed><course>255.470932</course><hAcc>1.914951</hAcc><vAcc>0.690294</vAcc></extensions></trkpt>
      <trkpt lon="-123.281148" lat="44.563382"><ele>73.211357</ele><time>2021-01-01T21:39:44Z</time><extensions><speed>4.574005</speed><course>241.983673</course><hAcc>1.914743</hAcc><vAcc>0.691604</vAcc></extensions></trkpt>
      <trkpt lon="-123.281204" lat="44.563385"><ele>73.253258</ele><time>2021-01-01T21:39:45Z</time><extensions><speed>4.403522</speed><course>220.427841</course><hAcc>1.914967</hAcc><vAcc>0.693125</vAcc></extensions></trkpt>
      <trkpt lon="-123.281257" lat="44.563387"><ele>73.289040</ele><time>2021-01-01T21:39:46Z</time><extensions><speed>4.083940</speed><course>212.969193</course><hAcc>1.915334</hAcc><vAcc>0.694742</vAcc></extensions></trkpt>
      <trkpt lon="-123.281307" lat="44.563388"><ele>73.319115</ele><time>2021-01-01T21:39:47Z</time><extensions><speed>3.906378</speed><course>190.711441</course><hAcc>1.915692</hAcc><vAcc>0.696307</vAcc></extensions></trkpt>
      <trkpt lon="-123.281356" lat="44.563387"><ele>73.343468</ele><time>2021-01-01T21:39:48Z</time><extensions><speed>3.800179</speed><course>166.647324</course><hAcc>1.915910</hAcc><vAcc>0.697648</vAcc></extensions></trkpt>
      <trkpt lon="-123.281403" lat="44.563387"><ele>73.361984</ele><time>2021-01-01T21:39:49Z</time><extensions><speed>3.704497</speed><course>138.934799</course><hAcc>1.915821</hAcc><vAcc>0.698602</vAcc></extensions></trkpt>
      <trkpt lon="-123.281450" lat="44.563389"><ele>73.375145</ele><time>2021-01-01T21:39:50Z</time><extensions><speed>3.784163</speed><course>172.521896</course><hAcc>1.915478</hAcc><vAcc>0.699071</vAcc></extensions></trkpt>
      <trkpt lon="-123.281499" lat="44.563393"><ele>73.383545</ele><time>2021-01-01T21:39:51Z</time><extensions><speed>3.995561</speed><course>172.427979</course><hAcc>1.915064</hAcc><vAcc>0.699110</vAcc></extensions></trkpt>
      <trkpt lon="-123.281548" lat="44.563397"><ele>73.386887</ele><time>2021-01-01T21:39:51Z</time><extensions><speed>3.904198</speed><course>181.483002</course><hAcc>1.914880</hAcc><vAcc>0.699081</vAcc></extensions></trkpt>
      <trkpt lon="-123.281595" lat="44.563399"><ele>73.384308</ele><time>2021-01-01T21:39:52Z</time><extensions><speed>3.587365</speed><course>179.745895</course><hAcc>1.914886</hAcc><vAcc>0.699822</vAcc></extensions></trkpt>
      <trkpt lon="-123.281640" lat="44.563397"><ele>73.375275</ele><time>2021-01-01T21:39:53Z</time><extensions><speed>3.535916</speed><course>182.858902</course><hAcc>1.914759</hAcc><vAcc>0.702902</vAcc></extensions></trkpt>
      <trkpt lon="-123.281684" lat="44.563390"><ele>73.360100</ele><time>2021-01-01T21:39:54Z</time><extensions><speed>3.690523</speed><course>189.274887</course><hAcc>1.914371</hAcc><vAcc>0.710917</vAcc></extensions></trkpt>
      <trkpt lon="-123.281727" lat="44.563376"><ele>73.339668</ele><time>2021-01-01T21:39:55Z</time><extensions><speed>3.895510</speed><course>186.314270</course><hAcc>1.914144</hAcc><vAcc>0.727669</vAcc></extensions></trkpt>
      <trkpt lon="-123.281768" lat="44.563354"><ele>73.314484</ele><time>2021-01-01T21:39:56Z</time><extensions><speed>4.177459</speed><course>174.021347</course><hAcc>1.916378</hAcc><vAcc>0.758092</vAcc></extensions></trkpt>
      <trkpt lon="-123.281805" lat="44.563328"><ele>73.505447</ele><time>2021-01-01T21:39:57Z</time><extensions><speed>4.213001</speed><course>269.265625</course><hAcc>1.914445</hAcc><vAcc>0.726103</vAcc></extensions></trkpt>
      <trkpt lon="-123.281833" lat="44.563298"><ele>73.460197</ele><time>2021-01-01T21:39:58Z</time><extensions><speed>3.955040</speed><course>272.143921</course><hAcc>1.913841</hAcc><vAcc>0.708291</vAcc></extensions></trkpt>
      <trkpt lon="-123.281846" lat="44.563264"><ele>73.419090</ele><time>2021-01-01T21:39:59Z</time><extensions><speed>3.866340</speed><course>263.392334</course><hAcc>1.914012</hAcc><vAcc>0.700200</vAcc></extensions></trkpt>
      <trkpt lon="-123.281846" lat="44.563228"><ele>73.381882</ele><time>2021-01-01T21:40:00Z</time><extensions><speed>4.176078</speed><course>229.764664</course><hAcc>1.913769</hAcc><vAcc>0.697563</vAcc></extensions></trkpt>
      <trkpt lon="-123.281843" lat="44.563190"><ele>73.347214</ele><time>2021-01-01T21:40:01Z</time><extensions><speed>4.394790</speed><course>194.506042</course><hAcc>1.913570</hAcc><vAcc>0.697454</vAcc></extensions></trkpt>
      <trkpt lon="-123.281840" lat="44.563150"><ele>73.313042</ele><time>2021-01-01T21:40:02Z</time><extensions><speed>4.320476</speed><course>190.490494</course><hAcc>1.913763</hAcc><vAcc>0.698098</vAcc></extensions></trkpt>
      <trkpt lon="-123.281838" lat="44.563112"><ele>73.276962</ele><time>2021-01-01T21:40:03Z</time><extensions><speed>4.332833</speed><course>258.269440</course><hAcc>1.914119</hAcc><vAcc>0.698562</vAcc></extensions></trkpt>
      <trkpt lon="-123.281839" lat="44.563072"><ele>73.236954</ele><time>2021-01-01T21:40:04Z</time><extensions><speed>4.493809</speed><course>269.059387</course><hAcc>1.914139</hAcc><vAcc>0.698472</vAcc></extensions></trkpt>
      <trkpt lon="-123.281844" lat="44.563031"><ele>73.192177</ele><time>2021-01-01T21:40:05Z</time><extensions><speed>4.610298</speed><course>265.457520</course><hAcc>1.914197</hAcc><vAcc>0.697784</vAcc></extensions></trkpt>
      <trkpt lon="-123.281850" lat="44.562990"><ele>73.142738</ele><time>2021-01-01T21:40:06Z</time><extensions><speed>4.539172</speed><course>271.754272</course><hAcc>1.914345</hAcc><vAcc>0.696635</vAcc></extensions></trkpt>
      <trkpt lon="-123.281855" lat="44.562951"><ele>73.088913</ele><time>2021-01-01T21:40:07Z</time><extensions><speed>4.280765</speed><course>269.394165</course><hAcc>1.914228</hAcc><vAcc>0.695229</vAcc></extensions></trkpt>
      <trkpt lon="-123.281857" lat="44.562913"><ele>73.031113</ele><time>2021-01-01T21:40:08Z</time><extensions><speed>4.064358</speed><course>270.795380</course><hAcc>1.914015</hAcc><vAcc>0.693782</vAcc></extensions></trkpt>
      <trkpt lon="-123.281857" lat="44.562877"><ele>72.969223</ele><time>2021-01-01T21:40:09Z</time><extensions><speed>3.971235</speed><course>272.435455</course><hAcc>1.913790</hAcc><vAcc>0.692484</vAcc></extensions></trkpt>
      <trkpt lon="-123.281856" lat="44.562841"><ele>72.901993</ele><time>2021-01-01T21:40:10Z</time><extensions><speed>4.018287</speed><course>269.414124</course><hAcc>1.913648</hAcc><vAcc>0.691484</vAcc></extensions></trkpt>
      <trkpt lon="-123.281857" lat="44.562804"><ele>72.828117</ele><time>2021-01-01T21:40:11Z</time><extensions><speed>4.214240</speed><course>272.528015</course><hAcc>1.913641</hAcc><vAcc>0.690882</vAcc></extensions></trkpt>
      <trkpt lon="-123.281860" lat="44.562765"><ele>72.747581</ele><time>2021-01-01T21:40:12Z</time><extensions><speed>4.364795</speed><course>269.818268</course><hAcc>1.913639</hAcc><vAcc>0.690733</vAcc></extensions></trkpt>
      <trkpt lon="-123.281861" lat="44.562726"><ele>72.661575</ele><time>2021-01-01T21:40:13Z</time><extensions><speed>4.291915</speed><course>265.691528</course><hAcc>1.913670</hAcc><vAcc>0.691042</vAcc></extensions></trkpt>
      <trkpt lon="-123.281861" lat="44.562688"><ele>72.571472</ele><time>2021-01-01T21:40:15Z</time><extensions><speed>4.172348</speed><course>271.499847</course><hAcc>1.913375</hAcc><vAcc>0.691763</vAcc></extensions></trkpt>
      <trkpt lon="-123.281859" lat="44.562651"><ele>72.479057</ele><time>2021-01-01T21:40:16Z</time><extensions><speed>4.131393</speed><course>264.060577</course><hAcc>1.912950</hAcc><vAcc>0.692810</vAcc></extensions></trkpt>
      <trkpt lon="-123.281859" lat="44.562614"><ele>72.386108</ele><time>2021-01-01T21:40:17Z</time><extensions><speed>4.044645</speed><course>269.076904</course><hAcc>1.912875</hAcc><vAcc>0.694074</vAcc></extensions></trkpt>
      <trkpt lon="-123.281862" lat="44.562578"><ele>72.293816</ele><time>2021-01-01T21:40:18Z</time><extensions><speed>3.937595</speed><course>277.125946</course><hAcc>1.912929</hAcc><vAcc>0.695389</vAcc></extensions></trkpt>
      <trkpt lon="-123.281866" lat="44.562544"><ele>72.201714</ele><time>2021-01-01T21:40:19Z</time><extensions><speed>3.843995</speed><course>281.251465</course><hAcc>1.912964</hAcc><vAcc>0.696569</vAcc></extensions></trkpt>
      <trkpt lon="-123.281870" lat="44.562510"><ele>72.108795</ele><time>2021-01-01T21:40:20Z</time><extensions><speed>3.706387</speed><course>259.620880</course><hAcc>1.912937</hAcc><vAcc>0.697437</vAcc></extensions></trkpt>
      <trkpt lon="-123.281873" lat="44.562477"><ele>72.014877</ele><time>2021-01-01T21:40:21Z</time><extensions><speed>3.681164</speed><course>258.723206</course><hAcc>1.912760</hAcc><vAcc>0.697879</vAcc></extensions></trkpt>
      <trkpt lon="-123.281875" lat="44.562443"><ele>71.920013</ele><time>2021-01-01T21:40:22Z</time><extensions><speed>3.787139</speed><course>258.250885</course><hAcc>1.912485</hAcc><vAcc>0.697936</vAcc></extensions></trkpt>
      <trkpt lon="-123.281877" lat="44.562408"><ele>71.823067</ele><time>2021-01-01T21:40:23Z</time><extensions><speed>3.877644</speed><course>255.470932</course><hAcc>1.912387</hAcc><vAcc>0.697944</vAcc></extensions></trkpt>
      <trkpt lon="-123.281878" lat="44.562373"><ele>71.721634</ele><time>2021-01-01T21:40:24Z</time><extensions><speed>4.001623</speed><course>241.983673</course><hAcc>1.912508</hAcc><vAcc>0.698728</vAcc></extensions></trkpt>
      <trkpt lon="-123.281879" lat="44.562336"><ele>71.613144</ele><time>2021-01-01T21:40:25Z</time><extensions><speed>4.210598</speed><course>220.427841</course><hAcc>1.912775</hAcc><vAcc>0.701853</vAcc></extensions></trkpt>
      <trkpt lon="-123.281876" lat="44.562298"><ele>71.496323</ele><time>2021-01-01T21:40:26Z</time><extensions><speed>4.288347</speed><course>212.969193</course><hAcc>1.912997</hAcc><vAcc>0.709899</vAcc></extensions></trkpt>
      <trkpt lon="-123.281866" lat="44.562261"><ele>71.371269</ele><time>2021-01-01T21:40:27Z</time><extensions><speed>4.040597</speed><course>190.711441</course><hAcc>1.913255</hAcc><vAcc>0.726651</vAcc></extensions></trkpt>
      <trkpt lon="-123.281847" lat="44.562230"><ele>71.238785</ele><time>2021-01-01T21:40:28Z</time><extensions><speed>3.699709</speed><course>166.647324</course><hAcc>1.915524</hAcc><vAcc>0.757033</vAcc></extensions></trkpt>
      <trkpt lon="-123.281817" lat="44.562206"><ele>71.541664</ele><time>2021-01-01T21:40:29Z</time><extensions><speed>3.508802</speed><course>269.265625</course><hAcc>1.913461</hAcc><vAcc>0.725120</vAcc></extensions></trkpt>
      <trkpt lon="-123.281780" lat="44.562189"><ele>71.454155</ele><time>2021-01-01T21:40:30Z</time><extensions><speed>3.540122</speed><course>272.143921</course><hAcc>1.912567</hAcc><vAcc>0.707394</vAcc></extensions></trkpt>
      <trkpt lon="-123.281737" lat="44.562179"><ele>71.385040</ele><time>2021-01-01T21:40:31Z</time><extensions><speed>3.712929</speed><course>263.392334</course><hAcc>1.912446</hAcc><vAcc>0.699366</vAcc></extensions></trkpt>
      <trkpt lon="-123.281689" lat="44.562176"><ele>71.335693</ele><time>2021-01-01T21:40:32Z</time><extensions><speed>3.890989</speed><course>229.764664</course><hAcc>1.912076</hAcc><vAcc>0.696786</vAcc></extensions></trkpt>
      <trkpt lon="-123.281640" lat="44.562176"><ele>71.305672</ele><time>2021-01-01T21:40:33Z</time><extensions><speed>3.941133</speed><course>194.506042</course><hAcc>1.911857</hAcc><vAcc>0.696749</vAcc></extensions></trkpt>
      <trkpt lon="-123.281590" lat="44.562176"><ele>71.292877</ele><time>2021-01-01T21:40:34Z</time><extensions><speed>3.928898</speed><course>190.490494</course><hAcc>1.912049</hAcc><vAcc>0.697500</vAcc></extensions></trkpt>
      <trkpt lon="-123.281541" lat="44.562174"><ele>71.294212</ele><time>2021-01-01T21:40:35Z</time><extensions><speed>3.878652</speed><course>258.269440</course><hAcc>1.912207</hAcc><vAcc>0.698126</vAcc></extensions></trkpt>
      <trkpt lon="-123.281493" lat="44.562171"><ele>71.306145</ele><time>2021-01-01T21:40:36Z</time><extensions><speed>3.799947</speed><course>269.059387</course><hAcc>1.912146</hAcc><vAcc>0.698273</vAcc></extensions></trkpt>
      <trkpt lon="-123.281446" lat="44.562168"><ele>71.325447</ele><time>2021-01-01T21:40:37Z</time><extensions><speed>3.745710</speed><course>265.457520</course><hAcc>1.912141</hAcc><vAcc>0.697914</vAcc></extensions></trkpt>
      <trkpt lon="-123.281398" lat="44.562169"><ele>71.349274</ele><time>2021-01-01T21:40:38Z</time><extensions><speed>3.791102</speed><course>271.754272</course><hAcc>1.912099</hAcc><vAcc>0.697191</vAcc></extensions></trkpt>
      <trkpt lon="-123.281350" lat="44.562171"><ele>71.374771</ele><time>2021-01-01T21:40:39Z</time><extensions><speed>3.943480</speed><course>269.394165</course><hAcc>1.912034</hAcc><vAcc>0.696311</vAcc></extensions></trkpt>
      <trkpt lon="-123.281300" lat="44.562174"><ele>71.398819</ele><time>2021-01-01T21:40:40Z</time><extensions><speed>4.089480</speed><course>270.795380</course><hAcc>1.912026</hAcc><vAcc>0.695470</vAcc></extensions></trkpt>
      <trkpt lon="-123.281248" lat="44.562173"><ele>71.418785</ele><time>2021-01-01T21:40:41Z</time><extensions><speed>4.176376</speed><course>272.435455</course><hAcc>1.912067</hAcc><vAcc>0.694823</vAcc></extensions></trkpt>
      <trkpt lon="-123.281195" lat="44.562168"><ele>71.433548</ele><time>2021-01-01T21:40:42Z</time><extensions><speed>4.250248</speed><course>269.414124</course><hAcc>1.912136</hAcc><vAcc>0.694454</vAcc></extensions></trkpt>
      <trkpt lon="-123.281143" lat="44.562161"><ele>71.443359</ele><time>2021-01-01T21:40:43Z</time><extensions><speed>4.218763</speed><course>272.528015</course><hAcc>1.912048</hAcc><vAcc>0.694380</vAcc></extensions></trkpt>
      <trkpt lon="-123.281091" lat="44.562156"><ele>71.448975</ele><time>2021-01-01T21:40:44Z</time><extensions><speed>4.077851</speed><course>269.818268</course><hAcc>1.911958</hAcc><vAcc>0.694546</vAcc></extensions></trkpt>
      <trkpt lon="-123.281040" lat="44.562155"><ele>71.450394</ele><time>2021-01-01T21:40:45Z</time><extensions><speed>3.954895</speed><course>265.691528</course><hAcc>1.911866</hAcc><vAcc>0.694842</vAcc></extensions></trkpt>
      <trkpt lon="-123.280991" lat="44.562156"><ele>71.446564</ele><time>2021-01-01T21:40:46Z</time><extensions><speed>3.861862</speed><course>271.499847</course><hAcc>1.911601</hAcc><vAcc>0.695123</vAcc></extensions></trkpt>
      <trkpt lon="-123.280943" lat="44.562158"><ele>71.436066</ele><time>2021-01-01T21:40:47Z</time><extensions><speed>3.807194</speed><course>264.060577</course><hAcc>1.911367</hAcc><vAcc>0.695251</vAcc></extensions></trkpt>
      <trkpt lon="-123.280896" lat="44.562159"><ele>71.417259</ele><time>2021-01-01T21:40:48Z</time><extensions><speed>3.765280</speed><course>269.076904</course><hAcc>1.911282</hAcc><vAcc>0.695154</vAcc></extensions></trkpt>
      <trkpt lon="-123.280849" lat="44.562159"><ele>71.388611</ele><time>2021-01-01T21:40:49Z</time><extensions><speed>3.699785</speed><course>277.125946</course><hAcc>1.911257</hAcc><vAcc>0.694919</vAcc></extensions></trkpt>
      <trkpt lon="-123.280803" lat="44.562159"><ele>71.348961</ele><time>2021-01-01T21:40:50Z</time><extensions><speed>3.612258</speed><course>281.251465</course><hAcc>1.911129</hAcc><vAcc>0.694920</vAcc></extensions></trkpt>
      <trkpt lon="-123.280758" lat="44.562161"><ele>71.297516</ele><time>2021-01-01T21:40:51Z</time><extensions><speed>3.550894</speed><course>259.620880</course><hAcc>1.910870</hAcc><vAcc>0.696006</vAcc></extensions></trkpt>
      <trkpt lon="-123.280713" lat="44.562163"><ele>71.233833</ele><time>2021-01-01T21:40:52Z</time><extensions><speed>3.559964</speed><course>258.723206</course><hAcc>1.910711</hAcc><vAcc>0.699712</vAcc></extensions></trkpt>
      <trkpt lon="-123.280668" lat="44.562164"><ele>71.157776</ele><time>2021-01-01T21:40:53Z</time><extensions><speed>3.574867</speed><course>258.250885</course><hAcc>1.910809</hAcc><vAcc>0.708484</vAcc></extensions></trkpt>
      <trkpt lon="-123.280623" lat="44.562163"><ele>71.069305</ele><time>2021-01-01T21:40:54Z</time><extensions><speed>3.588412</speed><course>255.470932</course><hAcc>1.911359</hAcc><vAcc>0.725816</vAcc></extensions></trkpt>
      <trkpt lon="-123.280578" lat="44.562162"><ele>70.968697</ele><time>2021-01-01T21:40:55Z</time><extensions><speed>3.576854</speed><course>241.983673</course><hAcc>1.913417</hAcc><vAcc>0.756142</vAcc></extensions></trkpt>
      <trkpt lon="-123.280534" lat="44.562161"><ele>70.857468</ele><time>2021-01-01T21:40:56Z</time><extensions><speed>3.402305</speed><course>220.427841</course><hAcc>1.916995</hAcc><vAcc>0.804358</vAcc></extensions></trkpt>
      <trkpt lon="-123.280494" lat="44.562161"><ele>70.738998</ele><time>2021-01-01T21:40:57Z</time><extensions><speed>3.014467</speed><course>212.969193</course><hAcc>1.913225</hAcc><vAcc>0.874994</vAcc></extensions></trkpt>
      <trkpt lon="-123.280459" lat="44.562160"><ele>70.617493</ele><time>2021-01-01T21:40:58Z</time><extensions><speed>2.519972</speed><course>190.711441</course><hAcc>1.896639</hAcc><vAcc>0.971331</vAcc></extensions></trkpt>
      <trkpt lon="-123.280430" lat="44.562160"><ele>70.495819</ele><time>2021-01-01T21:40:59Z</time><extensions><speed>1.977453</speed><course>166.647324</course><hAcc>2.013803</hAcc><vAcc>1.094846</vAcc></extensions></trkpt>
      <trkpt lon="-123.280408" lat="44.562160"><ele>70.375023</ele><time>2021-01-01T21:41:00Z</time><extensions><speed>1.554577</speed><course>138.934799</course><hAcc>2.657959</hAcc><vAcc>1.245107</vAcc></extensions></trkpt>
      <trkpt lon="-123.279823" lat="44.563223"><ele>72.954941</ele><time>2021-01-01T21:43:00Z</time><extensions><speed>2.097382</speed><course>269.265625</course><hAcc>2.658906</hAcc><vAcc>1.237958</vAcc></extensions></trkpt>
      <trkpt lon="-123.279833" lat="44.563240"><ele>72.941559</ele><time>2021-01-01T21:43:01Z</time><extensions><speed>2.080450</speed><course>272.143921</course><hAcc>2.015350</hAcc><vAcc>1.091078</vAcc></extensions></trkpt>
      <trkpt lon="-123.279845" lat="44.563257"><ele>72.918419</ele><time>2021-01-01T21:43:02Z</time><extensions><speed>2.223574</speed><course>263.392334</course><hAcc>1.898571</hAcc><vAcc>0.970076</vAcc></extensions></trkpt>
      <trkpt lon="-123.279864" lat="44.563274"><ele>72.886284</ele><time>2021-01-01T21:43:03Z</time><extensions><speed>2.475368</speed><course>229.764664</course><hAcc>1.915461</hAcc><vAcc>0.875439</vAcc></extensions></trkpt>
      <trkpt lon="-123.279888" lat="44.563289"><ele>72.846275</ele><time>2021-01-01T21:43:04Z</time><extensions><speed>2.618117</speed><course>194.506042</course><hAcc>1.919432</hAcc><vAcc>0.805791</vAcc></extensions></trkpt>
      <trkpt lon="-123.279915" lat="44.563303"><ele>72.800049</ele><time>2021-01-01T21:43:05Z</time><extensions><speed>2.770667</speed><course>190.490494</course><hAcc>1.916595</hAcc><vAcc>0.758000</vAcc></extensions></trkpt>
      <trkpt lon="-123.279949" lat="44.563317"><ele>72.750473</ele><time>2021-01-01T21:43:06Z</time><extensions><speed>3.370284</speed><course>258.269440</course><hAcc>1.915949</hAcc><vAcc>0.727713</vAcc></extensions></trkpt>
      <trkpt lon="-123.279997" lat="44.563327"><ele>72.701195</ele><time>2021-01-01T21:43:07Z</time><extensions><speed>4.722666</speed><course>269.059387</course><hAcc>1.916376</hAcc><vAcc>0.710196</vAcc></extensions></trkpt>
      <trkpt lon="-123.280064" lat="44.563335"><ele>72.655609</ele><time>2021-01-01T21:43:08Z</time><extensions><speed>6.101758</speed><course>265.457520</course><hAcc>1.916012</hAcc><vAcc>0.701133</vAcc></extensions></trkpt>
      <trkpt lon="-123.280142" lat="44.563339"><ele>72.616608</ele><time>2021-01-01T21:43:09Z</time><extensions><speed>6.310079</speed><course>271.754272</course><hAcc>1.914974</hAcc><vAcc>0.697105</vAcc></extensions></trkpt>
      <trkpt lon="-123.280217" lat="44.563341"><ele>72.585999</ele><time>2021-01-01T21:43:10Z</time><extensions><speed>5.523625</speed><course>269.394165</course><hAcc>1.914297</hAcc><vAcc>0.695690</vAcc></extensions></trkpt>
      <trkpt lon="-123.280281" lat="44.563343"><ele>72.564682</ele><time>2021-01-01T21:43:11Z</time><extensions><speed>4.671193</speed><course>270.795380</course><hAcc>1.913951</hAcc><vAcc>0.695350</vAcc></extensions></trkpt>
      <trkpt lon="-123.280336" lat="44.563346"><ele>72.553612</ele><time>2021-01-01T21:43:12Z</time><extensions><speed>4.035657</speed><course>272.435455</course><hAcc>1.913590</hAcc><vAcc>0.695212</vAcc></extensions></trkpt>
      <trkpt lon="-123.280384" lat="44.563348"><ele>72.554031</ele><time>2021-01-01T21:43:13Z</time><extensions><speed>3.635665</speed><course>269.414124</course><hAcc>1.913320</hAcc><vAcc>0.694863</vAcc></extensions></trkpt>
      <trkpt lon="-123.280429" lat="44.563351"><ele>72.567390</ele><time>2021-01-01T21:43:14Z</time><extensions><speed>3.526524</speed><course>272.528015</course><hAcc>1.913251</hAcc><vAcc>0.694178</vAcc></extensions></trkpt>
      <trkpt lon="-123.280475" lat="44.563353"><ele>72.594978</ele><time>2021-01-01T21:43:15Z</time><extensions><speed>3.880139</speed><course>269.818268</course><hAcc>1.913288</hAcc><vAcc>0.693194</vAcc></extensions></trkpt>
      <trkpt lon="-123.280528" lat="44.563355"><ele>72.636940</ele><time>2021-01-01T21:43:16Z</time><extensions><speed>4.581975</speed><course>265.691528</course><hAcc>1.913288</hAcc><vAcc>0.692021</vAcc></extensions></trkpt>
      <trkpt lon="-123.280589" lat="44.563356"><ele>72.691757</ele><time>2021-01-01T21:43:17Z</time><extensions><speed>4.987750</speed><course>271.499847</course><hAcc>1.913265</hAcc><vAcc>0.690796</vAcc></extensions></trkpt>
      <trkpt lon="-123.280650" lat="44.563356"><ele>72.756630</ele><time>2021-01-01T21:43:18Z</time><extensions><speed>4.812352</speed><course>264.060577</course><hAcc>1.913177</hAcc><vAcc>0.689647</vAcc></extensions></trkpt>
      <trkpt lon="-123.280709" lat="44.563357"><ele>72.828148</ele><time>2021-01-01T21:43:19Z</time><extensions><speed>4.477479</speed><course>269.076904</course><hAcc>1.913036</hAcc><vAcc>0.688682</vAcc></extensions></trkpt>
      <trkpt lon="-123.280763" lat="44.563359"><ele>72.903358</ele><time>2021-01-01T21:43:20Z</time><extensions><speed>4.221142</speed><course>277.125946</course><hAcc>1.912891</hAcc><vAcc>0.687986</vAcc></extensions></trkpt>
      <trkpt lon="-123.280815" lat="44.563363"><ele>72.980225</ele><time>2021-01-01T21:43:21Z</time><extensions><speed>4.101903</speed><course>281.251465</course><hAcc>1.912843</hAcc><vAcc>0.687618</vAcc></extensions></trkpt>
      <trkpt lon="-123.280867" lat="44.563368"><ele>73.057251</ele><time>2021-01-01T21:43:22Z</time><extensions><speed>4.194190</speed><course>259.620880</course><hAcc>1.913004</hAcc><vAcc>0.687613</vAcc></extensions></trkpt>
      <trkpt lon="-123.280922" lat="44.563372"><ele>73.133179</ele><time>2021-01-01T21:43:23Z</time><extensions><speed>4.499003</speed><course>258.723206</course><hAcc>1.913514</hAcc><vAcc>0.687988</vAcc></extensions></trkpt>
      <trkpt lon="-123.280980" lat="44.563375"><ele>73.206993</ele><time>2021-01-01T21:43:24Z</time><extensions><speed>4.743566</speed><course>258.250885</course><hAcc>1.914149</hAcc><vAcc>0.688736</vAcc></extensions></trkpt>
      <trkpt lon="-123.281038" lat="44.563376"><ele>73.277657</ele><time>2021-01-01T21:43:25Z</time><extensions><speed>4.605525</speed><course>255.470932</course><hAcc>1.914435</hAcc><vAcc>0.689829</vAcc></extensions></trkpt>
      <trkpt lon="-123.281094" lat="44.563377"><ele>73.343948</ele><time>2021-01-01T21:43:26Z</time><extensions><speed>4.236776</speed><course>241.983673</course><hAcc>1.914575</hAcc><vAcc>0.691215</vAcc></extensions></trkpt>
      <trkpt lon="-123.281146" lat="44.563378"><ele>73.404655</ele><time>2021-01-01T21:43:27Z</time><extensions><speed>3.998280</speed><course>220.427841</course><hAcc>1.914958</hAcc><vAcc>0.692810</vAcc></extensions></trkpt>
      <trkpt lon="-123.281196" lat="44.563381"><ele>73.459274</ele><time>2021-01-01T21:43:28Z</time><extensions><speed>3.961926</speed><course>212.969193</course><hAcc>1.915334</hAcc><vAcc>0.694495</vAcc></extensions></trkpt>
      <trkpt lon="-123.281245" lat="44.563383"><ele>73.508369</ele><time>2021-01-01T21:43:29Z</time><extensions><speed>3.898625</speed><course>190.711441</course><hAcc>1.915340</hAcc><vAcc>0.696119</vAcc></extensions></trkpt>
      <trkpt lon="-123.281293" lat="44.563385"><ele>73.552910</ele><time>2021-01-01T21:43:30Z</time><extensions><speed>3.758563</speed><course>166.647324</course><hAcc>1.915255</hAcc><vAcc>0.697510</vAcc></extensions></trkpt>
      <trkpt lon="-123.281341" lat="44.563387"><ele>73.593719</ele><time>2021-01-01T21:43:31Z</time><extensions><speed>3.886987</speed><course>138.934799</course><hAcc>1.915358</hAcc><vAcc>0.698505</vAcc></extensions></trkpt>
      <trkpt lon="-123.281393" lat="44.563389"><ele>73.631714</ele><time>2021-01-01T21:43:32Z</time><extensions><speed>4.297423</speed><course>172.521896</course><hAcc>1.915730</hAcc><vAcc>0.699002</vAcc></extensions></trkpt>
      <trkpt lon="-123.281449" lat="44.563393"><ele>73.667839</ele><time>2021-01-01T21:43:33Z</time><extensions><speed>4.652948</speed><course>172.427979</course><hAcc>1.916145</hAcc><vAcc>0.699052</vAcc></extensions></trkpt>
      <trkpt lon="-123.281508" lat="44.563399"><ele>73.702385</ele><time>2021-01-01T21:43:34Z</time><extensions><speed>4.794032</speed><course>181.483002</course><hAcc>1.916110</hAcc><vAcc>0.699001</vAcc></extensions></trkpt>
      <trkpt lon="-123.281567" lat="44.563405"><ele>73.735046</ele><time>2021-01-01T21:43:35Z</time><extensions><speed>4.727347</speed><course>179.745895</course><hAcc>1.915284</hAcc><vAcc>0.699688</vAcc></extensions></trkpt>
      <trkpt lon="-123.281626" lat="44.563407"><ele>73.765320</ele><time>2021-01-01T21:43:36Z</time><extensions><speed>4.619063</speed><course>182.858902</course><hAcc>1.913921</hAcc><vAcc>0.702698</vAcc></extensions></trkpt>
      <trkpt lon="-123.281682" lat="44.563403"><ele>73.792931</ele><time>2021-01-01T21:43:36Z</time><extensions><speed>4.468028</speed><course>189.274887</course><hAcc>1.913218</hAcc><vAcc>0.710634</vAcc></extensions></trkpt>
      <trkpt lon="-123.281735" lat="44.563393"><ele>73.818108</ele><time>2021-01-01T21:43:37Z</time><extensions><speed>4.213983</speed><course>186.314270</course><hAcc>1.913309</hAcc><vAcc>0.727317</vAcc></extensions></trkpt>
      <trkpt lon="-123.281781" lat="44.563376"><ele>73.841072</ele><time>2021-01-01T21:43:38Z</time><extensions><speed>4.045888</speed><course>174.021347</course><hAcc>1.915423</hAcc><vAcc>0.757673</vAcc></extensions></trkpt>
      <trkpt lon="-123.281816" lat="44.563352"><ele>73.711998</ele><time>2021-01-01T21:43:39Z</time><extensions><speed>3.787040</speed><course>269.265625</course><hAcc>1.913238</hAcc><vAcc>0.725801</vAcc></extensions></trkpt>
      <trkpt lon="-123.281838" lat="44.563323"><ele>73.734764</ele><time>2021-01-01T21:43:40Z</time><extensions><speed>3.702686</speed><course>272.143921</course><hAcc>1.912594</hAcc><vAcc>0.707961</vAcc></extensions></trkpt>
      <trkpt lon="-123.281843" lat="44.563290"><ele>73.762993</ele><time>2021-01-01T21:43:41Z</time><extensions><speed>3.912005</speed><course>263.392334</course><hAcc>1.913155</hAcc><vAcc>0.699870</vAcc></extensions></trkpt>
      <trkpt lon="-123.281837" lat="44.563254"><ele>73.798897</ele><time>2021-01-01T21:43:42Z</time><extensions><speed>4.121913</speed><course>229.764664</course><hAcc>1.913454</hAcc><vAcc>0.697253</vAcc></extensions></trkpt>
      <trkpt lon="-123.281830" lat="44.563216"><ele>73.844841</ele><time>2021-01-01T21:43:43Z</time><extensions><speed>4.409595</speed><course>194.506042</course><hAcc>1.913678</hAcc><vAcc>0.697183</vAcc></extensions></trkpt>
      <trkpt lon="-123.281829" lat="44.563175"><ele>73.902924</ele><time>2021-01-01T21:43:44Z</time><extensions><speed>4.773133</speed><course>190.490494</course><hAcc>1.913861</hAcc><vAcc>0.697883</vAcc></extensions></trkpt>
      <trkpt lon="-123.281832" lat="44.563131"><ele>73.974625</ele><time>2021-01-01T21:43:45Z</time><extensions><speed>4.859040</speed><course>258.269440</course><hAcc>1.913945</hAcc><vAcc>0.698428</vAcc></extensions></trkpt>
      <trkpt lon="-123.281836" lat="44.563088"><ele>74.060204</ele><time>2021-01-01T21:43:47Z</time><extensions><speed>4.812764</speed><course>269.059387</course><hAcc>1.913638</hAcc><vAcc>0.698442</vAcc></extensions></trkpt>
      <trkpt lon="-123.281837" lat="44.563044"><ele>74.157646</ele><time>2021-01-01T21:43:48Z</time><extensions><speed>4.856499</speed><course>265.457520</course><hAcc>1.913152</hAcc><vAcc>0.697895</vAcc></extensions></trkpt>
      <trkpt lon="-123.281838" lat="44.563000"><ele>74.263458</ele><time>2021-01-01T21:43:49Z</time><extensions><speed>4.872978</speed><course>271.754272</course><hAcc>1.913079</hAcc><vAcc>0.696949</vAcc></extensions></trkpt>
      <trkpt lon="-123.281840" lat="44.562957"><ele>74.373047</ele><time>2021-01-01T21:43:50Z</time><extensions><speed>4.880369</speed><course>269.394165</course><hAcc>1.913200</hAcc><vAcc>0.695818</vAcc></extensions></trkpt>
      <trkpt lon="-123.281844" lat="44.562913"><ele>74.481499</ele><time>2021-01-01T21:43:51Z</time><extensions><speed>4.899091</speed><course>270.795380</course><hAcc>1.913362</hAcc><vAcc>0.694720</vAcc></extensions></trkpt>
      <trkpt lon="-123.281850" lat="44.562869"><ele>74.584335</ele><time>2021-01-01T21:43:52Z</time><extensions><speed>4.891110</speed><course>272.435455</course><hAcc>1.913512</hAcc><vAcc>0.693840</vAcc></extensions></trkpt>
      <trkpt lon="-123.281854" lat="44.562825"><ele>74.677994</ele><time>2021-01-01T21:43:53Z</time><extensions><speed>4.808271</speed><course>269.414124</course><hAcc>1.913688</hAcc><vAcc>0.693310</vAcc></extensions></trkpt>
      <trkpt lon="-123.281857" lat="44.562783"><ele>74.759598</ele><time>2021-01-01T21:43:54Z</time><extensions><speed>4.684431</speed><course>272.528015</course><hAcc>1.913761</hAcc><vAcc>0.693199</vAcc></extensions></trkpt>
      <trkpt lon="-123.281857" lat="44.562741"><ele>74.826668</ele><time>2021-01-01T21:43:55Z</time><extensions><speed>4.606944</speed><course>269.818268</course><hAcc>1.913749</hAcc><vAcc>0.693516</vAcc></extensions></trkpt>
      <trkpt lon="-123.281857" lat="44.562700"><ele>74.876595</ele><time>2021-01-01T21:43:56Z</time><extensions><speed>4.587898</speed><course>265.691528</course><hAcc>1.913734</hAcc><vAcc>0.694207</vAcc></extensions></trkpt>
      <trkpt lon="-123.281857" lat="44.562658"><ele>74.907326</ele><time>2021-01-01T21:43:57Z</time><extensions><speed>4.623663</speed><course>271.499847</course><hAcc>1.913756</hAcc><vAcc>0.695163</vAcc></extensions></trkpt>
      <trkpt lon="-123.281858" lat="44.562616"><ele>74.918205</ele><time>2021-01-01T21:43:58Z</time><extensions><speed>4.676454</speed><course>264.060577</course><hAcc>1.913548</hAcc><vAcc>0.696224</vAcc></extensions></trkpt>
      <trkpt lon="-123.281861" lat="44.562574"><ele>74.909431</ele><time>2021-01-01T21:43:59Z</time><extensions><speed>4.640291</speed><course>269.076904</course><hAcc>1.913162</hAcc><vAcc>0.697202</vAcc></extensions></trkpt>
      <trkpt lon="-123.281865" lat="44.562534"><ele>74.881516</ele><time>2021-01-01T21:44:00Z</time><extensions><speed>4.469318</speed><course>277.125946</course><hAcc>1.913137</hAcc><vAcc>0.697913</vAcc></extensions></trkpt>
      <trkpt lon="-123.281870" lat="44.562494"><ele>74.835197</ele><time>2021-01-01T21:44:01Z</time><extensions><speed>4.364803</speed><course>281.251465</course><hAcc>1.913313</hAcc><vAcc>0.698233</vAcc></extensions></trkpt>
      <trkpt lon="-123.281873" lat="44.562455"><ele>74.770958</ele><time>2021-01-01T21:44:02Z</time><extensions><speed>4.398496</speed><course>259.620880</course><hAcc>1.913292</hAcc><vAcc>0.698189</vAcc></extensions></trkpt>
      <trkpt lon="-123.281875" lat="44.562415"><ele>74.689491</ele><time>2021-01-01T21:44:03Z</time><extensions><speed>4.444034</speed><course>258.723206</course><hAcc>1.913045</hAcc><vAcc>0.698105</vAcc></extensions></trkpt>
      <trkpt lon="-123.281876" lat="44.562374"><ele>74.592476</ele><time>2021-01-01T21:44:04Z</time><extensions><speed>4.511175</speed><course>258.250885</course><hAcc>1.912831</hAcc><vAcc>0.698793</vAcc></extensions></trkpt>
      <trkpt lon="-123.281877" lat="44.562333"><ele>74.482300</ele><time>2021-01-01T21:44:05Z</time><extensions><speed>4.647542</speed><course>255.470932</course><hAcc>1.912779</hAcc><vAcc>0.701809</vAcc></extensions></trkpt>
      <trkpt lon="-123.281877" lat="44.562291"><ele>74.361382</ele><time>2021-01-01T21:44:06Z</time><extensions><speed>4.701563</speed><course>241.983673</course><hAcc>1.912784</hAcc><vAcc>0.709722</vAcc></extensions></trkpt>
      <trkpt lon="-123.281867" lat="44.562251"><ele>74.232109</ele><time>2021-01-01T21:44:07Z</time><extensions><speed>4.475478</speed><course>220.427841</course><hAcc>1.913020</hAcc><vAcc>0.726312</vAcc></extensions></trkpt>
      <trkpt lon="-123.281842" lat="44.562217"><ele>74.096825</ele><time>2021-01-01T21:44:08Z</time><extensions><speed>4.270143</speed><course>212.969193</course><hAcc>1.915221</hAcc><vAcc>0.756504</vAcc></extensions></trkpt>
      <trkpt lon="-123.281801" lat="44.562192"><ele>73.521614</ele><time>2021-01-01T21:44:09Z</time><extensions><speed>4.411811</speed><course>269.265625</course><hAcc>1.912876</hAcc><vAcc>0.724828</vAcc></extensions></trkpt>
      <trkpt lon="-123.281747" lat="44.562179"><ele>73.359642</ele><time>2021-01-01T21:44:10Z</time><extensions><speed>4.650980</speed><course>272.143921</course><hAcc>1.911566</hAcc><vAcc>0.707166</vAcc></extensions></trkpt>
      <trkpt lon="-123.281689" lat="44.562175"><ele>73.202621</ele><time>2021-01-01T21:44:11Z</time><extensions><speed>4.775843</speed><course>263.392334</course><hAcc>1.910915</hAcc><vAcc>0.699294</vAcc></extensions></trkpt>
      <trkpt lon="-123.281629" lat="44.562176"><ele>73.051666</ele><time>2021-01-01T21:44:12Z</time><extensions><speed>4.741911</speed><course>229.764664</course><hAcc>1.910127</hAcc><vAcc>0.696973</vAcc></extensions></trkpt>
      <trkpt lon="-123.281570" lat="44.562177"><ele>72.907707</ele><time>2021-01-01T21:44:13Z</time><extensions><speed>4.669801</speed><course>194.506042</course><hAcc>1.909758</hAcc><vAcc>0.697311</vAcc></extensions></trkpt>
      <trkpt lon="-123.281511" lat="44.562179"><ele>72.772530</ele><time>2021-01-01T21:44:14Z</time><extensions><speed>4.702826</speed><course>190.490494</course><hAcc>1.909911</hAcc><vAcc>0.698558</vAcc></extensions></trkpt>
      <trkpt lon="-123.281451" lat="44.562179"><ele>72.648987</ele><time>2021-01-01T21:44:15Z</time><extensions><speed>4.724780</speed><course>258.269440</course><hAcc>1.910421</hAcc><vAcc>0.699798</vAcc></extensions></trkpt>
      <trkpt lon="-123.281392" lat="44.562177"><ele>72.540382</ele><time>2021-01-01T21:44:16Z</time><extensions><speed>4.665224</speed><course>269.059387</course><hAcc>1.911011</hAcc><vAcc>0.700658</vAcc></extensions></trkpt>
      <trkpt lon="-123.281334" lat="44.562175"><ele>72.449860</ele><time>2021-01-01T21:44:17Z</time><extensions><speed>4.613384</speed><course>265.457520</course><hAcc>1.911374</hAcc><vAcc>0.701074</vAcc></extensions></trkpt>
      <trkpt lon="-123.281276" lat="44.562172"><ele>72.380013</ele><time>2021-01-01T21:44:18Z</time><extensions><speed>4.573376</speed><course>271.754272</course><hAcc>1.911763</hAcc><vAcc>0.701131</vAcc></extensions></trkpt>
      <trkpt lon="-123.281219" lat="44.562170"><ele>72.332520</ele><time>2021-01-01T21:44:19Z</time><extensions><speed>4.558855</speed><course>269.394165</course><hAcc>1.912458</hAcc><vAcc>0.700951</vAcc></extensions></trkpt>
      <trkpt lon="-123.281162" lat="44.562170"><ele>72.307663</ele><time>2021-01-01T21:44:20Z</time><extensions><speed>4.489257</speed><course>270.795380</course><hAcc>1.912937</hAcc><vAcc>0.700627</vAcc></extensions></trkpt>
      <trkpt lon="-123.281106" lat="44.562171"><ele>72.303963</ele><time>2021-01-01T21:44:21Z</time><extensions><speed>4.363878</speed><course>272.435455</course><hAcc>1.912652</hAcc><vAcc>0.700199</vAcc></extensions></trkpt>
      <trkpt lon="-123.281052" lat="44.562172"><ele>72.317993</ele><time>2021-01-01T21:44:22Z</time><extensions><speed>4.253866</speed><course>269.414124</course><hAcc>1.911994</hAcc><vAcc>0.699653</vAcc></extensions></trkpt>
      <trkpt lon="-123.280999" lat="44.562173"><ele>72.344460</ele><time>2021-01-01T21:44:23Z</time><extensions><speed>4.242208</speed><course>272.528015</course><hAcc>1.911590</hAcc><vAcc>0.698950</vAcc></extensions></trkpt>
      <trkpt lon="-123.280945" lat="44.562174"><ele>72.376984</ele><time>2021-01-01T21:44:24Z</time><extensions><speed>4.285627</speed><course>269.818268</course><hAcc>1.911641</hAcc><vAcc>0.698084</vAcc></extensions></trkpt>
      <trkpt lon="-123.280891" lat="44.562174"><ele>72.409889</ele><time>2021-01-01T21:44:25Z</time><extensions><speed>4.305709</speed><course>265.691528</course><hAcc>1.911979</hAcc><vAcc>0.697178</vAcc></extensions></trkpt>
      <trkpt lon="-123.280837" lat="44.562175"><ele>72.439690</ele><time>2021-01-01T21:44:26Z</time><extensions><speed>4.310988</speed><course>271.499847</course><hAcc>1.912261</hAcc><vAcc>0.696625</vAcc></extensions></trkpt>
      <trkpt lon="-123.280782" lat="44.562175"><ele>72.465065</ele><time>2021-01-01T21:44:27Z</time><extensions><speed>4.314560</speed><course>264.060577</course><hAcc>1.912242</hAcc><vAcc>0.697273</vAcc></extensions></trkpt>
      <trkpt lon="-123.280729" lat="44.562175"><ele>72.485840</ele><time>2021-01-01T21:44:28Z</time><extensions><speed>4.234592</speed><course>269.076904</course><hAcc>1.911956</hAcc><vAcc>0.700652</vAcc></extensions></trkpt>
      <trkpt lon="-123.280677" lat="44.562174"><ele>72.502182</ele><time>2021-01-01T21:44:29Z</time><extensions><speed>4.001578</speed><course>277.125946</course><hAcc>1.911687</hAcc><vAcc>0.709206</vAcc></extensions></trkpt>
      <trkpt lon="-123.280629" lat="44.562171"><ele>72.514542</ele><time>2021-01-01T21:44:30Z</time><extensions><speed>3.627049</speed><course>281.251465</course><hAcc>1.911938</hAcc><vAcc>0.726423</vAcc></extensions></trkpt>
      <trkpt lon="-123.280586" lat="44.562168"><ele>72.523361</ele><time>2021-01-01T21:44:31Z</time><extensions><speed>3.248241</speed><course>259.620880</course><hAcc>1.913738</hAcc><vAcc>0.756731</vAcc></extensions></trkpt>
      <trkpt lon="-123.280547" lat="44.562166"><ele>72.528954</ele><time>2021-01-01T21:44:32Z</time><extensions><speed>2.962031</speed><course>258.723206</course><hAcc>1.917330</hAcc><vAcc>0.805018</vAcc></extensions></trkpt>
      <trkpt lon="-123.280511" lat="44.562165"><ele>72.531631</ele><time>2021-01-01T21:44:33Z</time><extensions><speed>2.709998</speed><course>258.250885</course><hAcc>1.914014</hAcc><vAcc>0.875795</vAcc></extensions></trkpt>
      <trkpt lon="-123.280479" lat="44.562167"><ele>72.531143</ele><time>2021-01-01T21:44:34Z</time><extensions><speed>2.424213</speed><course>255.470932</course><hAcc>1.897666</hAcc><vAcc>0.972318</vAcc></extensions></trkpt>
      <trkpt lon="-123.280451" lat="44.562169"><ele>72.526451</ele><time>2021-01-01T21:44:35Z</time><extensions><speed>1.995319</speed><course>241.983673</course><hAcc>2.014823</hAcc><vAcc>1.096039</vAcc></extensions></trkpt>
      <trkpt lon="-123.280429" lat="44.562170"><ele>72.516441</ele><time>2021-01-01T21:44:36Z</time><extensions><speed>1.511400</speed><course>220.427841</course><hAcc>2.659699</hAcc><vAcc>1.246513</vAcc></extensions></trkpt>
      <trkpt lon="-123.279818" lat="44.563207"><ele>73.365646</ele><time>2021-01-01T21:46:47Z</time><extensions><speed>1.928593</speed><course>269.265625</course><hAcc>2.658248</hAcc><vAcc>1.240859</vAcc></extensions></trkpt>
      <trkpt lon="-123.279825" lat="44.563226"><ele>73.352829</ele><time>2021-01-01T21:46:48Z</time><extensions><speed>2.284077</speed><course>272.143921</course><hAcc>2.013560</hAcc><vAcc>1.094601</vAcc></extensions></trkpt>
      <trkpt lon="-123.279830" lat="44.563249"><ele>73.346649</ele><time>2021-01-01T21:46:49Z</time><extensions><speed>2.955710</speed><course>263.392334</course><hAcc>1.897205</hAcc><vAcc>0.974514</vAcc></extensions></trkpt>
      <trkpt lon="-123.279841" lat="44.563278"><ele>73.346931</ele><time>2021-01-01T21:46:50Z</time><extensions><speed>3.868509</speed><course>229.764664</course><hAcc>1.916903</hAcc><vAcc>0.881092</vAcc></extensions></trkpt>
      <trkpt lon="-123.279863" lat="44.563314"><ele>73.354149</ele><time>2021-01-01T21:46:51Z</time><extensions><speed>4.844929</speed><course>194.506042</course><hAcc>1.928930</hAcc><vAcc>0.812898</vAcc></extensions></trkpt>
      <trkpt lon="-123.279899" lat="44.563351"><ele>73.370468</ele><time>2021-01-01T21:46:52Z</time><extensions><speed>5.316092</speed><course>190.490494</course><hAcc>1.937403</hAcc><vAcc>0.766674</vAcc></extensions></trkpt>
      <trkpt lon="-123.279955" lat="44.563380"><ele>73.399109</ele><time>2021-01-01T21:46:53Z</time><extensions><speed>5.829403</speed><course>258.269440</course><hAcc>1.942952</hAcc><vAcc>0.737918</vAcc></extensions></trkpt>
      <trkpt lon="-123.280030" lat="44.563396"><ele>73.441727</ele><time>2021-01-01T21:46:54Z</time><extensions><speed>6.770874</speed><course>269.059387</course><hAcc>1.944540</hAcc><vAcc>0.721788</vAcc></extensions></trkpt>
      <trkpt lon="-123.280118" lat="44.563399"><ele>73.497353</ele><time>2021-01-01T21:46:55Z</time><extensions><speed>7.174413</speed><course>265.457520</course><hAcc>1.944698</hAcc><vAcc>0.713922</vAcc></extensions></trkpt>
      <trkpt lon="-123.280205" lat="44.563394"><ele>73.563377</ele><time>2021-01-01T21:46:56Z</time><extensions><speed>6.803352</speed><course>271.754272</course><hAcc>1.944676</hAcc><vAcc>0.710891</vAcc></extensions></trkpt>
      <trkpt lon="-123.280286" lat="44.563386"><ele>73.636574</ele><time>2021-01-01T21:46:57Z</time><extensions><speed>6.244994</speed><course>269.394165</course><hAcc>1.944681</hAcc><vAcc>0.710287</vAcc></extensions></trkpt>
      <trkpt lon="-123.280361" lat="44.563378"><ele>73.713509</ele><time>2021-01-01T21:46:58Z</time><extensions><speed>5.799496</speed><course>270.795380</course><hAcc>1.944693</hAcc><vAcc>0.710588</vAcc></extensions></trkpt>
      <trkpt lon="-123.280432" lat="44.563371"><ele>73.790710</ele><time>2021-01-01T21:46:59Z</time><extensions><speed>5.479874</speed><course>272.435455</course><hAcc>1.944698</hAcc><vAcc>0.710940</vAcc></extensions></trkpt>
      <trkpt lon="-123.280499" lat="44.563365"><ele>73.864723</ele><time>2021-01-01T21:47:00Z</time><extensions><speed>5.258574</speed><course>269.414124</course><hAcc>1.944699</hAcc><vAcc>0.710947</vAcc></extensions></trkpt>
      <trkpt lon="-123.280564" lat="44.563361"><ele>73.931747</ele><time>2021-01-01T21:47:01Z</time><extensions><speed>5.076530</speed><course>272.528015</course><hAcc>1.944695</hAcc><vAcc>0.710497</vAcc></extensions></trkpt>
      <trkpt lon="-123.280627" lat="44.563357"><ele>73.987389</ele><time>2021-01-01T21:47:02Z</time><extensions><speed>4.967181</speed><course>269.818268</course><hAcc>1.944687</hAcc><vAcc>0.709636</vAcc></extensions></trkpt>
      <trkpt lon="-123.280689" lat="44.563355"><ele>74.027145</ele><time>2021-01-01T21:47:03Z</time><extensions><speed>4.994297</speed><course>265.691528</course><hAcc>1.944677</hAcc><vAcc>0.708481</vAcc></extensions></trkpt>
      <trkpt lon="-123.280752" lat="44.563354"><ele>74.047173</ele><time>2021-01-01T21:47:04Z</time><extensions><speed>4.990368</speed><course>271.499847</course><hAcc>1.944665</hAcc><vAcc>0.707167</vAcc></extensions></trkpt>
      <trkpt lon="-123.280814" lat="44.563353"><ele>74.044754</ele><time>2021-01-01T21:47:05Z</time><extensions><speed>4.863124</speed><course>264.060577</course><hAcc>1.944650</hAcc><vAcc>0.705818</vAcc></extensions></trkpt>
      <trkpt lon="-123.280875" lat="44.563352"><ele>74.018921</ele><time>2021-01-01T21:47:06Z</time><extensions><speed>4.750636</speed><course>269.076904</course><hAcc>1.944622</hAcc><vAcc>0.704529</vAcc></extensions></trkpt>
      <trkpt lon="-123.280934" lat="44.563351"><ele>73.970695</ele><time>2021-01-01T21:47:07Z</time><extensions><speed>4.704285</speed><course>277.125946</course><hAcc>1.944589</hAcc><vAcc>0.703369</vAcc></extensions></trkpt>
      <trkpt lon="-123.280993" lat="44.563350"><ele>73.903229</ele><time>2021-01-01T21:47:08Z</time><extensions><speed>4.666454</speed><course>281.251465</course><hAcc>1.944585</hAcc><vAcc>0.702377</vAcc></extensions></trkpt>
      <trkpt lon="-123.281051" lat="44.563351"><ele>73.821877</ele><time>2021-01-01T21:47:09Z</time><extensions><speed>4.603375</speed><course>259.620880</course><hAcc>1.944304</hAcc><vAcc>0.701573</vAcc></extensions></trkpt>
      <trkpt lon="-123.281108" lat="44.563354"><ele>73.734169</ele><time>2021-01-01T21:47:10Z</time><extensions><speed>4.491325</speed><course>258.723206</course><hAcc>1.941575</hAcc><vAcc>0.700964</vAcc></extensions></trkpt>
      <trkpt lon="-123.281163" lat="44.563361"><ele>73.649811</ele><time>2021-01-01T21:47:11Z</time><extensions><speed>4.357857</speed><course>258.250885</course><hAcc>1.931386</hAcc><vAcc>0.700548</vAcc></extensions></trkpt>
      <trkpt lon="-123.281216" lat="44.563370"><ele>73.580940</ele><time>2021-01-01T21:47:12Z</time><extensions><speed>4.293962</speed><course>255.470932</course><hAcc>1.915380</hAcc><vAcc>0.700317</vAcc></extensions></trkpt>
      <trkpt lon="-123.281269" lat="44.563377"><ele>73.541573</ele><time>2021-01-01T21:47:13Z</time><extensions><speed>4.337391</speed><course>241.983673</course><hAcc>1.905983</hAcc><vAcc>0.700240</vAcc></extensions></trkpt>
      <trkpt lon="-123.281323" lat="44.563381"><ele>73.545708</ele><time>2021-01-01T21:47:14Z</time><extensions><speed>4.275812</speed><course>220.427841</course><hAcc>1.906316</hAcc><vAcc>0.700226</vAcc></extensions></trkpt>
      <trkpt lon="-123.281375" lat="44.563383"><ele>73.605942</ele><time>2021-01-01T21:47:15Z</time><extensions><speed>3.927890</speed><course>212.969193</course><hAcc>1.910894</hAcc><vAcc>0.700131</vAcc></extensions></trkpt>
      <trkpt lon="-123.281421" lat="44.563383"><ele>73.733215</ele><time>2021-01-01T21:47:16Z</time><extensions><speed>3.446536</speed><course>190.711441</course><hAcc>1.914099</hAcc><vAcc>0.699827</vAcc></extensions></trkpt>
      <trkpt lon="-123.281462" lat="44.563383"><ele>73.936226</ele><time>2021-01-01T21:47:17Z</time><extensions><speed>3.070902</speed><course>166.647324</course><hAcc>1.915344</hAcc><vAcc>0.699322</vAcc></extensions></trkpt>
      <trkpt lon="-123.281501" lat="44.563380"><ele>74.219971</ele><time>2021-01-01T21:47:18Z</time><extensions><speed>3.167701</speed><course>138.934799</course><hAcc>1.915885</hAcc><vAcc>0.698912</vAcc></extensions></trkpt>
      <trkpt lon="-123.281546" lat="44.563375"><ele>74.584450</ele><time>2021-01-01T21:47:19Z</time><extensions><speed>3.959664</speed><course>172.521896</course><hAcc>1.915229</hAcc><vAcc>0.699391</vAcc></extensions></trkpt>
      <trkpt lon="-123.281600" lat="44.563367"><ele>75.024620</ele><time>2021-01-01T21:47:20Z</time><extensions><speed>4.952055</speed><course>172.427979</course><hAcc>1.913242</hAcc><vAcc>0.702311</vAcc></extensions></trkpt>
      <trkpt lon="-123.281663" lat="44.563358"><ele>75.531288</ele><time>2021-01-01T21:47:21Z</time><extensions><speed>5.225590</speed><course>181.483002</course><hAcc>1.911229</hAcc><vAcc>0.710250</vAcc></extensions></trkpt>
      <trkpt lon="-123.281724" lat="44.563350"><ele>76.093353</ele><time>2021-01-01T21:47:22Z</time><extensions><speed>4.634691</speed><course>179.745895</course><hAcc>1.911215</hAcc><vAcc>0.727001</vAcc></extensions></trkpt>
      <trkpt lon="-123.281774" lat="44.563338"><ele>76.700195</ele><time>2021-01-01T21:47:23Z</time><extensions><speed>3.749537</speed><course>182.858902</course><hAcc>1.914516</hAcc><vAcc>0.757486</vAcc></extensions></trkpt>
      <trkpt lon="-123.281809" lat="44.563317"><ele>76.790894</ele><time>2021-01-01T21:47:24Z</time><extensions><speed>3.507124</speed><course>269.265625</course><hAcc>1.913476</hAcc><vAcc>0.725450</vAcc></extensions></trkpt>
      <trkpt lon="-123.281826" lat="44.563286"><ele>77.049675</ele><time>2021-01-01T21:47:25Z</time><extensions><speed>3.990358</speed><course>272.143921</course><hAcc>1.913533</hAcc><vAcc>0.707717</vAcc></extensions></trkpt>
      <trkpt lon="-123.281832" lat="44.563249"><ele>77.238091</ele><time>2021-01-01T21:47:26Z</time><extensions><speed>4.411921</speed><course>263.392334</course><hAcc>1.914071</hAcc><vAcc>0.699706</vAcc></extensions></trkpt>
      <trkpt lon="-123.281831" lat="44.563208"><ele>77.349075</ele><time>2021-01-01T21:47:27Z</time><extensions><speed>4.688951</speed><course>229.764664</course><hAcc>1.913874</hAcc><vAcc>0.697144</vAcc></extensions></trkpt>
      <trkpt lon="-123.281831" lat="44.563165"><ele>77.380417</ele><time>2021-01-01T21:47:28Z</time><extensions><speed>4.840206</speed><course>194.506042</course><hAcc>1.913305</hAcc><vAcc>0.697114</vAcc></extensions></trkpt>
      <trkpt lon="-123.281832" lat="44.563121"><ele>77.336243</ele><time>2021-01-01T21:47:29Z</time><extensions><speed>4.916322</speed><course>190.490494</course><hAcc>1.912900</hAcc><vAcc>0.697854</vAcc></extensions></trkpt>
      <trkpt lon="-123.281836" lat="44.563077"><ele>77.225769</ele><time>2021-01-01T21:47:30Z</time><extensions><speed>5.007902</speed><course>258.269440</course><hAcc>1.912889</hAcc><vAcc>0.698450</vAcc></extensions></trkpt>
      <trkpt lon="-123.281840" lat="44.563031"><ele>77.060928</ele><time>2021-01-01T21:47:31Z</time><extensions><speed>5.022971</speed><course>269.059387</course><hAcc>1.913081</hAcc><vAcc>0.698548</vAcc></extensions></trkpt>
      <trkpt lon="-123.281843" lat="44.562987"><ele>76.854927</ele><time>2021-01-01T21:47:32Z</time><extensions><speed>4.952662</speed><course>265.457520</course><hAcc>1.913193</hAcc><vAcc>0.698126</vAcc></extensions></trkpt>
      <trkpt lon="-123.281846" lat="44.562942"><ele>76.621056</ele><time>2021-01-01T21:47:33Z</time><extensions><speed>4.919944</speed><course>271.754272</course><hAcc>1.913055</hAcc><vAcc>0.697335</vAcc></extensions></trkpt>
      <trkpt lon="-123.281848" lat="44.562898"><ele>76.371780</ele><time>2021-01-01T21:47:34Z</time><extensions><speed>4.920617</speed><course>269.394165</course><hAcc>1.912895</hAcc><vAcc>0.696393</vAcc></extensions></trkpt>
      <trkpt lon="-123.281849" lat="44.562854"><ele>76.118690</ele><time>2021-01-01T21:47:35Z</time><extensions><speed>4.928110</speed><course>270.795380</course><hAcc>1.912909</hAcc><vAcc>0.695518</vAcc></extensions></trkpt>
      <trkpt lon="-123.281849" lat="44.562809"><ele>75.872307</ele><time>2021-01-01T21:47:36Z</time><extensions><speed>4.919066</speed><course>272.435455</course><hAcc>1.913113</hAcc><vAcc>0.694885</vAcc></extensions></trkpt>
      <trkpt lon="-123.281848" lat="44.562765"><ele>75.641281</ele><time>2021-01-01T21:47:37Z</time><extensions><speed>4.864053</speed><course>269.414124</course><hAcc>1.913335</hAcc><vAcc>0.694609</vAcc></extensions></trkpt>
      <trkpt lon="-123.281849" lat="44.562723"><ele>75.431770</ele><time>2021-01-01T21:47:38Z</time><extensions><speed>4.625962</speed><course>272.528015</course><hAcc>1.913587</hAcc><vAcc>0.694735</vAcc></extensions></trkpt>
      <trkpt lon="-123.281847" lat="44.562683"><ele>75.247177</ele><time>2021-01-01T21:47:39Z</time><extensions><speed>4.305693</speed><course>269.818268</course><hAcc>1.914097</hAcc><vAcc>0.695235</vAcc></extensions></trkpt>
      <trkpt lon="-123.281845" lat="44.562644"><ele>75.088776</ele><time>2021-01-01T21:47:40Z</time><extensions><speed>4.159817</speed><course>265.691528</course><hAcc>1.914548</hAcc><vAcc>0.696014</vAcc></extensions></trkpt>
      <trkpt lon="-123.281845" lat="44.562606"><ele>74.956566</ele><time>2021-01-01T21:47:41Z</time><extensions><speed>4.310345</speed><course>271.499847</course><hAcc>1.914361</hAcc><vAcc>0.696922</vAcc></extensions></trkpt>
      <trkpt lon="-123.281849" lat="44.562566"><ele>74.849503</ele><time>2021-01-01T21:47:42Z</time><extensions><speed>4.617198</speed><course>264.060577</course><hAcc>1.913737</hAcc><vAcc>0.697777</vAcc></extensions></trkpt>
      <trkpt lon="-123.281854" lat="44.562525"><ele>74.766251</ele><time>2021-01-01T21:47:43Z</time><extensions><speed>4.685338</speed><course>269.076904</course><hAcc>1.913391</hAcc><vAcc>0.698396</vAcc></extensions></trkpt>
      <trkpt lon="-123.281858" lat="44.562483"><ele>74.705772</ele><time>2021-01-01T21:47:44Z</time><extensions><speed>4.566186</speed><course>277.125946</course><hAcc>1.913372</hAcc><vAcc>0.698658</vAcc></extensions></trkpt>
      <trkpt lon="-123.281860" lat="44.562442"><ele>74.666527</ele><time>2021-01-01T21:47:45Z</time><extensions><speed>4.507653</speed><course>281.251465</course><hAcc>1.913340</hAcc><vAcc>0.698592</vAcc></extensions></trkpt>
      <trkpt lon="-123.281862" lat="44.562401"><ele>74.646431</ele><time>2021-01-01T21:47:46Z</time><extensions><speed>4.614502</speed><course>259.620880</course><hAcc>1.913436</hAcc><vAcc>0.698522</vAcc></extensions></trkpt>
      <trkpt lon="-123.281865" lat="44.562360"><ele>74.643936</ele><time>2021-01-01T21:47:47Z</time><extensions><speed>4.693717</speed><course>258.723206</course><hAcc>1.913770</hAcc><vAcc>0.699265</vAcc></extensions></trkpt>
      <trkpt lon="-123.281869" lat="44.562318"><ele>74.658073</ele><time>2021-01-01T21:47:48Z</time><extensions><speed>4.508693</speed><course>258.250885</course><hAcc>1.914104</hAcc><vAcc>0.702379</vAcc></extensions></trkpt>
      <trkpt lon="-123.281871" lat="44.562280"><ele>74.687660</ele><time>2021-01-01T21:47:49Z</time><extensions><speed>4.096859</speed><course>255.470932</course><hAcc>1.914134</hAcc><vAcc>0.710441</vAcc></extensions></trkpt>
      <trkpt lon="-123.281863" lat="44.562245"><ele>74.731308</ele><time>2021-01-01T21:47:50Z</time><extensions><speed>3.814609</speed><course>241.983673</course><hAcc>1.914068</hAcc><vAcc>0.727235</vAcc></extensions></trkpt>
      <trkpt lon="-123.281835" lat="44.562215"><ele>74.787407</ele><time>2021-01-01T21:47:51Z</time><extensions><speed>4.341715</speed><course>220.427841</course><hAcc>1.916049</hAcc><vAcc>0.757688</vAcc></extensions></trkpt>
      <trkpt lon="-123.281787" lat="44.562192"><ele>74.881012</ele><time>2021-01-01T21:47:52Z</time><extensions><speed>4.936468</speed><course>269.265625</course><hAcc>1.913847</hAcc><vAcc>0.725783</vAcc></extensions></trkpt>
      <trkpt lon="-123.281731" lat="44.562178"><ele>74.908684</ele><time>2021-01-01T21:47:53Z</time><extensions><speed>4.696729</speed><course>272.143921</course><hAcc>1.913266</hAcc><vAcc>0.708099</vAcc></extensions></trkpt>
      <trkpt lon="-123.281675" lat="44.562173"><ele>74.918724</ele><time>2021-01-01T21:47:54Z</time><extensions><speed>4.316155</speed><course>263.392334</course><hAcc>1.913623</hAcc><vAcc>0.700215</vAcc></extensions></trkpt>
      <trkpt lon="-123.281622" lat="44.562175"><ele>74.907181</ele><time>2021-01-01T21:47:55Z</time><extensions><speed>4.137148</speed><course>229.764664</course><hAcc>1.913239</hAcc><vAcc>0.697888</vAcc></extensions></trkpt>
      <trkpt lon="-123.281570" lat="44.562178"><ele>74.872429</ele><time>2021-01-01T21:47:56Z</time><extensions><speed>4.092540</speed><course>194.506042</course><hAcc>1.912542</hAcc><vAcc>0.698222</vAcc></extensions></trkpt>
      <trkpt lon="-123.281517" lat="44.562179"><ele>74.814453</ele><time>2021-01-01T21:47:57Z</time><extensions><speed>4.326744</speed><course>190.490494</course><hAcc>1.912078</hAcc><vAcc>0.699471</vAcc></extensions></trkpt>
      <trkpt lon="-123.281461" lat="44.562178"><ele>74.733719</ele><time>2021-01-01T21:47:58Z</time><extensions><speed>4.587498</speed><course>258.269440</course><hAcc>1.911927</hAcc><vAcc>0.700728</vAcc></extensions></trkpt>
      <trkpt lon="-123.281403" lat="44.562177"><ele>74.631165</ele><time>2021-01-01T21:47:59Z</time><extensions><speed>4.650360</speed><course>269.059387</course><hAcc>1.911850</hAcc><vAcc>0.701633</vAcc></extensions></trkpt>
      <trkpt lon="-123.281345" lat="44.562176"><ele>74.507797</ele><time>2021-01-01T21:48:00Z</time><extensions><speed>4.512487</speed><course>265.457520</course><hAcc>1.911916</hAcc><vAcc>0.702137</vAcc></extensions></trkpt>
      <trkpt lon="-123.281289" lat="44.562175"><ele>74.364929</ele><time>2021-01-01T21:48:01Z</time><extensions><speed>4.355567</speed><course>271.754272</course><hAcc>1.912118</hAcc><vAcc>0.702335</vAcc></extensions></trkpt>
      <trkpt lon="-123.281236" lat="44.562176"><ele>74.205238</ele><time>2021-01-01T21:48:02Z</time><extensions><speed>4.153037</speed><course>269.394165</course><hAcc>1.912229</hAcc><vAcc>0.702355</vAcc></extensions></trkpt>
      <trkpt lon="-123.281185" lat="44.562178"><ele>74.032806</ele><time>2021-01-01T21:48:03Z</time><extensions><speed>3.968029</speed><course>270.795380</course><hAcc>1.912241</hAcc><vAcc>0.702291</vAcc></extensions></trkpt>
      <trkpt lon="-123.281135" lat="44.562181"><ele>73.852898</ele><time>2021-01-01T21:48:04Z</time><extensions><speed>3.923404</speed><course>272.435455</course><hAcc>1.912220</hAcc><vAcc>0.702167</vAcc></extensions></trkpt>
      <trkpt lon="-123.281086" lat="44.562182"><ele>73.671135</ele><time>2021-01-01T21:48:05Z</time><extensions><speed>4.006996</speed><course>269.414124</course><hAcc>1.912170</hAcc><vAcc>0.701942</vAcc></extensions></trkpt>
      <trkpt lon="-123.281034" lat="44.562181"><ele>73.491982</ele><time>2021-01-01T21:48:06Z</time><extensions><speed>4.255738</speed><course>272.528015</course><hAcc>1.912172</hAcc><vAcc>0.701531</vAcc></extensions></trkpt>
      <trkpt lon="-123.280979" lat="44.562180"><ele>73.318314</ele><time>2021-01-01T21:48:07Z</time><extensions><speed>4.436247</speed><course>269.818268</course><hAcc>1.912376</hAcc><vAcc>0.700872</vAcc></extensions></trkpt>
      <trkpt lon="-123.280924" lat="44.562178"><ele>73.151833</ele><time>2021-01-01T21:48:08Z</time><extensions><speed>4.367907</speed><course>265.691528</course><hAcc>1.912579</hAcc><vAcc>0.700023</vAcc></extensions></trkpt>
      <trkpt lon="-123.280869" lat="44.562177"><ele>72.993408</ele><time>2021-01-01T21:48:09Z</time><extensions><speed>4.218926</speed><course>271.499847</course><hAcc>1.912451</hAcc><vAcc>0.699314</vAcc></extensions></trkpt>
      <trkpt lon="-123.280817" lat="44.562177"><ele>72.843063</ele><time>2021-01-01T21:48:10Z</time><extensions><speed>4.066082</speed><course>264.060577</course><hAcc>1.912396</hAcc><vAcc>0.699554</vAcc></extensions></trkpt>
      <trkpt lon="-123.280766" lat="44.562179"><ele>72.699997</ele><time>2021-01-01T21:48:11Z</time><extensions><speed>4.045371</speed><course>269.076904</course><hAcc>1.912504</hAcc><vAcc>0.702287</vAcc></extensions></trkpt>
      <trkpt lon="-123.280715" lat="44.562181"><ele>72.562714</ele><time>2021-01-01T21:48:12Z</time><extensions><speed>4.187282</speed><course>277.125946</course><hAcc>1.912588</hAcc><vAcc>0.710074</vAcc></extensions></trkpt>
      <trkpt lon="-123.280662" lat="44.562183"><ele>72.429382</ele><time>2021-01-01T21:48:13Z</time><extensions><speed>4.187427</speed><course>281.251465</course><hAcc>1.912830</hAcc><vAcc>0.726682</vAcc></extensions></trkpt>
      <trkpt lon="-123.280611" lat="44.562184"><ele>72.297974</ele><time>2021-01-01T21:48:14Z</time><extensions><speed>3.987742</speed><course>259.620880</course><hAcc>1.915167</hAcc><vAcc>0.757019</vAcc></extensions></trkpt>
      <trkpt lon="-123.280562" lat="44.562183"><ele>72.166374</ele><time>2021-01-01T21:48:15Z</time><extensions><speed>3.681959</speed><course>258.723206</course><hAcc>1.926210</hAcc><vAcc>0.806616</vAcc></extensions></trkpt>
      <trkpt lon="-123.280519" lat="44.562180"><ele>72.032913</ele><time>2021-01-01T21:48:16Z</time><extensions><speed>3.209795</speed><course>258.250885</course><hAcc>1.950092</hAcc><vAcc>0.880671</vAcc></extensions></trkpt>
      <trkpt lon="-123.280483" lat="44.562176"><ele>71.896873</ele><time>2021-01-01T21:48:17Z</time><extensions><speed>2.572598</speed><course>255.470932</course><hAcc>1.960588</hAcc><vAcc>0.983013</vAcc></extensions></trkpt>
      <trkpt lon="-123.280455" lat="44.562173"><ele>71.758614</ele><time>2021-01-01T21:48:18Z</time><extensions><speed>1.975978</speed><course>241.983673</course><hAcc>2.021856</hAcc><vAcc>1.115469</vAcc></extensions></trkpt>
      <trkpt lon="-123.280432" lat="44.562173"><ele>71.619141</ele><time>2021-01-01T21:48:19Z</time><extensions><speed>1.749834</speed><course>220.427841</course><hAcc>2.934243</hAcc><vAcc>1.277789</vAcc></extensions></trkpt>
    </trkseg>
  </trk>
</gpx>