<?xml version="1.0" encoding="UTF-8"?>
<gpx version="1.1" creator="Apple Health Export" xmlns="http://www.topografix.com/GPX/1/1" xmlns:xsi="http://www.w3.org/2001/XMLSchema-instance" xsi:schemaLocation="http://www.topografix.com/GPX/1/1 http://www.topografix.com/GPX/1/1/gpx.xsd">
  <metadata>
    <time>2021-02-21T19:24:47Z</time>
  </metadata>
  <trk>
    <name>Route 2020-10-14 8:25pm</name>
    <trkseg>
      <trkpt lon="-123.279339" lat="44.563326"><ele>73.463158</ele><time>2020-10-15T03:19:06Z</time><extensions><speed>0.000000</speed><course>-1.000000</course><hAcc>15.999160</hAcc><vAcc>3.000000</vAcc></extensions></trkpt>
      <trkpt lon="-123.279342" lat="44.563331"><ele>73.334290</ele><time>2020-10-15T03:19:07Z</time><extensions><speed>0.000000</speed><course>-1.000000</course><hAcc>15.999160</hAcc><vAcc>2.400000</vAcc></extensions></trkpt>
      <trkpt lon="-123.279346" lat="44.563336"><ele>73.254173</ele><time>2020-10-15T03:19:08Z</time><extensions><speed>0.000000</speed><course>-1.000000</course><hAcc>11.999370</hAcc><vAcc>2.400000</vAcc></extensions></trkpt>
      <trkpt lon="-123.279351" lat="44.563344"><ele>73.248924</ele><time>2020-10-15T03:19:09Z</time><extensions><speed>0.000000</speed><course>-1.000000</course><hAcc>11.999370</hAcc><vAcc>2.400000</vAcc></extensions></trkpt>
      <trkpt lon="-123.279433" lat="44.563419"><ele>93.552193</ele><time>2020-10-15T03:19:09Z</time><extensions><speed>0.000000</speed><course>-1.000000</course><hAcc>10.000000</hAcc><vAcc>16.000000</vAcc></extensions></trkpt>
      <trkpt lon="-123.279433" lat="44.563419"><ele>75.535408</ele><time>2020-10-15T03:19:10Z</time><extensions><speed>0.000000</speed><course>-1.000000</course><hAcc>10.000000</hAcc><vAcc>4.000000</vAcc></extensions></trkpt>
      <trkpt lon="-123.279433" lat="44.563419"><ele>76.406013</ele><time>2020-10-15T03:19:11Z</time><extensions><speed>0.000000</speed><course>-1.000000</course><hAcc>5.000000</hAcc><vAcc>4.000000</vAcc></extensions></trkpt>
      <trkpt lon="-123.279433" lat="44.563419"><ele>77.685066</ele><time>2020-10-15T03:19:12Z</time><extensions><speed>0.000000</speed><course>-1.000000</course><hAcc>5.000000</hAcc><vAcc>4.000000</vAcc></extensions></trkpt>
      <trkpt lon="-123.279433" lat="44.563419"><ele>79.771553</ele><time>2020-10-15T03:19:13Z</time><extensions><speed>0.000000</speed><course>-1.000000</course><hAcc>5.000000</hAcc><vAcc>4.000000</vAcc></extensions></trkpt>
      <trkpt lon="-123.279433" lat="44.563419"><ele>80.929756</ele><time>2020-10-15T03:19:14Z</time><extensions><speed>0.000000</speed><course>-1.000000</course><hAcc>5.000000</hAcc><vAcc>4.000000</vAcc></extensions></trkpt>
      <trkpt lon="-123.279433" lat="44.563419"><ele>81.430916</ele><time>2020-10-15T03:19:15Z</time><extensions><speed>0.000000</speed><course>-1.000000</course><hAcc>5.000000</hAcc><vAcc>4.000000</vAcc></extensions></trkpt>
      <trkpt lon="-123.279433" lat="44.563419"><ele>81.839668</ele><time>2020-10-15T03:19:16Z</time><extensions><speed>0.000000</speed><course>-1.000000</course><hAcc>5.000000</hAcc><vAcc>4.000000</vAcc></extensions></trkpt>
      <trkpt lon="-123.279433" lat="44.563419"><ele>80.687752</ele><time>2020-10-15T03:19:17Z</time><extensions><speed>0.000000</speed><course>-1.000000</course><hAcc>5.000000</hAcc><vAcc>4.000000</vAcc></extensions></trkpt>
      <trkpt lon="-123.279433" lat="44.563419"><ele>80.502937</ele><time>2020-10-15T03:19:18Z</time><extensions><speed>0.000000</speed><course>-1.000000</course><hAcc>5.000000</hAcc><vAcc>4.000000</vAcc></extensions></trkpt>
      <trkpt lon="-123.279433" lat="44.563419"><ele>79.889473</ele><time>2020-10-15T03:19:19Z</time><extensions><speed>0.000000</speed><course>33.046875</course><hAcc>5.000000</hAcc><vAcc>4.000000</vAcc></extensions></trkpt>
      <trkpt lon="-123.279414" lat="44.563389"><ele>79.082588</ele><time>2020-10-15T03:19:20Z</time><extensions><speed>1.160000</speed><course>33.398438</course><hAcc>5.000000</hAcc><vAcc>4.000000</vAcc></extensions></trkpt>
      <trkpt lon="-123.279414" lat="44.563389"><ele>78.653572</ele><time>2020-10-15T03:19:21Z</time><extensions><speed>0.000000</speed><course>33.398438</course><hAcc>5.000000</hAcc><vAcc>4.000000</vAcc></extensions></trkpt>
      <trkpt lon="-123.279414" lat="44.563389"><ele>78.306160</ele><time>2020-10-15T03:19:22Z</time><extensions><speed>0.000000</speed><course>33.750000</course><hAcc>5.000000</hAcc><vAcc>4.000000</vAcc></extensions></trkpt>
      <trkpt lon="-123.279414" lat="44.563389"><ele>78.403023</ele><time>2020-10-15T03:19:23Z</time><extensions><speed>0.000000</speed><course>28.828125</course><hAcc>5.000000</hAcc><vAcc>4.000000</vAcc></extensions></trkpt>
      <trkpt lon="-123.279414" lat="44.563389"><ele>78.804451</ele><time>2020-10-15T03:19:24Z</time><extensions><speed>0.000000</speed><course>357.539062</course><hAcc>5.000000</hAcc><vAcc>4.000000</vAcc></extensions></trkpt>
      <trkpt lon="-123.279414" lat="44.563389"><ele>79.091316</ele><time>2020-10-15T03:19:25Z</time><extensions><speed>0.000000</speed><course>4.570312</course><hAcc>5.000000</hAcc><vAcc>4.000000</vAcc></extensions></trkpt>
      <trkpt lon="-123.279414" lat="44.563389"><ele>79.453194</ele><time>2020-10-15T03:19:26Z</time><extensions><speed>0.000000</speed><course>176.835938</course><hAcc>5.000000</hAcc><vAcc>4.000000</vAcc></extensions></trkpt>
      <trkpt lon="-123.279414" lat="44.563389"><ele>79.792976</ele><time>2020-10-15T03:19:27Z</time><extensions><speed>0.000000</speed><course>204.960938</course><hAcc>5.000000</hAcc><vAcc>4.000000</vAcc></extensions></trkpt>
      <trkpt lon="-123.279445" lat="44.563349"><ele>80.220772</ele><time>2020-10-15T03:19:28Z</time><extensions><speed>0.000000</speed><course>171.914062</course><hAcc>5.000000</hAcc><vAcc>4.000000</vAcc></extensions></trkpt>
      <trkpt lon="-123.279445" lat="44.563349"><ele>80.189766</ele><time>2020-10-15T03:19:29Z</time><extensions><speed>0.000000</speed><course>171.914062</course><hAcc>5.000000</hAcc><vAcc>4.000000</vAcc></extensions></trkpt>
      <trkpt lon="-123.279445" lat="44.563349"><ele>80.377144</ele><time>2020-10-15T03:19:30Z</time><extensions><speed>0.000000</speed><course>171.914062</course><hAcc>5.000000</hAcc><vAcc>4.000000</vAcc></extensions></trkpt>
      <trkpt lon="-123.279445" lat="44.563349"><ele>80.714363</ele><time>2020-10-15T03:19:31Z</time><extensions><speed>0.000000</speed><course>171.914062</course><hAcc>5.000000</hAcc><vAcc>4.000000</vAcc></extensions></trkpt>
      <trkpt lon="-123.279445" lat="44.563349"><ele>80.964302</ele><time>2020-10-15T03:19:32Z</time><extensions><speed>0.000000</speed><course>344.179688</course><hAcc>5.000000</hAcc><vAcc>4.000000</vAcc></extensions></trkpt>
      <trkpt lon="-123.279445" lat="44.563349"><ele>80.699654</ele><time>2020-10-15T03:19:33Z</time><extensions><speed>0.000000</speed><course>298.476562</course><hAcc>5.000000</hAcc><vAcc>4.000000</vAcc></extensions></trkpt>
      <trkpt lon="-123.279445" lat="44.563349"><ele>81.105415</ele><time>2020-10-15T03:19:34Z</time><extensions><speed>0.000000</speed><course>280.546875</course><hAcc>5.000000</hAcc><vAcc>4.000000</vAcc></extensions></trkpt>
      <trkpt lon="-123.279445" lat="44.563349"><ele>81.829781</ele><time>2020-10-15T03:19:35Z</time><extensions><speed>0.000000</speed><course>280.546875</course><hAcc>5.000000</hAcc><vAcc>3.000000</vAcc></extensions></trkpt>
      <trkpt lon="-123.279445" lat="44.563349"><ele>81.697998</ele><time>2020-10-15T03:19:36Z</time><extensions><speed>0.000000</speed><course>280.546875</course><hAcc>5.000000</hAcc><vAcc>3.000000</vAcc></extensions></trkpt>
      <trkpt lon="-123.279445" lat="44.563349"><ele>82.050797</ele><time>2020-10-15T03:19:37Z</time><extensions><speed>0.000000</speed><course>280.546875</course><hAcc>5.000000</hAcc><vAcc>3.000000</vAcc></extensions></trkpt>
      <trkpt lon="-123.279445" lat="44.563349"><ele>82.397469</ele><time>2020-10-15T03:19:38Z</time><extensions><speed>0.000000</speed><course>280.546875</course><hAcc>5.000000</hAcc><vAcc>3.000000</vAcc></extensions></trkpt>
      <trkpt lon="-123.279445" lat="44.563349"><ele>82.693573</ele><time>2020-10-15T03:19:39Z</time><extensions><speed>0.000000</speed><course>280.546875</course><hAcc>5.000000</hAcc><vAcc>3.000000</vAcc></extensions></trkpt>
      <trkpt lon="-123.279445" lat="44.563349"><ele>82.754311</ele><time>2020-10-15T03:19:40Z</time><extensions><speed>0.000000</speed><course>272.109375</course><hAcc>5.000000</hAcc><vAcc>3.000000</vAcc></extensions></trkpt>
      <trkpt lon="-123.279445" lat="44.563349"><ele>82.707687</ele><time>2020-10-15T03:19:41Z</time><extensions><speed>0.000000</speed><course>150.468750</course><hAcc>5.000000</hAcc><vAcc>3.000000</vAcc></extensions></trkpt>
      <trkpt lon="-123.279445" lat="44.563349"><ele>82.551552</ele><time>2020-10-15T03:19:42Z</time><extensions><speed>0.000000</speed><course>150.468750</course><hAcc>5.000000</hAcc><vAcc>3.000000</vAcc></extensions></trkpt>
      <trkpt lon="-123.279445" lat="44.563349"><ele>82.611885</ele><time>2020-10-15T03:19:43Z</time><extensions><speed>0.000000</speed><course>150.468750</course><hAcc>5.000000</hAcc><vAcc>3.000000</vAcc></extensions></trkpt>
      <trkpt lon="-123.279445" lat="44.563349"><ele>82.574379</ele><time>2020-10-15T03:19:44Z</time><extensions><speed>0.000000</speed><course>150.468750</course><hAcc>5.000000</hAcc><vAcc>3.000000</vAcc></extensions></trkpt>
      <trkpt lon="-123.279445" lat="44.563349"><ele>82.632111</ele><time>2020-10-15T03:19:45Z</time><extensions><speed>0.000000</speed><course>150.468750</course><hAcc>5.000000</hAcc><vAcc>3.000000</vAcc></extensions></trkpt>
      <trkpt lon="-123.279445" lat="44.563349"><ele>82.547318</ele><time>2020-10-15T03:19:46Z</time><extensions><speed>0.000000</speed><course>150.468750</course><hAcc>5.000000</hAcc><vAcc>3.000000</vAcc></extensions></trkpt>
      <trkpt lon="-123.279445" lat="44.563349"><ele>82.613846</ele><time>2020-10-15T03:19:47Z</time><extensions><speed>0.000000</speed><course>150.468750</course><hAcc>5.000000</hAcc><vAcc>3.000000</vAcc></extensions></trkpt>
      <trkpt lon="-123.279462" lat="44.563323"><ele>82.604095</ele><time>2020-10-15T03:19:48Z</time><extensions><speed>0.580000</speed><course>173.671875</course><hAcc>5.000000</hAcc><vAcc>3.000000</vAcc></extensions></trkpt>
      <trkpt lon="-123.279462" lat="44.563323"><ele>82.545532</ele><time>2020-10-15T03:19:49Z</time><extensions><speed>0.000000</speed><course>174.023438</course><hAcc>5.000000</hAcc><vAcc>3.000000</vAcc></extensions></trkpt>
      <trkpt lon="-123.279462" lat="44.563323"><ele>82.538795</ele><time>2020-10-15T03:19:50Z</time><extensions><speed>0.000000</speed><course>174.023438</course><hAcc>5.000000</hAcc><vAcc>3.000000</vAcc></extensions></trkpt>
      <trkpt lon="-123.279462" lat="44.563323"><ele>82.553558</ele><time>2020-10-15T03:19:51Z</time><extensions><speed>0.000000</speed><course>174.023438</course><hAcc>5.000000</hAcc><vAcc>3.000000</vAcc></extensions></trkpt>
      <trkpt lon="-123.279462" lat="44.563323"><ele>82.483879</ele><time>2020-10-15T03:19:52Z</time><extensions><speed>0.000000</speed><course>174.023438</course><hAcc>5.000000</hAcc><vAcc>3.000000</vAcc></extensions></trkpt>
      <trkpt lon="-123.279462" lat="44.563323"><ele>82.554810</ele><time>2020-10-15T03:19:53Z</time><extensions><speed>0.000000</speed><course>174.023438</course><hAcc>5.000000</hAcc><vAcc>3.000000</vAcc></extensions></trkpt>
      <trkpt lon="-123.279462" lat="44.563323"><ele>82.515083</ele><time>2020-10-15T03:19:54Z</time><extensions><speed>0.000000</speed><course>174.023438</course><hAcc>5.000000</hAcc><vAcc>3.000000</vAcc></extensions></trkpt>
      <trkpt lon="-123.279462" lat="44.563323"><ele>82.482964</ele><time>2020-10-15T03:19:55Z</time><extensions><speed>0.000000</speed><course>174.023438</course><hAcc>5.000000</hAcc><vAcc>3.000000</vAcc></extensions></trkpt>
      <trkpt lon="-123.279463" lat="44.563321"><ele>82.448212</ele><time>2020-10-15T03:19:56Z</time><extensions><speed>0.160000</speed><course>159.257812</course><hAcc>5.000000</hAcc><vAcc>3.000000</vAcc></extensions></trkpt>
      <trkpt lon="-123.279463" lat="44.563321"><ele>82.588585</ele><time>2020-10-15T03:19:57Z</time><extensions><speed>0.000000</speed><course>40.078125</course><hAcc>5.000000</hAcc><vAcc>3.000000</vAcc></extensions></trkpt>
      <trkpt lon="-123.279463" lat="44.563321"><ele>82.449181</ele><time>2020-10-15T03:19:58Z</time><extensions><speed>0.000000</speed><course>40.078125</course><hAcc>5.000000</hAcc><vAcc>3.000000</vAcc></extensions></trkpt>
      <trkpt lon="-123.279463" lat="44.563321"><ele>82.329147</ele><time>2020-10-15T03:19:59Z</time><extensions><speed>0.000000</speed><course>40.078125</course><hAcc>5.000000</hAcc><vAcc>3.000000</vAcc></extensions></trkpt>
      <trkpt lon="-123.279463" lat="44.563321"><ele>82.265198</ele><time>2020-10-15T03:20:00Z</time><extensions><speed>0.000000</speed><course>40.078125</course><hAcc>5.000000</hAcc><vAcc>3.000000</vAcc></extensions></trkpt>
      <trkpt lon="-123.279463" lat="44.563321"><ele>82.050705</ele><time>2020-10-15T03:20:01Z</time><extensions><speed>0.000000</speed><course>40.078125</course><hAcc>5.000000</hAcc><vAcc>3.000000</vAcc></extensions></trkpt>
      <trkpt lon="-123.279463" lat="44.563321"><ele>81.793198</ele><time>2020-10-15T03:20:02Z</time><extensions><speed>0.000000</speed><course>40.078125</course><hAcc>5.000000</hAcc><vAcc>3.000000</vAcc></extensions></trkpt>
      <trkpt lon="-123.279463" lat="44.563321"><ele>81.808678</ele><time>2020-10-15T03:20:03Z</time><extensions><speed>0.000000</speed><course>40.078125</course><hAcc>5.000000</hAcc><vAcc>3.000000</vAcc></extensions></trkpt>
      <trkpt lon="-123.279463" lat="44.563321"><ele>81.897171</ele><time>2020-10-15T03:20:04Z</time><extensions><speed>0.000000</speed><course>40.078125</course><hAcc>5.000000</hAcc><vAcc>3.000000</vAcc></extensions></trkpt>
      <trkpt lon="-123.279463" lat="44.563321"><ele>82.013542</ele><time>2020-10-15T03:20:05Z</time><extensions><speed>0.000000</speed><course>40.078125</course><hAcc>5.000000</hAcc><vAcc>3.000000</vAcc></extensions></trkpt>
      <trkpt lon="-123.279463" lat="44.563321"><ele>82.124657</ele><time>2020-10-15T03:20:06Z</time><extensions><speed>0.000000</speed><course>167.343750</course><hAcc>5.000000</hAcc><vAcc>3.000000</vAcc></extensions></trkpt>
      <trkpt lon="-123.279457" lat="44.563304"><ele>82.026985</ele><time>2020-10-15T03:20:07Z</time><extensions><speed>1.800000</speed><course>175.781250</course><hAcc>5.000000</hAcc><vAcc>3.000000</vAcc></extensions></trkpt>
      <trkpt lon="-123.279458" lat="44.563284"><ele>81.923500</ele><time>2020-10-15T03:20:08Z</time><extensions><speed>2.080000</speed><course>191.953125</course><hAcc>5.000000</hAcc><vAcc>3.000000</vAcc></extensions></trkpt>
      <trkpt lon="-123.279466" lat="44.563261"><ele>81.911392</ele><time>2020-10-15T03:20:09Z</time><extensions><speed>2.080000</speed><course>195.468750</course><hAcc>5.000000</hAcc><vAcc>3.000000</vAcc></extensions></trkpt>
      <trkpt lon="-123.279483" lat="44.563235"><ele>81.955025</ele><time>2020-10-15T03:20:10Z</time><extensions><speed>2.600000</speed><course>206.015625</course><hAcc>5.000000</hAcc><vAcc>3.000000</vAcc></extensions></trkpt>
      <trkpt lon="-123.279508" lat="44.563208"><ele>81.994415</ele><time>2020-10-15T03:20:11Z</time><extensions><speed>3.200000</speed><course>213.750000</course><hAcc>5.000000</hAcc><vAcc>3.000000</vAcc></extensions></trkpt>
      <trkpt lon="-123.279539" lat="44.563177"><ele>81.918098</ele><time>2020-10-15T03:20:12Z</time><extensions><speed>4.280000</speed><course>214.453125</course><hAcc>5.000000</hAcc><vAcc>3.000000</vAcc></extensions></trkpt>
      <trkpt lon="-123.279569" lat="44.563142"><ele>81.734169</ele><time>2020-10-15T03:20:13Z</time><extensions><speed>4.280000</speed><course>211.640625</course><hAcc>5.000000</hAcc><vAcc>3.000000</vAcc></extensions></trkpt>
      <trkpt lon="-123.279585" lat="44.563073"><ele>81.590225</ele><time>2020-10-15T03:20:14Z</time><extensions><speed>4.280000</speed><course>189.492188</course><hAcc>5.000000</hAcc><vAcc>3.000000</vAcc></extensions></trkpt>
      <trkpt lon="-123.279581" lat="44.563042"><ele>81.433411</ele><time>2020-10-15T03:20:15Z</time><extensions><speed>4.250000</speed><course>186.328125</course><hAcc>5.000000</hAcc><vAcc>3.000000</vAcc></extensions></trkpt>
      <trkpt lon="-123.279596" lat="44.562991"><ele>81.583885</ele><time>2020-10-15T03:20:16Z</time><extensions><speed>4.370000</speed><course>189.140625</course><hAcc>5.000000</hAcc><vAcc>3.000000</vAcc></extensions></trkpt>
      <trkpt lon="-123.279611" lat="44.562946"><ele>81.656227</ele><time>2020-10-15T03:20:17Z</time><extensions><speed>5.460000</speed><course>191.953125</course><hAcc>5.000000</hAcc><vAcc>3.000000</vAcc></extensions></trkpt>
      <trkpt lon="-123.279614" lat="44.562891"><ele>81.700180</ele><time>2020-10-15T03:20:18Z</time><extensions><speed>5.930000</speed><course>184.921875</course><hAcc>5.000000</hAcc><vAcc>3.000000</vAcc></extensions></trkpt>
      <trkpt lon="-123.279617" lat="44.562843"><ele>81.312561</ele><time>2020-10-15T03:20:19Z</time><extensions><speed>5.930000</speed><course>181.757812</course><hAcc>5.000000</hAcc><vAcc>3.000000</vAcc></extensions></trkpt>
      <trkpt lon="-123.279617" lat="44.562775"><ele>81.779015</ele><time>2020-10-15T03:20:20Z</time><extensions><speed>5.930000</speed><course>178.593750</course><hAcc>5.000000</hAcc><vAcc>3.000000</vAcc></extensions></trkpt>
      <trkpt lon="-123.279597" lat="44.562742"><ele>81.475540</ele><time>2020-10-15T03:20:21Z</time><extensions><speed>6.080000</speed><course>175.078125</course><hAcc>5.000000</hAcc><vAcc>3.000000</vAcc></extensions></trkpt>
      <trkpt lon="-123.279613" lat="44.562665"><ele>81.509407</ele><time>2020-10-15T03:20:22Z</time><extensions><speed>6.080000</speed><course>181.406250</course><hAcc>5.000000</hAcc><vAcc>3.000000</vAcc></extensions></trkpt>
      <trkpt lon="-123.279624" lat="44.562606"><ele>81.237335</ele><time>2020-10-15T03:20:23Z</time><extensions><speed>5.580000</speed><course>176.835938</course><hAcc>5.000000</hAcc><vAcc>3.000000</vAcc></extensions></trkpt>
      <trkpt lon="-123.279619" lat="44.562556"><ele>80.998474</ele><time>2020-10-15T03:20:24Z</time><extensions><speed>5.350000</speed><course>175.429688</course><hAcc>5.000000</hAcc><vAcc>3.000000</vAcc></extensions></trkpt>
      <trkpt lon="-123.279626" lat="44.562498"><ele>81.238480</ele><time>2020-10-15T03:20:25Z</time><extensions><speed>5.310000</speed><course>172.617188</course><hAcc>5.000000</hAcc><vAcc>3.000000</vAcc></extensions></trkpt>
      <trkpt lon="-123.279625" lat="44.562450"><ele>81.119720</ele><time>2020-10-15T03:20:26Z</time><extensions><speed>5.140000</speed><course>176.132812</course><hAcc>5.000000</hAcc><vAcc>3.000000</vAcc></extensions></trkpt>
      <trkpt lon="-123.279615" lat="44.562394"><ele>80.960136</ele><time>2020-10-15T03:20:27Z</time><extensions><speed>5.790000</speed><course>176.132812</course><hAcc>5.000000</hAcc><vAcc>3.000000</vAcc></extensions></trkpt>
      <trkpt lon="-123.279626" lat="44.562341"><ele>80.811768</ele><time>2020-10-15T03:20:28Z</time><extensions><speed>5.790000</speed><course>188.085938</course><hAcc>5.000000</hAcc><vAcc>3.000000</vAcc></extensions></trkpt>
      <trkpt lon="-123.279630" lat="44.562282"><ele>80.937508</ele><time>2020-10-15T03:20:29Z</time><extensions><speed>5.790000</speed><course>174.726562</course><hAcc>5.000000</hAcc><vAcc>3.000000</vAcc></extensions></trkpt>
      <trkpt lon="-123.279643" lat="44.562226"><ele>81.121445</ele><time>2020-10-15T03:20:30Z</time><extensions><speed>5.000000</speed><course>184.218750</course><hAcc>5.000000</hAcc><vAcc>3.000000</vAcc></extensions></trkpt>
      <trkpt lon="-123.279631" lat="44.562190"><ele>80.816078</ele><time>2020-10-15T03:20:31Z</time><extensions><speed>5.180000</speed><course>178.945312</course><hAcc>5.000000</hAcc><vAcc>4.000000</vAcc></extensions></trkpt>
      <trkpt lon="-123.279630" lat="44.562143"><ele>80.654037</ele><time>2020-10-15T03:20:32Z</time><extensions><speed>5.180000</speed><course>178.945312</course><hAcc>5.000000</hAcc><vAcc>4.000000</vAcc></extensions></trkpt>
      <trkpt lon="-123.279631" lat="44.562093"><ele>80.614838</ele><time>2020-10-15T03:20:33Z</time><extensions><speed>5.180000</speed><course>169.101562</course><hAcc>5.000000</hAcc><vAcc>4.000000</vAcc></extensions></trkpt>
      <trkpt lon="-123.279607" lat="44.562049"><ele>80.824753</ele><time>2020-10-15T03:20:34Z</time><extensions><speed>5.110000</speed><course>159.960938</course><hAcc>5.000000</hAcc><vAcc>4.000000</vAcc></extensions></trkpt>
      <trkpt lon="-123.279586" lat="44.562007"><ele>80.485512</ele><time>2020-10-15T03:20:35Z</time><extensions><speed>5.110000</speed><course>159.960938</course><hAcc>5.000000</hAcc><vAcc>4.000000</vAcc></extensions></trkpt>
      <trkpt lon="-123.279518" lat="44.561968"><ele>81.104965</ele><time>2020-10-15T03:20:36Z</time><extensions><speed>5.110000</speed><course>131.835938</course><hAcc>5.000000</hAcc><vAcc>4.000000</vAcc></extensions></trkpt>
      <trkpt lon="-123.279459" lat="44.561931"><ele>81.247757</ele><time>2020-10-15T03:20:37Z</time><extensions><speed>5.100000</speed><course>131.132812</course><hAcc>5.000000</hAcc><vAcc>4.000000</vAcc></extensions></trkpt>
      <trkpt lon="-123.279401" lat="44.561916"><ele>81.232506</ele><time>2020-10-15T03:20:38Z</time><extensions><speed>4.810000</speed><course>108.281250</course><hAcc>5.000000</hAcc><vAcc>4.000000</vAcc></extensions></trkpt>
      <trkpt lon="-123.279351" lat="44.561899"><ele>81.247551</ele><time>2020-10-15T03:20:39Z</time><extensions><speed>4.680000</speed><course>98.789062</course><hAcc>5.000000</hAcc><vAcc>4.000000</vAcc></extensions></trkpt>
      <trkpt lon="-123.279293" lat="44.561881"><ele>81.148819</ele><time>2020-10-15T03:20:40Z</time><extensions><speed>5.180000</speed><course>104.414062</course><hAcc>5.000000</hAcc><vAcc>4.000000</vAcc></extensions></trkpt>
      <trkpt lon="-123.279219" lat="44.561836"><ele>81.241837</ele><time>2020-10-15T03:20:41Z</time><extensions><speed>4.680000</speed><course>95.976562</course><hAcc>5.000000</hAcc><vAcc>4.000000</vAcc></extensions></trkpt>
      <trkpt lon="-123.279155" lat="44.561831"><ele>81.301994</ele><time>2020-10-15T03:20:42Z</time><extensions><speed>4.620000</speed><course>92.460938</course><hAcc>5.000000</hAcc><vAcc>4.000000</vAcc></extensions></trkpt>
      <trkpt lon="-123.279121" lat="44.561786"><ele>81.199646</ele><time>2020-10-15T03:20:43Z</time><extensions><speed>4.620000</speed><course>91.757812</course><hAcc>5.000000</hAcc><vAcc>4.000000</vAcc></extensions></trkpt>
      <trkpt lon="-123.279060" lat="44.561794"><ele>81.150650</ele><time>2020-10-15T03:20:44Z</time><extensions><speed>4.840000</speed><course>90.000000</course><hAcc>5.000000</hAcc><vAcc>4.000000</vAcc></extensions></trkpt>
      <trkpt lon="-123.278999" lat="44.561786"><ele>81.173134</ele><time>2020-10-15T03:20:45Z</time><extensions><speed>5.160000</speed><course>92.460938</course><hAcc>10.000000</hAcc><vAcc>4.000000</vAcc></extensions></trkpt>
      <trkpt lon="-123.278932" lat="44.561782"><ele>81.208733</ele><time>2020-10-15T03:20:46Z</time><extensions><speed>5.160000</speed><course>93.164062</course><hAcc>5.000000</hAcc><vAcc>4.000000</vAcc></extensions></trkpt>
      <trkpt lon="-123.278864" lat="44.561782"><ele>81.188286</ele><time>2020-10-15T03:20:47Z</time><extensions><speed>5.160000</speed><course>89.296875</course><hAcc>5.000000</hAcc><vAcc>4.000000</vAcc></extensions></trkpt>
      <trkpt lon="-123.278800" lat="44.561782"><ele>81.035851</ele><time>2020-10-15T03:20:48Z</time><extensions><speed>5.100000</speed><course>89.296875</course><hAcc>10.000000</hAcc><vAcc>4.000000</vAcc></extensions></trkpt>
      <trkpt lon="-123.278724" lat="44.561787"><ele>81.137665</ele><time>2020-10-15T03:20:49Z</time><extensions><speed>5.380000</speed><course>86.132812</course><hAcc>10.000000</hAcc><vAcc>4.000000</vAcc></extensions></trkpt>
      <trkpt lon="-123.278665" lat="44.561778"><ele>81.056946</ele><time>2020-10-15T03:20:50Z</time><extensions><speed>5.680000</speed><course>93.515625</course><hAcc>10.000000</hAcc><vAcc>4.000000</vAcc></extensions></trkpt>
      <trkpt lon="-123.278600" lat="44.561780"><ele>81.095589</ele><time>2020-10-15T03:20:51Z</time><extensions><speed>5.380000</speed><course>94.570312</course><hAcc>10.000000</hAcc><vAcc>4.000000</vAcc></extensions></trkpt>
      <trkpt lon="-123.278529" lat="44.561766"><ele>81.052925</ele><time>2020-10-15T03:20:52Z</time><extensions><speed>5.330000</speed><course>92.109375</course><hAcc>5.000000</hAcc><vAcc>4.000000</vAcc></extensions></trkpt>
      <trkpt lon="-123.278455" lat="44.561771"><ele>81.058968</ele><time>2020-10-15T03:20:53Z</time><extensions><speed>5.330000</speed><course>92.460938</course><hAcc>5.000000</hAcc><vAcc>4.000000</vAcc></extensions></trkpt>
      <trkpt lon="-123.278372" lat="44.561774"><ele>81.120178</ele><time>2020-10-15T03:20:54Z</time><extensions><speed>5.640000</speed><course>94.218750</course><hAcc>5.000000</hAcc><vAcc>4.000000</vAcc></extensions></trkpt>
      <trkpt lon="-123.278287" lat="44.561782"><ele>81.035507</ele><time>2020-10-15T03:20:55Z</time><extensions><speed>5.830000</speed><course>87.890625</course><hAcc>5.000000</hAcc><vAcc>4.000000</vAcc></extensions></trkpt>
      <trkpt lon="-123.278249" lat="44.561774"><ele>81.005821</ele><time>2020-10-15T03:20:56Z</time><extensions><speed>5.640000</speed><course>89.648438</course><hAcc>5.000000</hAcc><vAcc>4.000000</vAcc></extensions></trkpt>
      <trkpt lon="-123.278172" lat="44.561784"><ele>81.044693</ele><time>2020-10-15T03:20:57Z</time><extensions><speed>5.830000</speed><course>88.242188</course><hAcc>5.000000</hAcc><vAcc>4.000000</vAcc></extensions></trkpt>
      <trkpt lon="-123.278091" lat="44.561785"><ele>79.953888</ele><time>2020-10-15T03:20:58Z</time><extensions><speed>5.880000</speed><course>90.703125</course><hAcc>5.000000</hAcc><vAcc>4.000000</vAcc></extensions></trkpt>
      <trkpt lon="-123.278008" lat="44.561795"><ele>79.067062</ele><time>2020-10-15T03:20:59Z</time><extensions><speed>5.880000</speed><course>88.242188</course><hAcc>5.000000</hAcc><vAcc>4.000000</vAcc></extensions></trkpt>
      <trkpt lon="-123.277952" lat="44.561789"><ele>78.472046</ele><time>2020-10-15T03:21:00Z</time><extensions><speed>5.880000</speed><course>91.054688</course><hAcc>5.000000</hAcc><vAcc>4.000000</vAcc></extensions></trkpt>
      <trkpt lon="-123.277892" lat="44.561791"><ele>77.897057</ele><time>2020-10-15T03:21:01Z</time><extensions><speed>5.350000</speed><course>88.945312</course><hAcc>5.000000</hAcc><vAcc>4.000000</vAcc></extensions></trkpt>
      <trkpt lon="-123.277825" lat="44.561790"><ele>77.487648</ele><time>2020-10-15T03:21:02Z</time><extensions><speed>5.350000</speed><course>88.593750</course><hAcc>5.000000</hAcc><vAcc>4.000000</vAcc></extensions></trkpt>
      <trkpt lon="-123.277755" lat="44.561790"><ele>77.096260</ele><time>2020-10-15T03:21:03Z</time><extensions><speed>5.800000</speed><course>89.648438</course><hAcc>5.000000</hAcc><vAcc>4.000000</vAcc></extensions></trkpt>
      <trkpt lon="-123.277691" lat="44.561799"><ele>76.662033</ele><time>2020-10-15T03:21:04Z</time><extensions><speed>5.800000</speed><course>91.054688</course><hAcc>5.000000</hAcc><vAcc>4.000000</vAcc></extensions></trkpt>
      <trkpt lon="-123.277623" lat="44.561801"><ele>76.261887</ele><time>2020-10-15T03:21:05Z</time><extensions><speed>5.430000</speed><course>90.351562</course><hAcc>5.000000</hAcc><vAcc>4.000000</vAcc></extensions></trkpt>
      <trkpt lon="-123.277557" lat="44.561805"><ele>75.776772</ele><time>2020-10-15T03:21:06Z</time><extensions><speed>5.430000</speed><course>91.406250</course><hAcc>5.000000</hAcc><vAcc>4.000000</vAcc></extensions></trkpt>
      <trkpt lon="-123.277481" lat="44.561809"><ele>75.516335</ele><time>2020-10-15T03:21:07Z</time><extensions><speed>5.550000</speed><course>91.406250</course><hAcc>5.000000</hAcc><vAcc>4.000000</vAcc></extensions></trkpt>
      <trkpt lon="-123.277406" lat="44.561811"><ele>75.218353</ele><time>2020-10-15T03:21:08Z</time><extensions><speed>5.920000</speed><course>90.703125</course><hAcc>10.000000</hAcc><vAcc>4.000000</vAcc></extensions></trkpt>
      <trkpt lon="-123.277329" lat="44.561814"><ele>75.098213</ele><time>2020-10-15T03:21:09Z</time><extensions><speed>5.920000</speed><course>89.648438</course><hAcc>5.000000</hAcc><vAcc>4.000000</vAcc></extensions></trkpt>
      <trkpt lon="-123.277264" lat="44.561814"><ele>75.113907</ele><time>2020-10-15T03:21:10Z</time><extensions><speed>5.190000</speed><course>89.648438</course><hAcc>10.000000</hAcc><vAcc>4.000000</vAcc></extensions></trkpt>
      <trkpt lon="-123.277175" lat="44.561816"><ele>75.037140</ele><time>2020-10-15T03:21:11Z</time><extensions><speed>5.190000</speed><course>89.296875</course><hAcc>5.000000</hAcc><vAcc>4.000000</vAcc></extensions></trkpt>
      <trkpt lon="-123.277118" lat="44.561793"><ele>75.047333</ele><time>2020-10-15T03:21:12Z</time><extensions><speed>5.400000</speed><course>90.000000</course><hAcc>5.000000</hAcc><vAcc>4.000000</vAcc></extensions></trkpt>
      <trkpt lon="-123.277041" lat="44.561792"><ele>74.987595</ele><time>2020-10-15T03:21:13Z</time><extensions><speed>5.400000</speed><course>91.406250</course><hAcc>5.000000</hAcc><vAcc>4.000000</vAcc></extensions></trkpt>
      <trkpt lon="-123.276976" lat="44.561793"><ele>75.013947</ele><time>2020-10-15T03:21:14Z</time><extensions><speed>5.400000</speed><course>90.703125</course><hAcc>5.000000</hAcc><vAcc>4.000000</vAcc></extensions></trkpt>
      <trkpt lon="-123.276899" lat="44.561788"><ele>75.061653</ele><time>2020-10-15T03:21:15Z</time><extensions><speed>5.400000</speed><course>90.000000</course><hAcc>5.000000</hAcc><vAcc>4.000000</vAcc></extensions></trkpt>
      <trkpt lon="-123.276820" lat="44.561798"><ele>74.626160</ele><time>2020-10-15T03:21:16Z</time><extensions><speed>5.410000</speed><course>90.351562</course><hAcc>5.000000</hAcc><vAcc>4.000000</vAcc></extensions></trkpt>
      <trkpt lon="-123.276743" lat="44.561800"><ele>74.551788</ele><time>2020-10-15T03:21:17Z</time><extensions><speed>5.170000</speed><course>89.648438</course><hAcc>5.000000</hAcc><vAcc>4.000000</vAcc></extensions></trkpt>
      <trkpt lon="-123.276669" lat="44.561792"><ele>74.240746</ele><time>2020-10-15T03:21:18Z</time><extensions><speed>5.530000</speed><course>92.812500</course><hAcc>5.000000</hAcc><vAcc>4.000000</vAcc></extensions></trkpt>
      <trkpt lon="-123.276597" lat="44.561794"><ele>73.921463</ele><time>2020-10-15T03:21:19Z</time><extensions><speed>5.530000</speed><course>91.757812</course><hAcc>5.000000</hAcc><vAcc>3.000000</vAcc></extensions></trkpt>
      <trkpt lon="-123.276527" lat="44.561803"><ele>73.689568</ele><time>2020-10-15T03:21:20Z</time><extensions><speed>5.530000</speed><course>79.804688</course><hAcc>5.000000</hAcc><vAcc>3.000000</vAcc></extensions></trkpt>
      <trkpt lon="-123.276457" lat="44.561821"><ele>73.333382</ele><time>2020-10-15T03:21:21Z</time><extensions><speed>5.530000</speed><course>84.375000</course><hAcc>5.000000</hAcc><vAcc>4.000000</vAcc></extensions></trkpt>
      <trkpt lon="-123.276377" lat="44.561828"><ele>73.238060</ele><time>2020-10-15T03:21:22Z</time><extensions><speed>5.670000</speed><course>88.593750</course><hAcc>5.000000</hAcc><vAcc>3.000000</vAcc></extensions></trkpt>
      <trkpt lon="-123.276310" lat="44.561839"><ele>73.250038</ele><time>2020-10-15T03:21:23Z</time><extensions><speed>5.530000</speed><course>92.812500</course><hAcc>5.000000</hAcc><vAcc>3.000000</vAcc></extensions></trkpt>
      <trkpt lon="-123.276212" lat="44.561860"><ele>73.025131</ele><time>2020-10-15T03:21:24Z</time><extensions><speed>5.670000</speed><course>90.000000</course><hAcc>5.000000</hAcc><vAcc>3.000000</vAcc></extensions></trkpt>
      <trkpt lon="-123.276132" lat="44.561866"><ele>72.344116</ele><time>2020-10-15T03:21:25Z</time><extensions><speed>5.750000</speed><course>86.835938</course><hAcc>5.000000</hAcc><vAcc>3.000000</vAcc></extensions></trkpt>
      <trkpt lon="-123.276064" lat="44.561867"><ele>72.701698</ele><time>2020-10-15T03:21:26Z</time><extensions><speed>5.750000</speed><course>95.976562</course><hAcc>5.000000</hAcc><vAcc>3.000000</vAcc></extensions></trkpt>
      <trkpt lon="-123.275987" lat="44.561878"><ele>72.083420</ele><time>2020-10-15T03:21:27Z</time><extensions><speed>5.750000</speed><course>85.429688</course><hAcc>5.000000</hAcc><vAcc>3.000000</vAcc></extensions></trkpt>
      <trkpt lon="-123.275935" lat="44.561883"><ele>71.502655</ele><time>2020-10-15T03:21:28Z</time><extensions><speed>5.620000</speed><course>79.101562</course><hAcc>5.000000</hAcc><vAcc>4.000000</vAcc></extensions></trkpt>
      <trkpt lon="-123.275862" lat="44.561894"><ele>71.498665</ele><time>2020-10-15T03:21:29Z</time><extensions><speed>5.610000</speed><course>81.210938</course><hAcc>5.000000</hAcc><vAcc>4.000000</vAcc></extensions></trkpt>
      <trkpt lon="-123.275789" lat="44.561903"><ele>71.352341</ele><time>2020-10-15T03:21:30Z</time><extensions><speed>5.710000</speed><course>81.914062</course><hAcc>5.000000</hAcc><vAcc>3.000000</vAcc></extensions></trkpt>
      <trkpt lon="-123.275728" lat="44.561909"><ele>71.062981</ele><time>2020-10-15T03:21:31Z</time><extensions><speed>5.710000</speed><course>85.429688</course><hAcc>5.000000</hAcc><vAcc>3.000000</vAcc></extensions></trkpt>
      <trkpt lon="-123.275667" lat="44.561919"><ele>70.976250</ele><time>2020-10-15T03:21:32Z</time><extensions><speed>5.650000</speed><course>81.914062</course><hAcc>5.000000</hAcc><vAcc>3.000000</vAcc></extensions></trkpt>
      <trkpt lon="-123.275598" lat="44.561924"><ele>70.761147</ele><time>2020-10-15T03:21:33Z</time><extensions><speed>5.590000</speed><course>82.265625</course><hAcc>5.000000</hAcc><vAcc>3.000000</vAcc></extensions></trkpt>
      <trkpt lon="-123.275521" lat="44.561931"><ele>70.756905</ele><time>2020-10-15T03:21:34Z</time><extensions><speed>5.590000</speed><course>88.242188</course><hAcc>5.000000</hAcc><vAcc>3.000000</vAcc></extensions></trkpt>
      <trkpt lon="-123.275459" lat="44.561937"><ele>70.567886</ele><time>2020-10-15T03:21:35Z</time><extensions><speed>5.690000</speed><course>90.351562</course><hAcc>5.000000</hAcc><vAcc>3.000000</vAcc></extensions></trkpt>
      <trkpt lon="-123.275382" lat="44.561944"><ele>70.531601</ele><time>2020-10-15T03:21:36Z</time><extensions><speed>5.730000</speed><course>87.539062</course><hAcc>5.000000</hAcc><vAcc>3.000000</vAcc></extensions></trkpt>
      <trkpt lon="-123.275314" lat="44.561944"><ele>70.200455</ele><time>2020-10-15T03:21:37Z</time><extensions><speed>5.690000</speed><course>89.648438</course><hAcc>5.000000</hAcc><vAcc>3.000000</vAcc></extensions></trkpt>
      <trkpt lon="-123.275244" lat="44.561946"><ele>70.213409</ele><time>2020-10-15T03:21:38Z</time><extensions><speed>5.640000</speed><course>91.054688</course><hAcc>5.000000</hAcc><vAcc>4.000000</vAcc></extensions></trkpt>
      <trkpt lon="-123.275163" lat="44.561968"><ele>70.080688</ele><time>2020-10-15T03:21:39Z</time><extensions><speed>5.550000</speed><course>93.867188</course><hAcc>5.000000</hAcc><vAcc>4.000000</vAcc></extensions></trkpt>
      <trkpt lon="-123.275091" lat="44.561963"><ele>70.025360</ele><time>2020-10-15T03:21:40Z</time><extensions><speed>5.550000</speed><course>95.273438</course><hAcc>5.000000</hAcc><vAcc>4.000000</vAcc></extensions></trkpt>
      <trkpt lon="-123.275015" lat="44.561955"><ele>70.118660</ele><time>2020-10-15T03:21:41Z</time><extensions><speed>5.550000</speed><course>90.351562</course><hAcc>5.000000</hAcc><vAcc>4.000000</vAcc></extensions></trkpt>
      <trkpt lon="-123.274962" lat="44.561951"><ele>69.921509</ele><time>2020-10-15T03:21:42Z</time><extensions><speed>5.490000</speed><course>91.406250</course><hAcc>5.000000</hAcc><vAcc>4.000000</vAcc></extensions></trkpt>
      <trkpt lon="-123.274890" lat="44.561962"><ele>69.885788</ele><time>2020-10-15T03:21:43Z</time><extensions><speed>5.570000</speed><course>90.351562</course><hAcc>5.000000</hAcc><vAcc>4.000000</vAcc></extensions></trkpt>
      <trkpt lon="-123.274842" lat="44.561945"><ele>69.737160</ele><time>2020-10-15T03:21:44Z</time><extensions><speed>5.650000</speed><course>89.296875</course><hAcc>5.000000</hAcc><vAcc>4.000000</vAcc></extensions></trkpt>
      <trkpt lon="-123.274788" lat="44.561939"><ele>69.589813</ele><time>2020-10-15T03:21:45Z</time><extensions><speed>5.650000</speed><course>98.085938</course><hAcc>5.000000</hAcc><vAcc>4.000000</vAcc></extensions></trkpt>
      <trkpt lon="-123.274714" lat="44.561931"><ele>69.507584</ele><time>2020-10-15T03:21:46Z</time><extensions><speed>5.550000</speed><course>92.460938</course><hAcc>5.000000</hAcc><vAcc>4.000000</vAcc></extensions></trkpt>
      <trkpt lon="-123.274645" lat="44.561937"><ele>69.429565</ele><time>2020-10-15T03:21:47Z</time><extensions><speed>5.550000</speed><course>88.945312</course><hAcc>5.000000</hAcc><vAcc>4.000000</vAcc></extensions></trkpt>
      <trkpt lon="-123.274579" lat="44.561936"><ele>69.442093</ele><time>2020-10-15T03:21:48Z</time><extensions><speed>5.310000</speed><course>91.757812</course><hAcc>5.000000</hAcc><vAcc>4.000000</vAcc></extensions></trkpt>
      <trkpt lon="-123.274518" lat="44.561923"><ele>70.745293</ele><time>2020-10-15T03:21:49Z</time><extensions><speed>4.960000</speed><course>104.765625</course><hAcc>5.000000</hAcc><vAcc>4.000000</vAcc></extensions></trkpt>
      <trkpt lon="-123.274456" lat="44.561904"><ele>70.643738</ele><time>2020-10-15T03:21:50Z</time><extensions><speed>4.980000</speed><course>125.859375</course><hAcc>5.000000</hAcc><vAcc>3.000000</vAcc></extensions></trkpt>
      <trkpt lon="-123.274427" lat="44.561863"><ele>70.695816</ele><time>2020-10-15T03:21:51Z</time><extensions><speed>4.980000</speed><course>153.632812</course><hAcc>5.000000</hAcc><vAcc>4.000000</vAcc></extensions></trkpt>
      <trkpt lon="-123.274398" lat="44.561821"><ele>69.636658</ele><time>2020-10-15T03:21:52Z</time><extensions><speed>5.200000</speed><course>153.984375</course><hAcc>5.000000</hAcc><vAcc>4.000000</vAcc></extensions></trkpt>
      <trkpt lon="-123.274398" lat="44.561769"><ele>69.601830</ele><time>2020-10-15T03:21:53Z</time><extensions><speed>4.710000</speed><course>172.968750</course><hAcc>5.000000</hAcc><vAcc>4.000000</vAcc></extensions></trkpt>
      <trkpt lon="-123.274390" lat="44.561726"><ele>69.674530</ele><time>2020-10-15T03:21:54Z</time><extensions><speed>4.720000</speed><course>172.968750</course><hAcc>5.000000</hAcc><vAcc>4.000000</vAcc></extensions></trkpt>
      <trkpt lon="-123.274398" lat="44.561685"><ele>69.593239</ele><time>2020-10-15T03:21:55Z</time><extensions><speed>4.720000</speed><course>181.406250</course><hAcc>5.000000</hAcc><vAcc>4.000000</vAcc></extensions></trkpt>
      <trkpt lon="-123.274392" lat="44.561633"><ele>69.540222</ele><time>2020-10-15T03:21:56Z</time><extensions><speed>4.720000</speed><course>175.429688</course><hAcc>5.000000</hAcc><vAcc>4.000000</vAcc></extensions></trkpt>
      <trkpt lon="-123.274394" lat="44.561579"><ele>69.468605</ele><time>2020-10-15T03:21:57Z</time><extensions><speed>5.190000</speed><course>177.539062</course><hAcc>5.000000</hAcc><vAcc>4.000000</vAcc></extensions></trkpt>
      <trkpt lon="-123.274389" lat="44.561539"><ele>69.334518</ele><time>2020-10-15T03:21:58Z</time><extensions><speed>4.880000</speed><course>175.781250</course><hAcc>5.000000</hAcc><vAcc>3.000000</vAcc></extensions></trkpt>
      <trkpt lon="-123.274392" lat="44.561490"><ele>69.240570</ele><time>2020-10-15T03:21:59Z</time><extensions><speed>5.320000</speed><course>183.515625</course><hAcc>5.000000</hAcc><vAcc>3.000000</vAcc></extensions></trkpt>
      <trkpt lon="-123.274386" lat="44.561422"><ele>69.206383</ele><time>2020-10-15T03:22:00Z</time><extensions><speed>5.320000</speed><course>176.835938</course><hAcc>5.000000</hAcc><vAcc>3.000000</vAcc></extensions></trkpt>
      <trkpt lon="-123.274375" lat="44.561397"><ele>70.303741</ele><time>2020-10-15T03:22:01Z</time><extensions><speed>5.470000</speed><course>178.945312</course><hAcc>5.000000</hAcc><vAcc>3.000000</vAcc></extensions></trkpt>
      <trkpt lon="-123.274376" lat="44.561356"><ele>69.897736</ele><time>2020-10-15T03:22:02Z</time><extensions><speed>5.230000</speed><course>179.296875</course><hAcc>5.000000</hAcc><vAcc>3.000000</vAcc></extensions></trkpt>
      <trkpt lon="-123.274365" lat="44.561301"><ele>69.041237</ele><time>2020-10-15T03:22:03Z</time><extensions><speed>5.460000</speed><course>170.156250</course><hAcc>5.000000</hAcc><vAcc>3.000000</vAcc></extensions></trkpt>
      <trkpt lon="-123.274340" lat="44.561273"><ele>69.204262</ele><time>2020-10-15T03:22:04Z</time><extensions><speed>5.460000</speed><course>165.937500</course><hAcc>5.000000</hAcc><vAcc>3.000000</vAcc></extensions></trkpt>
      <trkpt lon="-123.274319" lat="44.561227"><ele>69.176888</ele><time>2020-10-15T03:22:05Z</time><extensions><speed>5.990000</speed><course>164.531250</course><hAcc>5.000000</hAcc><vAcc>3.000000</vAcc></extensions></trkpt>
      <trkpt lon="-123.274289" lat="44.561187"><ele>68.968536</ele><time>2020-10-15T03:22:06Z</time><extensions><speed>6.280000</speed><course>168.046875</course><hAcc>5.000000</hAcc><vAcc>3.000000</vAcc></extensions></trkpt>
      <trkpt lon="-123.274274" lat="44.561127"><ele>70.304970</ele><time>2020-10-15T03:22:07Z</time><extensions><speed>6.280000</speed><course>170.507812</course><hAcc>5.000000</hAcc><vAcc>3.000000</vAcc></extensions></trkpt>
      <trkpt lon="-123.274267" lat="44.561079"><ele>70.315979</ele><time>2020-10-15T03:22:08Z</time><extensions><speed>5.940000</speed><course>170.859375</course><hAcc>5.000000</hAcc><vAcc>3.000000</vAcc></extensions></trkpt>
      <trkpt lon="-123.274261" lat="44.561025"><ele>70.263268</ele><time>2020-10-15T03:22:09Z</time><extensions><speed>5.890000</speed><course>174.375000</course><hAcc>5.000000</hAcc><vAcc>3.000000</vAcc></extensions></trkpt>
      <trkpt lon="-123.274238" lat="44.560981"><ele>70.127975</ele><time>2020-10-15T03:22:10Z</time><extensions><speed>5.700000</speed><course>172.968750</course><hAcc>5.000000</hAcc><vAcc>3.000000</vAcc></extensions></trkpt>
      <trkpt lon="-123.274234" lat="44.560941"><ele>70.091850</ele><time>2020-10-15T03:22:11Z</time><extensions><speed>4.740000</speed><course>173.320312</course><hAcc>5.000000</hAcc><vAcc>3.000000</vAcc></extensions></trkpt>
      <trkpt lon="-123.274217" lat="44.560903"><ele>70.341873</ele><time>2020-10-15T03:22:12Z</time><extensions><speed>4.740000</speed><course>159.257812</course><hAcc>5.000000</hAcc><vAcc>3.000000</vAcc></extensions></trkpt>
      <trkpt lon="-123.274203" lat="44.560861"><ele>70.113525</ele><time>2020-10-15T03:22:13Z</time><extensions><speed>4.740000</speed><course>169.804688</course><hAcc>5.000000</hAcc><vAcc>3.000000</vAcc></extensions></trkpt>
      <trkpt lon="-123.274179" lat="44.560812"><ele>70.246902</ele><time>2020-10-15T03:22:14Z</time><extensions><speed>5.300000</speed><course>172.968750</course><hAcc>5.000000</hAcc><vAcc>3.000000</vAcc></extensions></trkpt>
      <trkpt lon="-123.274186" lat="44.560759"><ele>70.014694</ele><time>2020-10-15T03:22:15Z</time><extensions><speed>5.350000</speed><course>174.023438</course><hAcc>5.000000</hAcc><vAcc>3.000000</vAcc></extensions></trkpt>
      <trkpt lon="-123.274180" lat="44.560702"><ele>69.977051</ele><time>2020-10-15T03:22:16Z</time><extensions><speed>4.160000</speed><course>170.507812</course><hAcc>5.000000</hAcc><vAcc>3.000000</vAcc></extensions></trkpt>
      <trkpt lon="-123.274176" lat="44.560658"><ele>70.301430</ele><time>2020-10-15T03:22:17Z</time><extensions><speed>5.230000</speed><course>174.726562</course><hAcc>5.000000</hAcc><vAcc>3.000000</vAcc></extensions></trkpt>
      <trkpt lon="-123.274183" lat="44.560615"><ele>70.271523</ele><time>2020-10-15T03:22:18Z</time><extensions><speed>4.720000</speed><course>171.914062</course><hAcc>5.000000</hAcc><vAcc>3.000000</vAcc></extensions></trkpt>
      <trkpt lon="-123.274181" lat="44.560571"><ele>70.090019</ele><time>2020-10-15T03:22:19Z</time><extensions><speed>4.720000</speed><course>178.593750</course><hAcc>5.000000</hAcc><vAcc>4.000000</vAcc></extensions></trkpt>
      <trkpt lon="-123.274165" lat="44.560511"><ele>70.226646</ele><time>2020-10-15T03:22:20Z</time><extensions><speed>5.600000</speed><course>173.320312</course><hAcc>5.000000</hAcc><vAcc>4.000000</vAcc></extensions></trkpt>
      <trkpt lon="-123.274160" lat="44.560462"><ele>70.110992</ele><time>2020-10-15T03:22:21Z</time><extensions><speed>5.600000</speed><course>172.265625</course><hAcc>5.000000</hAcc><vAcc>4.000000</vAcc></extensions></trkpt>
      <trkpt lon="-123.274102" lat="44.560415"><ele>69.959358</ele><time>2020-10-15T03:22:22Z</time><extensions><speed>5.130000</speed><course>172.265625</course><hAcc>5.000000</hAcc><vAcc>4.000000</vAcc></extensions></trkpt>
      <trkpt lon="-123.274088" lat="44.560367"><ele>69.985626</ele><time>2020-10-15T03:22:23Z</time><extensions><speed>5.100000</speed><course>168.398438</course><hAcc>5.000000</hAcc><vAcc>4.000000</vAcc></extensions></trkpt>
      <trkpt lon="-123.274079" lat="44.560325"><ele>69.989998</ele><time>2020-10-15T03:22:24Z</time><extensions><speed>4.670000</speed><course>170.507812</course><hAcc>5.000000</hAcc><vAcc>3.000000</vAcc></extensions></trkpt>
      <trkpt lon="-123.274065" lat="44.560283"><ele>69.883263</ele><time>2020-10-15T03:22:25Z</time><extensions><speed>4.670000</speed><course>163.828125</course><hAcc>5.000000</hAcc><vAcc>3.000000</vAcc></extensions></trkpt>
      <trkpt lon="-123.274049" lat="44.560243"><ele>69.849411</ele><time>2020-10-15T03:22:26Z</time><extensions><speed>4.280000</speed><course>160.312500</course><hAcc>5.000000</hAcc><vAcc>3.000000</vAcc></extensions></trkpt>
      <trkpt lon="-123.274030" lat="44.560207"><ele>69.513618</ele><time>2020-10-15T03:22:27Z</time><extensions><speed>4.280000</speed><course>160.312500</course><hAcc>5.000000</hAcc><vAcc>4.000000</vAcc></extensions></trkpt>
      <trkpt lon="-123.273996" lat="44.560175"><ele>69.705284</ele><time>2020-10-15T03:22:28Z</time><extensions><speed>4.290000</speed><course>157.851562</course><hAcc>5.000000</hAcc><vAcc>3.000000</vAcc></extensions></trkpt>
      <trkpt lon="-123.273984" lat="44.560136"><ele>69.921066</ele><time>2020-10-15T03:22:29Z</time><extensions><speed>4.470000</speed><course>168.398438</course><hAcc>5.000000</hAcc><vAcc>3.000000</vAcc></extensions></trkpt>
      <trkpt lon="-123.273971" lat="44.560090"><ele>69.847183</ele><time>2020-10-15T03:22:30Z</time><extensions><speed>4.590000</speed><course>171.914062</course><hAcc>5.000000</hAcc><vAcc>3.000000</vAcc></extensions></trkpt>
      <trkpt lon="-123.273959" lat="44.560046"><ele>69.696915</ele><time>2020-10-15T03:22:31Z</time><extensions><speed>4.470000</speed><course>168.398438</course><hAcc>5.000000</hAcc><vAcc>3.000000</vAcc></extensions></trkpt>
      <trkpt lon="-123.273948" lat="44.560002"><ele>69.318054</ele><time>2020-10-15T03:22:32Z</time><extensions><speed>4.590000</speed><course>169.804688</course><hAcc>5.000000</hAcc><vAcc>3.000000</vAcc></extensions></trkpt>
      <trkpt lon="-123.273928" lat="44.559965"><ele>69.423714</ele><time>2020-10-15T03:22:33Z</time><extensions><speed>4.410000</speed><course>153.984375</course><hAcc>5.000000</hAcc><vAcc>3.000000</vAcc></extensions></trkpt>
      <trkpt lon="-123.273898" lat="44.559931"><ele>69.347778</ele><time>2020-10-15T03:22:34Z</time><extensions><speed>4.410000</speed><course>145.546875</course><hAcc>5.000000</hAcc><vAcc>3.000000</vAcc></extensions></trkpt>
      <trkpt lon="-123.273827" lat="44.559911"><ele>69.206551</ele><time>2020-10-15T03:22:35Z</time><extensions><speed>4.410000</speed><course>119.882812</course><hAcc>5.000000</hAcc><vAcc>3.000000</vAcc></extensions></trkpt>
      <trkpt lon="-123.273760" lat="44.559895"><ele>69.481453</ele><time>2020-10-15T03:22:36Z</time><extensions><speed>5.490000</speed><course>109.335938</course><hAcc>5.000000</hAcc><vAcc>3.000000</vAcc></extensions></trkpt>
      <trkpt lon="-123.273700" lat="44.559879"><ele>68.985336</ele><time>2020-10-15T03:22:37Z</time><extensions><speed>5.490000</speed><course>100.898438</course><hAcc>5.000000</hAcc><vAcc>3.000000</vAcc></extensions></trkpt>
      <trkpt lon="-123.273640" lat="44.559871"><ele>68.894707</ele><time>2020-10-15T03:22:38Z</time><extensions><speed>4.820000</speed><course>100.898438</course><hAcc>5.000000</hAcc><vAcc>3.000000</vAcc></extensions></trkpt>
      <trkpt lon="-123.273595" lat="44.559881"><ele>68.908638</ele><time>2020-10-15T03:22:39Z</time><extensions><speed>4.880000</speed><course>88.242188</course><hAcc>5.000000</hAcc><vAcc>3.000000</vAcc></extensions></trkpt>
      <trkpt lon="-123.273492" lat="44.559874"><ele>69.119270</ele><time>2020-10-15T03:22:40Z</time><extensions><speed>4.880000</speed><course>85.429688</course><hAcc>5.000000</hAcc><vAcc>3.000000</vAcc></extensions></trkpt>
      <trkpt lon="-123.273409" lat="44.559879"><ele>68.877068</ele><time>2020-10-15T03:22:41Z</time><extensions><speed>6.660000</speed><course>85.078125</course><hAcc>5.000000</hAcc><vAcc>3.000000</vAcc></extensions></trkpt>
      <trkpt lon="-123.273380" lat="44.559852"><ele>69.295593</ele><time>2020-10-15T03:22:42Z</time><extensions><speed>6.660000</speed><course>95.976562</course><hAcc>5.000000</hAcc><vAcc>4.000000</vAcc></extensions></trkpt>
      <trkpt lon="-123.273288" lat="44.559874"><ele>69.135796</ele><time>2020-10-15T03:22:43Z</time><extensions><speed>5.760000</speed><course>92.460938</course><hAcc>5.000000</hAcc><vAcc>4.000000</vAcc></extensions></trkpt>
      <trkpt lon="-123.273214" lat="44.559887"><ele>69.202805</ele><time>2020-10-15T03:22:44Z</time><extensions><speed>6.870000</speed><course>88.242188</course><hAcc>5.000000</hAcc><vAcc>4.000000</vAcc></extensions></trkpt>
      <trkpt lon="-123.273115" lat="44.559903"><ele>69.280815</ele><time>2020-10-15T03:22:45Z</time><extensions><speed>6.870000</speed><course>81.210938</course><hAcc>5.000000</hAcc><vAcc>4.000000</vAcc></extensions></trkpt>
      <trkpt lon="-123.273028" lat="44.559906"><ele>69.365730</ele><time>2020-10-15T03:22:46Z</time><extensions><speed>7.310000</speed><course>82.968750</course><hAcc>5.000000</hAcc><vAcc>4.000000</vAcc></extensions></trkpt>
      <trkpt lon="-123.272937" lat="44.559912"><ele>69.400452</ele><time>2020-10-15T03:22:47Z</time><extensions><speed>7.550000</speed><course>82.968750</course><hAcc>10.000000</hAcc><vAcc>4.000000</vAcc></extensions></trkpt>
      <trkpt lon="-123.272868" lat="44.559907"><ele>69.044067</ele><time>2020-10-15T03:22:48Z</time><extensions><speed>6.800000</speed><course>81.914062</course><hAcc>5.000000</hAcc><vAcc>4.000000</vAcc></extensions></trkpt>
      <trkpt lon="-123.272784" lat="44.559938"><ele>69.056839</ele><time>2020-10-15T03:22:49Z</time><extensions><speed>6.800000</speed><course>78.046875</course><hAcc>5.000000</hAcc><vAcc>4.000000</vAcc></extensions></trkpt>
      <trkpt lon="-123.272691" lat="44.559943"><ele>68.891266</ele><time>2020-10-15T03:22:50Z</time><extensions><speed>6.690000</speed><course>85.078125</course><hAcc>5.000000</hAcc><vAcc>4.000000</vAcc></extensions></trkpt>
      <trkpt lon="-123.272615" lat="44.559941"><ele>68.816132</ele><time>2020-10-15T03:22:51Z</time><extensions><speed>6.080000</speed><course>83.671875</course><hAcc>5.000000</hAcc><vAcc>4.000000</vAcc></extensions></trkpt>
      <trkpt lon="-123.272539" lat="44.559947"><ele>68.665901</ele><time>2020-10-15T03:22:52Z</time><extensions><speed>6.080000</speed><course>83.671875</course><hAcc>10.000000</hAcc><vAcc>4.000000</vAcc></extensions></trkpt>
      <trkpt lon="-123.272456" lat="44.559968"><ele>68.741280</ele><time>2020-10-15T03:22:53Z</time><extensions><speed>6.370000</speed><course>77.343750</course><hAcc>10.000000</hAcc><vAcc>4.000000</vAcc></extensions></trkpt>
      <trkpt lon="-123.272353" lat="44.560015"><ele>68.285339</ele><time>2020-10-15T03:22:54Z</time><extensions><speed>6.600000</speed><course>74.882812</course><hAcc>10.000000</hAcc><vAcc>4.000000</vAcc></extensions></trkpt>
      <trkpt lon="-123.272286" lat="44.560016"><ele>68.551170</ele><time>2020-10-15T03:22:55Z</time><extensions><speed>5.930000</speed><course>79.101562</course><hAcc>10.000000</hAcc><vAcc>4.000000</vAcc></extensions></trkpt>
      <trkpt lon="-123.272219" lat="44.560006"><ele>68.398209</ele><time>2020-10-15T03:22:56Z</time><extensions><speed>5.440000</speed><course>83.320312</course><hAcc>10.000000</hAcc><vAcc>4.000000</vAcc></extensions></trkpt>
      <trkpt lon="-123.272133" lat="44.560019"><ele>68.453354</ele><time>2020-10-15T03:22:57Z</time><extensions><speed>5.770000</speed><course>82.968750</course><hAcc>10.000000</hAcc><vAcc>4.000000</vAcc></extensions></trkpt>
      <trkpt lon="-123.272065" lat="44.560002"><ele>68.368095</ele><time>2020-10-15T03:22:58Z</time><extensions><speed>5.770000</speed><course>93.164062</course><hAcc>5.000000</hAcc><vAcc>4.000000</vAcc></extensions></trkpt>
      <trkpt lon="-123.271991" lat="44.559997"><ele>68.315041</ele><time>2020-10-15T03:22:59Z</time><extensions><speed>5.970000</speed><course>93.164062</course><hAcc>10.000000</hAcc><vAcc>4.000000</vAcc></extensions></trkpt>
      <trkpt lon="-123.271917" lat="44.559985"><ele>68.333397</ele><time>2020-10-15T03:23:00Z</time><extensions><speed>5.970000</speed><course>92.812500</course><hAcc>10.000000</hAcc><vAcc>4.000000</vAcc></extensions></trkpt>
      <trkpt lon="-123.271849" lat="44.559977"><ele>68.380577</ele><time>2020-10-15T03:23:01Z</time><extensions><speed>5.450000</speed><course>93.164062</course><hAcc>10.000000</hAcc><vAcc>4.000000</vAcc></extensions></trkpt>
      <trkpt lon="-123.271770" lat="44.560011"><ele>68.316322</ele><time>2020-10-15T03:23:02Z</time><extensions><speed>5.730000</speed><course>80.859375</course><hAcc>5.000000</hAcc><vAcc>4.000000</vAcc></extensions></trkpt>
      <trkpt lon="-123.271647" lat="44.560048"><ele>68.373230</ele><time>2020-10-15T03:23:03Z</time><extensions><speed>5.730000</speed><course>79.453125</course><hAcc>5.000000</hAcc><vAcc>4.000000</vAcc></extensions></trkpt>
      <trkpt lon="-123.271565" lat="44.560059"><ele>68.042923</ele><time>2020-10-15T03:23:04Z</time><extensions><speed>6.620000</speed><course>79.453125</course><hAcc>5.000000</hAcc><vAcc>4.000000</vAcc></extensions></trkpt>
      <trkpt lon="-123.271495" lat="44.560039"><ele>68.207977</ele><time>2020-10-15T03:23:05Z</time><extensions><speed>6.190000</speed><course>86.132812</course><hAcc>5.000000</hAcc><vAcc>4.000000</vAcc></extensions></trkpt>
      <trkpt lon="-123.271426" lat="44.560065"><ele>67.931015</ele><time>2020-10-15T03:23:06Z</time><extensions><speed>6.190000</speed><course>80.156250</course><hAcc>5.000000</hAcc><vAcc>4.000000</vAcc></extensions></trkpt>
      <trkpt lon="-123.271332" lat="44.560116"><ele>68.505569</ele><time>2020-10-15T03:23:07Z</time><extensions><speed>5.610000</speed><course>68.906250</course><hAcc>5.000000</hAcc><vAcc>4.000000</vAcc></extensions></trkpt>
      <trkpt lon="-123.271271" lat="44.560123"><ele>68.307503</ele><time>2020-10-15T03:23:08Z</time><extensions><speed>5.500000</speed><course>83.671875</course><hAcc>5.000000</hAcc><vAcc>4.000000</vAcc></extensions></trkpt>
      <trkpt lon="-123.271202" lat="44.560128"><ele>68.211128</ele><time>2020-10-15T03:23:09Z</time><extensions><speed>5.500000</speed><course>83.671875</course><hAcc>5.000000</hAcc><vAcc>4.000000</vAcc></extensions></trkpt>
      <trkpt lon="-123.271133" lat="44.560103"><ele>68.544952</ele><time>2020-10-15T03:23:10Z</time><extensions><speed>4.670000</speed><course>79.804688</course><hAcc>5.000000</hAcc><vAcc>4.000000</vAcc></extensions></trkpt>
      <trkpt lon="-123.271076" lat="44.560107"><ele>68.770073</ele><time>2020-10-15T03:23:11Z</time><extensions><speed>4.980000</speed><course>84.023438</course><hAcc>5.000000</hAcc><vAcc>4.000000</vAcc></extensions></trkpt>
      <trkpt lon="-123.271052" lat="44.560064"><ele>68.594627</ele><time>2020-10-15T03:23:12Z</time><extensions><speed>4.670000</speed><course>136.054688</course><hAcc>5.000000</hAcc><vAcc>4.000000</vAcc></extensions></trkpt>
      <trkpt lon="-123.271029" lat="44.560021"><ele>68.916916</ele><time>2020-10-15T03:23:13Z</time><extensions><speed>4.980000</speed><course>163.476562</course><hAcc>5.000000</hAcc><vAcc>4.000000</vAcc></extensions></trkpt>
      <trkpt lon="-123.271008" lat="44.559970"><ele>69.275360</ele><time>2020-10-15T03:23:14Z</time><extensions><speed>5.880000</speed><course>163.828125</course><hAcc>5.000000</hAcc><vAcc>4.000000</vAcc></extensions></trkpt>
      <trkpt lon="-123.271002" lat="44.559912"><ele>68.934235</ele><time>2020-10-15T03:23:15Z</time><extensions><speed>5.810000</speed><course>169.804688</course><hAcc>5.000000</hAcc><vAcc>4.000000</vAcc></extensions></trkpt>
      <trkpt lon="-123.271007" lat="44.559863"><ele>69.266716</ele><time>2020-10-15T03:23:16Z</time><extensions><speed>6.690000</speed><course>180.000000</course><hAcc>5.000000</hAcc><vAcc>4.000000</vAcc></extensions></trkpt>
      <trkpt lon="-123.271006" lat="44.559803"><ele>69.312744</ele><time>2020-10-15T03:23:17Z</time><extensions><speed>6.690000</speed><course>179.648438</course><hAcc>5.000000</hAcc><vAcc>4.000000</vAcc></extensions></trkpt>
      <trkpt lon="-123.270942" lat="44.559762"><ele>69.272621</ele><time>2020-10-15T03:23:18Z</time><extensions><speed>6.690000</speed><course>172.265625</course><hAcc>5.000000</hAcc><vAcc>4.000000</vAcc></extensions></trkpt>
      <trkpt lon="-123.270926" lat="44.559683"><ele>69.342369</ele><time>2020-10-15T03:23:19Z</time><extensions><speed>6.700000</speed><course>171.914062</course><hAcc>5.000000</hAcc><vAcc>4.000000</vAcc></extensions></trkpt>
      <trkpt lon="-123.270917" lat="44.559621"><ele>69.291855</ele><time>2020-10-15T03:23:20Z</time><extensions><speed>6.570000</speed><course>171.562500</course><hAcc>5.000000</hAcc><vAcc>4.000000</vAcc></extensions></trkpt>
      <trkpt lon="-123.270945" lat="44.559573"><ele>69.543762</ele><time>2020-10-15T03:23:21Z</time><extensions><speed>6.570000</speed><course>175.429688</course><hAcc>5.000000</hAcc><vAcc>4.000000</vAcc></extensions></trkpt>
      <trkpt lon="-123.270946" lat="44.559513"><ele>69.227180</ele><time>2020-10-15T03:23:22Z</time><extensions><speed>6.570000</speed><course>174.726562</course><hAcc>5.000000</hAcc><vAcc>3.000000</vAcc></extensions></trkpt>
      <trkpt lon="-123.270926" lat="44.559442"><ele>69.495445</ele><time>2020-10-15T03:23:23Z</time><extensions><speed>6.760000</speed><course>170.156250</course><hAcc>5.000000</hAcc><vAcc>3.000000</vAcc></extensions></trkpt>
      <trkpt lon="-123.270916" lat="44.559384"><ele>69.720718</ele><time>2020-10-15T03:23:24Z</time><extensions><speed>7.010000</speed><course>171.210938</course><hAcc>5.000000</hAcc><vAcc>3.000000</vAcc></extensions></trkpt>
      <trkpt lon="-123.270907" lat="44.559339"><ele>69.609505</ele><time>2020-10-15T03:23:25Z</time><extensions><speed>7.010000</speed><course>176.132812</course><hAcc>5.000000</hAcc><vAcc>3.000000</vAcc></extensions></trkpt>
      <trkpt lon="-123.270901" lat="44.559280"><ele>69.530296</ele><time>2020-10-15T03:23:26Z</time><extensions><speed>6.570000</speed><course>176.132812</course><hAcc>5.000000</hAcc><vAcc>3.000000</vAcc></extensions></trkpt>
      <trkpt lon="-123.270899" lat="44.559241"><ele>69.388916</ele><time>2020-10-15T03:23:27Z</time><extensions><speed>5.370000</speed><course>175.429688</course><hAcc>5.000000</hAcc><vAcc>3.000000</vAcc></extensions></trkpt>
      <trkpt lon="-123.270893" lat="44.559191"><ele>69.355392</ele><time>2020-10-15T03:23:28Z</time><extensions><speed>6.570000</speed><course>173.671875</course><hAcc>5.000000</hAcc><vAcc>3.000000</vAcc></extensions></trkpt>
      <trkpt lon="-123.270886" lat="44.559140"><ele>69.275734</ele><time>2020-10-15T03:23:29Z</time><extensions><speed>5.610000</speed><course>173.671875</course><hAcc>5.000000</hAcc><vAcc>3.000000</vAcc></extensions></trkpt>
      <trkpt lon="-123.270884" lat="44.559105"><ele>69.464218</ele><time>2020-10-15T03:23:30Z</time><extensions><speed>5.610000</speed><course>162.070312</course><hAcc>5.000000</hAcc><vAcc>3.000000</vAcc></extensions></trkpt>
      <trkpt lon="-123.270879" lat="44.559056"><ele>69.240112</ele><time>2020-10-15T03:23:31Z</time><extensions><speed>5.480000</speed><course>164.531250</course><hAcc>5.000000</hAcc><vAcc>3.000000</vAcc></extensions></trkpt>
      <trkpt lon="-123.270825" lat="44.559004"><ele>68.761673</ele><time>2020-10-15T03:23:32Z</time><extensions><speed>4.660000</speed><course>170.156250</course><hAcc>5.000000</hAcc><vAcc>4.000000</vAcc></extensions></trkpt>
      <trkpt lon="-123.270849" lat="44.558975"><ele>68.534966</ele><time>2020-10-15T03:23:33Z</time><extensions><speed>4.850000</speed><course>176.132812</course><hAcc>5.000000</hAcc><vAcc>3.000000</vAcc></extensions></trkpt>
      <trkpt lon="-123.270844" lat="44.558931"><ele>68.497429</ele><time>2020-10-15T03:23:34Z</time><extensions><speed>4.850000</speed><course>176.132812</course><hAcc>5.000000</hAcc><vAcc>4.000000</vAcc></extensions></trkpt>
      <trkpt lon="-123.270794" lat="44.558868"><ele>68.413483</ele><time>2020-10-15T03:23:35Z</time><extensions><speed>4.840000</speed><course>171.210938</course><hAcc>5.000000</hAcc><vAcc>4.000000</vAcc></extensions></trkpt>
      <trkpt lon="-123.270775" lat="44.558838"><ele>68.313904</ele><time>2020-10-15T03:23:36Z</time><extensions><speed>4.280000</speed><course>165.585938</course><hAcc>5.000000</hAcc><vAcc>4.000000</vAcc></extensions></trkpt>
      <trkpt lon="-123.270751" lat="44.558804"><ele>68.311432</ele><time>2020-10-15T03:23:37Z</time><extensions><speed>4.190000</speed><course>167.695312</course><hAcc>5.000000</hAcc><vAcc>4.000000</vAcc></extensions></trkpt>
      <trkpt lon="-123.270752" lat="44.558772"><ele>68.209328</ele><time>2020-10-15T03:23:38Z</time><extensions><speed>3.840000</speed><course>210.937500</course><hAcc>5.000000</hAcc><vAcc>4.000000</vAcc></extensions></trkpt>
      <trkpt lon="-123.270786" lat="44.558751"><ele>68.212379</ele><time>2020-10-15T03:23:39Z</time><extensions><speed>3.840000</speed><course>221.132812</course><hAcc>5.000000</hAcc><vAcc>3.000000</vAcc></extensions></trkpt>
      <trkpt lon="-123.270813" lat="44.558733"><ele>68.086998</ele><time>2020-10-15T03:23:40Z</time><extensions><speed>3.070000</speed><course>240.117188</course><hAcc>5.000000</hAcc><vAcc>4.000000</vAcc></extensions></trkpt>
      <trkpt lon="-123.270875" lat="44.558723"><ele>68.133392</ele><time>2020-10-15T03:23:41Z</time><extensions><speed>3.060000</speed><course>271.406250</course><hAcc>5.000000</hAcc><vAcc>4.000000</vAcc></extensions></trkpt>
      <trkpt lon="-123.270905" lat="44.558726"><ele>68.142036</ele><time>2020-10-15T03:23:42Z</time><extensions><speed>2.450000</speed><course>257.343750</course><hAcc>5.000000</hAcc><vAcc>4.000000</vAcc></extensions></trkpt>
      <trkpt lon="-123.270923" lat="44.558734"><ele>68.166306</ele><time>2020-10-15T03:23:43Z</time><extensions><speed>2.480000</speed><course>222.890625</course><hAcc>5.000000</hAcc><vAcc>4.000000</vAcc></extensions></trkpt>
      <trkpt lon="-123.270946" lat="44.558734"><ele>68.138748</ele><time>2020-10-15T03:23:44Z</time><extensions><speed>2.450000</speed><course>246.445312</course><hAcc>5.000000</hAcc><vAcc>4.000000</vAcc></extensions></trkpt>
      <trkpt lon="-123.270965" lat="44.558731"><ele>68.085800</ele><time>2020-10-15T03:23:45Z</time><extensions><speed>1.550000</speed><course>259.453125</course><hAcc>5.000000</hAcc><vAcc>4.000000</vAcc></extensions></trkpt>
      <trkpt lon="-123.270989" lat="44.558733"><ele>68.062515</ele><time>2020-10-15T03:23:46Z</time><extensions><speed>1.550000</speed><course>285.820312</course><hAcc>5.000000</hAcc><vAcc>4.000000</vAcc></extensions></trkpt>
      <trkpt lon="-123.270989" lat="44.558710"><ele>68.117592</ele><time>2020-10-15T03:23:47Z</time><extensions><speed>1.550000</speed><course>266.132812</course><hAcc>5.000000</hAcc><vAcc>4.000000</vAcc></extensions></trkpt>
      <trkpt lon="-123.270989" lat="44.558710"><ele>68.050896</ele><time>2020-10-15T03:23:48Z</time><extensions><speed>0.000000</speed><course>266.132812</course><hAcc>5.000000</hAcc><vAcc>4.000000</vAcc></extensions></trkpt>
      <trkpt lon="-123.270989" lat="44.558710"><ele>68.017342</ele><time>2020-10-15T03:23:49Z</time><extensions><speed>0.000000</speed><course>268.945312</course><hAcc>5.000000</hAcc><vAcc>4.000000</vAcc></extensions></trkpt>
      <trkpt lon="-123.270989" lat="44.558710"><ele>68.062218</ele><time>2020-10-15T03:23:50Z</time><extensions><speed>0.000000</speed><course>268.945312</course><hAcc>5.000000</hAcc><vAcc>4.000000</vAcc></extensions></trkpt>
      <trkpt lon="-123.270989" lat="44.558710"><ele>68.009560</ele><time>2020-10-15T03:23:51Z</time><extensions><speed>0.000000</speed><course>268.945312</course><hAcc>5.000000</hAcc><vAcc>4.000000</vAcc></extensions></trkpt>
      <trkpt lon="-123.270989" lat="44.558710"><ele>68.010162</ele><time>2020-10-15T03:23:52Z</time><extensions><speed>0.000000</speed><course>274.570312</course><hAcc>5.000000</hAcc><vAcc>4.000000</vAcc></extensions></trkpt>
      <trkpt lon="-123.270991" lat="44.558713"><ele>68.003372</ele><time>2020-10-15T03:23:53Z</time><extensions><speed>0.540000</speed><course>226.757812</course><hAcc>5.000000</hAcc><vAcc>4.000000</vAcc></extensions></trkpt>
      <trkpt lon="-123.270998" lat="44.558715"><ele>68.077332</ele><time>2020-10-15T03:23:54Z</time><extensions><speed>0.560000</speed><course>214.804688</course><hAcc>5.000000</hAcc><vAcc>4.000000</vAcc></extensions></trkpt>
      <trkpt lon="-123.271007" lat="44.558718"><ele>68.145691</ele><time>2020-10-15T03:23:55Z</time><extensions><speed>0.830000</speed><course>214.804688</course><hAcc>5.000000</hAcc><vAcc>4.000000</vAcc></extensions></trkpt>
      <trkpt lon="-123.271019" lat="44.558726"><ele>68.096008</ele><time>2020-10-15T03:23:56Z</time><extensions><speed>0.980000</speed><course>214.804688</course><hAcc>5.000000</hAcc><vAcc>4.000000</vAcc></extensions></trkpt>
      <trkpt lon="-123.271031" lat="44.558735"><ele>68.182976</ele><time>2020-10-15T03:23:57Z</time><extensions><speed>0.830000</speed><course>214.804688</course><hAcc>5.000000</hAcc><vAcc>4.000000</vAcc></extensions></trkpt>
      <trkpt lon="-123.271040" lat="44.558745"><ele>68.213997</ele><time>2020-10-15T03:23:58Z</time><extensions><speed>0.790000</speed><course>214.804688</course><hAcc>5.000000</hAcc><vAcc>4.000000</vAcc></extensions></trkpt>
      <trkpt lon="-123.271040" lat="44.558745"><ele>68.313370</ele><time>2020-10-15T03:23:59Z</time><extensions><speed>0.000000</speed><course>214.804688</course><hAcc>5.000000</hAcc><vAcc>4.000000</vAcc></extensions></trkpt>
      <trkpt lon="-123.271040" lat="44.558745"><ele>68.197769</ele><time>2020-10-15T03:24:00Z</time><extensions><speed>0.000000</speed><course>214.804688</course><hAcc>10.000000</hAcc><vAcc>4.000000</vAcc></extensions></trkpt>
      <trkpt lon="-123.271040" lat="44.558745"><ele>68.255493</ele><time>2020-10-15T03:24:01Z</time><extensions><speed>0.000000</speed><course>214.804688</course><hAcc>10.000000</hAcc><vAcc>4.000000</vAcc></extensions></trkpt>
      <trkpt lon="-123.271074" lat="44.558748"><ele>68.239906</ele><time>2020-10-15T03:24:02Z</time><extensions><speed>0.270000</speed><course>214.804688</course><hAcc>5.000000</hAcc><vAcc>4.000000</vAcc></extensions></trkpt>
      <trkpt lon="-123.271082" lat="44.558747"><ele>68.244118</ele><time>2020-10-15T03:24:03Z</time><extensions><speed>0.270000</speed><course>214.804688</course><hAcc>5.000000</hAcc><vAcc>4.000000</vAcc></extensions></trkpt>
      <trkpt lon="-123.271087" lat="44.558746"><ele>68.245392</ele><time>2020-10-15T03:24:04Z</time><extensions><speed>0.250000</speed><course>214.804688</course><hAcc>5.000000</hAcc><vAcc>4.000000</vAcc></extensions></trkpt>
      <trkpt lon="-123.271094" lat="44.558745"><ele>68.239914</ele><time>2020-10-15T03:24:05Z</time><extensions><speed>0.470000</speed><course>283.359375</course><hAcc>5.000000</hAcc><vAcc>4.000000</vAcc></extensions></trkpt>
      <trkpt lon="-123.271094" lat="44.558745"><ele>68.227257</ele><time>2020-10-15T03:24:06Z</time><extensions><speed>0.000000</speed><course>305.507812</course><hAcc>5.000000</hAcc><vAcc>4.000000</vAcc></extensions></trkpt>
      <trkpt lon="-123.271094" lat="44.558745"><ele>68.231850</ele><time>2020-10-15T03:24:07Z</time><extensions><speed>0.000000</speed><course>214.804688</course><hAcc>5.000000</hAcc><vAcc>4.000000</vAcc></extensions></trkpt>
      <trkpt lon="-123.271094" lat="44.558745"><ele>68.282906</ele><time>2020-10-15T03:24:08Z</time><extensions><speed>0.000000</speed><course>298.476562</course><hAcc>5.000000</hAcc><vAcc>4.000000</vAcc></extensions></trkpt>
      <trkpt lon="-123.271111" lat="44.558750"><ele>68.359550</ele><time>2020-10-15T03:24:09Z</time><extensions><speed>0.180000</speed><course>214.804688</course><hAcc>5.000000</hAcc><vAcc>4.000000</vAcc></extensions></trkpt>
      <trkpt lon="-123.271115" lat="44.558749"><ele>68.273918</ele><time>2020-10-15T03:24:10Z</time><extensions><speed>0.240000</speed><course>214.804688</course><hAcc>5.000000</hAcc><vAcc>4.000000</vAcc></extensions></trkpt>
      <trkpt lon="-123.271115" lat="44.558749"><ele>68.270332</ele><time>2020-10-15T03:24:11Z</time><extensions><speed>0.000000</speed><course>214.804688</course><hAcc>5.000000</hAcc><vAcc>4.000000</vAcc></extensions></trkpt>
      <trkpt lon="-123.271115" lat="44.558749"><ele>68.331612</ele><time>2020-10-15T03:24:12Z</time><extensions><speed>0.000000</speed><course>214.804688</course><hAcc>5.000000</hAcc><vAcc>4.000000</vAcc></extensions></trkpt>
      <trkpt lon="-123.271115" lat="44.558749"><ele>68.365074</ele><time>2020-10-15T03:24:13Z</time><extensions><speed>0.000000</speed><course>214.804688</course><hAcc>5.000000</hAcc><vAcc>4.000000</vAcc></extensions></trkpt>
      <trkpt lon="-123.271115" lat="44.558749"><ele>68.333519</ele><time>2020-10-15T03:24:14Z</time><extensions><speed>0.000000</speed><course>214.804688</course><hAcc>5.000000</hAcc><vAcc>3.000000</vAcc></extensions></trkpt>
      <trkpt lon="-123.271115" lat="44.558749"><ele>68.354111</ele><time>2020-10-15T03:24:15Z</time><extensions><speed>0.000000</speed><course>214.804688</course><hAcc>5.000000</hAcc><vAcc>4.000000</vAcc></extensions></trkpt>
      <trkpt lon="-123.271107" lat="44.558749"><ele>68.244743</ele><time>2020-10-15T03:24:16Z</time><extensions><speed>0.270000</speed><course>108.281250</course><hAcc>5.000000</hAcc><vAcc>4.000000</vAcc></extensions></trkpt>
      <trkpt lon="-123.271102" lat="44.558742"><ele>68.329376</ele><time>2020-10-15T03:24:17Z</time><extensions><speed>0.440000</speed><course>120.234375</course><hAcc>5.000000</hAcc><vAcc>3.000000</vAcc></extensions></trkpt>
      <trkpt lon="-123.271100" lat="44.558737"><ele>68.330254</ele><time>2020-10-15T03:24:18Z</time><extensions><speed>0.440000</speed><course>142.382812</course><hAcc>5.000000</hAcc><vAcc>3.000000</vAcc></extensions></trkpt>
      <trkpt lon="-123.271099" lat="44.558703"><ele>68.402039</ele><time>2020-10-15T03:24:19Z</time><extensions><speed>0.570000</speed><course>124.453125</course><hAcc>5.000000</hAcc><vAcc>3.000000</vAcc></extensions></trkpt>
      <trkpt lon="-123.271093" lat="44.558699"><ele>68.360580</ele><time>2020-10-15T03:24:20Z</time><extensions><speed>0.570000</speed><course>124.453125</course><hAcc>5.000000</hAcc><vAcc>4.000000</vAcc></extensions></trkpt>
      <trkpt lon="-123.271082" lat="44.558695"><ele>68.546051</ele><time>2020-10-15T03:24:21Z</time><extensions><speed>0.570000</speed><course>115.664062</course><hAcc>5.000000</hAcc><vAcc>4.000000</vAcc></extensions></trkpt>
      <trkpt lon="-123.271082" lat="44.558695"><ele>68.328712</ele><time>2020-10-15T03:24:22Z</time><extensions><speed>0.000000</speed><course>115.664062</course><hAcc>5.000000</hAcc><vAcc>4.000000</vAcc></extensions></trkpt>
      <trkpt lon="-123.271082" lat="44.558695"><ele>68.313675</ele><time>2020-10-15T03:24:23Z</time><extensions><speed>0.000000</speed><course>115.664062</course><hAcc>5.000000</hAcc><vAcc>4.000000</vAcc></extensions></trkpt>
      <trkpt lon="-123.271082" lat="44.558695"><ele>68.267509</ele><time>2020-10-15T03:24:24Z</time><extensions><speed>0.000000</speed><course>115.664062</course><hAcc>5.000000</hAcc><vAcc>4.000000</vAcc></extensions></trkpt>
      <trkpt lon="-123.271082" lat="44.558695"><ele>68.244049</ele><time>2020-10-15T03:24:25Z</time><extensions><speed>0.000000</speed><course>115.664062</course><hAcc>5.000000</hAcc><vAcc>4.000000</vAcc></extensions></trkpt>
      <trkpt lon="-123.271082" lat="44.558695"><ele>68.277718</ele><time>2020-10-15T03:24:26Z</time><extensions><speed>0.000000</speed><course>115.664062</course><hAcc>5.000000</hAcc><vAcc>4.000000</vAcc></extensions></trkpt>
      <trkpt lon="-123.271082" lat="44.558695"><ele>68.266747</ele><time>2020-10-15T03:24:27Z</time><extensions><speed>0.000000</speed><course>115.664062</course><hAcc>5.000000</hAcc><vAcc>4.000000</vAcc></extensions></trkpt>
      <trkpt lon="-123.271082" lat="44.558695"><ele>68.225761</ele><time>2020-10-15T03:24:28Z</time><extensions><speed>0.000000</speed><course>115.664062</course><hAcc>5.000000</hAcc><vAcc>4.000000</vAcc></extensions></trkpt>
      <trkpt lon="-123.271082" lat="44.558695"><ele>68.157745</ele><time>2020-10-15T03:24:29Z</time><extensions><speed>0.000000</speed><course>99.492188</course><hAcc>5.000000</hAcc><vAcc>4.000000</vAcc></extensions></trkpt>
      <trkpt lon="-123.271094" lat="44.558699"><ele>68.173309</ele><time>2020-10-15T03:24:30Z</time><extensions><speed>0.230000</speed><course>81.562500</course><hAcc>5.000000</hAcc><vAcc>4.000000</vAcc></extensions></trkpt>
      <trkpt lon="-123.271094" lat="44.558699"><ele>68.376999</ele><time>2020-10-15T03:24:31Z</time><extensions><speed>0.000000</speed><course>46.406250</course><hAcc>5.000000</hAcc><vAcc>4.000000</vAcc></extensions></trkpt>
      <trkpt lon="-123.271094" lat="44.558699"><ele>68.279732</ele><time>2020-10-15T03:24:32Z</time><extensions><speed>0.000000</speed><course>46.406250</course><hAcc>5.000000</hAcc><vAcc>4.000000</vAcc></extensions></trkpt>
      <trkpt lon="-123.271094" lat="44.558699"><ele>68.167946</ele><time>2020-10-15T03:24:33Z</time><extensions><speed>0.000000</speed><course>46.406250</course><hAcc>5.000000</hAcc><vAcc>4.000000</vAcc></extensions></trkpt>
      <trkpt lon="-123.271094" lat="44.558699"><ele>68.286186</ele><time>2020-10-15T03:24:34Z</time><extensions><speed>0.000000</speed><course>46.406250</course><hAcc>5.000000</hAcc><vAcc>3.000000</vAcc></extensions></trkpt>
      <trkpt lon="-123.271094" lat="44.558699"><ele>68.243309</ele><time>2020-10-15T03:24:35Z</time><extensions><speed>0.000000</speed><course>46.406250</course><hAcc>5.000000</hAcc><vAcc>3.000000</vAcc></extensions></trkpt>
      <trkpt lon="-123.271094" lat="44.558699"><ele>68.268112</ele><time>2020-10-15T03:24:36Z</time><extensions><speed>0.000000</speed><course>46.406250</course><hAcc>5.000000</hAcc><vAcc>3.000000</vAcc></extensions></trkpt>
      <trkpt lon="-123.271094" lat="44.558699"><ele>68.239578</ele><time>2020-10-15T03:24:37Z</time><extensions><speed>0.000000</speed><course>46.406250</course><hAcc>5.000000</hAcc><vAcc>4.000000</vAcc></extensions></trkpt>
      <trkpt lon="-123.271094" lat="44.558699"><ele>68.229286</ele><time>2020-10-15T03:24:38Z</time><extensions><speed>0.000000</speed><course>46.406250</course><hAcc>5.000000</hAcc><vAcc>3.000000</vAcc></extensions></trkpt>
      <trkpt lon="-123.271094" lat="44.558699"><ele>68.251488</ele><time>2020-10-15T03:24:39Z</time><extensions><speed>0.000000</speed><course>46.406250</course><hAcc>5.000000</hAcc><vAcc>3.000000</vAcc></extensions></trkpt>
      <trkpt lon="-123.271094" lat="44.558699"><ele>68.247940</ele><time>2020-10-15T03:24:40Z</time><extensions><speed>0.000000</speed><course>46.406250</course><hAcc>5.000000</hAcc><vAcc>3.000000</vAcc></extensions></trkpt>
      <trkpt lon="-123.271094" lat="44.558699"><ele>68.225311</ele><time>2020-10-15T03:24:41Z</time><extensions><speed>0.000000</speed><course>46.406250</course><hAcc>5.000000</hAcc><vAcc>3.000000</vAcc></extensions></trkpt>
      <trkpt lon="-123.271094" lat="44.558699"><ele>68.240486</ele><time>2020-10-15T03:24:42Z</time><extensions><speed>0.000000</speed><course>46.406250</course><hAcc>5.000000</hAcc><vAcc>3.000000</vAcc></extensions></trkpt>
      <trkpt lon="-123.271094" lat="44.558699"><ele>68.212036</ele><time>2020-10-15T03:24:43Z</time><extensions><speed>0.000000</speed><course>46.406250</course><hAcc>5.000000</hAcc><vAcc>3.000000</vAcc></extensions></trkpt>
      <trkpt lon="-123.271094" lat="44.558699"><ele>68.203316</ele><time>2020-10-15T03:24:44Z</time><extensions><speed>0.000000</speed><course>46.406250</course><hAcc>5.000000</hAcc><vAcc>3.000000</vAcc></extensions></trkpt>
      <trkpt lon="-123.271094" lat="44.558699"><ele>68.208336</ele><time>2020-10-15T03:24:45Z</time><extensions><speed>0.000000</speed><course>46.406250</course><hAcc>5.000000</hAcc><vAcc>3.000000</vAcc></extensions></trkpt>
      <trkpt lon="-123.271094" lat="44.558699"><ele>68.230965</ele><time>2020-10-15T03:24:46Z</time><extensions><speed>0.000000</speed><course>46.406250</course><hAcc>5.000000</hAcc><vAcc>3.000000</vAcc></extensions></trkpt>
      <trkpt lon="-123.271094" lat="44.558699"><ele>68.154770</ele><time>2020-10-15T03:24:47Z</time><extensions><speed>0.000000</speed><course>46.406250</course><hAcc>5.000000</hAcc><vAcc>3.000000</vAcc></extensions></trkpt>
      <trkpt lon="-123.271094" lat="44.558699"><ele>68.241768</ele><time>2020-10-15T03:24:48Z</time><extensions><speed>0.000000</speed><course>46.406250</course><hAcc>5.000000</hAcc><vAcc>3.000000</vAcc></extensions></trkpt>
      <trkpt lon="-123.271094" lat="44.558699"><ele>68.252335</ele><time>2020-10-15T03:24:49Z</time><extensions><speed>0.000000</speed><course>46.406250</course><hAcc>5.000000</hAcc><vAcc>3.000000</vAcc></extensions></trkpt>
      <trkpt lon="-123.271094" lat="44.558699"><ele>68.169899</ele><time>2020-10-15T03:24:50Z</time><extensions><speed>0.000000</speed><course>243.281250</course><hAcc>5.000000</hAcc><vAcc>3.000000</vAcc></extensions></trkpt>
      <trkpt lon="-123.271094" lat="44.558699"><ele>68.317062</ele><time>2020-10-15T03:24:51Z</time><extensions><speed>0.000000</speed><course>87.187500</course><hAcc>5.000000</hAcc><vAcc>3.000000</vAcc></extensions></trkpt>
      <trkpt lon="-123.271094" lat="44.558699"><ele>68.247849</ele><time>2020-10-15T03:24:52Z</time><extensions><speed>0.000000</speed><course>61.523438</course><hAcc>5.000000</hAcc><vAcc>3.000000</vAcc></extensions></trkpt>
      <trkpt lon="-123.271094" lat="44.558701"><ele>68.229752</ele><time>2020-10-15T03:24:53Z</time><extensions><speed>0.170000</speed><course>47.460938</course><hAcc>5.000000</hAcc><vAcc>3.000000</vAcc></extensions></trkpt>
      <trkpt lon="-123.271094" lat="44.558701"><ele>68.243881</ele><time>2020-10-15T03:24:54Z</time><extensions><speed>0.000000</speed><course>5.625000</course><hAcc>5.000000</hAcc><vAcc>3.000000</vAcc></extensions></trkpt>
      <trkpt lon="-123.271093" lat="44.558703"><ele>68.230232</ele><time>2020-10-15T03:24:55Z</time><extensions><speed>0.200000</speed><course>197.929688</course><hAcc>5.000000</hAcc><vAcc>3.000000</vAcc></extensions></trkpt>
      <trkpt lon="-123.271096" lat="44.558700"><ele>68.215233</ele><time>2020-10-15T03:24:56Z</time><extensions><speed>0.200000</speed><course>203.203125</course><hAcc>5.000000</hAcc><vAcc>3.000000</vAcc></extensions></trkpt>
      <trkpt lon="-123.271096" lat="44.558700"><ele>68.185455</ele><time>2020-10-15T03:24:57Z</time><extensions><speed>0.000000</speed><course>203.554688</course><hAcc>5.000000</hAcc><vAcc>3.000000</vAcc></extensions></trkpt>
      <trkpt lon="-123.271096" lat="44.558700"><ele>68.168106</ele><time>2020-10-15T03:24:58Z</time><extensions><speed>0.000000</speed><course>203.554688</course><hAcc>5.000000</hAcc><vAcc>3.000000</vAcc></extensions></trkpt>
      <trkpt lon="-123.271096" lat="44.558700"><ele>67.201828</ele><time>2020-10-15T03:24:59Z</time><extensions><speed>0.000000</speed><course>203.554688</course><hAcc>5.000000</hAcc><vAcc>3.000000</vAcc></extensions></trkpt>
      <trkpt lon="-123.271096" lat="44.558700"><ele>68.160316</ele><time>2020-10-15T03:25:00Z</time><extensions><speed>0.000000</speed><course>204.257812</course><hAcc>5.000000</hAcc><vAcc>3.000000</vAcc></extensions></trkpt>
      <trkpt lon="-123.271101" lat="44.558699"><ele>68.184822</ele><time>2020-10-15T03:25:01Z</time><extensions><speed>0.230000</speed><course>205.312500</course><hAcc>5.000000</hAcc><vAcc>3.000000</vAcc></extensions></trkpt>
      <trkpt lon="-123.271099" lat="44.558703"><ele>68.317513</ele><time>2020-10-15T03:25:02Z</time><extensions><speed>0.230000</speed><course>24.960938</course><hAcc>5.000000</hAcc><vAcc>3.000000</vAcc></extensions></trkpt>
      <trkpt lon="-123.271099" lat="44.558703"><ele>68.484200</ele><time>2020-10-15T03:25:03Z</time><extensions><speed>0.000000</speed><course>38.320312</course><hAcc>5.000000</hAcc><vAcc>3.000000</vAcc></extensions></trkpt>
      <trkpt lon="-123.271091" lat="44.558715"><ele>68.804672</ele><time>2020-10-15T03:25:04Z</time><extensions><speed>0.730000</speed><course>24.257812</course><hAcc>5.000000</hAcc><vAcc>3.000000</vAcc></extensions></trkpt>
      <trkpt lon="-123.271087" lat="44.558723"><ele>68.357330</ele><time>2020-10-15T03:25:05Z</time><extensions><speed>0.730000</speed><course>21.093750</course><hAcc>5.000000</hAcc><vAcc>3.000000</vAcc></extensions></trkpt>
      <trkpt lon="-123.271086" lat="44.558731"><ele>68.284386</ele><time>2020-10-15T03:25:06Z</time><extensions><speed>0.730000</speed><course>10.546875</course><hAcc>5.000000</hAcc><vAcc>3.000000</vAcc></extensions></trkpt>
      <trkpt lon="-123.271088" lat="44.558737"><ele>68.404045</ele><time>2020-10-15T03:25:07Z</time><extensions><speed>0.500000</speed><course>358.945312</course><hAcc>5.000000</hAcc><vAcc>3.000000</vAcc></extensions></trkpt>
      <trkpt lon="-123.271093" lat="44.558740"><ele>68.343895</ele><time>2020-10-15T03:25:08Z</time><extensions><speed>0.500000</speed><course>333.984375</course><hAcc>5.000000</hAcc><vAcc>3.000000</vAcc></extensions></trkpt>
      <trkpt lon="-123.271093" lat="44.558740"><ele>68.482201</ele><time>2020-10-15T03:25:09Z</time><extensions><speed>0.000000</speed><course>337.851562</course><hAcc>5.000000</hAcc><vAcc>3.000000</vAcc></extensions></trkpt>
    </trkseg>
  </trk>
</gpx>