<?xml version="1.0" encoding="UTF-8"?>
<gpx version="1.1" creator="Apple Health Export" xmlns="http://www.topografix.com/GPX/1/1" xmlns:xsi="http://www.w3.org/2001/XMLSchema-instance" xsi:schemaLocation="http://www.topografix.com/GPX/1/1 http://www.topografix.com/GPX/1/1/gpx.xsd">
  <metadata>
    <time>2021-02-21T19:24:48Z</time>
  </metadata>
  <trk>
    <name>Route 2020-10-29 3:32pm</name>
    <trkseg>
      <trkpt lon="-123.273869" lat="44.560052"><ele>70.064331</ele><time>2020-10-29T22:28:44Z</time><extensions><speed>4.324602</speed><course>356.154358</course><hAcc>11.999370</hAcc><vAcc>11.953774</vAcc></extensions></trkpt>
      <trkpt lon="-123.273883" lat="44.560111"><ele>70.056007</ele><time>2020-10-29T22:28:45Z</time><extensions><speed>5.502642</speed><course>357.370178</course><hAcc>11.999370</hAcc><vAcc>19.330324</vAcc></extensions></trkpt>
      <trkpt lon="-123.273899" lat="44.560154"><ele>70.087616</ele><time>2020-10-29T22:28:46Z</time><extensions><speed>5.502642</speed><course>338.390198</course><hAcc>23.998739</hAcc><vAcc>20.921352</vAcc></extensions></trkpt>
      <trkpt lon="-123.273919" lat="44.560220"><ele>70.138718</ele><time>2020-10-29T22:28:47Z</time><extensions><speed>5.075973</speed><course>345.253540</course><hAcc>7.999580</hAcc><vAcc>14.736063</vAcc></extensions></trkpt>
      <trkpt lon="-123.273932" lat="44.560297"><ele>70.213219</ele><time>2020-10-29T22:28:48Z</time><extensions><speed>5.075973</speed><course>353.193298</course><hAcc>7.999580</hAcc><vAcc>14.778776</vAcc></extensions></trkpt>
      <trkpt lon="-123.274196" lat="44.561295"><ele>78.822762</ele><time>2020-10-29T22:29:11Z</time><extensions><speed>4.020000</speed><course>346.992188</course><hAcc>5.000000</hAcc><vAcc>8.000000</vAcc></extensions></trkpt>
      <trkpt lon="-123.274251" lat="44.561445"><ele>74.924385</ele><time>2020-10-29T22:29:12Z</time><extensions><speed>5.540000</speed><course>348.046875</course><hAcc>5.000000</hAcc><vAcc>8.000000</vAcc></extensions></trkpt>
      <trkpt lon="-123.274203" lat="44.561468"><ele>75.554878</ele><time>2020-10-29T22:29:13Z</time><extensions><speed>4.830000</speed><course>352.617188</course><hAcc>5.000000</hAcc><vAcc>8.000000</vAcc></extensions></trkpt>
      <trkpt lon="-123.274205" lat="44.561502"><ele>79.810921</ele><time>2020-10-29T22:29:14Z</time><extensions><speed>4.830000</speed><course>3.867188</course><hAcc>5.000000</hAcc><vAcc>6.000000</vAcc></extensions></trkpt>
      <trkpt lon="-123.274383" lat="44.561549"><ele>69.940681</ele><time>2020-10-29T22:29:15Z</time><extensions><speed>4.670000</speed><course>355.429688</course><hAcc>5.000000</hAcc><vAcc>6.000000</vAcc></extensions></trkpt>
      <trkpt lon="-123.274343" lat="44.561568"><ele>70.975716</ele><time>2020-10-29T22:29:16Z</time><extensions><speed>4.720000</speed><course>359.648438</course><hAcc>5.000000</hAcc><vAcc>4.000000</vAcc></extensions></trkpt>
      <trkpt lon="-123.274324" lat="44.561613"><ele>70.013252</ele><time>2020-10-29T22:29:17Z</time><extensions><speed>4.720000</speed><course>356.484375</course><hAcc>5.000000</hAcc><vAcc>4.000000</vAcc></extensions></trkpt>
      <trkpt lon="-123.274313" lat="44.561658"><ele>69.667610</ele><time>2020-10-29T22:29:18Z</time><extensions><speed>4.740000</speed><course>0.703125</course><hAcc>5.000000</hAcc><vAcc>4.000000</vAcc></extensions></trkpt>
      <trkpt lon="-123.274303" lat="44.561701"><ele>69.749275</ele><time>2020-10-29T22:29:19Z</time><extensions><speed>4.740000</speed><course>2.109375</course><hAcc>5.000000</hAcc><vAcc>3.000000</vAcc></extensions></trkpt>
      <trkpt lon="-123.274295" lat="44.561742"><ele>69.678169</ele><time>2020-10-29T22:29:20Z</time><extensions><speed>4.610000</speed><course>3.515625</course><hAcc>5.000000</hAcc><vAcc>3.000000</vAcc></extensions></trkpt>
      <trkpt lon="-123.274298" lat="44.561781"><ele>69.313606</ele><time>2020-10-29T22:29:21Z</time><extensions><speed>4.610000</speed><course>355.078125</course><hAcc>5.000000</hAcc><vAcc>3.000000</vAcc></extensions></trkpt>
      <trkpt lon="-123.274313" lat="44.561818"><ele>69.251534</ele><time>2020-10-29T22:29:22Z</time><extensions><speed>4.310000</speed><course>344.179688</course><hAcc>5.000000</hAcc><vAcc>3.000000</vAcc></extensions></trkpt>
      <trkpt lon="-123.274372" lat="44.561868"><ele>68.716377</ele><time>2020-10-29T22:29:23Z</time><extensions><speed>4.310000</speed><course>330.468750</course><hAcc>5.000000</hAcc><vAcc>3.000000</vAcc></extensions></trkpt>
      <trkpt lon="-123.274367" lat="44.561881"><ele>72.049507</ele><time>2020-10-29T22:29:24Z</time><extensions><speed>4.520000</speed><course>325.195312</course><hAcc>5.000000</hAcc><vAcc>3.000000</vAcc></extensions></trkpt>
      <trkpt lon="-123.274421" lat="44.561912"><ele>72.061775</ele><time>2020-10-29T22:29:25Z</time><extensions><speed>4.830000</speed><course>316.054688</course><hAcc>5.000000</hAcc><vAcc>3.000000</vAcc></extensions></trkpt>
      <trkpt lon="-123.274481" lat="44.561935"><ele>72.602730</ele><time>2020-10-29T22:29:26Z</time><extensions><speed>5.000000</speed><course>306.210938</course><hAcc>5.000000</hAcc><vAcc>3.000000</vAcc></extensions></trkpt>
      <trkpt lon="-123.274529" lat="44.561965"><ele>72.253609</ele><time>2020-10-29T22:29:27Z</time><extensions><speed>4.830000</speed><course>301.992188</course><hAcc>5.000000</hAcc><vAcc>3.000000</vAcc></extensions></trkpt>
      <trkpt lon="-123.274609" lat="44.561986"><ele>72.330696</ele><time>2020-10-29T22:29:28Z</time><extensions><speed>5.000000</speed><course>290.039062</course><hAcc>5.000000</hAcc><vAcc>3.000000</vAcc></extensions></trkpt>
      <trkpt lon="-123.274731" lat="44.562005"><ele>72.320747</ele><time>2020-10-29T22:29:29Z</time><extensions><speed>5.960000</speed><course>278.085938</course><hAcc>5.000000</hAcc><vAcc>3.000000</vAcc></extensions></trkpt>
      <trkpt lon="-123.274808" lat="44.562009"><ele>72.566536</ele><time>2020-10-29T22:29:30Z</time><extensions><speed>5.960000</speed><course>273.515625</course><hAcc>5.000000</hAcc><vAcc>3.000000</vAcc></extensions></trkpt>
      <trkpt lon="-123.274889" lat="44.562020"><ele>72.580879</ele><time>2020-10-29T22:29:31Z</time><extensions><speed>5.960000</speed><course>274.921875</course><hAcc>5.000000</hAcc><vAcc>3.000000</vAcc></extensions></trkpt>
      <trkpt lon="-123.274964" lat="44.562029"><ele>72.205635</ele><time>2020-10-29T22:29:32Z</time><extensions><speed>5.880000</speed><course>271.757812</course><hAcc>5.000000</hAcc><vAcc>3.000000</vAcc></extensions></trkpt>
      <trkpt lon="-123.275039" lat="44.562028"><ele>72.473946</ele><time>2020-10-29T22:29:33Z</time><extensions><speed>5.690000</speed><course>269.296875</course><hAcc>5.000000</hAcc><vAcc>3.000000</vAcc></extensions></trkpt>
      <trkpt lon="-123.275090" lat="44.562036"><ele>73.224312</ele><time>2020-10-29T22:29:34Z</time><extensions><speed>5.790000</speed><course>265.781250</course><hAcc>5.000000</hAcc><vAcc>3.000000</vAcc></extensions></trkpt>
      <trkpt lon="-123.275169" lat="44.562034"><ele>72.090096</ele><time>2020-10-29T22:29:35Z</time><extensions><speed>5.790000</speed><course>260.507812</course><hAcc>5.000000</hAcc><vAcc>3.000000</vAcc></extensions></trkpt>
      <trkpt lon="-123.275245" lat="44.562033"><ele>71.457527</ele><time>2020-10-29T22:29:36Z</time><extensions><speed>5.790000</speed><course>264.375000</course><hAcc>5.000000</hAcc><vAcc>3.000000</vAcc></extensions></trkpt>
      <trkpt lon="-123.275321" lat="44.562027"><ele>71.631844</ele><time>2020-10-29T22:29:37Z</time><extensions><speed>5.620000</speed><course>264.023438</course><hAcc>5.000000</hAcc><vAcc>3.000000</vAcc></extensions></trkpt>
      <trkpt lon="-123.275391" lat="44.562043"><ele>71.153877</ele><time>2020-10-29T22:29:38Z</time><extensions><speed>5.780000</speed><course>271.406250</course><hAcc>5.000000</hAcc><vAcc>3.000000</vAcc></extensions></trkpt>
      <trkpt lon="-123.275465" lat="44.562043"><ele>71.297310</ele><time>2020-10-29T22:29:39Z</time><extensions><speed>5.780000</speed><course>272.109375</course><hAcc>5.000000</hAcc><vAcc>3.000000</vAcc></extensions></trkpt>
      <trkpt lon="-123.275547" lat="44.562039"><ele>72.274483</ele><time>2020-10-29T22:29:40Z</time><extensions><speed>5.780000</speed><course>267.539062</course><hAcc>5.000000</hAcc><vAcc>3.000000</vAcc></extensions></trkpt>
      <trkpt lon="-123.275621" lat="44.562048"><ele>72.132271</ele><time>2020-10-29T22:29:41Z</time><extensions><speed>5.670000</speed><course>264.023438</course><hAcc>5.000000</hAcc><vAcc>4.000000</vAcc></extensions></trkpt>
      <trkpt lon="-123.275699" lat="44.562039"><ele>72.021309</ele><time>2020-10-29T22:29:42Z</time><extensions><speed>5.610000</speed><course>264.023438</course><hAcc>5.000000</hAcc><vAcc>4.000000</vAcc></extensions></trkpt>
      <trkpt lon="-123.275795" lat="44.562045"><ele>71.277840</ele><time>2020-10-29T22:29:43Z</time><extensions><speed>5.430000</speed><course>267.187500</course><hAcc>5.000000</hAcc><vAcc>3.000000</vAcc></extensions></trkpt>
      <trkpt lon="-123.275877" lat="44.562021"><ele>71.071358</ele><time>2020-10-29T22:29:44Z</time><extensions><speed>5.480000</speed><course>253.125000</course><hAcc>5.000000</hAcc><vAcc>4.000000</vAcc></extensions></trkpt>
      <trkpt lon="-123.275928" lat="44.561990"><ele>72.165474</ele><time>2020-10-29T22:29:45Z</time><extensions><speed>5.480000</speed><course>243.281250</course><hAcc>5.000000</hAcc><vAcc>4.000000</vAcc></extensions></trkpt>
      <trkpt lon="-123.275996" lat="44.561977"><ele>72.371468</ele><time>2020-10-29T22:29:46Z</time><extensions><speed>5.510000</speed><course>251.015625</course><hAcc>5.000000</hAcc><vAcc>4.000000</vAcc></extensions></trkpt>
      <trkpt lon="-123.276064" lat="44.561966"><ele>72.317268</ele><time>2020-10-29T22:29:47Z</time><extensions><speed>5.230000</speed><course>256.992188</course><hAcc>5.000000</hAcc><vAcc>4.000000</vAcc></extensions></trkpt>
      <trkpt lon="-123.276129" lat="44.561956"><ele>72.188301</ele><time>2020-10-29T22:29:48Z</time><extensions><speed>5.240000</speed><course>256.992188</course><hAcc>10.000000</hAcc><vAcc>4.000000</vAcc></extensions></trkpt>
      <trkpt lon="-123.276201" lat="44.561996"><ele>72.464607</ele><time>2020-10-29T22:29:49Z</time><extensions><speed>5.240000</speed><course>277.031250</course><hAcc>5.000000</hAcc><vAcc>4.000000</vAcc></extensions></trkpt>
      <trkpt lon="-123.276256" lat="44.561998"><ele>72.109383</ele><time>2020-10-29T22:29:50Z</time><extensions><speed>5.240000</speed><course>271.757812</course><hAcc>5.000000</hAcc><vAcc>4.000000</vAcc></extensions></trkpt>
      <trkpt lon="-123.276314" lat="44.562000"><ele>72.071541</ele><time>2020-10-29T22:29:51Z</time><extensions><speed>4.500000</speed><course>271.757812</course><hAcc>10.000000</hAcc><vAcc>4.000000</vAcc></extensions></trkpt>
      <trkpt lon="-123.276378" lat="44.561988"><ele>72.245979</ele><time>2020-10-29T22:29:52Z</time><extensions><speed>5.160000</speed><course>261.562500</course><hAcc>10.000000</hAcc><vAcc>4.000000</vAcc></extensions></trkpt>
      <trkpt lon="-123.276500" lat="44.562000"><ele>71.248055</ele><time>2020-10-29T22:29:53Z</time><extensions><speed>5.160000</speed><course>272.812500</course><hAcc>10.000000</hAcc><vAcc>4.000000</vAcc></extensions></trkpt>
      <trkpt lon="-123.276570" lat="44.561984"><ele>71.179268</ele><time>2020-10-29T22:29:54Z</time><extensions><speed>5.460000</speed><course>271.757812</course><hAcc>10.000000</hAcc><vAcc>4.000000</vAcc></extensions></trkpt>
      <trkpt lon="-123.276621" lat="44.561987"><ele>71.178413</ele><time>2020-10-29T22:29:55Z</time><extensions><speed>5.460000</speed><course>276.679688</course><hAcc>5.000000</hAcc><vAcc>4.000000</vAcc></extensions></trkpt>
      <trkpt lon="-123.276684" lat="44.561993"><ele>71.183601</ele><time>2020-10-29T22:29:56Z</time><extensions><speed>5.070000</speed><course>277.031250</course><hAcc>10.000000</hAcc><vAcc>4.000000</vAcc></extensions></trkpt>
      <trkpt lon="-123.276755" lat="44.561992"><ele>71.206245</ele><time>2020-10-29T22:29:57Z</time><extensions><speed>5.470000</speed><course>269.296875</course><hAcc>5.000000</hAcc><vAcc>4.000000</vAcc></extensions></trkpt>
      <trkpt lon="-123.276822" lat="44.561991"><ele>71.197456</ele><time>2020-10-29T22:29:58Z</time><extensions><speed>5.450000</speed><course>269.296875</course><hAcc>10.000000</hAcc><vAcc>4.000000</vAcc></extensions></trkpt>
      <trkpt lon="-123.276894" lat="44.561987"><ele>71.115913</ele><time>2020-10-29T22:29:59Z</time><extensions><speed>5.450000</speed><course>271.054688</course><hAcc>10.000000</hAcc><vAcc>4.000000</vAcc></extensions></trkpt>
      <trkpt lon="-123.276956" lat="44.562025"><ele>71.165474</ele><time>2020-10-29T22:30:00Z</time><extensions><speed>5.440000</speed><course>271.406250</course><hAcc>5.000000</hAcc><vAcc>4.000000</vAcc></extensions></trkpt>
      <trkpt lon="-123.277022" lat="44.562016"><ele>71.231392</ele><time>2020-10-29T22:30:01Z</time><extensions><speed>5.380000</speed><course>268.593750</course><hAcc>5.000000</hAcc><vAcc>4.000000</vAcc></extensions></trkpt>
      <trkpt lon="-123.277107" lat="44.562026"><ele>70.824471</ele><time>2020-10-29T22:30:02Z</time><extensions><speed>5.380000</speed><course>271.406250</course><hAcc>5.000000</hAcc><vAcc>4.000000</vAcc></extensions></trkpt>
      <trkpt lon="-123.277164" lat="44.562024"><ele>71.429024</ele><time>2020-10-29T22:30:03Z</time><extensions><speed>4.920000</speed><course>271.406250</course><hAcc>5.000000</hAcc><vAcc>4.000000</vAcc></extensions></trkpt>
      <trkpt lon="-123.277258" lat="44.562017"><ele>71.189888</ele><time>2020-10-29T22:30:04Z</time><extensions><speed>4.920000</speed><course>262.265625</course><hAcc>5.000000</hAcc><vAcc>4.000000</vAcc></extensions></trkpt>
      <trkpt lon="-123.277325" lat="44.562010"><ele>71.264961</ele><time>2020-10-29T22:30:05Z</time><extensions><speed>5.350000</speed><course>262.265625</course><hAcc>5.000000</hAcc><vAcc>4.000000</vAcc></extensions></trkpt>
      <trkpt lon="-123.277379" lat="44.562006"><ele>71.210335</ele><time>2020-10-29T22:30:06Z</time><extensions><speed>4.920000</speed><course>264.023438</course><hAcc>10.000000</hAcc><vAcc>4.000000</vAcc></extensions></trkpt>
      <trkpt lon="-123.277431" lat="44.562008"><ele>70.982674</ele><time>2020-10-29T22:30:07Z</time><extensions><speed>5.200000</speed><course>267.890625</course><hAcc>10.000000</hAcc><vAcc>4.000000</vAcc></extensions></trkpt>
      <trkpt lon="-123.277490" lat="44.562012"><ele>70.881538</ele><time>2020-10-29T22:30:08Z</time><extensions><speed>5.120000</speed><course>275.273438</course><hAcc>10.000000</hAcc><vAcc>4.000000</vAcc></extensions></trkpt>
      <trkpt lon="-123.277564" lat="44.562016"><ele>70.739388</ele><time>2020-10-29T22:30:09Z</time><extensions><speed>5.120000</speed><course>277.734375</course><hAcc>5.000000</hAcc><vAcc>4.000000</vAcc></extensions></trkpt>
      <trkpt lon="-123.277621" lat="44.562023"><ele>70.888008</ele><time>2020-10-29T22:30:10Z</time><extensions><speed>4.680000</speed><course>277.382812</course><hAcc>5.000000</hAcc><vAcc>4.000000</vAcc></extensions></trkpt>
      <trkpt lon="-123.277671" lat="44.562036"><ele>70.830757</ele><time>2020-10-29T22:30:11Z</time><extensions><speed>4.640000</speed><course>280.195312</course><hAcc>5.000000</hAcc><vAcc>4.000000</vAcc></extensions></trkpt>
      <trkpt lon="-123.277729" lat="44.562044"><ele>70.938728</ele><time>2020-10-29T22:30:12Z</time><extensions><speed>4.640000</speed><course>280.195312</course><hAcc>10.000000</hAcc><vAcc>4.000000</vAcc></extensions></trkpt>
      <trkpt lon="-123.277782" lat="44.562024"><ele>70.633980</ele><time>2020-10-29T22:30:13Z</time><extensions><speed>4.640000</speed><course>272.460938</course><hAcc>5.000000</hAcc><vAcc>4.000000</vAcc></extensions></trkpt>
      <trkpt lon="-123.277846" lat="44.562031"><ele>70.923653</ele><time>2020-10-29T22:30:14Z</time><extensions><speed>4.890000</speed><course>272.812500</course><hAcc>5.000000</hAcc><vAcc>4.000000</vAcc></extensions></trkpt>
      <trkpt lon="-123.277910" lat="44.562034"><ele>71.031807</ele><time>2020-10-29T22:30:15Z</time><extensions><speed>5.060000</speed><course>272.812500</course><hAcc>10.000000</hAcc><vAcc>4.000000</vAcc></extensions></trkpt>
      <trkpt lon="-123.277976" lat="44.562032"><ele>71.362556</ele><time>2020-10-29T22:30:16Z</time><extensions><speed>4.950000</speed><course>273.867188</course><hAcc>5.000000</hAcc><vAcc>4.000000</vAcc></extensions></trkpt>
      <trkpt lon="-123.278035" lat="44.562032"><ele>71.232368</ele><time>2020-10-29T22:30:17Z</time><extensions><speed>5.060000</speed><course>271.406250</course><hAcc>5.000000</hAcc><vAcc>4.000000</vAcc></extensions></trkpt>
      <trkpt lon="-123.278099" lat="44.562033"><ele>71.335945</ele><time>2020-10-29T22:30:18Z</time><extensions><speed>5.060000</speed><course>271.406250</course><hAcc>10.000000</hAcc><vAcc>4.000000</vAcc></extensions></trkpt>
      <trkpt lon="-123.278182" lat="44.562054"><ele>70.757088</ele><time>2020-10-29T22:30:19Z</time><extensions><speed>5.060000</speed><course>277.031250</course><hAcc>5.000000</hAcc><vAcc>4.000000</vAcc></extensions></trkpt>
      <trkpt lon="-123.278261" lat="44.562053"><ele>70.765144</ele><time>2020-10-29T22:30:20Z</time><extensions><speed>5.050000</speed><course>278.085938</course><hAcc>5.000000</hAcc><vAcc>4.000000</vAcc></extensions></trkpt>
      <trkpt lon="-123.278322" lat="44.562057"><ele>70.699409</ele><time>2020-10-29T22:30:21Z</time><extensions><speed>5.210000</speed><course>266.835938</course><hAcc>5.000000</hAcc><vAcc>4.000000</vAcc></extensions></trkpt>
      <trkpt lon="-123.278385" lat="44.562047"><ele>70.542915</ele><time>2020-10-29T22:30:22Z</time><extensions><speed>5.210000</speed><course>279.140625</course><hAcc>5.000000</hAcc><vAcc>4.000000</vAcc></extensions></trkpt>
      <trkpt lon="-123.278456" lat="44.562055"><ele>70.527107</ele><time>2020-10-29T22:30:23Z</time><extensions><speed>5.210000</speed><course>287.578125</course><hAcc>5.000000</hAcc><vAcc>4.000000</vAcc></extensions></trkpt>
      <trkpt lon="-123.278518" lat="44.562076"><ele>70.614632</ele><time>2020-10-29T22:30:24Z</time><extensions><speed>4.960000</speed><course>286.875000</course><hAcc>10.000000</hAcc><vAcc>4.000000</vAcc></extensions></trkpt>
      <trkpt lon="-123.278575" lat="44.562089"><ele>70.772835</ele><time>2020-10-29T22:30:25Z</time><extensions><speed>4.790000</speed><course>286.875000</course><hAcc>10.000000</hAcc><vAcc>4.000000</vAcc></extensions></trkpt>
      <trkpt lon="-123.278641" lat="44.562052"><ele>70.509285</ele><time>2020-10-29T22:30:26Z</time><extensions><speed>4.790000</speed><course>269.648438</course><hAcc>5.000000</hAcc><vAcc>4.000000</vAcc></extensions></trkpt>
      <trkpt lon="-123.278698" lat="44.562052"><ele>70.665108</ele><time>2020-10-29T22:30:27Z</time><extensions><speed>4.520000</speed><course>269.648438</course><hAcc>10.000000</hAcc><vAcc>4.000000</vAcc></extensions></trkpt>
      <trkpt lon="-123.278764" lat="44.562041"><ele>70.736702</ele><time>2020-10-29T22:30:28Z</time><extensions><speed>4.520000</speed><course>268.945312</course><hAcc>10.000000</hAcc><vAcc>4.000000</vAcc></extensions></trkpt>
      <trkpt lon="-123.278826" lat="44.562038"><ele>70.694099</ele><time>2020-10-29T22:30:29Z</time><extensions><speed>5.030000</speed><course>280.546875</course><hAcc>5.000000</hAcc><vAcc>4.000000</vAcc></extensions></trkpt>
      <trkpt lon="-123.278900" lat="44.562052"><ele>71.022957</ele><time>2020-10-29T22:30:30Z</time><extensions><speed>5.200000</speed><course>284.062500</course><hAcc>5.000000</hAcc><vAcc>4.000000</vAcc></extensions></trkpt>
      <trkpt lon="-123.278963" lat="44.562063"><ele>71.080879</ele><time>2020-10-29T22:30:31Z</time><extensions><speed>5.200000</speed><course>284.062500</course><hAcc>10.000000</hAcc><vAcc>4.000000</vAcc></extensions></trkpt>
      <trkpt lon="-123.278993" lat="44.562096"><ele>70.721504</ele><time>2020-10-29T22:30:32Z</time><extensions><speed>5.200000</speed><course>306.210938</course><hAcc>5.000000</hAcc><vAcc>4.000000</vAcc></extensions></trkpt>
      <trkpt lon="-123.279042" lat="44.562114"><ele>70.680428</ele><time>2020-10-29T22:30:33Z</time><extensions><speed>4.770000</speed><course>304.101562</course><hAcc>5.000000</hAcc><vAcc>4.000000</vAcc></extensions></trkpt>
      <trkpt lon="-123.279095" lat="44.562146"><ele>71.056648</ele><time>2020-10-29T22:30:34Z</time><extensions><speed>5.150000</speed><course>307.968750</course><hAcc>5.000000</hAcc><vAcc>4.000000</vAcc></extensions></trkpt>
      <trkpt lon="-123.279146" lat="44.562175"><ele>71.159309</ele><time>2020-10-29T22:30:35Z</time><extensions><speed>5.150000</speed><course>307.968750</course><hAcc>10.000000</hAcc><vAcc>4.000000</vAcc></extensions></trkpt>
      <trkpt lon="-123.279153" lat="44.562203"><ele>71.467232</ele><time>2020-10-29T22:30:36Z</time><extensions><speed>5.150000</speed><course>320.976562</course><hAcc>5.000000</hAcc><vAcc>4.000000</vAcc></extensions></trkpt>
      <trkpt lon="-123.279191" lat="44.562237"><ele>71.507881</ele><time>2020-10-29T22:30:37Z</time><extensions><speed>4.850000</speed><course>321.328125</course><hAcc>5.000000</hAcc><vAcc>4.000000</vAcc></extensions></trkpt>
      <trkpt lon="-123.279218" lat="44.562280"><ele>71.085457</ele><time>2020-10-29T22:30:38Z</time><extensions><speed>4.660000</speed><course>334.335938</course><hAcc>5.000000</hAcc><vAcc>4.000000</vAcc></extensions></trkpt>
      <trkpt lon="-123.279256" lat="44.562331"><ele>70.679573</ele><time>2020-10-29T22:30:39Z</time><extensions><speed>5.400000</speed><course>324.843750</course><hAcc>5.000000</hAcc><vAcc>4.000000</vAcc></extensions></trkpt>
      <trkpt lon="-123.279291" lat="44.562370"><ele>70.736092</ele><time>2020-10-29T22:30:40Z</time><extensions><speed>5.370000</speed><course>325.195312</course><hAcc>5.000000</hAcc><vAcc>4.000000</vAcc></extensions></trkpt>
      <trkpt lon="-123.279277" lat="44.562396"><ele>70.964294</ele><time>2020-10-29T22:30:41Z</time><extensions><speed>5.370000</speed><course>325.898438</course><hAcc>5.000000</hAcc><vAcc>4.000000</vAcc></extensions></trkpt>
      <trkpt lon="-123.279319" lat="44.562427"><ele>70.874748</ele><time>2020-10-29T22:30:42Z</time><extensions><speed>5.050000</speed><course>319.921875</course><hAcc>5.000000</hAcc><vAcc>4.000000</vAcc></extensions></trkpt>
      <trkpt lon="-123.279402" lat="44.562466"><ele>70.724785</ele><time>2020-10-29T22:30:43Z</time><extensions><speed>6.000000</speed><course>306.562500</course><hAcc>5.000000</hAcc><vAcc>4.000000</vAcc></extensions></trkpt>
      <trkpt lon="-123.279428" lat="44.562490"><ele>70.211403</ele><time>2020-10-29T22:30:44Z</time><extensions><speed>5.560000</speed><course>282.304688</course><hAcc>5.000000</hAcc><vAcc>4.000000</vAcc></extensions></trkpt>
      <trkpt lon="-123.279494" lat="44.562500"><ele>70.445557</ele><time>2020-10-29T22:30:45Z</time><extensions><speed>5.560000</speed><course>285.820312</course><hAcc>5.000000</hAcc><vAcc>4.000000</vAcc></extensions></trkpt>
      <trkpt lon="-123.279523" lat="44.562530"><ele>70.706032</ele><time>2020-10-29T22:30:46Z</time><extensions><speed>5.020000</speed><course>317.109375</course><hAcc>5.000000</hAcc><vAcc>4.000000</vAcc></extensions></trkpt>
      <trkpt lon="-123.279528" lat="44.562551"><ele>70.968132</ele><time>2020-10-29T22:30:47Z</time><extensions><speed>3.920000</speed><course>352.265625</course><hAcc>5.000000</hAcc><vAcc>4.000000</vAcc></extensions></trkpt>
      <trkpt lon="-123.279538" lat="44.562584"><ele>70.953300</ele><time>2020-10-29T22:30:48Z</time><extensions><speed>4.320000</speed><course>351.914062</course><hAcc>5.000000</hAcc><vAcc>4.000000</vAcc></extensions></trkpt>
      <trkpt lon="-123.279545" lat="44.562623"><ele>70.961159</ele><time>2020-10-29T22:30:49Z</time><extensions><speed>4.320000</speed><course>351.914062</course><hAcc>5.000000</hAcc><vAcc>4.000000</vAcc></extensions></trkpt>
      <trkpt lon="-123.279499" lat="44.562695"><ele>71.324013</ele><time>2020-10-29T22:30:50Z</time><extensions><speed>4.320000</speed><course>357.890625</course><hAcc>5.000000</hAcc><vAcc>4.000000</vAcc></extensions></trkpt>
      <trkpt lon="-123.279545" lat="44.562761"><ele>71.180817</ele><time>2020-10-29T22:30:51Z</time><extensions><speed>4.150000</speed><course>356.132812</course><hAcc>5.000000</hAcc><vAcc>4.000000</vAcc></extensions></trkpt>
      <trkpt lon="-123.279548" lat="44.562798"><ele>71.175537</ele><time>2020-10-29T22:30:52Z</time><extensions><speed>4.150000</speed><course>356.132812</course><hAcc>5.000000</hAcc><vAcc>4.000000</vAcc></extensions></trkpt>
      <trkpt lon="-123.279534" lat="44.562842"><ele>71.452431</ele><time>2020-10-29T22:30:53Z</time><extensions><speed>4.150000</speed><course>358.242188</course><hAcc>10.000000</hAcc><vAcc>4.000000</vAcc></extensions></trkpt>
      <trkpt lon="-123.279536" lat="44.562887"><ele>71.534447</ele><time>2020-10-29T22:30:54Z</time><extensions><speed>4.990000</speed><course>358.242188</course><hAcc>10.000000</hAcc><vAcc>4.000000</vAcc></extensions></trkpt>
      <trkpt lon="-123.279479" lat="44.562925"><ele>71.692047</ele><time>2020-10-29T22:30:55Z</time><extensions><speed>4.990000</speed><course>1.054688</course><hAcc>5.000000</hAcc><vAcc>4.000000</vAcc></extensions></trkpt>
      <trkpt lon="-123.279409" lat="44.562946"><ele>71.726006</ele><time>2020-10-29T22:30:56Z</time><extensions><speed>4.840000</speed><course>13.359375</course><hAcc>10.000000</hAcc><vAcc>4.000000</vAcc></extensions></trkpt>
      <trkpt lon="-123.279357" lat="44.562991"><ele>71.538475</ele><time>2020-10-29T22:30:57Z</time><extensions><speed>4.840000</speed><course>3.867188</course><hAcc>10.000000</hAcc><vAcc>4.000000</vAcc></extensions></trkpt>
      <trkpt lon="-123.279334" lat="44.563043"><ele>71.797165</ele><time>2020-10-29T22:30:58Z</time><extensions><speed>4.840000</speed><course>358.945312</course><hAcc>10.000000</hAcc><vAcc>4.000000</vAcc></extensions></trkpt>
      <trkpt lon="-123.279362" lat="44.563109"><ele>72.364449</ele><time>2020-10-29T22:30:59Z</time><extensions><speed>4.460000</speed><course>353.320312</course><hAcc>10.000000</hAcc><vAcc>4.000000</vAcc></extensions></trkpt>
      <trkpt lon="-123.279367" lat="44.563143"><ele>72.142761</ele><time>2020-10-29T22:31:00Z</time><extensions><speed>3.760000</speed><course>353.320312</course><hAcc>10.000000</hAcc><vAcc>4.000000</vAcc></extensions></trkpt>
      <trkpt lon="-123.279384" lat="44.563197"><ele>71.673065</ele><time>2020-10-29T22:31:01Z</time><extensions><speed>4.490000</speed><course>356.835938</course><hAcc>5.000000</hAcc><vAcc>4.000000</vAcc></extensions></trkpt>
      <trkpt lon="-123.279381" lat="44.563227"><ele>71.885300</ele><time>2020-10-29T22:31:02Z</time><extensions><speed>4.050000</speed><course>358.945312</course><hAcc>5.000000</hAcc><vAcc>4.000000</vAcc></extensions></trkpt>
      <trkpt lon="-123.279378" lat="44.563258"><ele>71.883385</ele><time>2020-10-29T22:31:03Z</time><extensions><speed>4.050000</speed><course>3.164062</course><hAcc>5.000000</hAcc><vAcc>4.000000</vAcc></extensions></trkpt>
      <trkpt lon="-123.279365" lat="44.563284"><ele>71.805588</ele><time>2020-10-29T22:31:04Z</time><extensions><speed>3.860000</speed><course>10.898438</course><hAcc>5.000000</hAcc><vAcc>4.000000</vAcc></extensions></trkpt>
      <trkpt lon="-123.279351" lat="44.563294"><ele>71.704865</ele><time>2020-10-29T22:31:05Z</time><extensions><speed>1.180000</speed><course>16.171875</course><hAcc>5.000000</hAcc><vAcc>4.000000</vAcc></extensions></trkpt>
      <trkpt lon="-123.279341" lat="44.563297"><ele>71.677139</ele><time>2020-10-29T22:31:06Z</time><extensions><speed>1.280000</speed><course>13.359375</course><hAcc>5.000000</hAcc><vAcc>4.000000</vAcc></extensions></trkpt>
      <trkpt lon="-123.279336" lat="44.563303"><ele>71.699234</ele><time>2020-10-29T22:31:07Z</time><extensions><speed>1.180000</speed><course>15.117188</course><hAcc>5.000000</hAcc><vAcc>4.000000</vAcc></extensions></trkpt>
      <trkpt lon="-123.279336" lat="44.563303"><ele>71.615494</ele><time>2020-10-29T22:31:08Z</time><extensions><speed>0.000000</speed><course>15.117188</course><hAcc>5.000000</hAcc><vAcc>4.000000</vAcc></extensions></trkpt>
      <trkpt lon="-123.279336" lat="44.563303"><ele>71.626877</ele><time>2020-10-29T22:31:09Z</time><extensions><speed>0.000000</speed><course>15.117188</course><hAcc>5.000000</hAcc><vAcc>4.000000</vAcc></extensions></trkpt>
      <trkpt lon="-123.279336" lat="44.563303"><ele>71.715973</ele><time>2020-10-29T22:31:10Z</time><extensions><speed>0.000000</speed><course>15.117188</course><hAcc>5.000000</hAcc><vAcc>4.000000</vAcc></extensions></trkpt>
      <trkpt lon="-123.279336" lat="44.563303"><ele>71.769699</ele><time>2020-10-29T22:31:11Z</time><extensions><speed>0.000000</speed><course>15.117188</course><hAcc>5.000000</hAcc><vAcc>4.000000</vAcc></extensions></trkpt>
      <trkpt lon="-123.279336" lat="44.563303"><ele>71.706543</ele><time>2020-10-29T22:31:12Z</time><extensions><speed>0.000000</speed><course>15.117188</course><hAcc>5.000000</hAcc><vAcc>4.000000</vAcc></extensions></trkpt>
      <trkpt lon="-123.279326" lat="44.563293"><ele>71.610641</ele><time>2020-10-29T22:31:13Z</time><extensions><speed>0.230000</speed><course>15.117188</course><hAcc>5.000000</hAcc><vAcc>4.000000</vAcc></extensions></trkpt>
      <trkpt lon="-123.279326" lat="44.563293"><ele>71.618629</ele><time>2020-10-29T22:31:14Z</time><extensions><speed>0.000000</speed><course>15.117188</course><hAcc>5.000000</hAcc><vAcc>4.000000</vAcc></extensions></trkpt>
      <trkpt lon="-123.279326" lat="44.563293"><ele>71.610023</ele><time>2020-10-29T22:31:15Z</time><extensions><speed>0.000000</speed><course>15.117188</course><hAcc>5.000000</hAcc><vAcc>4.000000</vAcc></extensions></trkpt>
      <trkpt lon="-123.279326" lat="44.563293"><ele>71.548775</ele><time>2020-10-29T22:31:16Z</time><extensions><speed>0.000000</speed><course>15.117188</course><hAcc>5.000000</hAcc><vAcc>4.000000</vAcc></extensions></trkpt>
      <trkpt lon="-123.279326" lat="44.563293"><ele>71.641342</ele><time>2020-10-29T22:31:17Z</time><extensions><speed>0.000000</speed><course>15.117188</course><hAcc>5.000000</hAcc><vAcc>4.000000</vAcc></extensions></trkpt>
      <trkpt lon="-123.279326" lat="44.563293"><ele>71.691071</ele><time>2020-10-29T22:31:18Z</time><extensions><speed>0.000000</speed><course>15.117188</course><hAcc>5.000000</hAcc><vAcc>4.000000</vAcc></extensions></trkpt>
      <trkpt lon="-123.279326" lat="44.563293"><ele>71.679657</ele><time>2020-10-29T22:31:19Z</time><extensions><speed>0.000000</speed><course>15.117188</course><hAcc>5.000000</hAcc><vAcc>4.000000</vAcc></extensions></trkpt>
      <trkpt lon="-123.279326" lat="44.563293"><ele>71.671516</ele><time>2020-10-29T22:31:20Z</time><extensions><speed>0.000000</speed><course>15.117188</course><hAcc>5.000000</hAcc><vAcc>4.000000</vAcc></extensions></trkpt>
      <trkpt lon="-123.279326" lat="44.563293"><ele>71.638916</ele><time>2020-10-29T22:31:21Z</time><extensions><speed>0.000000</speed><course>15.117188</course><hAcc>5.000000</hAcc><vAcc>4.000000</vAcc></extensions></trkpt>
      <trkpt lon="-123.279326" lat="44.563293"><ele>71.714371</ele><time>2020-10-29T22:31:22Z</time><extensions><speed>0.000000</speed><course>15.117188</course><hAcc>5.000000</hAcc><vAcc>4.000000</vAcc></extensions></trkpt>
      <trkpt lon="-123.279326" lat="44.563293"><ele>71.698532</ele><time>2020-10-29T22:31:23Z</time><extensions><speed>0.000000</speed><course>15.117188</course><hAcc>5.000000</hAcc><vAcc>4.000000</vAcc></extensions></trkpt>
      <trkpt lon="-123.279297" lat="44.563249"><ele>71.709351</ele><time>2020-10-29T22:31:24Z</time><extensions><speed>0.000000</speed><course>15.117188</course><hAcc>5.000000</hAcc><vAcc>4.000000</vAcc></extensions></trkpt>
      <trkpt lon="-123.279297" lat="44.563249"><ele>71.660248</ele><time>2020-10-29T22:31:25Z</time><extensions><speed>0.000000</speed><course>15.117188</course><hAcc>5.000000</hAcc><vAcc>4.000000</vAcc></extensions></trkpt>
      <trkpt lon="-123.279297" lat="44.563249"><ele>71.638069</ele><time>2020-10-29T22:31:26Z</time><extensions><speed>0.000000</speed><course>15.117188</course><hAcc>5.000000</hAcc><vAcc>4.000000</vAcc></extensions></trkpt>
      <trkpt lon="-123.279297" lat="44.563249"><ele>72.387535</ele><time>2020-10-29T22:31:27Z</time><extensions><speed>0.000000</speed><course>15.117188</course><hAcc>5.000000</hAcc><vAcc>4.000000</vAcc></extensions></trkpt>
      <trkpt lon="-123.279297" lat="44.563249"><ele>72.901245</ele><time>2020-10-29T22:31:28Z</time><extensions><speed>0.000000</speed><course>15.117188</course><hAcc>5.000000</hAcc><vAcc>4.000000</vAcc></extensions></trkpt>
      <trkpt lon="-123.279297" lat="44.563249"><ele>73.346703</ele><time>2020-10-29T22:31:29Z</time><extensions><speed>0.000000</speed><course>15.117188</course><hAcc>5.000000</hAcc><vAcc>4.000000</vAcc></extensions></trkpt>
      <trkpt lon="-123.279297" lat="44.563249"><ele>73.771500</ele><time>2020-10-29T22:31:30Z</time><extensions><speed>0.000000</speed><course>15.117188</course><hAcc>5.000000</hAcc><vAcc>4.000000</vAcc></extensions></trkpt>
      <trkpt lon="-123.279297" lat="44.563249"><ele>74.221786</ele><time>2020-10-29T22:31:31Z</time><extensions><speed>0.000000</speed><course>15.117188</course><hAcc>5.000000</hAcc><vAcc>4.000000</vAcc></extensions></trkpt>
      <trkpt lon="-123.279297" lat="44.563249"><ele>74.603600</ele><time>2020-10-29T22:31:32Z</time><extensions><speed>0.000000</speed><course>15.117188</course><hAcc>5.000000</hAcc><vAcc>4.000000</vAcc></extensions></trkpt>
      <trkpt lon="-123.279297" lat="44.563249"><ele>75.070435</ele><time>2020-10-29T22:31:33Z</time><extensions><speed>0.000000</speed><course>15.117188</course><hAcc>5.000000</hAcc><vAcc>4.000000</vAcc></extensions></trkpt>
      <trkpt lon="-123.279297" lat="44.563249"><ele>75.506851</ele><time>2020-10-29T22:31:34Z</time><extensions><speed>0.000000</speed><course>15.117188</course><hAcc>5.000000</hAcc><vAcc>4.000000</vAcc></extensions></trkpt>
      <trkpt lon="-123.279297" lat="44.563249"><ele>75.739326</ele><time>2020-10-29T22:31:35Z</time><extensions><speed>0.000000</speed><course>15.117188</course><hAcc>5.000000</hAcc><vAcc>4.000000</vAcc></extensions></trkpt>
      <trkpt lon="-123.279297" lat="44.563249"><ele>76.105042</ele><time>2020-10-29T22:31:36Z</time><extensions><speed>0.000000</speed><course>15.117188</course><hAcc>5.000000</hAcc><vAcc>4.000000</vAcc></extensions></trkpt>
      <trkpt lon="-123.279297" lat="44.563249"><ele>76.455338</ele><time>2020-10-29T22:31:37Z</time><extensions><speed>0.000000</speed><course>15.117188</course><hAcc>5.000000</hAcc><vAcc>3.000000</vAcc></extensions></trkpt>
      <trkpt lon="-123.279297" lat="44.563249"><ele>76.775940</ele><time>2020-10-29T22:31:38Z</time><extensions><speed>0.000000</speed><course>15.117188</course><hAcc>5.000000</hAcc><vAcc>4.000000</vAcc></extensions></trkpt>
      <trkpt lon="-123.279297" lat="44.563249"><ele>77.077576</ele><time>2020-10-29T22:31:39Z</time><extensions><speed>0.000000</speed><course>15.117188</course><hAcc>5.000000</hAcc><vAcc>3.000000</vAcc></extensions></trkpt>
      <trkpt lon="-123.279297" lat="44.563249"><ele>77.423393</ele><time>2020-10-29T22:31:40Z</time><extensions><speed>0.000000</speed><course>15.117188</course><hAcc>5.000000</hAcc><vAcc>3.000000</vAcc></extensions></trkpt>
      <trkpt lon="-123.279297" lat="44.563249"><ele>77.742378</ele><time>2020-10-29T22:31:41Z</time><extensions><speed>0.000000</speed><course>15.117188</course><hAcc>5.000000</hAcc><vAcc>3.000000</vAcc></extensions></trkpt>
      <trkpt lon="-123.279297" lat="44.563249"><ele>78.006203</ele><time>2020-10-29T22:31:42Z</time><extensions><speed>0.000000</speed><course>15.117188</course><hAcc>5.000000</hAcc><vAcc>3.000000</vAcc></extensions></trkpt>
      <trkpt lon="-123.279297" lat="44.563249"><ele>78.267563</ele><time>2020-10-29T22:31:43Z</time><extensions><speed>0.000000</speed><course>15.117188</course><hAcc>5.000000</hAcc><vAcc>3.000000</vAcc></extensions></trkpt>
      <trkpt lon="-123.279297" lat="44.563249"><ele>78.452232</ele><time>2020-10-29T22:31:44Z</time><extensions><speed>0.000000</speed><course>-1.000000</course><hAcc>5.000000</hAcc><vAcc>3.000000</vAcc></extensions></trkpt>
      <trkpt lon="-123.279297" lat="44.563249"><ele>78.679199</ele><time>2020-10-29T22:31:45Z</time><extensions><speed>0.000000</speed><course>-1.000000</course><hAcc>5.000000</hAcc><vAcc>4.000000</vAcc></extensions></trkpt>
      <trkpt lon="-123.279296" lat="44.563247"><ele>78.921196</ele><time>2020-10-29T22:31:46Z</time><extensions><speed>0.300000</speed><course>33.046875</course><hAcc>5.000000</hAcc><vAcc>3.000000</vAcc></extensions></trkpt>
      <trkpt lon="-123.279299" lat="44.563243"><ele>79.083839</ele><time>2020-10-29T22:31:47Z</time><extensions><speed>1.250000</speed><course>191.601562</course><hAcc>5.000000</hAcc><vAcc>3.000000</vAcc></extensions></trkpt>
      <trkpt lon="-123.279304" lat="44.563234"><ele>79.275116</ele><time>2020-10-29T22:31:48Z</time><extensions><speed>1.160000</speed><course>191.250000</course><hAcc>5.000000</hAcc><vAcc>3.000000</vAcc></extensions></trkpt>
      <trkpt lon="-123.279306" lat="44.563227"><ele>79.480621</ele><time>2020-10-29T22:31:49Z</time><extensions><speed>1.250000</speed><course>177.539062</course><hAcc>5.000000</hAcc><vAcc>4.000000</vAcc></extensions></trkpt>
      <trkpt lon="-123.279309" lat="44.563219"><ele>79.669670</ele><time>2020-10-29T22:31:50Z</time><extensions><speed>1.160000</speed><course>186.328125</course><hAcc>5.000000</hAcc><vAcc>4.000000</vAcc></extensions></trkpt>
      <trkpt lon="-123.279315" lat="44.563212"><ele>79.280136</ele><time>2020-10-29T22:31:51Z</time><extensions><speed>2.060000</speed><course>185.625000</course><hAcc>5.000000</hAcc><vAcc>4.000000</vAcc></extensions></trkpt>
      <trkpt lon="-123.279311" lat="44.563204"><ele>79.441559</ele><time>2020-10-29T22:31:52Z</time><extensions><speed>2.060000</speed><course>153.984375</course><hAcc>5.000000</hAcc><vAcc>4.000000</vAcc></extensions></trkpt>
      <trkpt lon="-123.279303" lat="44.563198"><ele>79.429787</ele><time>2020-10-29T22:31:53Z</time><extensions><speed>1.150000</speed><course>138.164062</course><hAcc>5.000000</hAcc><vAcc>4.000000</vAcc></extensions></trkpt>
      <trkpt lon="-123.279296" lat="44.563189"><ele>79.387093</ele><time>2020-10-29T22:31:54Z</time><extensions><speed>1.150000</speed><course>175.078125</course><hAcc>5.000000</hAcc><vAcc>4.000000</vAcc></extensions></trkpt>
      <trkpt lon="-123.279300" lat="44.563178"><ele>79.061348</ele><time>2020-10-29T22:31:55Z</time><extensions><speed>1.360000</speed><course>203.203125</course><hAcc>5.000000</hAcc><vAcc>4.000000</vAcc></extensions></trkpt>
      <trkpt lon="-123.279299" lat="44.563171"><ele>78.803246</ele><time>2020-10-29T22:31:56Z</time><extensions><speed>0.910000</speed><course>99.843750</course><hAcc>5.000000</hAcc><vAcc>4.000000</vAcc></extensions></trkpt>
      <trkpt lon="-123.279288" lat="44.563167"><ele>78.599052</ele><time>2020-10-29T22:31:57Z</time><extensions><speed>1.220000</speed><course>105.468750</course><hAcc>5.000000</hAcc><vAcc>4.000000</vAcc></extensions></trkpt>
      <trkpt lon="-123.279273" lat="44.563164"><ele>78.468788</ele><time>2020-10-29T22:31:58Z</time><extensions><speed>0.920000</speed><course>115.312500</course><hAcc>5.000000</hAcc><vAcc>4.000000</vAcc></extensions></trkpt>
      <trkpt lon="-123.279261" lat="44.563167"><ele>78.450333</ele><time>2020-10-29T22:31:59Z</time><extensions><speed>0.920000</speed><course>4.218750</course><hAcc>5.000000</hAcc><vAcc>3.000000</vAcc></extensions></trkpt>
      <trkpt lon="-123.279256" lat="44.563176"><ele>78.192635</ele><time>2020-10-29T22:32:00Z</time><extensions><speed>1.230000</speed><course>323.437500</course><hAcc>5.000000</hAcc><vAcc>3.000000</vAcc></extensions></trkpt>
      <trkpt lon="-123.279261" lat="44.563192"><ele>78.368797</ele><time>2020-10-29T22:32:01Z</time><extensions><speed>1.430000</speed><course>343.125000</course><hAcc>5.000000</hAcc><vAcc>3.000000</vAcc></extensions></trkpt>
      <trkpt lon="-123.279264" lat="44.563202"><ele>78.250786</ele><time>2020-10-29T22:32:02Z</time><extensions><speed>1.230000</speed><course>23.906250</course><hAcc>5.000000</hAcc><vAcc>3.000000</vAcc></extensions></trkpt>
      <trkpt lon="-123.279260" lat="44.563210"><ele>78.275131</ele><time>2020-10-29T22:32:03Z</time><extensions><speed>0.810000</speed><course>43.593750</course><hAcc>5.000000</hAcc><vAcc>3.000000</vAcc></extensions></trkpt>
      <trkpt lon="-123.279247" lat="44.563215"><ele>78.090210</ele><time>2020-10-29T22:32:04Z</time><extensions><speed>0.810000</speed><course>87.539062</course><hAcc>5.000000</hAcc><vAcc>3.000000</vAcc></extensions></trkpt>
      <trkpt lon="-123.279232" lat="44.563215"><ele>77.995956</ele><time>2020-10-29T22:32:05Z</time><extensions><speed>0.540000</speed><course>91.406250</course><hAcc>5.000000</hAcc><vAcc>3.000000</vAcc></extensions></trkpt>
      <trkpt lon="-123.279219" lat="44.563217"><ele>77.954460</ele><time>2020-10-29T22:32:06Z</time><extensions><speed>0.920000</speed><course>11.953125</course><hAcc>5.000000</hAcc><vAcc>3.000000</vAcc></extensions></trkpt>
      <trkpt lon="-123.279207" lat="44.563222"><ele>77.860130</ele><time>2020-10-29T22:32:07Z</time><extensions><speed>0.840000</speed><course>18.632812</course><hAcc>5.000000</hAcc><vAcc>3.000000</vAcc></extensions></trkpt>
      <trkpt lon="-123.279199" lat="44.563232"><ele>77.817924</ele><time>2020-10-29T22:32:08Z</time><extensions><speed>0.920000</speed><course>14.765625</course><hAcc>5.000000</hAcc><vAcc>3.000000</vAcc></extensions></trkpt>
      <trkpt lon="-123.279189" lat="44.563246"><ele>78.005600</ele><time>2020-10-29T22:32:09Z</time><extensions><speed>1.610000</speed><course>17.929688</course><hAcc>5.000000</hAcc><vAcc>3.000000</vAcc></extensions></trkpt>
      <trkpt lon="-123.279178" lat="44.563257"><ele>78.018463</ele><time>2020-10-29T22:32:10Z</time><extensions><speed>1.610000</speed><course>22.148438</course><hAcc>5.000000</hAcc><vAcc>3.000000</vAcc></extensions></trkpt>
      <trkpt lon="-123.279169" lat="44.563264"><ele>78.003540</ele><time>2020-10-29T22:32:11Z</time><extensions><speed>1.030000</speed><course>28.476562</course><hAcc>5.000000</hAcc><vAcc>3.000000</vAcc></extensions></trkpt>
      <trkpt lon="-123.279160" lat="44.563269"><ele>78.088623</ele><time>2020-10-29T22:32:12Z</time><extensions><speed>0.950000</speed><course>30.585938</course><hAcc>5.000000</hAcc><vAcc>3.000000</vAcc></extensions></trkpt>
      <trkpt lon="-123.279152" lat="44.563276"><ele>78.092880</ele><time>2020-10-29T22:32:13Z</time><extensions><speed>0.970000</speed><course>31.289062</course><hAcc>5.000000</hAcc><vAcc>3.000000</vAcc></extensions></trkpt>
      <trkpt lon="-123.279142" lat="44.563284"><ele>78.161087</ele><time>2020-10-29T22:32:14Z</time><extensions><speed>1.250000</speed><course>36.562500</course><hAcc>10.000000</hAcc><vAcc>3.000000</vAcc></extensions></trkpt>
      <trkpt lon="-123.279135" lat="44.563293"><ele>78.075790</ele><time>2020-10-29T22:32:15Z</time><extensions><speed>1.090000</speed><course>35.859375</course><hAcc>10.000000</hAcc><vAcc>3.000000</vAcc></extensions></trkpt>
      <trkpt lon="-123.279133" lat="44.563298"><ele>78.046745</ele><time>2020-10-29T22:32:16Z</time><extensions><speed>1.090000</speed><course>38.320312</course><hAcc>10.000000</hAcc><vAcc>3.000000</vAcc></extensions></trkpt>
      <trkpt lon="-123.279135" lat="44.563301"><ele>78.048943</ele><time>2020-10-29T22:32:17Z</time><extensions><speed>0.670000</speed><course>24.960938</course><hAcc>10.000000</hAcc><vAcc>3.000000</vAcc></extensions></trkpt>
      <trkpt lon="-123.279128" lat="44.563308"><ele>78.022354</ele><time>2020-10-29T22:32:18Z</time><extensions><speed>1.440000</speed><course>48.867188</course><hAcc>10.000000</hAcc><vAcc>3.000000</vAcc></extensions></trkpt>
      <trkpt lon="-123.279118" lat="44.563318"><ele>78.157570</ele><time>2020-10-29T22:32:19Z</time><extensions><speed>1.450000</speed><course>49.921875</course><hAcc>10.000000</hAcc><vAcc>3.000000</vAcc></extensions></trkpt>
      <trkpt lon="-123.279107" lat="44.563320"><ele>78.149055</ele><time>2020-10-29T22:32:20Z</time><extensions><speed>1.440000</speed><course>56.250000</course><hAcc>10.000000</hAcc><vAcc>3.000000</vAcc></extensions></trkpt>
      <trkpt lon="-123.279103" lat="44.563321"><ele>78.241524</ele><time>2020-10-29T22:32:21Z</time><extensions><speed>0.690000</speed><course>38.671875</course><hAcc>10.000000</hAcc><vAcc>3.000000</vAcc></extensions></trkpt>
      <trkpt lon="-123.279105" lat="44.563325"><ele>78.015091</ele><time>2020-10-29T22:32:22Z</time><extensions><speed>0.690000</speed><course>354.375000</course><hAcc>30.000000</hAcc><vAcc>3.000000</vAcc></extensions></trkpt>
      <trkpt lon="-123.279113" lat="44.563328"><ele>78.145805</ele><time>2020-10-29T22:32:23Z</time><extensions><speed>0.830000</speed><course>319.921875</course><hAcc>30.000000</hAcc><vAcc>3.000000</vAcc></extensions></trkpt>
      <trkpt lon="-123.279120" lat="44.563333"><ele>78.122597</ele><time>2020-10-29T22:32:24Z</time><extensions><speed>0.830000</speed><course>316.757812</course><hAcc>30.000000</hAcc><vAcc>3.000000</vAcc></extensions></trkpt>
      <trkpt lon="-123.279124" lat="44.563339"><ele>78.084030</ele><time>2020-10-29T22:32:25Z</time><extensions><speed>0.830000</speed><course>329.414062</course><hAcc>30.000000</hAcc><vAcc>3.000000</vAcc></extensions></trkpt>
      <trkpt lon="-123.279125" lat="44.563344"><ele>78.129768</ele><time>2020-10-29T22:32:26Z</time><extensions><speed>0.780000</speed><course>352.617188</course><hAcc>30.000000</hAcc><vAcc>3.000000</vAcc></extensions></trkpt>
      <trkpt lon="-123.279122" lat="44.563349"><ele>78.060623</ele><time>2020-10-29T22:32:27Z</time><extensions><speed>0.780000</speed><course>2.109375</course><hAcc>30.000000</hAcc><vAcc>3.000000</vAcc></extensions></trkpt>
      <trkpt lon="-123.279119" lat="44.563358"><ele>78.061111</ele><time>2020-10-29T22:32:28Z</time><extensions><speed>0.880000</speed><course>0.351562</course><hAcc>30.000000</hAcc><vAcc>3.000000</vAcc></extensions></trkpt>
    </trkseg>
  </trk>
</gpx>