<?xml version="1.0" encoding="UTF-8"?>
<gpx version="1.1" creator="Apple Health Export" xmlns="http://www.topografix.com/GPX/1/1" xmlns:xsi="http://www.w3.org/2001/XMLSchema-instance" xsi:schemaLocation="http://www.topografix.com/GPX/1/1 http://www.topografix.com/GPX/1/1/gpx.xsd">
  <metadata>
    <time>2021-02-21T19:24:49Z</time>
  </metadata>
  <trk>
    <name>Route 2021-01-17 1:52pm</name>
    <trkseg>
      <trkpt lon="-123.271013" lat="44.560053"><ele>0.000000</ele><time>2021-01-17T21:52:57Z</time><extensions><speed>-1.000000</speed><course>-1.000000</course><hAcc>0.000000</hAcc><vAcc>-1.000000</vAcc></extensions></trkpt>
      <trkpt lon="-123.271362" lat="44.560152"><ele>0.000000</ele><time>2021-01-17T21:52:57Z</time><extensions><speed>-1.000000</speed><course>-1.000000</course><hAcc>0.000000</hAcc><vAcc>-1.000000</vAcc></extensions></trkpt>
      <trkpt lon="-123.271562" lat="44.560172"><ele>0.000000</ele><time>2021-01-17T21:52:57Z</time><extensions><speed>-1.000000</speed><course>-1.000000</course><hAcc>0.000000</hAcc><vAcc>-1.000000</vAcc></extensions></trkpt>
      <trkpt lon="-123.271686" lat="44.560169"><ele>0.000000</ele><time>2021-01-17T21:52:57Z</time><extensions><speed>-1.000000</speed><course>-1.000000</course><hAcc>0.000000</hAcc><vAcc>-1.000000</vAcc></extensions></trkpt>
      <trkpt lon="-123.271870" lat="44.560163"><ele>0.000000</ele><time>2021-01-17T21:52:57Z</time><extensions><speed>-1.000000</speed><course>-1.000000</course><hAcc>0.000000</hAcc><vAcc>-1.000000</vAcc></extensions></trkpt>
      <trkpt lon="-123.271984" lat="44.560160"><ele>0.000000</ele><time>2021-01-17T21:52:57Z</time><extensions><speed>-1.000000</speed><course>-1.000000</course><hAcc>0.000000</hAcc><vAcc>-1.000000</vAcc></extensions></trkpt>
      <trkpt lon="-123.272345" lat="44.560139"><ele>0.000000</ele><time>2021-01-17T21:52:57Z</time><extensions><speed>-1.000000</speed><course>-1.000000</course><hAcc>0.000000</hAcc><vAcc>-1.000000</vAcc></extensions></trkpt>
      <trkpt lon="-123.272457" lat="44.560126"><ele>0.000000</ele><time>2021-01-17T21:52:57Z</time><extensions><speed>-1.000000</speed><course>-1.000000</course><hAcc>0.000000</hAcc><vAcc>-1.000000</vAcc></extensions></trkpt>
      <trkpt lon="-123.272894" lat="44.560119"><ele>0.000000</ele><time>2021-01-17T21:52:57Z</time><extensions><speed>-1.000000</speed><course>-1.000000</course><hAcc>0.000000</hAcc><vAcc>-1.000000</vAcc></extensions></trkpt>
      <trkpt lon="-123.273109" lat="44.560093"><ele>0.000000</ele><time>2021-01-17T21:52:57Z</time><extensions><speed>-1.000000</speed><course>-1.000000</course><hAcc>0.000000</hAcc><vAcc>-1.000000</vAcc></extensions></trkpt>
      <trkpt lon="-123.273380" lat="44.560056"><ele>0.000000</ele><time>2021-01-17T21:52:57Z</time><extensions><speed>-1.000000</speed><course>-1.000000</course><hAcc>0.000000</hAcc><vAcc>-1.000000</vAcc></extensions></trkpt>
      <trkpt lon="-123.273631" lat="44.560014"><ele>0.000000</ele><time>2021-01-17T21:52:57Z</time><extensions><speed>-1.000000</speed><course>-1.000000</course><hAcc>0.000000</hAcc><vAcc>-1.000000</vAcc></extensions></trkpt>
      <trkpt lon="-123.273908" lat="44.560123"><ele>0.000000</ele><time>2021-01-17T21:52:57Z</time><extensions><speed>-1.000000</speed><course>-1.000000</course><hAcc>0.000000</hAcc><vAcc>-1.000000</vAcc></extensions></trkpt>
      <trkpt lon="-123.274114" lat="44.560419"><ele>0.000000</ele><time>2021-01-17T21:52:57Z</time><extensions><speed>-1.000000</speed><course>-1.000000</course><hAcc>0.000000</hAcc><vAcc>-1.000000</vAcc></extensions></trkpt>
      <trkpt lon="-123.274163" lat="44.560569"><ele>0.000000</ele><time>2021-01-17T21:52:57Z</time><extensions><speed>-1.000000</speed><course>-1.000000</course><hAcc>0.000000</hAcc><vAcc>-1.000000</vAcc></extensions></trkpt>
      <trkpt lon="-123.274173" lat="44.560666"><ele>0.000000</ele><time>2021-01-17T21:52:57Z</time><extensions><speed>-1.000000</speed><course>-1.000000</course><hAcc>0.000000</hAcc><vAcc>-1.000000</vAcc></extensions></trkpt>
      <trkpt lon="-123.274232" lat="44.560814"><ele>0.000000</ele><time>2021-01-17T21:52:57Z</time><extensions><speed>-1.000000</speed><course>-1.000000</course><hAcc>0.000000</hAcc><vAcc>-1.000000</vAcc></extensions></trkpt>
      <trkpt lon="-123.274307" lat="44.560975"><ele>0.000000</ele><time>2021-01-17T21:52:57Z</time><extensions><speed>-1.000000</speed><course>-1.000000</course><hAcc>0.000000</hAcc><vAcc>-1.000000</vAcc></extensions></trkpt>
      <trkpt lon="-123.274314" lat="44.561037"><ele>0.000000</ele><time>2021-01-17T21:52:57Z</time><extensions><speed>-1.000000</speed><course>-1.000000</course><hAcc>0.000000</hAcc><vAcc>-1.000000</vAcc></extensions></trkpt>
      <trkpt lon="-123.274406" lat="44.561235"><ele>0.000000</ele><time>2021-01-17T21:52:57Z</time><extensions><speed>-1.000000</speed><course>-1.000000</course><hAcc>0.000000</hAcc><vAcc>-1.000000</vAcc></extensions></trkpt>
      <trkpt lon="-123.274405" lat="44.561302"><ele>0.000000</ele><time>2021-01-17T21:52:57Z</time><extensions><speed>-1.000000</speed><course>-1.000000</course><hAcc>0.000000</hAcc><vAcc>-1.000000</vAcc></extensions></trkpt>
      <trkpt lon="-123.274423" lat="44.561393"><ele>0.000000</ele><time>2021-01-17T21:52:57Z</time><extensions><speed>-1.000000</speed><course>-1.000000</course><hAcc>0.000000</hAcc><vAcc>-1.000000</vAcc></extensions></trkpt>
      <trkpt lon="-123.274454" lat="44.561448"><ele>0.000000</ele><time>2021-01-17T21:52:57Z</time><extensions><speed>-1.000000</speed><course>-1.000000</course><hAcc>0.000000</hAcc><vAcc>-1.000000</vAcc></extensions></trkpt>
      <trkpt lon="-123.274440" lat="44.561611"><ele>0.000000</ele><time>2021-01-17T21:52:57Z</time><extensions><speed>-1.000000</speed><course>-1.000000</course><hAcc>0.000000</hAcc><vAcc>-1.000000</vAcc></extensions></trkpt>
      <trkpt lon="-123.274555" lat="44.561981"><ele>0.000000</ele><time>2021-01-17T21:52:57Z</time><extensions><speed>-1.000000</speed><course>-1.000000</course><hAcc>0.000000</hAcc><vAcc>-1.000000</vAcc></extensions></trkpt>
      <trkpt lon="-123.274978" lat="44.562027"><ele>0.000000</ele><time>2021-01-17T21:52:57Z</time><extensions><speed>-1.000000</speed><course>-1.000000</course><hAcc>0.000000</hAcc><vAcc>-1.000000</vAcc></extensions></trkpt>
      <trkpt lon="-123.275211" lat="44.562031"><ele>0.000000</ele><time>2021-01-17T21:52:57Z</time><extensions><speed>-1.000000</speed><course>-1.000000</course><hAcc>0.000000</hAcc><vAcc>-1.000000</vAcc></extensions></trkpt>
      <trkpt lon="-123.275561" lat="44.562027"><ele>0.000000</ele><time>2021-01-17T21:52:57Z</time><extensions><speed>-1.000000</speed><course>-1.000000</course><hAcc>0.000000</hAcc><vAcc>-1.000000</vAcc></extensions></trkpt>
      <trkpt lon="-123.276100" lat="44.562026"><ele>0.000000</ele><time>2021-01-17T21:52:57Z</time><extensions><speed>-1.000000</speed><course>-1.000000</course><hAcc>0.000000</hAcc><vAcc>-1.000000</vAcc></extensions></trkpt>
      <trkpt lon="-123.276441" lat="44.562002"><ele>0.000000</ele><time>2021-01-17T21:52:57Z</time><extensions><speed>-1.000000</speed><course>-1.000000</course><hAcc>0.000000</hAcc><vAcc>-1.000000</vAcc></extensions></trkpt>
      <trkpt lon="-123.276936" lat="44.562009"><ele>0.000000</ele><time>2021-01-17T21:52:57Z</time><extensions><speed>-1.000000</speed><course>-1.000000</course><hAcc>0.000000</hAcc><vAcc>-1.000000</vAcc></extensions></trkpt>
      <trkpt lon="-123.277411" lat="44.562010"><ele>0.000000</ele><time>2021-01-17T21:52:57Z</time><extensions><speed>-1.000000</speed><course>-1.000000</course><hAcc>0.000000</hAcc><vAcc>-1.000000</vAcc></extensions></trkpt>
      <trkpt lon="-123.277891" lat="44.561998"><ele>0.000000</ele><time>2021-01-17T21:52:57Z</time><extensions><speed>-1.000000</speed><course>-1.000000</course><hAcc>0.000000</hAcc><vAcc>-1.000000</vAcc></extensions></trkpt>
      <trkpt lon="-123.278286" lat="44.562010"><ele>0.000000</ele><time>2021-01-17T21:52:57Z</time><extensions><speed>-1.000000</speed><course>-1.000000</course><hAcc>0.000000</hAcc><vAcc>-1.000000</vAcc></extensions></trkpt>
      <trkpt lon="-123.278774" lat="44.562033"><ele>0.000000</ele><time>2021-01-17T21:52:57Z</time><extensions><speed>-1.000000</speed><course>-1.000000</course><hAcc>0.000000</hAcc><vAcc>-1.000000</vAcc></extensions></trkpt>
      <trkpt lon="-123.279104" lat="44.562297"><ele>0.000000</ele><time>2021-01-17T21:52:57Z</time><extensions><speed>-1.000000</speed><course>-1.000000</course><hAcc>0.000000</hAcc><vAcc>-1.000000</vAcc></extensions></trkpt>
      <trkpt lon="-123.279410" lat="44.562539"><ele>0.000000</ele><time>2021-01-17T21:52:57Z</time><extensions><speed>-1.000000</speed><course>-1.000000</course><hAcc>0.000000</hAcc><vAcc>-1.000000</vAcc></extensions></trkpt>
      <trkpt lon="-123.279685" lat="44.562813"><ele>0.000000</ele><time>2021-01-17T21:52:57Z</time><extensions><speed>-1.000000</speed><course>-1.000000</course><hAcc>0.000000</hAcc><vAcc>-1.000000</vAcc></extensions></trkpt>
      <trkpt lon="-123.279798" lat="44.563029"><ele>0.000000</ele><time>2021-01-17T21:52:57Z</time><extensions><speed>-1.000000</speed><course>-1.000000</course><hAcc>0.000000</hAcc><vAcc>-1.000000</vAcc></extensions></trkpt>
      <trkpt lon="-123.279865" lat="44.563323"><ele>0.000000</ele><time>2021-01-17T21:52:57Z</time><extensions><speed>-1.000000</speed><course>-1.000000</course><hAcc>0.000000</hAcc><vAcc>-1.000000</vAcc></extensions></trkpt>
      <trkpt lon="-123.280386" lat="44.563405"><ele>0.000000</ele><time>2021-01-17T21:52:57Z</time><extensions><speed>-1.000000</speed><course>-1.000000</course><hAcc>0.000000</hAcc><vAcc>-1.000000</vAcc></extensions></trkpt>
      <trkpt lon="-123.280871" lat="44.563410"><ele>0.000000</ele><time>2021-01-17T21:52:57Z</time><extensions><speed>-1.000000</speed><course>-1.000000</course><hAcc>0.000000</hAcc><vAcc>-1.000000</vAcc></extensions></trkpt>
      <trkpt lon="-123.281338" lat="44.563395"><ele>0.000000</ele><time>2021-01-17T21:52:57Z</time><extensions><speed>-1.000000</speed><course>-1.000000</course><hAcc>0.000000</hAcc><vAcc>-1.000000</vAcc></extensions></trkpt>
      <trkpt lon="-123.281704" lat="44.563453"><ele>0.000000</ele><time>2021-01-17T21:52:57Z</time><extensions><speed>-1.000000</speed><course>-1.000000</course><hAcc>0.000000</hAcc><vAcc>-1.000000</vAcc></extensions></trkpt>
      <trkpt lon="-123.281883" lat="44.563113"><ele>0.000000</ele><time>2021-01-17T21:52:57Z</time><extensions><speed>-1.000000</speed><course>-1.000000</course><hAcc>0.000000</hAcc><vAcc>-1.000000</vAcc></extensions></trkpt>
      <trkpt lon="-123.281889" lat="44.562715"><ele>0.000000</ele><time>2021-01-17T21:52:57Z</time><extensions><speed>-1.000000</speed><course>-1.000000</course><hAcc>0.000000</hAcc><vAcc>-1.000000</vAcc></extensions></trkpt>
      <trkpt lon="-123.281903" lat="44.562319"><ele>0.000000</ele><time>2021-01-17T21:52:57Z</time><extensions><speed>-1.000000</speed><course>-1.000000</course><hAcc>0.000000</hAcc><vAcc>-1.000000</vAcc></extensions></trkpt>
      <trkpt lon="-123.281672" lat="44.562174"><ele>0.000000</ele><time>2021-01-17T21:52:57Z</time><extensions><speed>-1.000000</speed><course>-1.000000</course><hAcc>0.000000</hAcc><vAcc>-1.000000</vAcc></extensions></trkpt>
      <trkpt lon="-123.281562" lat="44.562174"><ele>0.000000</ele><time>2021-01-17T21:52:57Z</time><extensions><speed>-1.000000</speed><course>-1.000000</course><hAcc>0.000000</hAcc><vAcc>-1.000000</vAcc></extensions></trkpt>
      <trkpt lon="-123.281019" lat="44.562160"><ele>0.000000</ele><time>2021-01-17T21:52:57Z</time><extensions><speed>-1.000000</speed><course>-1.000000</course><hAcc>0.000000</hAcc><vAcc>-1.000000</vAcc></extensions></trkpt>
      <trkpt lon="-123.280537" lat="44.562161"><ele>0.000000</ele><time>2021-01-17T21:52:57Z</time><extensions><speed>-1.000000</speed><course>-1.000000</course><hAcc>0.000000</hAcc><vAcc>-1.000000</vAcc></extensions></trkpt>
      <trkpt lon="-123.280035" lat="44.562162"><ele>0.000000</ele><time>2021-01-17T21:52:57Z</time><extensions><speed>-1.000000</speed><course>-1.000000</course><hAcc>0.000000</hAcc><vAcc>-1.000000</vAcc></extensions></trkpt>
      <trkpt lon="-123.279783" lat="44.562314"><ele>0.000000</ele><time>2021-01-17T21:52:57Z</time><extensions><speed>-1.000000</speed><course>-1.000000</course><hAcc>0.000000</hAcc><vAcc>-1.000000</vAcc></extensions></trkpt>
      <trkpt lon="-123.279727" lat="44.562714"><ele>0.000000</ele><time>2021-01-17T21:52:57Z</time><extensions><speed>-1.000000</speed><course>-1.000000</course><hAcc>0.000000</hAcc><vAcc>-1.000000</vAcc></extensions></trkpt>
      <trkpt lon="-123.279695" lat="44.563108"><ele>0.000000</ele><time>2021-01-17T21:52:57Z</time><extensions><speed>-1.000000</speed><course>-1.000000</course><hAcc>0.000000</hAcc><vAcc>-1.000000</vAcc></extensions></trkpt>
      <trkpt lon="-123.279755" lat="44.563442"><ele>0.000000</ele><time>2021-01-17T21:52:57Z</time><extensions><speed>-1.000000</speed><course>-1.000000</course><hAcc>0.000000</hAcc><vAcc>-1.000000</vAcc></extensions></trkpt>
      <trkpt lon="-123.279848" lat="44.563695"><ele>0.000000</ele><time>2021-01-17T21:52:57Z</time><extensions><speed>-1.000000</speed><course>-1.000000</course><hAcc>0.000000</hAcc><vAcc>-1.000000</vAcc></extensions></trkpt>
      <trkpt lon="-123.279989" lat="44.564010"><ele>0.000000</ele><time>2021-01-17T21:52:57Z</time><extensions><speed>-1.000000</speed><course>-1.000000</course><hAcc>0.000000</hAcc><vAcc>-1.000000</vAcc></extensions></trkpt>
      <trkpt lon="-123.280031" lat="44.564330"><ele>0.000000</ele><time>2021-01-17T21:52:57Z</time><extensions><speed>-1.000000</speed><course>-1.000000</course><hAcc>0.000000</hAcc><vAcc>-1.000000</vAcc></extensions></trkpt>
      <trkpt lon="-123.279989" lat="44.564566"><ele>0.000000</ele><time>2021-01-17T21:52:57Z</time><extensions><speed>-1.000000</speed><course>-1.000000</course><hAcc>0.000000</hAcc><vAcc>-1.000000</vAcc></extensions></trkpt>
      <trkpt lon="-123.279955" lat="44.564851"><ele>0.000000</ele><time>2021-01-17T21:52:57Z</time><extensions><speed>-1.000000</speed><course>-1.000000</course><hAcc>0.000000</hAcc><vAcc>-1.000000</vAcc></extensions></trkpt>
      <trkpt lon="-123.279941" lat="44.565200"><ele>0.000000</ele><time>2021-01-17T21:52:57Z</time><extensions><speed>-1.000000</speed><course>-1.000000</course><hAcc>0.000000</hAcc><vAcc>-1.000000</vAcc></extensions></trkpt>
      <trkpt lon="-123.279946" lat="44.565397"><ele>0.000000</ele><time>2021-01-17T21:52:57Z</time><extensions><speed>-1.000000</speed><course>-1.000000</course><hAcc>0.000000</hAcc><vAcc>-1.000000</vAcc></extensions></trkpt>
      <trkpt lon="-123.279968" lat="44.565720"><ele>0.000000</ele><time>2021-01-17T21:52:57Z</time><extensions><speed>-1.000000</speed><course>-1.000000</course><hAcc>0.000000</hAcc><vAcc>-1.000000</vAcc></extensions></trkpt>
      <trkpt lon="-123.279945" lat="44.566009"><ele>0.000000</ele><time>2021-01-17T21:52:57Z</time><extensions><speed>-1.000000</speed><course>-1.000000</course><hAcc>0.000000</hAcc><vAcc>-1.000000</vAcc></extensions></trkpt>
      <trkpt lon="-123.279943" lat="44.566325"><ele>0.000000</ele><time>2021-01-17T21:52:57Z</time><extensions><speed>-1.000000</speed><course>-1.000000</course><hAcc>0.000000</hAcc><vAcc>-1.000000</vAcc></extensions></trkpt>
      <trkpt lon="-123.279937" lat="44.566551"><ele>0.000000</ele><time>2021-01-17T21:52:57Z</time><extensions><speed>-1.000000</speed><course>-1.000000</course><hAcc>0.000000</hAcc><vAcc>-1.000000</vAcc></extensions></trkpt>
      <trkpt lon="-123.279954" lat="44.566821"><ele>0.000000</ele><time>2021-01-17T21:52:57Z</time><extensions><speed>-1.000000</speed><course>-1.000000</course><hAcc>0.000000</hAcc><vAcc>-1.000000</vAcc></extensions></trkpt>
      <trkpt lon="-123.279914" lat="44.567145"><ele>0.000000</ele><time>2021-01-17T21:52:57Z</time><extensions><speed>-1.000000</speed><course>-1.000000</course><hAcc>0.000000</hAcc><vAcc>-1.000000</vAcc></extensions></trkpt>
      <trkpt lon="-123.279862" lat="44.567284"><ele>0.000000</ele><time>2021-01-17T21:52:57Z</time><extensions><speed>-1.000000</speed><course>-1.000000</course><hAcc>0.000000</hAcc><vAcc>-1.000000</vAcc></extensions></trkpt>
      <trkpt lon="-123.279853" lat="44.567497"><ele>0.000000</ele><time>2021-01-17T21:52:57Z</time><extensions><speed>-1.000000</speed><course>-1.000000</course><hAcc>0.000000</hAcc><vAcc>-1.000000</vAcc></extensions></trkpt>
      <trkpt lon="-123.279923" lat="44.567802"><ele>0.000000</ele><time>2021-01-17T21:52:57Z</time><extensions><speed>-1.000000</speed><course>-1.000000</course><hAcc>0.000000</hAcc><vAcc>-1.000000</vAcc></extensions></trkpt>
      <trkpt lon="-123.279883" lat="44.568035"><ele>0.000000</ele><time>2021-01-17T21:52:57Z</time><extensions><speed>-1.000000</speed><course>-1.000000</course><hAcc>0.000000</hAcc><vAcc>-1.000000</vAcc></extensions></trkpt>
      <trkpt lon="-123.279923" lat="44.568345"><ele>0.000000</ele><time>2021-01-17T21:52:57Z</time><extensions><speed>-1.000000</speed><course>-1.000000</course><hAcc>0.000000</hAcc><vAcc>-1.000000</vAcc></extensions></trkpt>
      <trkpt lon="-123.279972" lat="44.568705"><ele>0.000000</ele><time>2021-01-17T21:52:57Z</time><extensions><speed>-1.000000</speed><course>-1.000000</course><hAcc>0.000000</hAcc><vAcc>-1.000000</vAcc></extensions></trkpt>
      <trkpt lon="-123.280101" lat="44.569004"><ele>0.000000</ele><time>2021-01-17T21:52:57Z</time><extensions><speed>-1.000000</speed><course>-1.000000</course><hAcc>0.000000</hAcc><vAcc>-1.000000</vAcc></extensions></trkpt>
      <trkpt lon="-123.280350" lat="44.569191"><ele>0.000000</ele><time>2021-01-17T21:52:57Z</time><extensions><speed>-1.000000</speed><course>-1.000000</course><hAcc>0.000000</hAcc><vAcc>-1.000000</vAcc></extensions></trkpt>
      <trkpt lon="-123.280617" lat="44.569382"><ele>0.000000</ele><time>2021-01-17T21:52:57Z</time><extensions><speed>-1.000000</speed><course>-1.000000</course><hAcc>0.000000</hAcc><vAcc>-1.000000</vAcc></extensions></trkpt>
      <trkpt lon="-123.280864" lat="44.569584"><ele>0.000000</ele><time>2021-01-17T21:52:57Z</time><extensions><speed>-1.000000</speed><course>-1.000000</course><hAcc>0.000000</hAcc><vAcc>-1.000000</vAcc></extensions></trkpt>
      <trkpt lon="-123.281146" lat="44.569830"><ele>0.000000</ele><time>2021-01-17T21:52:57Z</time><extensions><speed>-1.000000</speed><course>-1.000000</course><hAcc>0.000000</hAcc><vAcc>-1.000000</vAcc></extensions></trkpt>
      <trkpt lon="-123.281300" lat="44.569977"><ele>0.000000</ele><time>2021-01-17T21:52:57Z</time><extensions><speed>-1.000000</speed><course>-1.000000</course><hAcc>0.000000</hAcc><vAcc>-1.000000</vAcc></extensions></trkpt>
      <trkpt lon="-123.281583" lat="44.570185"><ele>0.000000</ele><time>2021-01-17T21:52:57Z</time><extensions><speed>-1.000000</speed><course>-1.000000</course><hAcc>0.000000</hAcc><vAcc>-1.000000</vAcc></extensions></trkpt>
      <trkpt lon="-123.281828" lat="44.570395"><ele>0.000000</ele><time>2021-01-17T21:52:57Z</time><extensions><speed>-1.000000</speed><course>-1.000000</course><hAcc>0.000000</hAcc><vAcc>-1.000000</vAcc></extensions></trkpt>
      <trkpt lon="-123.282026" lat="44.570558"><ele>0.000000</ele><time>2021-01-17T21:52:57Z</time><extensions><speed>-1.000000</speed><course>-1.000000</course><hAcc>0.000000</hAcc><vAcc>-1.000000</vAcc></extensions></trkpt>
      <trkpt lon="-123.282280" lat="44.570763"><ele>0.000000</ele><time>2021-01-17T21:52:57Z</time><extensions><speed>-1.000000</speed><course>-1.000000</course><hAcc>0.000000</hAcc><vAcc>-1.000000</vAcc></extensions></trkpt>
      <trkpt lon="-123.282541" lat="44.570981"><ele>0.000000</ele><time>2021-01-17T21:52:57Z</time><extensions><speed>-1.000000</speed><course>-1.000000</course><hAcc>0.000000</hAcc><vAcc>-1.000000</vAcc></extensions></trkpt>
      <trkpt lon="-123.282847" lat="44.571209"><ele>0.000000</ele><time>2021-01-17T21:52:57Z</time><extensions><speed>-1.000000</speed><course>-1.000000</course><hAcc>0.000000</hAcc><vAcc>-1.000000</vAcc></extensions></trkpt>
      <trkpt lon="-123.283039" lat="44.571365"><ele>0.000000</ele><time>2021-01-17T21:52:57Z</time><extensions><speed>-1.000000</speed><course>-1.000000</course><hAcc>0.000000</hAcc><vAcc>-1.000000</vAcc></extensions></trkpt>
      <trkpt lon="-123.283322" lat="44.571613"><ele>0.000000</ele><time>2021-01-17T21:52:57Z</time><extensions><speed>-1.000000</speed><course>-1.000000</course><hAcc>0.000000</hAcc><vAcc>-1.000000</vAcc></extensions></trkpt>
      <trkpt lon="-123.283636" lat="44.571713"><ele>0.000000</ele><time>2021-01-17T21:52:57Z</time><extensions><speed>-1.000000</speed><course>-1.000000</course><hAcc>0.000000</hAcc><vAcc>-1.000000</vAcc></extensions></trkpt>
      <trkpt lon="-123.283947" lat="44.571713"><ele>0.000000</ele><time>2021-01-17T21:52:57Z</time><extensions><speed>-1.000000</speed><course>-1.000000</course><hAcc>0.000000</hAcc><vAcc>-1.000000</vAcc></extensions></trkpt>
      <trkpt lon="-123.283997" lat="44.571837"><ele>0.000000</ele><time>2021-01-17T21:52:57Z</time><extensions><speed>-1.000000</speed><course>-1.000000</course><hAcc>0.000000</hAcc><vAcc>-1.000000</vAcc></extensions></trkpt>
      <trkpt lon="-123.283771" lat="44.571841"><ele>0.000000</ele><time>2021-01-17T21:52:57Z</time><extensions><speed>-1.000000</speed><course>-1.000000</course><hAcc>0.000000</hAcc><vAcc>-1.000000</vAcc></extensions></trkpt>
      <trkpt lon="-123.283567" lat="44.571966"><ele>0.000000</ele><time>2021-01-17T21:52:57Z</time><extensions><speed>-1.000000</speed><course>-1.000000</course><hAcc>0.000000</hAcc><vAcc>-1.000000</vAcc></extensions></trkpt>
      <trkpt lon="-123.283524" lat="44.572273"><ele>0.000000</ele><time>2021-01-17T21:52:57Z</time><extensions><speed>-1.000000</speed><course>-1.000000</course><hAcc>0.000000</hAcc><vAcc>-1.000000</vAcc></extensions></trkpt>
      <trkpt lon="-123.283502" lat="44.572581"><ele>0.000000</ele><time>2021-01-17T21:52:57Z</time><extensions><speed>-1.000000</speed><course>-1.000000</course><hAcc>0.000000</hAcc><vAcc>-1.000000</vAcc></extensions></trkpt>
      <trkpt lon="-123.283460" lat="44.572844"><ele>0.000000</ele><time>2021-01-17T21:52:57Z</time><extensions><speed>-1.000000</speed><course>-1.000000</course><hAcc>0.000000</hAcc><vAcc>-1.000000</vAcc></extensions></trkpt>
      <trkpt lon="-123.283399" lat="44.573131"><ele>0.000000</ele><time>2021-01-17T21:52:57Z</time><extensions><speed>-1.000000</speed><course>-1.000000</course><hAcc>0.000000</hAcc><vAcc>-1.000000</vAcc></extensions></trkpt>
      <trkpt lon="-123.283340" lat="44.573444"><ele>0.000000</ele><time>2021-01-17T21:52:57Z</time><extensions><speed>-1.000000</speed><course>-1.000000</course><hAcc>0.000000</hAcc><vAcc>-1.000000</vAcc></extensions></trkpt>
      <trkpt lon="-123.283369" lat="44.573674"><ele>0.000000</ele><time>2021-01-17T21:52:57Z</time><extensions><speed>-1.000000</speed><course>-1.000000</course><hAcc>0.000000</hAcc><vAcc>-1.000000</vAcc></extensions></trkpt>
      <trkpt lon="-123.283379" lat="44.573960"><ele>0.000000</ele><time>2021-01-17T21:52:57Z</time><extensions><speed>-1.000000</speed><course>-1.000000</course><hAcc>0.000000</hAcc><vAcc>-1.000000</vAcc></extensions></trkpt>
      <trkpt lon="-123.283385" lat="44.574237"><ele>0.000000</ele><time>2021-01-17T21:52:57Z</time><extensions><speed>-1.000000</speed><course>-1.000000</course><hAcc>0.000000</hAcc><vAcc>-1.000000</vAcc></extensions></trkpt>
      <trkpt lon="-123.283366" lat="44.574542"><ele>0.000000</ele><time>2021-01-17T21:52:57Z</time><extensions><speed>-1.000000</speed><course>-1.000000</course><hAcc>0.000000</hAcc><vAcc>-1.000000</vAcc></extensions></trkpt>
      <trkpt lon="-123.283349" lat="44.574792"><ele>0.000000</ele><time>2021-01-17T21:52:57Z</time><extensions><speed>-1.000000</speed><course>-1.000000</course><hAcc>0.000000</hAcc><vAcc>-1.000000</vAcc></extensions></trkpt>
      <trkpt lon="-123.283297" lat="44.575113"><ele>0.000000</ele><time>2021-01-17T21:52:57Z</time><extensions><speed>-1.000000</speed><course>-1.000000</course><hAcc>0.000000</hAcc><vAcc>-1.000000</vAcc></extensions></trkpt>
      <trkpt lon="-123.283317" lat="44.575459"><ele>0.000000</ele><time>2021-01-17T21:52:57Z</time><extensions><speed>-1.000000</speed><course>-1.000000</course><hAcc>0.000000</hAcc><vAcc>-1.000000</vAcc></extensions></trkpt>
      <trkpt lon="-123.283286" lat="44.575674"><ele>0.000000</ele><time>2021-01-17T21:52:57Z</time><extensions><speed>-1.000000</speed><course>-1.000000</course><hAcc>0.000000</hAcc><vAcc>-1.000000</vAcc></extensions></trkpt>
      <trkpt lon="-123.283282" lat="44.575979"><ele>0.000000</ele><time>2021-01-17T21:52:57Z</time><extensions><speed>-1.000000</speed><course>-1.000000</course><hAcc>0.000000</hAcc><vAcc>-1.000000</vAcc></extensions></trkpt>
      <trkpt lon="-123.283273" lat="44.576280"><ele>0.000000</ele><time>2021-01-17T21:52:57Z</time><extensions><speed>-1.000000</speed><course>-1.000000</course><hAcc>0.000000</hAcc><vAcc>-1.000000</vAcc></extensions></trkpt>
      <trkpt lon="-123.283243" lat="44.576516"><ele>0.000000</ele><time>2021-01-17T21:52:57Z</time><extensions><speed>-1.000000</speed><course>-1.000000</course><hAcc>0.000000</hAcc><vAcc>-1.000000</vAcc></extensions></trkpt>
      <trkpt lon="-123.283230" lat="44.576789"><ele>0.000000</ele><time>2021-01-17T21:52:57Z</time><extensions><speed>-1.000000</speed><course>-1.000000</course><hAcc>0.000000</hAcc><vAcc>-1.000000</vAcc></extensions></trkpt>
      <trkpt lon="-123.283223" lat="44.577101"><ele>0.000000</ele><time>2021-01-17T21:52:57Z</time><extensions><speed>-1.000000</speed><course>-1.000000</course><hAcc>0.000000</hAcc><vAcc>-1.000000</vAcc></extensions></trkpt>
      <trkpt lon="-123.283188" lat="44.577300"><ele>0.000000</ele><time>2021-01-17T21:52:57Z</time><extensions><speed>-1.000000</speed><course>-1.000000</course><hAcc>0.000000</hAcc><vAcc>-1.000000</vAcc></extensions></trkpt>
      <trkpt lon="-123.283198" lat="44.577514"><ele>0.000000</ele><time>2021-01-17T21:52:57Z</time><extensions><speed>-1.000000</speed><course>-1.000000</course><hAcc>0.000000</hAcc><vAcc>-1.000000</vAcc></extensions></trkpt>
      <trkpt lon="-123.283173" lat="44.577781"><ele>0.000000</ele><time>2021-01-17T21:52:57Z</time><extensions><speed>-1.000000</speed><course>-1.000000</course><hAcc>0.000000</hAcc><vAcc>-1.000000</vAcc></extensions></trkpt>
      <trkpt lon="-123.283171" lat="44.577998"><ele>0.000000</ele><time>2021-01-17T21:52:57Z</time><extensions><speed>-1.000000</speed><course>-1.000000</course><hAcc>0.000000</hAcc><vAcc>-1.000000</vAcc></extensions></trkpt>
      <trkpt lon="-123.283141" lat="44.578284"><ele>0.000000</ele><time>2021-01-17T21:52:57Z</time><extensions><speed>-1.000000</speed><course>-1.000000</course><hAcc>0.000000</hAcc><vAcc>-1.000000</vAcc></extensions></trkpt>
      <trkpt lon="-123.283059" lat="44.578147"><ele>0.000000</ele><time>2021-01-17T21:52:57Z</time><extensions><speed>-1.000000</speed><course>-1.000000</course><hAcc>0.000000</hAcc><vAcc>-1.000000</vAcc></extensions></trkpt>
      <trkpt lon="-123.283090" lat="44.577950"><ele>0.000000</ele><time>2021-01-17T21:52:57Z</time><extensions><speed>-1.000000</speed><course>-1.000000</course><hAcc>0.000000</hAcc><vAcc>-1.000000</vAcc></extensions></trkpt>
      <trkpt lon="-123.283135" lat="44.577710"><ele>0.000000</ele><time>2021-01-17T21:52:57Z</time><extensions><speed>-1.000000</speed><course>-1.000000</course><hAcc>0.000000</hAcc><vAcc>-1.000000</vAcc></extensions></trkpt>
      <trkpt lon="-123.283127" lat="44.577428"><ele>0.000000</ele><time>2021-01-17T21:52:57Z</time><extensions><speed>-1.000000</speed><course>-1.000000</course><hAcc>0.000000</hAcc><vAcc>-1.000000</vAcc></extensions></trkpt>
      <trkpt lon="-123.283155" lat="44.577092"><ele>0.000000</ele><time>2021-01-17T21:52:57Z</time><extensions><speed>-1.000000</speed><course>-1.000000</course><hAcc>0.000000</hAcc><vAcc>-1.000000</vAcc></extensions></trkpt>
      <trkpt lon="-123.283204" lat="44.576890"><ele>0.000000</ele><time>2021-01-17T21:52:57Z</time><extensions><speed>-1.000000</speed><course>-1.000000</course><hAcc>0.000000</hAcc><vAcc>-1.000000</vAcc></extensions></trkpt>
      <trkpt lon="-123.283199" lat="44.576557"><ele>0.000000</ele><time>2021-01-17T21:52:57Z</time><extensions><speed>-1.000000</speed><course>-1.000000</course><hAcc>0.000000</hAcc><vAcc>-1.000000</vAcc></extensions></trkpt>
      <trkpt lon="-123.283198" lat="44.576264"><ele>0.000000</ele><time>2021-01-17T21:52:57Z</time><extensions><speed>-1.000000</speed><course>-1.000000</course><hAcc>0.000000</hAcc><vAcc>-1.000000</vAcc></extensions></trkpt>
      <trkpt lon="-123.283216" lat="44.576052"><ele>0.000000</ele><time>2021-01-17T21:52:57Z</time><extensions><speed>-1.000000</speed><course>-1.000000</course><hAcc>0.000000</hAcc><vAcc>-1.000000</vAcc></extensions></trkpt>
      <trkpt lon="-123.283224" lat="44.575768"><ele>0.000000</ele><time>2021-01-17T21:52:57Z</time><extensions><speed>-1.000000</speed><course>-1.000000</course><hAcc>0.000000</hAcc><vAcc>-1.000000</vAcc></extensions></trkpt>
      <trkpt lon="-123.283265" lat="44.575496"><ele>0.000000</ele><time>2021-01-17T21:52:57Z</time><extensions><speed>-1.000000</speed><course>-1.000000</course><hAcc>0.000000</hAcc><vAcc>-1.000000</vAcc></extensions></trkpt>
      <trkpt lon="-123.283245" lat="44.575275"><ele>0.000000</ele><time>2021-01-17T21:52:57Z</time><extensions><speed>-1.000000</speed><course>-1.000000</course><hAcc>0.000000</hAcc><vAcc>-1.000000</vAcc></extensions></trkpt>
      <trkpt lon="-123.283256" lat="44.574974"><ele>0.000000</ele><time>2021-01-17T21:52:57Z</time><extensions><speed>-1.000000</speed><course>-1.000000</course><hAcc>0.000000</hAcc><vAcc>-1.000000</vAcc></extensions></trkpt>
      <trkpt lon="-123.283296" lat="44.574681"><ele>0.000000</ele><time>2021-01-17T21:52:57Z</time><extensions><speed>-1.000000</speed><course>-1.000000</course><hAcc>0.000000</hAcc><vAcc>-1.000000</vAcc></extensions></trkpt>
      <trkpt lon="-123.283291" lat="44.574488"><ele>0.000000</ele><time>2021-01-17T21:52:57Z</time><extensions><speed>-1.000000</speed><course>-1.000000</course><hAcc>0.000000</hAcc><vAcc>-1.000000</vAcc></extensions></trkpt>
      <trkpt lon="-123.283314" lat="44.574204"><ele>0.000000</ele><time>2021-01-17T21:52:57Z</time><extensions><speed>-1.000000</speed><course>-1.000000</course><hAcc>0.000000</hAcc><vAcc>-1.000000</vAcc></extensions></trkpt>
      <trkpt lon="-123.283333" lat="44.573920"><ele>0.000000</ele><time>2021-01-17T21:52:57Z</time><extensions><speed>-1.000000</speed><course>-1.000000</course><hAcc>0.000000</hAcc><vAcc>-1.000000</vAcc></extensions></trkpt>
      <trkpt lon="-123.283308" lat="44.573678"><ele>0.000000</ele><time>2021-01-17T21:52:57Z</time><extensions><speed>-1.000000</speed><course>-1.000000</course><hAcc>0.000000</hAcc><vAcc>-1.000000</vAcc></extensions></trkpt>
      <trkpt lon="-123.283291" lat="44.573529"><ele>0.000000</ele><time>2021-01-17T21:52:57Z</time><extensions><speed>-1.000000</speed><course>-1.000000</course><hAcc>0.000000</hAcc><vAcc>-1.000000</vAcc></extensions></trkpt>
      <trkpt lon="-123.283304" lat="44.573466"><ele>0.000000</ele><time>2021-01-17T21:52:57Z</time><extensions><speed>-1.000000</speed><course>-1.000000</course><hAcc>0.000000</hAcc><vAcc>-1.000000</vAcc></extensions></trkpt>
      <trkpt lon="-123.283343" lat="44.573150"><ele>0.000000</ele><time>2021-01-17T21:52:57Z</time><extensions><speed>-1.000000</speed><course>-1.000000</course><hAcc>0.000000</hAcc><vAcc>-1.000000</vAcc></extensions></trkpt>
      <trkpt lon="-123.283374" lat="44.572863"><ele>0.000000</ele><time>2021-01-17T21:52:57Z</time><extensions><speed>-1.000000</speed><course>-1.000000</course><hAcc>0.000000</hAcc><vAcc>-1.000000</vAcc></extensions></trkpt>
      <trkpt lon="-123.283386" lat="44.572641"><ele>0.000000</ele><time>2021-01-17T21:52:57Z</time><extensions><speed>-1.000000</speed><course>-1.000000</course><hAcc>0.000000</hAcc><vAcc>-1.000000</vAcc></extensions></trkpt>
      <trkpt lon="-123.283419" lat="44.572363"><ele>0.000000</ele><time>2021-01-17T21:52:57Z</time><extensions><speed>-1.000000</speed><course>-1.000000</course><hAcc>0.000000</hAcc><vAcc>-1.000000</vAcc></extensions></trkpt>
      <trkpt lon="-123.283354" lat="44.572091"><ele>0.000000</ele><time>2021-01-17T21:52:57Z</time><extensions><speed>-1.000000</speed><course>-1.000000</course><hAcc>0.000000</hAcc><vAcc>-1.000000</vAcc></extensions></trkpt>
      <trkpt lon="-123.283299" lat="44.571815"><ele>0.000000</ele><time>2021-01-17T21:52:57Z</time><extensions><speed>-1.000000</speed><course>-1.000000</course><hAcc>0.000000</hAcc><vAcc>-1.000000</vAcc></extensions></trkpt>
      <trkpt lon="-123.283011" lat="44.571564"><ele>0.000000</ele><time>2021-01-17T21:52:57Z</time><extensions><speed>-1.000000</speed><course>-1.000000</course><hAcc>0.000000</hAcc><vAcc>-1.000000</vAcc></extensions></trkpt>
      <trkpt lon="-123.282770" lat="44.571334"><ele>0.000000</ele><time>2021-01-17T21:52:57Z</time><extensions><speed>-1.000000</speed><course>-1.000000</course><hAcc>0.000000</hAcc><vAcc>-1.000000</vAcc></extensions></trkpt>
      <trkpt lon="-123.282578" lat="44.571161"><ele>0.000000</ele><time>2021-01-17T21:52:57Z</time><extensions><speed>-1.000000</speed><course>-1.000000</course><hAcc>0.000000</hAcc><vAcc>-1.000000</vAcc></extensions></trkpt>
      <trkpt lon="-123.282280" lat="44.570938"><ele>0.000000</ele><time>2021-01-17T21:52:57Z</time><extensions><speed>-1.000000</speed><course>-1.000000</course><hAcc>0.000000</hAcc><vAcc>-1.000000</vAcc></extensions></trkpt>
      <trkpt lon="-123.282013" lat="44.570724"><ele>0.000000</ele><time>2021-01-17T21:52:57Z</time><extensions><speed>-1.000000</speed><course>-1.000000</course><hAcc>0.000000</hAcc><vAcc>-1.000000</vAcc></extensions></trkpt>
      <trkpt lon="-123.281759" lat="44.570515"><ele>0.000000</ele><time>2021-01-17T21:52:57Z</time><extensions><speed>-1.000000</speed><course>-1.000000</course><hAcc>0.000000</hAcc><vAcc>-1.000000</vAcc></extensions></trkpt>
      <trkpt lon="-123.281480" lat="44.570275"><ele>0.000000</ele><time>2021-01-17T21:52:57Z</time><extensions><speed>-1.000000</speed><course>-1.000000</course><hAcc>0.000000</hAcc><vAcc>-1.000000</vAcc></extensions></trkpt>
      <trkpt lon="-123.281239" lat="44.570061"><ele>0.000000</ele><time>2021-01-17T21:52:57Z</time><extensions><speed>-1.000000</speed><course>-1.000000</course><hAcc>0.000000</hAcc><vAcc>-1.000000</vAcc></extensions></trkpt>
      <trkpt lon="-123.281021" lat="44.569917"><ele>0.000000</ele><time>2021-01-17T21:52:57Z</time><extensions><speed>-1.000000</speed><course>-1.000000</course><hAcc>0.000000</hAcc><vAcc>-1.000000</vAcc></extensions></trkpt>
      <trkpt lon="-123.280756" lat="44.569700"><ele>0.000000</ele><time>2021-01-17T21:52:57Z</time><extensions><speed>-1.000000</speed><course>-1.000000</course><hAcc>0.000000</hAcc><vAcc>-1.000000</vAcc></extensions></trkpt>
      <trkpt lon="-123.280504" lat="44.569465"><ele>0.000000</ele><time>2021-01-17T21:52:57Z</time><extensions><speed>-1.000000</speed><course>-1.000000</course><hAcc>0.000000</hAcc><vAcc>-1.000000</vAcc></extensions></trkpt>
      <trkpt lon="-123.280285" lat="44.569308"><ele>0.000000</ele><time>2021-01-17T21:52:57Z</time><extensions><speed>-1.000000</speed><course>-1.000000</course><hAcc>0.000000</hAcc><vAcc>-1.000000</vAcc></extensions></trkpt>
      <trkpt lon="-123.280088" lat="44.569013"><ele>0.000000</ele><time>2021-01-17T21:52:57Z</time><extensions><speed>-1.000000</speed><course>-1.000000</course><hAcc>0.000000</hAcc><vAcc>-1.000000</vAcc></extensions></trkpt>
      <trkpt lon="-123.280044" lat="44.568649"><ele>0.000000</ele><time>2021-01-17T21:52:57Z</time><extensions><speed>-1.000000</speed><course>-1.000000</course><hAcc>0.000000</hAcc><vAcc>-1.000000</vAcc></extensions></trkpt>
      <trkpt lon="-123.280083" lat="44.568583"><ele>0.000000</ele><time>2021-01-17T21:52:57Z</time><extensions><speed>-1.000000</speed><course>-1.000000</course><hAcc>0.000000</hAcc><vAcc>-1.000000</vAcc></extensions></trkpt>
      <trkpt lon="-123.280056" lat="44.568421"><ele>0.000000</ele><time>2021-01-17T21:52:57Z</time><extensions><speed>-1.000000</speed><course>-1.000000</course><hAcc>0.000000</hAcc><vAcc>-1.000000</vAcc></extensions></trkpt>
      <trkpt lon="-123.280091" lat="44.568075"><ele>0.000000</ele><time>2021-01-17T21:52:57Z</time><extensions><speed>-1.000000</speed><course>-1.000000</course><hAcc>0.000000</hAcc><vAcc>-1.000000</vAcc></extensions></trkpt>
      <trkpt lon="-123.280058" lat="44.567830"><ele>0.000000</ele><time>2021-01-17T21:52:57Z</time><extensions><speed>-1.000000</speed><course>-1.000000</course><hAcc>0.000000</hAcc><vAcc>-1.000000</vAcc></extensions></trkpt>
      <trkpt lon="-123.280069" lat="44.567487"><ele>0.000000</ele><time>2021-01-17T21:52:57Z</time><extensions><speed>-1.000000</speed><course>-1.000000</course><hAcc>0.000000</hAcc><vAcc>-1.000000</vAcc></extensions></trkpt>
      <trkpt lon="-123.280063" lat="44.567181"><ele>0.000000</ele><time>2021-01-17T21:52:57Z</time><extensions><speed>-1.000000</speed><course>-1.000000</course><hAcc>0.000000</hAcc><vAcc>-1.000000</vAcc></extensions></trkpt>
      <trkpt lon="-123.280098" lat="44.566884"><ele>0.000000</ele><time>2021-01-17T21:52:57Z</time><extensions><speed>-1.000000</speed><course>-1.000000</course><hAcc>0.000000</hAcc><vAcc>-1.000000</vAcc></extensions></trkpt>
      <trkpt lon="-123.280080" lat="44.566738"><ele>0.000000</ele><time>2021-01-17T21:52:57Z</time><extensions><speed>-1.000000</speed><course>-1.000000</course><hAcc>0.000000</hAcc><vAcc>-1.000000</vAcc></extensions></trkpt>
      <trkpt lon="-123.280100" lat="44.566487"><ele>0.000000</ele><time>2021-01-17T21:52:57Z</time><extensions><speed>-1.000000</speed><course>-1.000000</course><hAcc>0.000000</hAcc><vAcc>-1.000000</vAcc></extensions></trkpt>
      <trkpt lon="-123.280072" lat="44.566191"><ele>0.000000</ele><time>2021-01-17T21:52:57Z</time><extensions><speed>-1.000000</speed><course>-1.000000</course><hAcc>0.000000</hAcc><vAcc>-1.000000</vAcc></extensions></trkpt>
      <trkpt lon="-123.280115" lat="44.565956"><ele>0.000000</ele><time>2021-01-17T21:52:57Z</time><extensions><speed>-1.000000</speed><course>-1.000000</course><hAcc>0.000000</hAcc><vAcc>-1.000000</vAcc></extensions></trkpt>
      <trkpt lon="-123.279994" lat="44.565655"><ele>0.000000</ele><time>2021-01-17T21:52:57Z</time><extensions><speed>-1.000000</speed><course>-1.000000</course><hAcc>0.000000</hAcc><vAcc>-1.000000</vAcc></extensions></trkpt>
      <trkpt lon="-123.280005" lat="44.565279"><ele>0.000000</ele><time>2021-01-17T21:52:57Z</time><extensions><speed>-1.000000</speed><course>-1.000000</course><hAcc>0.000000</hAcc><vAcc>-1.000000</vAcc></extensions></trkpt>
      <trkpt lon="-123.280033" lat="44.565050"><ele>0.000000</ele><time>2021-01-17T21:52:57Z</time><extensions><speed>-1.000000</speed><course>-1.000000</course><hAcc>0.000000</hAcc><vAcc>-1.000000</vAcc></extensions></trkpt>
      <trkpt lon="-123.280044" lat="44.564684"><ele>0.000000</ele><time>2021-01-17T21:52:57Z</time><extensions><speed>-1.000000</speed><course>-1.000000</course><hAcc>0.000000</hAcc><vAcc>-1.000000</vAcc></extensions></trkpt>
      <trkpt lon="-123.280103" lat="44.564391"><ele>0.000000</ele><time>2021-01-17T21:52:57Z</time><extensions><speed>-1.000000</speed><course>-1.000000</course><hAcc>0.000000</hAcc><vAcc>-1.000000</vAcc></extensions></trkpt>
      <trkpt lon="-123.280088" lat="44.564334"><ele>0.000000</ele><time>2021-01-17T21:52:57Z</time><extensions><speed>-1.000000</speed><course>-1.000000</course><hAcc>0.000000</hAcc><vAcc>-1.000000</vAcc></extensions></trkpt>
    </trkseg>
  </trk>
</gpx>