<?xml version="1.0" encoding="UTF-8"?>
<gpx version="1.1" creator="Apple Health Export" xmlns="http://www.topografix.com/GPX/1/1" xmlns:xsi="http://www.w3.org/2001/XMLSchema-instance" xsi:schemaLocation="http://www.topografix.com/GPX/1/1 http://www.topografix.com/GPX/1/1/gpx.xsd">
  <metadata>
    <time>2021-02-21T19:24:48Z</time>
  </metadata>
  <trk>
    <name>Route 2020-11-30 6:24pm</name>
    <trkseg>
      <trkpt lon="-123.311663" lat="44.565958"><ele>0.000000</ele><time>2020-12-01T02:24:36Z</time><extensions><speed>-1.000000</speed><course>-1.000000</course><hAcc>0.000000</hAcc><vAcc>-1.000000</vAcc></extensions></trkpt>
      <trkpt lon="-123.311586" lat="44.565955"><ele>0.000000</ele><time>2020-12-01T02:24:36Z</time><extensions><speed>-1.000000</speed><course>-1.000000</course><hAcc>0.000000</hAcc><vAcc>-1.000000</vAcc></extensions></trkpt>
      <trkpt lon="-123.311386" lat="44.565968"><ele>0.000000</ele><time>2020-12-01T02:24:36Z</time><extensions><speed>-1.000000</speed><course>-1.000000</course><hAcc>0.000000</hAcc><vAcc>-1.000000</vAcc></extensions></trkpt>
      <trkpt lon="-123.311068" lat="44.565983"><ele>0.000000</ele><time>2020-12-01T02:24:36Z</time><extensions><speed>-1.000000</speed><course>-1.000000</course><hAcc>0.000000</hAcc><vAcc>-1.000000</vAcc></extensions></trkpt>
      <trkpt lon="-123.310821" lat="44.565970"><ele>0.000000</ele><time>2020-12-01T02:24:36Z</time><extensions><speed>-1.000000</speed><course>-1.000000</course><hAcc>0.000000</hAcc><vAcc>-1.000000</vAcc></extensions></trkpt>
      <trkpt lon="-123.310516" lat="44.565978"><ele>0.000000</ele><time>2020-12-01T02:24:36Z</time><extensions><speed>-1.000000</speed><course>-1.000000</course><hAcc>0.000000</hAcc><vAcc>-1.000000</vAcc></extensions></trkpt>
      <trkpt lon="-123.310303" lat="44.565981"><ele>0.000000</ele><time>2020-12-01T02:24:36Z</time><extensions><speed>-1.000000</speed><course>-1.000000</course><hAcc>0.000000</hAcc><vAcc>-1.000000</vAcc></extensions></trkpt>
      <trkpt lon="-123.310010" lat="44.565977"><ele>0.000000</ele><time>2020-12-01T02:24:36Z</time><extensions><speed>-1.000000</speed><course>-1.000000</course><hAcc>0.000000</hAcc><vAcc>-1.000000</vAcc></extensions></trkpt>
      <trkpt lon="-123.309768" lat="44.565969"><ele>0.000000</ele><time>2020-12-01T02:24:36Z</time><extensions><speed>-1.000000</speed><course>-1.000000</course><hAcc>0.000000</hAcc><vAcc>-1.000000</vAcc></extensions></trkpt>
      <trkpt lon="-123.309578" lat="44.565968"><ele>0.000000</ele><time>2020-12-01T02:24:36Z</time><extensions><speed>-1.000000</speed><course>-1.000000</course><hAcc>0.000000</hAcc><vAcc>-1.000000</vAcc></extensions></trkpt>
      <trkpt lon="-123.309318" lat="44.565968"><ele>0.000000</ele><time>2020-12-01T02:24:36Z</time><extensions><speed>-1.000000</speed><course>-1.000000</course><hAcc>0.000000</hAcc><vAcc>-1.000000</vAcc></extensions></trkpt>
      <trkpt lon="-123.309063" lat="44.565972"><ele>0.000000</ele><time>2020-12-01T02:24:36Z</time><extensions><speed>-1.000000</speed><course>-1.000000</course><hAcc>0.000000</hAcc><vAcc>-1.000000</vAcc></extensions></trkpt>
      <trkpt lon="-123.308803" lat="44.565978"><ele>0.000000</ele><time>2020-12-01T02:24:36Z</time><extensions><speed>-1.000000</speed><course>-1.000000</course><hAcc>0.000000</hAcc><vAcc>-1.000000</vAcc></extensions></trkpt>
      <trkpt lon="-123.308544" lat="44.565976"><ele>0.000000</ele><time>2020-12-01T02:24:36Z</time><extensions><speed>-1.000000</speed><course>-1.000000</course><hAcc>0.000000</hAcc><vAcc>-1.000000</vAcc></extensions></trkpt>
      <trkpt lon="-123.308352" lat="44.565980"><ele>0.000000</ele><time>2020-12-01T02:24:36Z</time><extensions><speed>-1.000000</speed><course>-1.000000</course><hAcc>0.000000</hAcc><vAcc>-1.000000</vAcc></extensions></trkpt>
      <trkpt lon="-123.308096" lat="44.565984"><ele>0.000000</ele><time>2020-12-01T02:24:36Z</time><extensions><speed>-1.000000</speed><course>-1.000000</course><hAcc>0.000000</hAcc><vAcc>-1.000000</vAcc></extensions></trkpt>
      <trkpt lon="-123.307847" lat="44.565986"><ele>0.000000</ele><time>2020-12-01T02:24:36Z</time><extensions><speed>-1.000000</speed><course>-1.000000</course><hAcc>0.000000</hAcc><vAcc>-1.000000</vAcc></extensions></trkpt>
      <trkpt lon="-123.307586" lat="44.565987"><ele>0.000000</ele><time>2020-12-01T02:24:36Z</time><extensions><speed>-1.000000</speed><course>-1.000000</course><hAcc>0.000000</hAcc><vAcc>-1.000000</vAcc></extensions></trkpt>
      <trkpt lon="-123.307399" lat="44.565997"><ele>0.000000</ele><time>2020-12-01T02:24:36Z</time><extensions><speed>-1.000000</speed><course>-1.000000</course><hAcc>0.000000</hAcc><vAcc>-1.000000</vAcc></extensions></trkpt>
      <trkpt lon="-123.307155" lat="44.566004"><ele>0.000000</ele><time>2020-12-01T02:24:36Z</time><extensions><speed>-1.000000</speed><course>-1.000000</course><hAcc>0.000000</hAcc><vAcc>-1.000000</vAcc></extensions></trkpt>
      <trkpt lon="-123.306912" lat="44.566004"><ele>0.000000</ele><time>2020-12-01T02:24:36Z</time><extensions><speed>-1.000000</speed><course>-1.000000</course><hAcc>0.000000</hAcc><vAcc>-1.000000</vAcc></extensions></trkpt>
      <trkpt lon="-123.306851" lat="44.566001"><ele>0.000000</ele><time>2020-12-01T02:24:36Z</time><extensions><speed>-1.000000</speed><course>-1.000000</course><hAcc>0.000000</hAcc><vAcc>-1.000000</vAcc></extensions></trkpt>
      <trkpt lon="-123.306738" lat="44.566003"><ele>0.000000</ele><time>2020-12-01T02:24:36Z</time><extensions><speed>-1.000000</speed><course>-1.000000</course><hAcc>0.000000</hAcc><vAcc>-1.000000</vAcc></extensions></trkpt>
      <trkpt lon="-123.306554" lat="44.566009"><ele>0.000000</ele><time>2020-12-01T02:24:36Z</time><extensions><speed>-1.000000</speed><course>-1.000000</course><hAcc>0.000000</hAcc><vAcc>-1.000000</vAcc></extensions></trkpt>
      <trkpt lon="-123.306320" lat="44.566010"><ele>0.000000</ele><time>2020-12-01T02:24:36Z</time><extensions><speed>-1.000000</speed><course>-1.000000</course><hAcc>0.000000</hAcc><vAcc>-1.000000</vAcc></extensions></trkpt>
      <trkpt lon="-123.306201" lat="44.566009"><ele>0.000000</ele><time>2020-12-01T02:24:36Z</time><extensions><speed>-1.000000</speed><course>-1.000000</course><hAcc>0.000000</hAcc><vAcc>-1.000000</vAcc></extensions></trkpt>
      <trkpt lon="-123.306017" lat="44.566009"><ele>0.000000</ele><time>2020-12-01T02:24:36Z</time><extensions><speed>-1.000000</speed><course>-1.000000</course><hAcc>0.000000</hAcc><vAcc>-1.000000</vAcc></extensions></trkpt>
      <trkpt lon="-123.305896" lat="44.566006"><ele>0.000000</ele><time>2020-12-01T02:24:36Z</time><extensions><speed>-1.000000</speed><course>-1.000000</course><hAcc>0.000000</hAcc><vAcc>-1.000000</vAcc></extensions></trkpt>
      <trkpt lon="-123.305723" lat="44.566008"><ele>0.000000</ele><time>2020-12-01T02:24:36Z</time><extensions><speed>-1.000000</speed><course>-1.000000</course><hAcc>0.000000</hAcc><vAcc>-1.000000</vAcc></extensions></trkpt>
      <trkpt lon="-123.305608" lat="44.566005"><ele>0.000000</ele><time>2020-12-01T02:24:36Z</time><extensions><speed>-1.000000</speed><course>-1.000000</course><hAcc>0.000000</hAcc><vAcc>-1.000000</vAcc></extensions></trkpt>
      <trkpt lon="-123.305445" lat="44.566011"><ele>0.000000</ele><time>2020-12-01T02:24:36Z</time><extensions><speed>-1.000000</speed><course>-1.000000</course><hAcc>0.000000</hAcc><vAcc>-1.000000</vAcc></extensions></trkpt>
      <trkpt lon="-123.305273" lat="44.565998"><ele>0.000000</ele><time>2020-12-01T02:24:36Z</time><extensions><speed>-1.000000</speed><course>-1.000000</course><hAcc>0.000000</hAcc><vAcc>-1.000000</vAcc></extensions></trkpt>
      <trkpt lon="-123.305099" lat="44.566006"><ele>0.000000</ele><time>2020-12-01T02:24:36Z</time><extensions><speed>-1.000000</speed><course>-1.000000</course><hAcc>0.000000</hAcc><vAcc>-1.000000</vAcc></extensions></trkpt>
      <trkpt lon="-123.304926" lat="44.566009"><ele>0.000000</ele><time>2020-12-01T02:24:36Z</time><extensions><speed>-1.000000</speed><course>-1.000000</course><hAcc>0.000000</hAcc><vAcc>-1.000000</vAcc></extensions></trkpt>
      <trkpt lon="-123.304759" lat="44.566013"><ele>0.000000</ele><time>2020-12-01T02:24:36Z</time><extensions><speed>-1.000000</speed><course>-1.000000</course><hAcc>0.000000</hAcc><vAcc>-1.000000</vAcc></extensions></trkpt>
      <trkpt lon="-123.304647" lat="44.566014"><ele>0.000000</ele><time>2020-12-01T02:24:36Z</time><extensions><speed>-1.000000</speed><course>-1.000000</course><hAcc>0.000000</hAcc><vAcc>-1.000000</vAcc></extensions></trkpt>
      <trkpt lon="-123.304472" lat="44.566009"><ele>0.000000</ele><time>2020-12-01T02:24:36Z</time><extensions><speed>-1.000000</speed><course>-1.000000</course><hAcc>0.000000</hAcc><vAcc>-1.000000</vAcc></extensions></trkpt>
      <trkpt lon="-123.304305" lat="44.566017"><ele>0.000000</ele><time>2020-12-01T02:24:36Z</time><extensions><speed>-1.000000</speed><course>-1.000000</course><hAcc>0.000000</hAcc><vAcc>-1.000000</vAcc></extensions></trkpt>
      <trkpt lon="-123.304134" lat="44.566014"><ele>0.000000</ele><time>2020-12-01T02:24:36Z</time><extensions><speed>-1.000000</speed><course>-1.000000</course><hAcc>0.000000</hAcc><vAcc>-1.000000</vAcc></extensions></trkpt>
      <trkpt lon="-123.303961" lat="44.566011"><ele>0.000000</ele><time>2020-12-01T02:24:36Z</time><extensions><speed>-1.000000</speed><course>-1.000000</course><hAcc>0.000000</hAcc><vAcc>-1.000000</vAcc></extensions></trkpt>
      <trkpt lon="-123.303904" lat="44.566016"><ele>0.000000</ele><time>2020-12-01T02:24:36Z</time><extensions><speed>-1.000000</speed><course>-1.000000</course><hAcc>0.000000</hAcc><vAcc>-1.000000</vAcc></extensions></trkpt>
      <trkpt lon="-123.303786" lat="44.566018"><ele>0.000000</ele><time>2020-12-01T02:24:36Z</time><extensions><speed>-1.000000</speed><course>-1.000000</course><hAcc>0.000000</hAcc><vAcc>-1.000000</vAcc></extensions></trkpt>
      <trkpt lon="-123.303726" lat="44.566011"><ele>0.000000</ele><time>2020-12-01T02:24:36Z</time><extensions><speed>-1.000000</speed><course>-1.000000</course><hAcc>0.000000</hAcc><vAcc>-1.000000</vAcc></extensions></trkpt>
      <trkpt lon="-123.303552" lat="44.566014"><ele>0.000000</ele><time>2020-12-01T02:24:36Z</time><extensions><speed>-1.000000</speed><course>-1.000000</course><hAcc>0.000000</hAcc><vAcc>-1.000000</vAcc></extensions></trkpt>
      <trkpt lon="-123.303390" lat="44.566019"><ele>0.000000</ele><time>2020-12-01T02:24:36Z</time><extensions><speed>-1.000000</speed><course>-1.000000</course><hAcc>0.000000</hAcc><vAcc>-1.000000</vAcc></extensions></trkpt>
      <trkpt lon="-123.303175" lat="44.566023"><ele>0.000000</ele><time>2020-12-01T02:24:36Z</time><extensions><speed>-1.000000</speed><course>-1.000000</course><hAcc>0.000000</hAcc><vAcc>-1.000000</vAcc></extensions></trkpt>
      <trkpt lon="-123.302955" lat="44.566029"><ele>0.000000</ele><time>2020-12-01T02:24:36Z</time><extensions><speed>-1.000000</speed><course>-1.000000</course><hAcc>0.000000</hAcc><vAcc>-1.000000</vAcc></extensions></trkpt>
      <trkpt lon="-123.302780" lat="44.566026"><ele>0.000000</ele><time>2020-12-01T02:24:36Z</time><extensions><speed>-1.000000</speed><course>-1.000000</course><hAcc>0.000000</hAcc><vAcc>-1.000000</vAcc></extensions></trkpt>
      <trkpt lon="-123.302726" lat="44.566028"><ele>0.000000</ele><time>2020-12-01T02:24:36Z</time><extensions><speed>-1.000000</speed><course>-1.000000</course><hAcc>0.000000</hAcc><vAcc>-1.000000</vAcc></extensions></trkpt>
      <trkpt lon="-123.302563" lat="44.566026"><ele>0.000000</ele><time>2020-12-01T02:24:36Z</time><extensions><speed>-1.000000</speed><course>-1.000000</course><hAcc>0.000000</hAcc><vAcc>-1.000000</vAcc></extensions></trkpt>
      <trkpt lon="-123.302335" lat="44.566042"><ele>0.000000</ele><time>2020-12-01T02:24:36Z</time><extensions><speed>-1.000000</speed><course>-1.000000</course><hAcc>0.000000</hAcc><vAcc>-1.000000</vAcc></extensions></trkpt>
      <trkpt lon="-123.302168" lat="44.566042"><ele>0.000000</ele><time>2020-12-01T02:24:36Z</time><extensions><speed>-1.000000</speed><course>-1.000000</course><hAcc>0.000000</hAcc><vAcc>-1.000000</vAcc></extensions></trkpt>
      <trkpt lon="-123.302000" lat="44.566082"><ele>0.000000</ele><time>2020-12-01T02:24:36Z</time><extensions><speed>-1.000000</speed><course>-1.000000</course><hAcc>0.000000</hAcc><vAcc>-1.000000</vAcc></extensions></trkpt>
      <trkpt lon="-123.301856" lat="44.566131"><ele>0.000000</ele><time>2020-12-01T02:24:36Z</time><extensions><speed>-1.000000</speed><course>-1.000000</course><hAcc>0.000000</hAcc><vAcc>-1.000000</vAcc></extensions></trkpt>
      <trkpt lon="-123.301725" lat="44.566202"><ele>0.000000</ele><time>2020-12-01T02:24:36Z</time><extensions><speed>-1.000000</speed><course>-1.000000</course><hAcc>0.000000</hAcc><vAcc>-1.000000</vAcc></extensions></trkpt>
      <trkpt lon="-123.301590" lat="44.566286"><ele>0.000000</ele><time>2020-12-01T02:24:36Z</time><extensions><speed>-1.000000</speed><course>-1.000000</course><hAcc>0.000000</hAcc><vAcc>-1.000000</vAcc></extensions></trkpt>
      <trkpt lon="-123.301553" lat="44.566315"><ele>0.000000</ele><time>2020-12-01T02:24:36Z</time><extensions><speed>-1.000000</speed><course>-1.000000</course><hAcc>0.000000</hAcc><vAcc>-1.000000</vAcc></extensions></trkpt>
      <trkpt lon="-123.301465" lat="44.566403"><ele>0.000000</ele><time>2020-12-01T02:24:36Z</time><extensions><speed>-1.000000</speed><course>-1.000000</course><hAcc>0.000000</hAcc><vAcc>-1.000000</vAcc></extensions></trkpt>
      <trkpt lon="-123.301395" lat="44.566464"><ele>0.000000</ele><time>2020-12-01T02:24:36Z</time><extensions><speed>-1.000000</speed><course>-1.000000</course><hAcc>0.000000</hAcc><vAcc>-1.000000</vAcc></extensions></trkpt>
      <trkpt lon="-123.301261" lat="44.566592"><ele>0.000000</ele><time>2020-12-01T02:24:36Z</time><extensions><speed>-1.000000</speed><course>-1.000000</course><hAcc>0.000000</hAcc><vAcc>-1.000000</vAcc></extensions></trkpt>
      <trkpt lon="-123.301154" lat="44.566686"><ele>0.000000</ele><time>2020-12-01T02:24:36Z</time><extensions><speed>-1.000000</speed><course>-1.000000</course><hAcc>0.000000</hAcc><vAcc>-1.000000</vAcc></extensions></trkpt>
      <trkpt lon="-123.301128" lat="44.566720"><ele>0.000000</ele><time>2020-12-01T02:24:36Z</time><extensions><speed>-1.000000</speed><course>-1.000000</course><hAcc>0.000000</hAcc><vAcc>-1.000000</vAcc></extensions></trkpt>
      <trkpt lon="-123.301055" lat="44.566772"><ele>0.000000</ele><time>2020-12-01T02:24:36Z</time><extensions><speed>-1.000000</speed><course>-1.000000</course><hAcc>0.000000</hAcc><vAcc>-1.000000</vAcc></extensions></trkpt>
      <trkpt lon="-123.300923" lat="44.566786"><ele>0.000000</ele><time>2020-12-01T02:24:36Z</time><extensions><speed>-1.000000</speed><course>-1.000000</course><hAcc>0.000000</hAcc><vAcc>-1.000000</vAcc></extensions></trkpt>
      <trkpt lon="-123.300865" lat="44.566777"><ele>0.000000</ele><time>2020-12-01T02:24:36Z</time><extensions><speed>-1.000000</speed><course>-1.000000</course><hAcc>0.000000</hAcc><vAcc>-1.000000</vAcc></extensions></trkpt>
      <trkpt lon="-123.300791" lat="44.566767"><ele>0.000000</ele><time>2020-12-01T02:24:36Z</time><extensions><speed>-1.000000</speed><course>-1.000000</course><hAcc>0.000000</hAcc><vAcc>-1.000000</vAcc></extensions></trkpt>
      <trkpt lon="-123.300625" lat="44.566761"><ele>0.000000</ele><time>2020-12-01T02:24:36Z</time><extensions><speed>-1.000000</speed><course>-1.000000</course><hAcc>0.000000</hAcc><vAcc>-1.000000</vAcc></extensions></trkpt>
      <trkpt lon="-123.300588" lat="44.566734"><ele>0.000000</ele><time>2020-12-01T02:24:36Z</time><extensions><speed>-1.000000</speed><course>-1.000000</course><hAcc>0.000000</hAcc><vAcc>-1.000000</vAcc></extensions></trkpt>
      <trkpt lon="-123.300395" lat="44.566761"><ele>0.000000</ele><time>2020-12-01T02:24:36Z</time><extensions><speed>-1.000000</speed><course>-1.000000</course><hAcc>0.000000</hAcc><vAcc>-1.000000</vAcc></extensions></trkpt>
      <trkpt lon="-123.300120" lat="44.566763"><ele>0.000000</ele><time>2020-12-01T02:24:36Z</time><extensions><speed>-1.000000</speed><course>-1.000000</course><hAcc>0.000000</hAcc><vAcc>-1.000000</vAcc></extensions></trkpt>
      <trkpt lon="-123.299960" lat="44.566756"><ele>0.000000</ele><time>2020-12-01T02:24:36Z</time><extensions><speed>-1.000000</speed><course>-1.000000</course><hAcc>0.000000</hAcc><vAcc>-1.000000</vAcc></extensions></trkpt>
      <trkpt lon="-123.299694" lat="44.566762"><ele>0.000000</ele><time>2020-12-01T02:24:36Z</time><extensions><speed>-1.000000</speed><course>-1.000000</course><hAcc>0.000000</hAcc><vAcc>-1.000000</vAcc></extensions></trkpt>
      <trkpt lon="-123.299434" lat="44.566758"><ele>0.000000</ele><time>2020-12-01T02:24:36Z</time><extensions><speed>-1.000000</speed><course>-1.000000</course><hAcc>0.000000</hAcc><vAcc>-1.000000</vAcc></extensions></trkpt>
      <trkpt lon="-123.299240" lat="44.566774"><ele>0.000000</ele><time>2020-12-01T02:24:36Z</time><extensions><speed>-1.000000</speed><course>-1.000000</course><hAcc>0.000000</hAcc><vAcc>-1.000000</vAcc></extensions></trkpt>
      <trkpt lon="-123.299013" lat="44.566764"><ele>0.000000</ele><time>2020-12-01T02:24:36Z</time><extensions><speed>-1.000000</speed><course>-1.000000</course><hAcc>0.000000</hAcc><vAcc>-1.000000</vAcc></extensions></trkpt>
      <trkpt lon="-123.298769" lat="44.566761"><ele>0.000000</ele><time>2020-12-01T02:24:36Z</time><extensions><speed>-1.000000</speed><course>-1.000000</course><hAcc>0.000000</hAcc><vAcc>-1.000000</vAcc></extensions></trkpt>
      <trkpt lon="-123.298539" lat="44.566771"><ele>0.000000</ele><time>2020-12-01T02:24:36Z</time><extensions><speed>-1.000000</speed><course>-1.000000</course><hAcc>0.000000</hAcc><vAcc>-1.000000</vAcc></extensions></trkpt>
      <trkpt lon="-123.298307" lat="44.566772"><ele>0.000000</ele><time>2020-12-01T02:24:36Z</time><extensions><speed>-1.000000</speed><course>-1.000000</course><hAcc>0.000000</hAcc><vAcc>-1.000000</vAcc></extensions></trkpt>
      <trkpt lon="-123.298132" lat="44.566766"><ele>0.000000</ele><time>2020-12-01T02:24:36Z</time><extensions><speed>-1.000000</speed><course>-1.000000</course><hAcc>0.000000</hAcc><vAcc>-1.000000</vAcc></extensions></trkpt>
      <trkpt lon="-123.297876" lat="44.566771"><ele>0.000000</ele><time>2020-12-01T02:24:36Z</time><extensions><speed>-1.000000</speed><course>-1.000000</course><hAcc>0.000000</hAcc><vAcc>-1.000000</vAcc></extensions></trkpt>
      <trkpt lon="-123.297674" lat="44.566764"><ele>0.000000</ele><time>2020-12-01T02:24:36Z</time><extensions><speed>-1.000000</speed><course>-1.000000</course><hAcc>0.000000</hAcc><vAcc>-1.000000</vAcc></extensions></trkpt>
      <trkpt lon="-123.297444" lat="44.566765"><ele>0.000000</ele><time>2020-12-01T02:24:36Z</time><extensions><speed>-1.000000</speed><course>-1.000000</course><hAcc>0.000000</hAcc><vAcc>-1.000000</vAcc></extensions></trkpt>
      <trkpt lon="-123.297227" lat="44.566764"><ele>0.000000</ele><time>2020-12-01T02:24:36Z</time><extensions><speed>-1.000000</speed><course>-1.000000</course><hAcc>0.000000</hAcc><vAcc>-1.000000</vAcc></extensions></trkpt>
      <trkpt lon="-123.297024" lat="44.566758"><ele>0.000000</ele><time>2020-12-01T02:24:36Z</time><extensions><speed>-1.000000</speed><course>-1.000000</course><hAcc>0.000000</hAcc><vAcc>-1.000000</vAcc></extensions></trkpt>
      <trkpt lon="-123.296862" lat="44.566750"><ele>0.000000</ele><time>2020-12-01T02:24:36Z</time><extensions><speed>-1.000000</speed><course>-1.000000</course><hAcc>0.000000</hAcc><vAcc>-1.000000</vAcc></extensions></trkpt>
      <trkpt lon="-123.296632" lat="44.566757"><ele>0.000000</ele><time>2020-12-01T02:24:36Z</time><extensions><speed>-1.000000</speed><course>-1.000000</course><hAcc>0.000000</hAcc><vAcc>-1.000000</vAcc></extensions></trkpt>
      <trkpt lon="-123.296415" lat="44.566754"><ele>0.000000</ele><time>2020-12-01T02:24:36Z</time><extensions><speed>-1.000000</speed><course>-1.000000</course><hAcc>0.000000</hAcc><vAcc>-1.000000</vAcc></extensions></trkpt>
      <trkpt lon="-123.296200" lat="44.566762"><ele>0.000000</ele><time>2020-12-01T02:24:36Z</time><extensions><speed>-1.000000</speed><course>-1.000000</course><hAcc>0.000000</hAcc><vAcc>-1.000000</vAcc></extensions></trkpt>
      <trkpt lon="-123.296001" lat="44.566758"><ele>0.000000</ele><time>2020-12-01T02:24:36Z</time><extensions><speed>-1.000000</speed><course>-1.000000</course><hAcc>0.000000</hAcc><vAcc>-1.000000</vAcc></extensions></trkpt>
      <trkpt lon="-123.295896" lat="44.566764"><ele>0.000000</ele><time>2020-12-01T02:24:36Z</time><extensions><speed>-1.000000</speed><course>-1.000000</course><hAcc>0.000000</hAcc><vAcc>-1.000000</vAcc></extensions></trkpt>
      <trkpt lon="-123.295717" lat="44.566756"><ele>0.000000</ele><time>2020-12-01T02:24:36Z</time><extensions><speed>-1.000000</speed><course>-1.000000</course><hAcc>0.000000</hAcc><vAcc>-1.000000</vAcc></extensions></trkpt>
      <trkpt lon="-123.295583" lat="44.566757"><ele>0.000000</ele><time>2020-12-01T02:24:36Z</time><extensions><speed>-1.000000</speed><course>-1.000000</course><hAcc>0.000000</hAcc><vAcc>-1.000000</vAcc></extensions></trkpt>
      <trkpt lon="-123.295360" lat="44.566749"><ele>0.000000</ele><time>2020-12-01T02:24:36Z</time><extensions><speed>-1.000000</speed><course>-1.000000</course><hAcc>0.000000</hAcc><vAcc>-1.000000</vAcc></extensions></trkpt>
      <trkpt lon="-123.295137" lat="44.566749"><ele>0.000000</ele><time>2020-12-01T02:24:36Z</time><extensions><speed>-1.000000</speed><course>-1.000000</course><hAcc>0.000000</hAcc><vAcc>-1.000000</vAcc></extensions></trkpt>
      <trkpt lon="-123.294911" lat="44.566750"><ele>0.000000</ele><time>2020-12-01T02:24:36Z</time><extensions><speed>-1.000000</speed><course>-1.000000</course><hAcc>0.000000</hAcc><vAcc>-1.000000</vAcc></extensions></trkpt>
      <trkpt lon="-123.294697" lat="44.566748"><ele>0.000000</ele><time>2020-12-01T02:24:36Z</time><extensions><speed>-1.000000</speed><course>-1.000000</course><hAcc>0.000000</hAcc><vAcc>-1.000000</vAcc></extensions></trkpt>
      <trkpt lon="-123.294531" lat="44.566761"><ele>0.000000</ele><time>2020-12-01T02:24:36Z</time><extensions><speed>-1.000000</speed><course>-1.000000</course><hAcc>0.000000</hAcc><vAcc>-1.000000</vAcc></extensions></trkpt>
      <trkpt lon="-123.294307" lat="44.566775"><ele>0.000000</ele><time>2020-12-01T02:24:36Z</time><extensions><speed>-1.000000</speed><course>-1.000000</course><hAcc>0.000000</hAcc><vAcc>-1.000000</vAcc></extensions></trkpt>
      <trkpt lon="-123.294070" lat="44.566790"><ele>0.000000</ele><time>2020-12-01T02:24:36Z</time><extensions><speed>-1.000000</speed><course>-1.000000</course><hAcc>0.000000</hAcc><vAcc>-1.000000</vAcc></extensions></trkpt>
      <trkpt lon="-123.293837" lat="44.566796"><ele>0.000000</ele><time>2020-12-01T02:24:36Z</time><extensions><speed>-1.000000</speed><course>-1.000000</course><hAcc>0.000000</hAcc><vAcc>-1.000000</vAcc></extensions></trkpt>
      <trkpt lon="-123.293612" lat="44.566798"><ele>0.000000</ele><time>2020-12-01T02:24:36Z</time><extensions><speed>-1.000000</speed><course>-1.000000</course><hAcc>0.000000</hAcc><vAcc>-1.000000</vAcc></extensions></trkpt>
      <trkpt lon="-123.293452" lat="44.566785"><ele>0.000000</ele><time>2020-12-01T02:24:36Z</time><extensions><speed>-1.000000</speed><course>-1.000000</course><hAcc>0.000000</hAcc><vAcc>-1.000000</vAcc></extensions></trkpt>
      <trkpt lon="-123.293235" lat="44.566771"><ele>0.000000</ele><time>2020-12-01T02:24:36Z</time><extensions><speed>-1.000000</speed><course>-1.000000</course><hAcc>0.000000</hAcc><vAcc>-1.000000</vAcc></extensions></trkpt>
      <trkpt lon="-123.292959" lat="44.566759"><ele>0.000000</ele><time>2020-12-01T02:24:36Z</time><extensions><speed>-1.000000</speed><course>-1.000000</course><hAcc>0.000000</hAcc><vAcc>-1.000000</vAcc></extensions></trkpt>
      <trkpt lon="-123.292745" lat="44.566763"><ele>0.000000</ele><time>2020-12-01T02:24:36Z</time><extensions><speed>-1.000000</speed><course>-1.000000</course><hAcc>0.000000</hAcc><vAcc>-1.000000</vAcc></extensions></trkpt>
      <trkpt lon="-123.292526" lat="44.566753"><ele>0.000000</ele><time>2020-12-01T02:24:36Z</time><extensions><speed>-1.000000</speed><course>-1.000000</course><hAcc>0.000000</hAcc><vAcc>-1.000000</vAcc></extensions></trkpt>
      <trkpt lon="-123.292363" lat="44.566762"><ele>0.000000</ele><time>2020-12-01T02:24:36Z</time><extensions><speed>-1.000000</speed><course>-1.000000</course><hAcc>0.000000</hAcc><vAcc>-1.000000</vAcc></extensions></trkpt>
      <trkpt lon="-123.292116" lat="44.566748"><ele>0.000000</ele><time>2020-12-01T02:24:36Z</time><extensions><speed>-1.000000</speed><course>-1.000000</course><hAcc>0.000000</hAcc><vAcc>-1.000000</vAcc></extensions></trkpt>
      <trkpt lon="-123.291912" lat="44.566749"><ele>0.000000</ele><time>2020-12-01T02:24:36Z</time><extensions><speed>-1.000000</speed><course>-1.000000</course><hAcc>0.000000</hAcc><vAcc>-1.000000</vAcc></extensions></trkpt>
      <trkpt lon="-123.291691" lat="44.566739"><ele>0.000000</ele><time>2020-12-01T02:24:36Z</time><extensions><speed>-1.000000</speed><course>-1.000000</course><hAcc>0.000000</hAcc><vAcc>-1.000000</vAcc></extensions></trkpt>
      <trkpt lon="-123.291468" lat="44.566746"><ele>0.000000</ele><time>2020-12-01T02:24:36Z</time><extensions><speed>-1.000000</speed><course>-1.000000</course><hAcc>0.000000</hAcc><vAcc>-1.000000</vAcc></extensions></trkpt>
      <trkpt lon="-123.291318" lat="44.566757"><ele>0.000000</ele><time>2020-12-01T02:24:36Z</time><extensions><speed>-1.000000</speed><course>-1.000000</course><hAcc>0.000000</hAcc><vAcc>-1.000000</vAcc></extensions></trkpt>
      <trkpt lon="-123.291163" lat="44.566759"><ele>0.000000</ele><time>2020-12-01T02:24:36Z</time><extensions><speed>-1.000000</speed><course>-1.000000</course><hAcc>0.000000</hAcc><vAcc>-1.000000</vAcc></extensions></trkpt>
      <trkpt lon="-123.291006" lat="44.566759"><ele>0.000000</ele><time>2020-12-01T02:24:36Z</time><extensions><speed>-1.000000</speed><course>-1.000000</course><hAcc>0.000000</hAcc><vAcc>-1.000000</vAcc></extensions></trkpt>
    </trkseg>
  </trk>
</gpx>