<?xml version="1.0" encoding="UTF-8"?>
<gpx version="1.1" creator="Apple Health Export" xmlns="http://www.topografix.com/GPX/1/1" xmlns:xsi="http://www.w3.org/2001/XMLSchema-instance" xsi:schemaLocation="http://www.topografix.com/GPX/1/1 http://www.topografix.com/GPX/1/1/gpx.xsd">
  <metadata>
    <time>2021-02-21T19:24:48Z</time>
  </metadata>
  <trk>
    <name>Route 2020-12-08 12:07pm</name>
    <trkseg>
      <trkpt lon="-123.274299" lat="44.561703"><ele>69.336861</ele><time>2020-12-08T20:04:24Z</time><extensions><speed>4.550000</speed><course>4.921875</course><hAcc>4.451939</hAcc><vAcc>4.000000</vAcc></extensions></trkpt>
      <trkpt lon="-123.274299" lat="44.561703"><ele>69.336861</ele><time>2020-12-08T20:04:25Z</time><extensions><speed>4.550000</speed><course>4.921875</course><hAcc>4.451939</hAcc><vAcc>4.000000</vAcc></extensions></trkpt>
      <trkpt lon="-123.274285" lat="44.561778"><ele>70.403084</ele><time>2020-12-08T20:04:26Z</time><extensions><speed>4.550000</speed><course>2.460938</course><hAcc>3.739375</hAcc><vAcc>4.000000</vAcc></extensions></trkpt>
      <trkpt lon="-123.274255" lat="44.561794"><ele>71.855354</ele><time>2020-12-08T20:04:27Z</time><extensions><speed>4.550000</speed><course>14.062500</course><hAcc>3.583228</hAcc><vAcc>4.000000</vAcc></extensions></trkpt>
      <trkpt lon="-123.274264" lat="44.561828"><ele>71.122505</ele><time>2020-12-08T20:04:28Z</time><extensions><speed>4.090000</speed><course>1.406250</course><hAcc>3.638293</hAcc><vAcc>3.000000</vAcc></extensions></trkpt>
      <trkpt lon="-123.274262" lat="44.561858"><ele>71.122505</ele><time>2020-12-08T20:04:29Z</time><extensions><speed>4.090000</speed><course>0.000000</course><hAcc>3.785076</hAcc><vAcc>3.000000</vAcc></extensions></trkpt>
      <trkpt lon="-123.274267" lat="44.561894"><ele>70.680489</ele><time>2020-12-08T20:04:30Z</time><extensions><speed>3.810000</speed><course>3.515625</course><hAcc>3.535534</hAcc><vAcc>3.000000</vAcc></extensions></trkpt>
      <trkpt lon="-123.274270" lat="44.561933"><ele>70.069099</ele><time>2020-12-08T20:04:31Z</time><extensions><speed>3.620000</speed><course>356.835938</course><hAcc>3.535534</hAcc><vAcc>3.000000</vAcc></extensions></trkpt>
      <trkpt lon="-123.274273" lat="44.561965"><ele>70.069099</ele><time>2020-12-08T20:04:32Z</time><extensions><speed>3.620000</speed><course>356.835938</course><hAcc>4.569113</hAcc><vAcc>3.598298</vAcc></extensions></trkpt>
      <trkpt lon="-123.274277" lat="44.562013"><ele>70.014595</ele><time>2020-12-08T20:04:33Z</time><extensions><speed>4.070000</speed><course>359.296875</course><hAcc>4.569113</hAcc><vAcc>3.598297</vAcc></extensions></trkpt>
      <trkpt lon="-123.274385" lat="44.562021"><ele>69.428474</ele><time>2020-12-08T20:04:34Z</time><extensions><speed>4.970000</speed><course>295.664032</course><hAcc>4.569113</hAcc><vAcc>3.598298</vAcc></extensions></trkpt>
      <trkpt lon="-123.274439" lat="44.562023"><ele>69.235725</ele><time>2020-12-08T20:04:35Z</time><extensions><speed>4.920000</speed><course>276.328094</course><hAcc>4.569113</hAcc><vAcc>3.598298</vAcc></extensions></trkpt>
      <trkpt lon="-123.274503" lat="44.562028"><ele>67.969551</ele><time>2020-12-08T20:04:36Z</time><extensions><speed>4.920000</speed><course>271.757782</course><hAcc>4.569113</hAcc><vAcc>3.598298</vAcc></extensions></trkpt>
      <trkpt lon="-123.274563" lat="44.562043"><ele>68.250923</ele><time>2020-12-08T20:04:37Z</time><extensions><speed>5.270000</speed><course>279.140564</course><hAcc>4.569113</hAcc><vAcc>3.598298</vAcc></extensions></trkpt>
      <trkpt lon="-123.274631" lat="44.562042"><ele>67.431831</ele><time>2020-12-08T20:04:38Z</time><extensions><speed>5.270000</speed><course>271.054626</course><hAcc>4.569113</hAcc><vAcc>3.598298</vAcc></extensions></trkpt>
      <trkpt lon="-123.274701" lat="44.562054"><ele>67.580086</ele><time>2020-12-08T20:04:39Z</time><extensions><speed>5.270000</speed><course>278.437439</course><hAcc>4.569113</hAcc><vAcc>3.598298</vAcc></extensions></trkpt>
      <trkpt lon="-123.274784" lat="44.562038"><ele>67.227974</ele><time>2020-12-08T20:04:40Z</time><extensions><speed>6.010000</speed><course>266.132751</course><hAcc>4.569112</hAcc><vAcc>3.598298</vAcc></extensions></trkpt>
      <trkpt lon="-123.274864" lat="44.562051"><ele>67.323189</ele><time>2020-12-08T20:04:41Z</time><extensions><speed>6.240000</speed><course>273.164001</course><hAcc>4.569112</hAcc><vAcc>3.598298</vAcc></extensions></trkpt>
      <trkpt lon="-123.274942" lat="44.562043"><ele>66.994942</ele><time>2020-12-08T20:04:42Z</time><extensions><speed>6.240000</speed><course>269.648376</course><hAcc>4.569112</hAcc><vAcc>3.598298</vAcc></extensions></trkpt>
      <trkpt lon="-123.275019" lat="44.562032"><ele>67.061226</ele><time>2020-12-08T20:04:43Z</time><extensions><speed>6.240000</speed><course>263.320251</course><hAcc>4.569112</hAcc><vAcc>3.598298</vAcc></extensions></trkpt>
      <trkpt lon="-123.275100" lat="44.562029"><ele>67.006233</ele><time>2020-12-08T20:04:44Z</time><extensions><speed>6.220000</speed><course>266.132751</course><hAcc>4.569112</hAcc><vAcc>3.598298</vAcc></extensions></trkpt>
      <trkpt lon="-123.275179" lat="44.562032"><ele>67.020088</ele><time>2020-12-08T20:04:45Z</time><extensions><speed>6.230000</speed><course>268.593689</course><hAcc>4.569112</hAcc><vAcc>3.598298</vAcc></extensions></trkpt>
      <trkpt lon="-123.275260" lat="44.562024"><ele>67.272713</ele><time>2020-12-08T20:04:46Z</time><extensions><speed>6.480000</speed><course>265.781189</course><hAcc>4.569112</hAcc><vAcc>3.598299</vAcc></extensions></trkpt>
      <trkpt lon="-123.275344" lat="44.562021"><ele>67.108589</ele><time>2020-12-08T20:04:47Z</time><extensions><speed>6.480000</speed><course>264.726501</course><hAcc>4.569112</hAcc><vAcc>3.598299</vAcc></extensions></trkpt>
      <trkpt lon="-123.275420" lat="44.562036"><ele>66.397285</ele><time>2020-12-08T20:04:48Z</time><extensions><speed>6.480000</speed><course>276.679626</course><hAcc>4.569112</hAcc><vAcc>3.598299</vAcc></extensions></trkpt>
      <trkpt lon="-123.275504" lat="44.562025"><ele>66.699654</ele><time>2020-12-08T20:04:49Z</time><extensions><speed>6.680000</speed><course>268.242126</course><hAcc>4.569112</hAcc><vAcc>3.598299</vAcc></extensions></trkpt>
      <trkpt lon="-123.275583" lat="44.562017"><ele>66.514717</ele><time>2020-12-08T20:04:50Z</time><extensions><speed>6.680000</speed><course>264.726501</course><hAcc>4.569112</hAcc><vAcc>3.598299</vAcc></extensions></trkpt>
      <trkpt lon="-123.275663" lat="44.562004"><ele>66.624397</ele><time>2020-12-08T20:04:51Z</time><extensions><speed>6.680000</speed><course>261.914001</course><hAcc>4.569112</hAcc><vAcc>3.598299</vAcc></extensions></trkpt>
      <trkpt lon="-123.275766" lat="44.562015"><ele>69.916725</ele><time>2020-12-08T20:04:52Z</time><extensions><speed>6.618251</speed><course>261.913605</course><hAcc>4.790518</hAcc><vAcc>3.297799</vAcc></extensions></trkpt>
      <trkpt lon="-123.275845" lat="44.561997"><ele>70.010475</ele><time>2020-12-08T20:04:53Z</time><extensions><speed>6.625526</speed><course>257.690948</course><hAcc>4.785481</hAcc><vAcc>3.305103</vAcc></extensions></trkpt>
      <trkpt lon="-123.275927" lat="44.561986"><ele>70.186409</ele><time>2020-12-08T20:04:54Z</time><extensions><speed>6.563338</speed><course>259.962616</course><hAcc>4.791548</hAcc><vAcc>3.296302</vAcc></extensions></trkpt>
      <trkpt lon="-123.276009" lat="44.561971"><ele>70.111275</ele><time>2020-12-08T20:04:55Z</time><extensions><speed>6.606376</speed><course>258.440460</course><hAcc>4.795988</hAcc><vAcc>3.289839</vAcc></extensions></trkpt>
      <trkpt lon="-123.276090" lat="44.561965"><ele>69.815834</ele><time>2020-12-08T20:04:56Z</time><extensions><speed>6.496652</speed><course>261.462708</course><hAcc>4.796394</hAcc><vAcc>3.289246</vAcc></extensions></trkpt>
      <trkpt lon="-123.276173" lat="44.561965"><ele>70.085938</ele><time>2020-12-08T20:04:57Z</time><extensions><speed>6.646616</speed><course>266.652954</course><hAcc>4.787378</hAcc><vAcc>3.302355</vAcc></extensions></trkpt>
      <trkpt lon="-123.276268" lat="44.561976"><ele>70.091103</ele><time>2020-12-08T20:04:58Z</time><extensions><speed>7.215590</speed><course>272.906708</course><hAcc>4.736667</hAcc><vAcc>3.374689</vAcc></extensions></trkpt>
      <trkpt lon="-123.276345" lat="44.561971"><ele>70.266960</ele><time>2020-12-08T20:04:59Z</time><extensions><speed>6.667649</speed><course>269.308777</course><hAcc>4.738011</hAcc><vAcc>3.372801</vAcc></extensions></trkpt>
      <trkpt lon="-123.276431" lat="44.561968"><ele>70.301369</ele><time>2020-12-08T20:05:00Z</time><extensions><speed>6.727506</speed><course>268.135315</course><hAcc>4.735723</hAcc><vAcc>3.376013</vAcc></extensions></trkpt>
      <trkpt lon="-123.276521" lat="44.561969"><ele>70.902733</ele><time>2020-12-08T20:05:01Z</time><extensions><speed>7.012822</speed><course>269.603241</course><hAcc>4.735778</hAcc><vAcc>3.375936</vAcc></extensions></trkpt>
      <trkpt lon="-123.276605" lat="44.561975"><ele>70.818687</ele><time>2020-12-08T20:05:02Z</time><extensions><speed>6.911645</speed><course>273.153076</course><hAcc>4.737053</hAcc><vAcc>3.374146</vAcc></extensions></trkpt>
      <trkpt lon="-123.276684" lat="44.561984"><ele>70.130455</ele><time>2020-12-08T20:05:03Z</time><extensions><speed>6.542130</speed><course>276.289124</course><hAcc>4.736495</hAcc><vAcc>3.374930</vAcc></extensions></trkpt>
      <trkpt lon="-123.276773" lat="44.561986"><ele>71.076500</ele><time>2020-12-08T20:05:04Z</time><extensions><speed>6.765630</speed><course>273.734985</course><hAcc>4.735638</hAcc><vAcc>3.376132</vAcc></extensions></trkpt>
      <trkpt lon="-123.276853" lat="44.561992"><ele>70.713364</ele><time>2020-12-08T20:05:05Z</time><extensions><speed>6.650588</speed><course>274.308472</course><hAcc>4.735666</hAcc><vAcc>3.376093</vAcc></extensions></trkpt>
      <trkpt lon="-123.276936" lat="44.561984"><ele>70.577896</ele><time>2020-12-08T20:05:06Z</time><extensions><speed>6.602404</speed><course>268.169739</course><hAcc>4.730732</hAcc><vAcc>3.383004</vAcc></extensions></trkpt>
      <trkpt lon="-123.277013" lat="44.561980"><ele>70.901871</ele><time>2020-12-08T20:05:07Z</time><extensions><speed>6.337608</speed><course>267.321259</course><hAcc>4.728053</hAcc><vAcc>3.386747</vAcc></extensions></trkpt>
      <trkpt lon="-123.277094" lat="44.561984"><ele>71.194588</ele><time>2020-12-08T20:05:08Z</time><extensions><speed>6.468906</speed><course>270.717987</course><hAcc>4.731431</hAcc><vAcc>3.382025</vAcc></extensions></trkpt>
      <trkpt lon="-123.277170" lat="44.561986"><ele>70.482849</ele><time>2020-12-08T20:05:09Z</time><extensions><speed>6.150216</speed><course>272.019073</course><hAcc>4.730796</hAcc><vAcc>3.382914</vAcc></extensions></trkpt>
      <trkpt lon="-123.277247" lat="44.561985"><ele>70.906883</ele><time>2020-12-08T20:05:10Z</time><extensions><speed>6.101016</speed><course>268.929321</course><hAcc>4.730176</hAcc><vAcc>3.383780</vAcc></extensions></trkpt>
      <trkpt lon="-123.277326" lat="44.561982"><ele>70.504440</ele><time>2020-12-08T20:05:11Z</time><extensions><speed>6.241325</speed><course>267.724396</course><hAcc>4.724411</hAcc><vAcc>3.391824</vAcc></extensions></trkpt>
      <trkpt lon="-123.277396" lat="44.561987"><ele>70.186584</ele><time>2020-12-08T20:05:12Z</time><extensions><speed>5.839043</speed><course>272.420319</course><hAcc>4.728750</hAcc><vAcc>3.385774</vAcc></extensions></trkpt>
      <trkpt lon="-123.277471" lat="44.561985"><ele>70.715614</ele><time>2020-12-08T20:05:13Z</time><extensions><speed>5.804801</speed><course>270.108246</course><hAcc>4.732793</hAcc><vAcc>3.380119</vAcc></extensions></trkpt>
      <trkpt lon="-123.277549" lat="44.561989"><ele>70.682007</ele><time>2020-12-08T20:05:14Z</time><extensions><speed>6.116824</speed><course>272.464172</course><hAcc>4.734499</hAcc><vAcc>3.377730</vAcc></extensions></trkpt>
      <trkpt lon="-123.277620" lat="44.561990"><ele>70.252892</ele><time>2020-12-08T20:05:15Z</time><extensions><speed>5.821662</speed><course>270.839050</course><hAcc>4.734963</hAcc><vAcc>3.377078</vAcc></extensions></trkpt>
      <trkpt lon="-123.277701" lat="44.561990"><ele>71.198486</ele><time>2020-12-08T20:05:16Z</time><extensions><speed>6.062229</speed><course>269.719208</course><hAcc>4.734433</hAcc><vAcc>3.377822</vAcc></extensions></trkpt>
      <trkpt lon="-123.277778" lat="44.561994"><ele>70.600822</ele><time>2020-12-08T20:05:17Z</time><extensions><speed>6.213738</speed><course>273.221161</course><hAcc>4.735603</hAcc><vAcc>3.376182</vAcc></extensions></trkpt>
      <trkpt lon="-123.277855" lat="44.561993"><ele>70.540237</ele><time>2020-12-08T20:05:18Z</time><extensions><speed>6.098841</speed><course>271.026886</course><hAcc>4.735239</hAcc><vAcc>3.376692</vAcc></extensions></trkpt>
      <trkpt lon="-123.277935" lat="44.561990"><ele>70.614044</ele><time>2020-12-08T20:05:19Z</time><extensions><speed>6.242383</speed><course>268.795135</course><hAcc>4.734709</hAcc><vAcc>3.377435</vAcc></extensions></trkpt>
      <trkpt lon="-123.278012" lat="44.561996"><ele>71.098434</ele><time>2020-12-08T20:05:20Z</time><extensions><speed>6.274361</speed><course>274.503296</course><hAcc>4.736159</hAcc><vAcc>3.375402</vAcc></extensions></trkpt>
      <trkpt lon="-123.278084" lat="44.561990"><ele>69.781998</ele><time>2020-12-08T20:05:21Z</time><extensions><speed>6.027643</speed><course>268.322052</course><hAcc>4.735844</hAcc><vAcc>3.375844</vAcc></extensions></trkpt>
      <trkpt lon="-123.278168" lat="44.561988"><ele>70.905602</ele><time>2020-12-08T20:05:22Z</time><extensions><speed>6.300403</speed><course>266.977844</course><hAcc>4.735375</hAcc><vAcc>3.376501</vAcc></extensions></trkpt>
      <trkpt lon="-123.278248" lat="44.561996"><ele>70.731575</ele><time>2020-12-08T20:05:23Z</time><extensions><speed>6.379286</speed><course>274.545898</course><hAcc>4.730637</hAcc><vAcc>3.383136</vAcc></extensions></trkpt>
      <trkpt lon="-123.278317" lat="44.561999"><ele>69.790161</ele><time>2020-12-08T20:05:24Z</time><extensions><speed>5.857049</speed><course>273.974915</course><hAcc>4.737225</hAcc><vAcc>3.373905</vAcc></extensions></trkpt>
      <trkpt lon="-123.278400" lat="44.562005"><ele>70.304855</ele><time>2020-12-08T20:05:25Z</time><extensions><speed>6.166287</speed><course>275.956421</course><hAcc>4.732239</hAcc><vAcc>3.380895</vAcc></extensions></trkpt>
      <trkpt lon="-123.278486" lat="44.562018"><ele>71.465675</ele><time>2020-12-08T20:05:26Z</time><extensions><speed>6.703770</speed><course>278.831970</course><hAcc>4.734403</hAcc><vAcc>3.377865</vAcc></extensions></trkpt>
      <trkpt lon="-123.278549" lat="44.562020"><ele>70.154480</ele><time>2020-12-08T20:05:27Z</time><extensions><speed>5.768269</speed><course>275.839142</course><hAcc>4.735043</hAcc><vAcc>3.376968</vAcc></extensions></trkpt>
      <trkpt lon="-123.278629" lat="44.562022"><ele>71.090996</ele><time>2020-12-08T20:05:28Z</time><extensions><speed>5.977667</speed><course>273.940552</course><hAcc>4.734955</hAcc><vAcc>3.377091</vAcc></extensions></trkpt>
      <trkpt lon="-123.278704" lat="44.562030"><ele>70.741768</ele><time>2020-12-08T20:05:29Z</time><extensions><speed>6.040383</speed><course>278.492004</course><hAcc>4.732753</hAcc><vAcc>3.380176</vAcc></extensions></trkpt>
      <trkpt lon="-123.278771" lat="44.562046"><ele>70.237465</ele><time>2020-12-08T20:05:30Z</time><extensions><speed>5.658262</speed><course>285.421295</course><hAcc>4.731473</hAcc><vAcc>3.381967</vAcc></extensions></trkpt>
      <trkpt lon="-123.278846" lat="44.562070"><ele>70.910843</ele><time>2020-12-08T20:05:31Z</time><extensions><speed>6.070110</speed><course>290.820251</course><hAcc>4.733324</hAcc><vAcc>3.379376</vAcc></extensions></trkpt>
      <trkpt lon="-123.278908" lat="44.562103"><ele>71.142357</ele><time>2020-12-08T20:05:32Z</time><extensions><speed>6.203732</speed><course>302.040985</course><hAcc>4.734829</hAcc><vAcc>3.377267</vAcc></extensions></trkpt>
      <trkpt lon="-123.278959" lat="44.562138"><ele>70.908424</ele><time>2020-12-08T20:05:33Z</time><extensions><speed>5.913884</speed><course>309.841064</course><hAcc>4.736022</hAcc><vAcc>3.375594</vAcc></extensions></trkpt>
      <trkpt lon="-123.279007" lat="44.562180"><ele>71.481071</ele><time>2020-12-08T20:05:34Z</time><extensions><speed>5.971719</speed><course>317.962585</course><hAcc>4.735615</hAcc><vAcc>3.376165</vAcc></extensions></trkpt>
      <trkpt lon="-123.279051" lat="44.562227"><ele>70.913750</ele><time>2020-12-08T20:05:35Z</time><extensions><speed>6.165497</speed><course>324.533630</course><hAcc>4.738219</hAcc><vAcc>3.372509</vAcc></extensions></trkpt>
      <trkpt lon="-123.279078" lat="44.562273"><ele>70.996925</ele><time>2020-12-08T20:05:36Z</time><extensions><speed>5.791980</speed><course>332.667084</course><hAcc>4.738485</hAcc><vAcc>3.372135</vAcc></extensions></trkpt>
      <trkpt lon="-123.279094" lat="44.562321"><ele>71.206627</ele><time>2020-12-08T20:05:37Z</time><extensions><speed>5.580784</speed><course>342.599731</course><hAcc>4.738019</hAcc><vAcc>3.372791</vAcc></extensions></trkpt>
      <trkpt lon="-123.279109" lat="44.562372"><ele>70.899063</ele><time>2020-12-08T20:05:38Z</time><extensions><speed>5.748622</speed><course>345.020508</course><hAcc>4.737875</hAcc><vAcc>3.372992</vAcc></extensions></trkpt>
      <trkpt lon="-123.279144" lat="44.562414"><ele>71.229622</ele><time>2020-12-08T20:05:39Z</time><extensions><speed>5.653179</speed><course>334.281952</course><hAcc>4.738569</hAcc><vAcc>3.372017</vAcc></extensions></trkpt>
      <trkpt lon="-123.279187" lat="44.562447"><ele>70.999565</ele><time>2020-12-08T20:05:40Z</time><extensions><speed>5.258907</speed><course>323.967896</course><hAcc>4.738918</hAcc><vAcc>3.371526</vAcc></extensions></trkpt>
      <trkpt lon="-123.279233" lat="44.562479"><ele>71.019104</ele><time>2020-12-08T20:05:41Z</time><extensions><speed>5.168694</speed><course>315.562988</course><hAcc>4.738674</hAcc><vAcc>3.371871</vAcc></extensions></trkpt>
      <trkpt lon="-123.279290" lat="44.562504"><ele>70.968575</ele><time>2020-12-08T20:05:42Z</time><extensions><speed>5.167924</speed><course>303.911011</course><hAcc>4.739781</hAcc><vAcc>3.370313</vAcc></extensions></trkpt>
      <trkpt lon="-123.279352" lat="44.562522"><ele>71.450676</ele><time>2020-12-08T20:05:43Z</time><extensions><speed>5.206317</speed><course>294.429321</course><hAcc>4.738825</hAcc><vAcc>3.371657</vAcc></extensions></trkpt>
      <trkpt lon="-123.279409" lat="44.562534"><ele>71.312653</ele><time>2020-12-08T20:05:44Z</time><extensions><speed>4.871339</speed><course>292.585388</course><hAcc>4.740140</hAcc><vAcc>3.369808</vAcc></extensions></trkpt>
      <trkpt lon="-123.279459" lat="44.562561"><ele>71.109261</ele><time>2020-12-08T20:05:45Z</time><extensions><speed>4.818687</speed><course>300.842194</course><hAcc>4.738606</hAcc><vAcc>3.371965</vAcc></extensions></trkpt>
      <trkpt lon="-123.279510" lat="44.562586"><ele>71.276642</ele><time>2020-12-08T20:05:46Z</time><extensions><speed>4.791516</speed><course>302.936707</course><hAcc>4.738589</hAcc><vAcc>3.371989</vAcc></extensions></trkpt>
      <trkpt lon="-123.279548" lat="44.562624"><ele>71.867027</ele><time>2020-12-08T20:05:47Z</time><extensions><speed>5.005126</speed><course>322.342010</course><hAcc>4.739439</hAcc><vAcc>3.370795</vAcc></extensions></trkpt>
      <trkpt lon="-123.279537" lat="44.562669"><ele>71.088676</ele><time>2020-12-08T20:05:48Z</time><extensions><speed>4.793778</speed><course>352.261841</course><hAcc>4.735944</hAcc><vAcc>3.375703</vAcc></extensions></trkpt>
      <trkpt lon="-123.279548" lat="44.562720"><ele>72.013100</ele><time>2020-12-08T20:05:49Z</time><extensions><speed>5.612453</speed><course>354.510620</course><hAcc>4.737964</hAcc><vAcc>3.372868</vAcc></extensions></trkpt>
      <trkpt lon="-123.279543" lat="44.562761"><ele>71.293739</ele><time>2020-12-08T20:05:50Z</time><extensions><speed>5.096444</speed><course>358.862885</course><hAcc>4.739009</hAcc><vAcc>3.371398</vAcc></extensions></trkpt>
      <trkpt lon="-123.279543" lat="44.562813"><ele>71.901604</ele><time>2020-12-08T20:05:51Z</time><extensions><speed>5.539751</speed><course>358.003937</course><hAcc>4.738595</hAcc><vAcc>3.371980</vAcc></extensions></trkpt>
      <trkpt lon="-123.279549" lat="44.562857"><ele>71.779579</ele><time>2020-12-08T20:05:52Z</time><extensions><speed>5.184648</speed><course>356.021545</course><hAcc>4.737266</hAcc><vAcc>3.373848</vAcc></extensions></trkpt>
      <trkpt lon="-123.279549" lat="44.562910"><ele>72.117455</ele><time>2020-12-08T20:05:53Z</time><extensions><speed>5.431565</speed><course>358.722198</course><hAcc>4.738117</hAcc><vAcc>3.372653</vAcc></extensions></trkpt>
      <trkpt lon="-123.279550" lat="44.562963"><ele>71.696632</ele><time>2020-12-08T20:05:54Z</time><extensions><speed>5.924261</speed><course>357.604767</course><hAcc>4.739243</hAcc><vAcc>3.371070</vAcc></extensions></trkpt>
      <trkpt lon="-123.279548" lat="44.563007"><ele>71.525436</ele><time>2020-12-08T20:05:55Z</time><extensions><speed>5.321440</speed><course>0.496162</course><hAcc>4.739202</hAcc><vAcc>3.371127</vAcc></extensions></trkpt>
      <trkpt lon="-123.279553" lat="44.563062"><ele>71.963539</ele><time>2020-12-08T20:05:56Z</time><extensions><speed>5.866480</speed><course>357.915833</course><hAcc>4.739065</hAcc><vAcc>3.371321</vAcc></extensions></trkpt>
      <trkpt lon="-123.279542" lat="44.563110"><ele>71.819153</ele><time>2020-12-08T20:05:57Z</time><extensions><speed>5.583613</speed><course>6.322477</course><hAcc>4.737759</hAcc><vAcc>3.373156</vAcc></extensions></trkpt>
      <trkpt lon="-123.279521" lat="44.563151"><ele>71.824249</ele><time>2020-12-08T20:05:58Z</time><extensions><speed>5.097510</speed><course>16.305477</course><hAcc>4.736384</hAcc><vAcc>3.375086</vAcc></extensions></trkpt>
      <trkpt lon="-123.279489" lat="44.563189"><ele>72.218452</ele><time>2020-12-08T20:05:59Z</time><extensions><speed>5.055986</speed><course>24.509623</course><hAcc>4.739954</hAcc><vAcc>3.370071</vAcc></extensions></trkpt>
      <trkpt lon="-123.279458" lat="44.563222"><ele>71.730904</ele><time>2020-12-08T20:06:00Z</time><extensions><speed>5.044076</speed><course>26.854155</course><hAcc>4.737277</hAcc><vAcc>3.373833</vAcc></extensions></trkpt>
      <trkpt lon="-123.279435" lat="44.563251"><ele>71.288841</ele><time>2020-12-08T20:06:01Z</time><extensions><speed>4.291342</speed><course>30.354471</course><hAcc>4.739002</hAcc><vAcc>3.371409</vAcc></extensions></trkpt>
      <trkpt lon="-123.279406" lat="44.563279"><ele>71.488693</ele><time>2020-12-08T20:06:02Z</time><extensions><speed>3.999000</speed><course>35.922619</course><hAcc>4.736071</hAcc><vAcc>3.375525</vAcc></extensions></trkpt>
      <trkpt lon="-123.279391" lat="44.563303"><ele>71.520660</ele><time>2020-12-08T20:06:03Z</time><extensions><speed>3.242325</speed><course>24.408411</course><hAcc>4.739089</hAcc><vAcc>3.371286</vAcc></extensions></trkpt>
      <trkpt lon="-123.279387" lat="44.563317"><ele>71.382362</ele><time>2020-12-08T20:06:04Z</time><extensions><speed>1.972785</speed><course>12.763997</course><hAcc>4.738043</hAcc><vAcc>3.372756</vAcc></extensions></trkpt>
      <trkpt lon="-123.279396" lat="44.563315"><ele>72.260872</ele><time>2020-12-08T20:06:05Z</time><extensions><speed>0.779754</speed><course>339.835876</course><hAcc>4.736944</hAcc><vAcc>3.374300</vAcc></extensions></trkpt>
      <trkpt lon="-123.279391" lat="44.563320"><ele>72.032028</ele><time>2020-12-08T20:06:06Z</time><extensions><speed>0.706269</speed><course>3.370937</course><hAcc>4.737092</hAcc><vAcc>3.374091</vAcc></extensions></trkpt>
      <trkpt lon="-123.279392" lat="44.563315"><ele>72.394447</ele><time>2020-12-08T20:06:07Z</time><extensions><speed>0.000000</speed><course>6.083448</course><hAcc>4.735530</hAcc><vAcc>3.376284</vAcc></extensions></trkpt>
      <trkpt lon="-123.279391" lat="44.563315"><ele>72.364571</ele><time>2020-12-08T20:06:08Z</time><extensions><speed>0.000000</speed><course>6.083449</course><hAcc>4.737867</hAcc><vAcc>3.373004</vAcc></extensions></trkpt>
      <trkpt lon="-123.279389" lat="44.563316"><ele>72.483101</ele><time>2020-12-08T20:06:09Z</time><extensions><speed>0.000000</speed><course>6.083450</course><hAcc>4.737633</hAcc><vAcc>3.373333</vAcc></extensions></trkpt>
      <trkpt lon="-123.279388" lat="44.563316"><ele>72.643768</ele><time>2020-12-08T20:06:10Z</time><extensions><speed>0.000000</speed><course>6.083451</course><hAcc>4.732435</hAcc><vAcc>3.380620</vAcc></extensions></trkpt>
      <trkpt lon="-123.279387" lat="44.563314"><ele>72.470367</ele><time>2020-12-08T20:06:11Z</time><extensions><speed>0.000000</speed><course>6.083452</course><hAcc>4.734970</hAcc><vAcc>3.377069</vAcc></extensions></trkpt>
      <trkpt lon="-123.279383" lat="44.563315"><ele>72.611198</ele><time>2020-12-08T20:06:12Z</time><extensions><speed>0.000000</speed><course>6.083455</course><hAcc>4.736509</hAcc><vAcc>3.374910</vAcc></extensions></trkpt>
      <trkpt lon="-123.279382" lat="44.563314"><ele>72.525627</ele><time>2020-12-08T20:06:13Z</time><extensions><speed>0.000000</speed><course>6.083456</course><hAcc>4.737010</hAcc><vAcc>3.374207</vAcc></extensions></trkpt>
      <trkpt lon="-123.279383" lat="44.563313"><ele>72.548187</ele><time>2020-12-08T20:06:14Z</time><extensions><speed>0.000000</speed><course>6.083455</course><hAcc>4.732830</hAcc><vAcc>3.380068</vAcc></extensions></trkpt>
      <trkpt lon="-123.279383" lat="44.563314"><ele>72.589455</ele><time>2020-12-08T20:06:15Z</time><extensions><speed>0.000000</speed><course>6.083455</course><hAcc>4.730287</hAcc><vAcc>3.383626</vAcc></extensions></trkpt>
      <trkpt lon="-123.279382" lat="44.563313"><ele>72.510170</ele><time>2020-12-08T20:06:16Z</time><extensions><speed>0.000000</speed><course>6.083456</course><hAcc>4.730731</hAcc><vAcc>3.383005</vAcc></extensions></trkpt>
      <trkpt lon="-123.279381" lat="44.563313"><ele>72.512962</ele><time>2020-12-08T20:06:17Z</time><extensions><speed>0.000000</speed><course>6.083456</course><hAcc>4.731239</hAcc><vAcc>3.382295</vAcc></extensions></trkpt>
      <trkpt lon="-123.279382" lat="44.563312"><ele>72.602768</ele><time>2020-12-08T20:06:18Z</time><extensions><speed>0.000000</speed><course>6.083455</course><hAcc>4.734443</hAcc><vAcc>3.377808</vAcc></extensions></trkpt>
      <trkpt lon="-123.279381" lat="44.563311"><ele>72.646736</ele><time>2020-12-08T20:06:19Z</time><extensions><speed>0.000000</speed><course>6.083456</course><hAcc>4.733137</hAcc><vAcc>3.379638</vAcc></extensions></trkpt>
      <trkpt lon="-123.279381" lat="44.563309"><ele>72.545624</ele><time>2020-12-08T20:06:20Z</time><extensions><speed>0.000000</speed><course>6.083456</course><hAcc>4.734834</hAcc><vAcc>3.377260</vAcc></extensions></trkpt>
      <trkpt lon="-123.279385" lat="44.563312"><ele>72.707718</ele><time>2020-12-08T20:06:21Z</time><extensions><speed>0.000000</speed><course>347.274445</course><hAcc>4.734360</hAcc><vAcc>3.377925</vAcc></extensions></trkpt>
      <trkpt lon="-123.279384" lat="44.563310"><ele>72.632019</ele><time>2020-12-08T20:06:22Z</time><extensions><speed>0.000000</speed><course>347.274445</course><hAcc>4.734775</hAcc><vAcc>3.377343</vAcc></extensions></trkpt>
      <trkpt lon="-123.279384" lat="44.563313"><ele>72.678665</ele><time>2020-12-08T20:06:23Z</time><extensions><speed>0.000000</speed><course>347.274445</course><hAcc>4.736344</hAcc><vAcc>3.375142</vAcc></extensions></trkpt>
      <trkpt lon="-123.279384" lat="44.563312"><ele>72.894577</ele><time>2020-12-08T20:06:24Z</time><extensions><speed>0.000000</speed><course>347.274445</course><hAcc>4.735667</hAcc><vAcc>3.376092</vAcc></extensions></trkpt>
      <trkpt lon="-123.279382" lat="44.563312"><ele>72.828835</ele><time>2020-12-08T20:06:25Z</time><extensions><speed>0.000000</speed><course>347.274445</course><hAcc>4.735143</hAcc><vAcc>3.376826</vAcc></extensions></trkpt>
      <trkpt lon="-123.279380" lat="44.563312"><ele>72.564240</ele><time>2020-12-08T20:06:26Z</time><extensions><speed>0.000000</speed><course>347.274445</course><hAcc>4.735718</hAcc><vAcc>3.376021</vAcc></extensions></trkpt>
      <trkpt lon="-123.279380" lat="44.563310"><ele>72.604912</ele><time>2020-12-08T20:06:27Z</time><extensions><speed>0.000000</speed><course>347.274445</course><hAcc>4.732679</hAcc><vAcc>3.380278</vAcc></extensions></trkpt>
      <trkpt lon="-123.279380" lat="44.563310"><ele>72.748230</ele><time>2020-12-08T20:06:28Z</time><extensions><speed>0.000000</speed><course>347.274445</course><hAcc>4.736790</hAcc><vAcc>3.374516</vAcc></extensions></trkpt>
      <trkpt lon="-123.279378" lat="44.563309"><ele>72.765709</ele><time>2020-12-08T20:06:29Z</time><extensions><speed>0.000000</speed><course>347.274445</course><hAcc>4.735874</hAcc><vAcc>3.375801</vAcc></extensions></trkpt>
      <trkpt lon="-123.279378" lat="44.563307"><ele>72.887367</ele><time>2020-12-08T20:06:30Z</time><extensions><speed>0.000000</speed><course>347.274445</course><hAcc>4.735363</hAcc><vAcc>3.376519</vAcc></extensions></trkpt>
      <trkpt lon="-123.279376" lat="44.563307"><ele>73.098969</ele><time>2020-12-08T20:06:31Z</time><extensions><speed>0.000000</speed><course>347.274445</course><hAcc>4.737978</hAcc><vAcc>3.372847</vAcc></extensions></trkpt>
      <trkpt lon="-123.279378" lat="44.563307"><ele>72.914192</ele><time>2020-12-08T20:06:32Z</time><extensions><speed>0.000000</speed><course>347.274445</course><hAcc>4.740632</hAcc><vAcc>3.369117</vAcc></extensions></trkpt>
      <trkpt lon="-123.279378" lat="44.563306"><ele>72.920074</ele><time>2020-12-08T20:06:33Z</time><extensions><speed>0.000000</speed><course>347.274445</course><hAcc>4.738269</hAcc><vAcc>3.372438</vAcc></extensions></trkpt>
      <trkpt lon="-123.279376" lat="44.563305"><ele>72.896233</ele><time>2020-12-08T20:06:34Z</time><extensions><speed>0.000000</speed><course>347.274445</course><hAcc>4.738907</hAcc><vAcc>3.371542</vAcc></extensions></trkpt>
      <trkpt lon="-123.279379" lat="44.563305"><ele>72.774872</ele><time>2020-12-08T20:06:35Z</time><extensions><speed>0.000000</speed><course>347.274445</course><hAcc>4.739659</hAcc><vAcc>3.370485</vAcc></extensions></trkpt>
      <trkpt lon="-123.279379" lat="44.563302"><ele>72.533508</ele><time>2020-12-08T20:06:36Z</time><extensions><speed>0.000000</speed><course>347.274445</course><hAcc>4.737618</hAcc><vAcc>3.373353</vAcc></extensions></trkpt>
      <trkpt lon="-123.279379" lat="44.563304"><ele>72.692596</ele><time>2020-12-08T20:06:37Z</time><extensions><speed>0.000000</speed><course>347.274445</course><hAcc>4.739143</hAcc><vAcc>3.371211</vAcc></extensions></trkpt>
      <trkpt lon="-123.279378" lat="44.563304"><ele>72.630447</ele><time>2020-12-08T20:06:38Z</time><extensions><speed>0.000000</speed><course>347.274445</course><hAcc>4.735844</hAcc><vAcc>3.375844</vAcc></extensions></trkpt>
      <trkpt lon="-123.279381" lat="44.563305"><ele>72.619072</ele><time>2020-12-08T20:06:39Z</time><extensions><speed>0.000000</speed><course>347.274445</course><hAcc>4.733642</hAcc><vAcc>3.378930</vAcc></extensions></trkpt>
      <trkpt lon="-123.279382" lat="44.563304"><ele>72.937660</ele><time>2020-12-08T20:06:40Z</time><extensions><speed>0.000000</speed><course>347.274445</course><hAcc>4.734353</hAcc><vAcc>3.377935</vAcc></extensions></trkpt>
      <trkpt lon="-123.279385" lat="44.563306"><ele>72.726730</ele><time>2020-12-08T20:06:41Z</time><extensions><speed>0.000000</speed><course>347.274445</course><hAcc>4.734703</hAcc><vAcc>3.377444</vAcc></extensions></trkpt>
      <trkpt lon="-123.279386" lat="44.563306"><ele>72.719017</ele><time>2020-12-08T20:06:42Z</time><extensions><speed>0.000000</speed><course>347.274414</course><hAcc>4.735781</hAcc><vAcc>3.375932</vAcc></extensions></trkpt>
      <trkpt lon="-123.279386" lat="44.563307"><ele>72.567841</ele><time>2020-12-08T20:06:43Z</time><extensions><speed>0.000000</speed><course>347.274414</course><hAcc>4.734007</hAcc><vAcc>3.378419</vAcc></extensions></trkpt>
      <trkpt lon="-123.279388" lat="44.563304"><ele>72.389038</ele><time>2020-12-08T20:06:44Z</time><extensions><speed>0.000000</speed><course>347.274414</course><hAcc>4.735210</hAcc><vAcc>3.376733</vAcc></extensions></trkpt>
      <trkpt lon="-123.279387" lat="44.563303"><ele>71.868179</ele><time>2020-12-08T20:06:45Z</time><extensions><speed>0.000000</speed><course>347.274414</course><hAcc>4.736647</hAcc><vAcc>3.374717</vAcc></extensions></trkpt>
      <trkpt lon="-123.279387" lat="44.563302"><ele>72.360939</ele><time>2020-12-08T20:06:46Z</time><extensions><speed>0.000000</speed><course>347.274414</course><hAcc>4.737553</hAcc><vAcc>3.373445</vAcc></extensions></trkpt>
      <trkpt lon="-123.279386" lat="44.563302"><ele>72.441711</ele><time>2020-12-08T20:06:47Z</time><extensions><speed>0.000000</speed><course>347.274445</course><hAcc>4.737673</hAcc><vAcc>3.373276</vAcc></extensions></trkpt>
      <trkpt lon="-123.279384" lat="44.563295"><ele>72.443581</ele><time>2020-12-08T20:06:48Z</time><extensions><speed>0.000000</speed><course>347.274445</course><hAcc>4.739765</hAcc><vAcc>3.370336</vAcc></extensions></trkpt>
      <trkpt lon="-123.279379" lat="44.563301"><ele>72.005035</ele><time>2020-12-08T20:06:49Z</time><extensions><speed>0.462896</speed><course>359.019012</course><hAcc>4.734664</hAcc><vAcc>3.377498</vAcc></extensions></trkpt>
      <trkpt lon="-123.279382" lat="44.563288"><ele>73.026863</ele><time>2020-12-08T20:06:50Z</time><extensions><speed>0.395609</speed><course>205.643524</course><hAcc>4.729044</hAcc><vAcc>3.385362</vAcc></extensions></trkpt>
      <trkpt lon="-123.279379" lat="44.563280"><ele>72.612892</ele><time>2020-12-08T20:06:51Z</time><extensions><speed>0.806407</speed><course>175.742554</course><hAcc>4.731451</hAcc><vAcc>3.381999</vAcc></extensions></trkpt>
      <trkpt lon="-123.279391" lat="44.563269"><ele>71.771027</ele><time>2020-12-08T20:06:52Z</time><extensions><speed>1.136705</speed><course>194.507812</course><hAcc>4.722824</hAcc><vAcc>3.394035</vAcc></extensions></trkpt>
      <trkpt lon="-123.279397" lat="44.563260"><ele>72.174751</ele><time>2020-12-08T20:06:53Z</time><extensions><speed>1.097369</speed><course>200.536987</course><hAcc>4.726334</hAcc><vAcc>3.389145</vAcc></extensions></trkpt>
      <trkpt lon="-123.279404" lat="44.563249"><ele>71.851128</ele><time>2020-12-08T20:06:54Z</time><extensions><speed>1.162139</speed><course>193.921280</course><hAcc>4.749729</hAcc><vAcc>3.356280</vAcc></extensions></trkpt>
      <trkpt lon="-123.279402" lat="44.563233"><ele>72.319031</ele><time>2020-12-08T20:06:55Z</time><extensions><speed>1.409482</speed><course>180.757492</course><hAcc>4.723732</hAcc><vAcc>3.392771</vAcc></extensions></trkpt>
      <trkpt lon="-123.279400" lat="44.563230"><ele>71.982925</ele><time>2020-12-08T20:06:56Z</time><extensions><speed>0.809752</speed><course>167.326462</course><hAcc>4.732455</hAcc><vAcc>3.380593</vAcc></extensions></trkpt>
      <trkpt lon="-123.279403" lat="44.563219"><ele>71.851692</ele><time>2020-12-08T20:06:57Z</time><extensions><speed>0.699551</speed><course>171.049789</course><hAcc>4.729705</hAcc><vAcc>3.384439</vAcc></extensions></trkpt>
      <trkpt lon="-123.279390" lat="44.563223"><ele>71.776291</ele><time>2020-12-08T20:06:58Z</time><extensions><speed>0.597007</speed><course>86.281540</course><hAcc>4.731313</hAcc><vAcc>3.382191</vAcc></extensions></trkpt>
      <trkpt lon="-123.279375" lat="44.563213"><ele>71.084846</ele><time>2020-12-08T20:06:59Z</time><extensions><speed>0.945743</speed><course>121.696625</course><hAcc>4.730550</hAcc><vAcc>3.383257</vAcc></extensions></trkpt>
      <trkpt lon="-123.279352" lat="44.563206"><ele>71.580154</ele><time>2020-12-08T20:07:00Z</time><extensions><speed>1.506859</speed><course>116.700180</course><hAcc>4.731959</hAcc><vAcc>3.381286</vAcc></extensions></trkpt>
      <trkpt lon="-123.279343" lat="44.563204"><ele>71.977806</ele><time>2020-12-08T20:07:01Z</time><extensions><speed>1.228463</speed><course>115.445503</course><hAcc>4.730831</hAcc><vAcc>3.382864</vAcc></extensions></trkpt>
      <trkpt lon="-123.279322" lat="44.563200"><ele>71.829147</ele><time>2020-12-08T20:07:02Z</time><extensions><speed>1.391526</speed><course>108.411942</course><hAcc>4.732133</hAcc><vAcc>3.381044</vAcc></extensions></trkpt>
      <trkpt lon="-123.279306" lat="44.563196"><ele>71.727470</ele><time>2020-12-08T20:07:03Z</time><extensions><speed>1.323259</speed><course>107.363914</course><hAcc>4.731920</hAcc><vAcc>3.381342</vAcc></extensions></trkpt>
      <trkpt lon="-123.279290" lat="44.563193"><ele>72.222054</ele><time>2020-12-08T20:07:04Z</time><extensions><speed>1.251770</speed><course>104.098328</course><hAcc>4.731716</hAcc><vAcc>3.381626</vAcc></extensions></trkpt>
      <trkpt lon="-123.279274" lat="44.563192"><ele>72.348030</ele><time>2020-12-08T20:07:05Z</time><extensions><speed>1.116779</speed><course>97.813400</course><hAcc>4.733275</hAcc><vAcc>3.379445</vAcc></extensions></trkpt>
      <trkpt lon="-123.279256" lat="44.563192"><ele>71.749535</ele><time>2020-12-08T20:07:06Z</time><extensions><speed>1.101870</speed><course>86.016068</course><hAcc>4.731371</hAcc><vAcc>3.382109</vAcc></extensions></trkpt>
      <trkpt lon="-123.279240" lat="44.563190"><ele>72.429955</ele><time>2020-12-08T20:07:07Z</time><extensions><speed>1.101131</speed><course>82.939034</course><hAcc>4.731996</hAcc><vAcc>3.381236</vAcc></extensions></trkpt>
      <trkpt lon="-123.279217" lat="44.563188"><ele>73.219666</ele><time>2020-12-08T20:07:08Z</time><extensions><speed>1.418881</speed><course>84.121658</course><hAcc>4.731566</hAcc><vAcc>3.381837</vAcc></extensions></trkpt>
      <trkpt lon="-123.279207" lat="44.563181"><ele>72.728920</ele><time>2020-12-08T20:07:09Z</time><extensions><speed>1.075460</speed><course>96.547455</course><hAcc>4.733826</hAcc><vAcc>3.378673</vAcc></extensions></trkpt>
      <trkpt lon="-123.279191" lat="44.563176"><ele>73.623337</ele><time>2020-12-08T20:07:10Z</time><extensions><speed>1.132533</speed><course>98.131142</course><hAcc>4.732758</hAcc><vAcc>3.380168</vAcc></extensions></trkpt>
    </trkseg>
  </trk>
</gpx>