<?xml version="1.0" encoding="UTF-8"?>
<gpx version="1.1" creator="Apple Health Export" xmlns="http://www.topografix.com/GPX/1/1" xmlns:xsi="http://www.w3.org/2001/XMLSchema-instance" xsi:schemaLocation="http://www.topografix.com/GPX/1/1 http://www.topografix.com/GPX/1/1/gpx.xsd">
  <metadata>
    <time>2021-02-21T19:24:47Z</time>
  </metadata>
  <trk>
    <name>Route 2020-10-06 4:49pm</name>
    <trkseg>
      <trkpt lon="-123.279168" lat="44.563169"><ele>88.523140</ele><time>2020-10-06T23:43:14Z</time><extensions><speed>1.280000</speed><course>341.015625</course><hAcc>5.000000</hAcc><vAcc>12.000000</vAcc></extensions></trkpt>
      <trkpt lon="-123.279175" lat="44.563181"><ele>77.171700</ele><time>2020-10-06T23:43:15Z</time><extensions><speed>1.370000</speed><course>3.867188</course><hAcc>5.000000</hAcc><vAcc>4.000000</vAcc></extensions></trkpt>
      <trkpt lon="-123.279193" lat="44.563204"><ele>77.281075</ele><time>2020-10-06T23:43:16Z</time><extensions><speed>1.280000</speed><course>357.187500</course><hAcc>5.000000</hAcc><vAcc>4.000000</vAcc></extensions></trkpt>
      <trkpt lon="-123.279208" lat="44.563221"><ele>78.336494</ele><time>2020-10-06T23:43:17Z</time><extensions><speed>1.370000</speed><course>4.570312</course><hAcc>5.000000</hAcc><vAcc>3.000000</vAcc></extensions></trkpt>
      <trkpt lon="-123.279221" lat="44.563240"><ele>77.219124</ele><time>2020-10-06T23:43:18Z</time><extensions><speed>1.150000</speed><course>5.625000</course><hAcc>5.000000</hAcc><vAcc>3.000000</vAcc></extensions></trkpt>
      <trkpt lon="-123.279239" lat="44.563256"><ele>76.067390</ele><time>2020-10-06T23:43:19Z</time><extensions><speed>0.520000</speed><course>354.375000</course><hAcc>5.000000</hAcc><vAcc>3.000000</vAcc></extensions></trkpt>
      <trkpt lon="-123.279255" lat="44.563268"><ele>75.924141</ele><time>2020-10-06T23:43:20Z</time><extensions><speed>0.520000</speed><course>16.171875</course><hAcc>5.000000</hAcc><vAcc>3.000000</vAcc></extensions></trkpt>
      <trkpt lon="-123.279255" lat="44.563268"><ele>75.926765</ele><time>2020-10-06T23:43:21Z</time><extensions><speed>0.000000</speed><course>30.937500</course><hAcc>5.000000</hAcc><vAcc>3.000000</vAcc></extensions></trkpt>
      <trkpt lon="-123.279255" lat="44.563268"><ele>75.962837</ele><time>2020-10-06T23:43:22Z</time><extensions><speed>0.000000</speed><course>345.234375</course><hAcc>5.000000</hAcc><vAcc>3.000000</vAcc></extensions></trkpt>
      <trkpt lon="-123.279255" lat="44.563268"><ele>76.579048</ele><time>2020-10-06T23:43:23Z</time><extensions><speed>0.000000</speed><course>7.734375</course><hAcc>5.000000</hAcc><vAcc>3.000000</vAcc></extensions></trkpt>
      <trkpt lon="-123.279312" lat="44.563293"><ele>76.756172</ele><time>2020-10-06T23:43:24Z</time><extensions><speed>0.220000</speed><course>1.406250</course><hAcc>5.000000</hAcc><vAcc>3.000000</vAcc></extensions></trkpt>
      <trkpt lon="-123.279321" lat="44.563298"><ele>77.182014</ele><time>2020-10-06T23:43:25Z</time><extensions><speed>0.310000</speed><course>50.273438</course><hAcc>5.000000</hAcc><vAcc>3.000000</vAcc></extensions></trkpt>
      <trkpt lon="-123.279340" lat="44.563303"><ele>77.000801</ele><time>2020-10-06T23:43:26Z</time><extensions><speed>0.230000</speed><course>22.148438</course><hAcc>5.000000</hAcc><vAcc>3.000000</vAcc></extensions></trkpt>
      <trkpt lon="-123.279349" lat="44.563305"><ele>76.843330</ele><time>2020-10-06T23:43:27Z</time><extensions><speed>0.150000</speed><course>22.148438</course><hAcc>5.000000</hAcc><vAcc>3.000000</vAcc></extensions></trkpt>
      <trkpt lon="-123.279349" lat="44.563305"><ele>76.808540</ele><time>2020-10-06T23:43:28Z</time><extensions><speed>0.000000</speed><course>22.148438</course><hAcc>5.000000</hAcc><vAcc>3.000000</vAcc></extensions></trkpt>
      <trkpt lon="-123.279356" lat="44.563306"><ele>76.624641</ele><time>2020-10-06T23:43:29Z</time><extensions><speed>0.170000</speed><course>150.468750</course><hAcc>5.000000</hAcc><vAcc>3.000000</vAcc></extensions></trkpt>
      <trkpt lon="-123.279355" lat="44.563307"><ele>76.368172</ele><time>2020-10-06T23:43:30Z</time><extensions><speed>0.170000</speed><course>98.789062</course><hAcc>5.000000</hAcc><vAcc>3.000000</vAcc></extensions></trkpt>
      <trkpt lon="-123.279354" lat="44.563308"><ele>76.112251</ele><time>2020-10-06T23:43:31Z</time><extensions><speed>0.290000</speed><course>97.734375</course><hAcc>5.000000</hAcc><vAcc>3.000000</vAcc></extensions></trkpt>
      <trkpt lon="-123.279351" lat="44.563310"><ele>76.155464</ele><time>2020-10-06T23:43:32Z</time><extensions><speed>0.480000</speed><course>16.875000</course><hAcc>5.000000</hAcc><vAcc>3.000000</vAcc></extensions></trkpt>
      <trkpt lon="-123.279355" lat="44.563314"><ele>76.123299</ele><time>2020-10-06T23:43:33Z</time><extensions><speed>0.360000</speed><course>298.828125</course><hAcc>5.000000</hAcc><vAcc>3.000000</vAcc></extensions></trkpt>
      <trkpt lon="-123.279359" lat="44.563316"><ele>76.107979</ele><time>2020-10-06T23:43:34Z</time><extensions><speed>0.240000</speed><course>295.664062</course><hAcc>5.000000</hAcc><vAcc>3.000000</vAcc></extensions></trkpt>
      <trkpt lon="-123.279359" lat="44.563316"><ele>76.103645</ele><time>2020-10-06T23:43:35Z</time><extensions><speed>0.000000</speed><course>295.664062</course><hAcc>5.000000</hAcc><vAcc>3.000000</vAcc></extensions></trkpt>
      <trkpt lon="-123.279359" lat="44.563316"><ele>76.133186</ele><time>2020-10-06T23:43:36Z</time><extensions><speed>0.000000</speed><course>295.664062</course><hAcc>5.000000</hAcc><vAcc>3.000000</vAcc></extensions></trkpt>
      <trkpt lon="-123.279359" lat="44.563316"><ele>76.154427</ele><time>2020-10-06T23:43:37Z</time><extensions><speed>0.000000</speed><course>295.664062</course><hAcc>5.000000</hAcc><vAcc>3.000000</vAcc></extensions></trkpt>
      <trkpt lon="-123.279359" lat="44.563316"><ele>76.124161</ele><time>2020-10-06T23:43:38Z</time><extensions><speed>0.000000</speed><course>134.648438</course><hAcc>5.000000</hAcc><vAcc>3.000000</vAcc></extensions></trkpt>
      <trkpt lon="-123.279360" lat="44.563319"><ele>76.082718</ele><time>2020-10-06T23:43:39Z</time><extensions><speed>0.200000</speed><course>253.125000</course><hAcc>5.000000</hAcc><vAcc>3.000000</vAcc></extensions></trkpt>
      <trkpt lon="-123.279359" lat="44.563319"><ele>76.294228</ele><time>2020-10-06T23:43:40Z</time><extensions><speed>0.200000</speed><course>110.742188</course><hAcc>5.000000</hAcc><vAcc>3.000000</vAcc></extensions></trkpt>
      <trkpt lon="-123.279359" lat="44.563319"><ele>76.133278</ele><time>2020-10-06T23:43:41Z</time><extensions><speed>0.000000</speed><course>244.335938</course><hAcc>5.000000</hAcc><vAcc>3.000000</vAcc></extensions></trkpt>
      <trkpt lon="-123.279359" lat="44.563319"><ele>76.216454</ele><time>2020-10-06T23:43:42Z</time><extensions><speed>0.000000</speed><course>73.125000</course><hAcc>5.000000</hAcc><vAcc>3.000000</vAcc></extensions></trkpt>
      <trkpt lon="-123.279359" lat="44.563319"><ele>76.311737</ele><time>2020-10-06T23:43:43Z</time><extensions><speed>0.000000</speed><course>351.210938</course><hAcc>5.000000</hAcc><vAcc>3.000000</vAcc></extensions></trkpt>
      <trkpt lon="-123.279359" lat="44.563319"><ele>76.359360</ele><time>2020-10-06T23:43:44Z</time><extensions><speed>0.000000</speed><course>2.109375</course><hAcc>5.000000</hAcc><vAcc>3.000000</vAcc></extensions></trkpt>
      <trkpt lon="-123.279359" lat="44.563319"><ele>76.364494</ele><time>2020-10-06T23:43:45Z</time><extensions><speed>0.000000</speed><course>138.867188</course><hAcc>5.000000</hAcc><vAcc>3.000000</vAcc></extensions></trkpt>
      <trkpt lon="-123.279359" lat="44.563319"><ele>76.317459</ele><time>2020-10-06T23:43:46Z</time><extensions><speed>0.000000</speed><course>1.406250</course><hAcc>5.000000</hAcc><vAcc>3.000000</vAcc></extensions></trkpt>
      <trkpt lon="-123.279359" lat="44.563314"><ele>76.301895</ele><time>2020-10-06T23:43:47Z</time><extensions><speed>0.200000</speed><course>311.132812</course><hAcc>5.000000</hAcc><vAcc>3.000000</vAcc></extensions></trkpt>
      <trkpt lon="-123.279359" lat="44.563314"><ele>76.331833</ele><time>2020-10-06T23:43:48Z</time><extensions><speed>0.000000</speed><course>161.015625</course><hAcc>5.000000</hAcc><vAcc>3.000000</vAcc></extensions></trkpt>
      <trkpt lon="-123.279367" lat="44.563319"><ele>76.301453</ele><time>2020-10-06T23:43:49Z</time><extensions><speed>0.200000</speed><course>312.539062</course><hAcc>5.000000</hAcc><vAcc>3.000000</vAcc></extensions></trkpt>
      <trkpt lon="-123.279378" lat="44.563322"><ele>76.322105</ele><time>2020-10-06T23:43:50Z</time><extensions><speed>0.670000</speed><course>225.351562</course><hAcc>5.000000</hAcc><vAcc>3.000000</vAcc></extensions></trkpt>
      <trkpt lon="-123.279392" lat="44.563319"><ele>76.670998</ele><time>2020-10-06T23:43:51Z</time><extensions><speed>1.020000</speed><course>216.210938</course><hAcc>5.000000</hAcc><vAcc>3.000000</vAcc></extensions></trkpt>
      <trkpt lon="-123.279403" lat="44.563309"><ele>76.728722</ele><time>2020-10-06T23:43:52Z</time><extensions><speed>1.870000</speed><course>182.460938</course><hAcc>5.000000</hAcc><vAcc>3.000000</vAcc></extensions></trkpt>
      <trkpt lon="-123.279413" lat="44.563292"><ele>76.555733</ele><time>2020-10-06T23:43:53Z</time><extensions><speed>1.870000</speed><course>193.710938</course><hAcc>5.000000</hAcc><vAcc>3.000000</vAcc></extensions></trkpt>
      <trkpt lon="-123.279430" lat="44.563272"><ele>76.591919</ele><time>2020-10-06T23:43:54Z</time><extensions><speed>2.190000</speed><course>202.500000</course><hAcc>5.000000</hAcc><vAcc>3.000000</vAcc></extensions></trkpt>
      <trkpt lon="-123.279468" lat="44.563255"><ele>76.882584</ele><time>2020-10-06T23:43:55Z</time><extensions><speed>2.990000</speed><course>229.921875</course><hAcc>5.000000</hAcc><vAcc>3.000000</vAcc></extensions></trkpt>
      <trkpt lon="-123.279518" lat="44.563246"><ele>76.830078</ele><time>2020-10-06T23:43:56Z</time><extensions><speed>3.610000</speed><course>249.960938</course><hAcc>5.000000</hAcc><vAcc>3.000000</vAcc></extensions></trkpt>
      <trkpt lon="-123.279568" lat="44.563252"><ele>76.728004</ele><time>2020-10-06T23:43:57Z</time><extensions><speed>3.610000</speed><course>269.296875</course><hAcc>5.000000</hAcc><vAcc>3.000000</vAcc></extensions></trkpt>
      <trkpt lon="-123.279614" lat="44.563270"><ele>76.930305</ele><time>2020-10-06T23:43:58Z</time><extensions><speed>3.610000</speed><course>287.226562</course><hAcc>5.000000</hAcc><vAcc>3.000000</vAcc></extensions></trkpt>
      <trkpt lon="-123.279647" lat="44.563314"><ele>77.097458</ele><time>2020-10-06T23:43:59Z</time><extensions><speed>3.660000</speed><course>317.812500</course><hAcc>5.000000</hAcc><vAcc>3.000000</vAcc></extensions></trkpt>
      <trkpt lon="-123.279670" lat="44.563372"><ele>77.009613</ele><time>2020-10-06T23:44:00Z</time><extensions><speed>5.420000</speed><course>335.742188</course><hAcc>5.000000</hAcc><vAcc>3.000000</vAcc></extensions></trkpt>
      <trkpt lon="-123.279681" lat="44.563434"><ele>77.250580</ele><time>2020-10-06T23:44:01Z</time><extensions><speed>5.420000</speed><course>345.234375</course><hAcc>5.000000</hAcc><vAcc>3.000000</vAcc></extensions></trkpt>
      <trkpt lon="-123.279686" lat="44.563495"><ele>77.503799</ele><time>2020-10-06T23:44:02Z</time><extensions><speed>5.420000</speed><course>347.695312</course><hAcc>5.000000</hAcc><vAcc>3.000000</vAcc></extensions></trkpt>
      <trkpt lon="-123.279694" lat="44.563555"><ele>77.612297</ele><time>2020-10-06T23:44:03Z</time><extensions><speed>5.400000</speed><course>345.585938</course><hAcc>5.000000</hAcc><vAcc>3.000000</vAcc></extensions></trkpt>
      <trkpt lon="-123.279705" lat="44.563611"><ele>77.685211</ele><time>2020-10-06T23:44:04Z</time><extensions><speed>5.340000</speed><course>343.828125</course><hAcc>5.000000</hAcc><vAcc>3.000000</vAcc></extensions></trkpt>
      <trkpt lon="-123.279719" lat="44.563665"><ele>77.827698</ele><time>2020-10-06T23:44:05Z</time><extensions><speed>5.090000</speed><course>343.476562</course><hAcc>5.000000</hAcc><vAcc>3.000000</vAcc></extensions></trkpt>
      <trkpt lon="-123.279722" lat="44.563743"><ele>78.132782</ele><time>2020-10-06T23:44:06Z</time><extensions><speed>5.090000</speed><course>345.234375</course><hAcc>5.000000</hAcc><vAcc>3.000000</vAcc></extensions></trkpt>
      <trkpt lon="-123.279714" lat="44.563787"><ele>78.127899</ele><time>2020-10-06T23:44:07Z</time><extensions><speed>4.580000</speed><course>350.156250</course><hAcc>5.000000</hAcc><vAcc>3.000000</vAcc></extensions></trkpt>
      <trkpt lon="-123.279708" lat="44.563817"><ele>78.515152</ele><time>2020-10-06T23:44:08Z</time><extensions><speed>4.020000</speed><course>1.406250</course><hAcc>5.000000</hAcc><vAcc>3.000000</vAcc></extensions></trkpt>
      <trkpt lon="-123.279716" lat="44.563871"><ele>78.686806</ele><time>2020-10-06T23:44:09Z</time><extensions><speed>4.550000</speed><course>2.812500</course><hAcc>5.000000</hAcc><vAcc>3.000000</vAcc></extensions></trkpt>
      <trkpt lon="-123.279718" lat="44.563895"><ele>78.911064</ele><time>2020-10-06T23:44:10Z</time><extensions><speed>4.550000</speed><course>353.671875</course><hAcc>5.000000</hAcc><vAcc>3.000000</vAcc></extensions></trkpt>
      <trkpt lon="-123.279724" lat="44.563930"><ele>79.686295</ele><time>2020-10-06T23:44:11Z</time><extensions><speed>4.380000</speed><course>355.078125</course><hAcc>5.000000</hAcc><vAcc>3.000000</vAcc></extensions></trkpt>
      <trkpt lon="-123.279750" lat="44.563969"><ele>79.582855</ele><time>2020-10-06T23:44:12Z</time><extensions><speed>4.370000</speed><course>351.210938</course><hAcc>5.000000</hAcc><vAcc>3.000000</vAcc></extensions></trkpt>
      <trkpt lon="-123.279773" lat="44.564028"><ele>80.136887</ele><time>2020-10-06T23:44:13Z</time><extensions><speed>4.380000</speed><course>350.859375</course><hAcc>5.000000</hAcc><vAcc>3.000000</vAcc></extensions></trkpt>
      <trkpt lon="-123.279802" lat="44.564086"><ele>80.104759</ele><time>2020-10-06T23:44:14Z</time><extensions><speed>5.260000</speed><course>352.617188</course><hAcc>5.000000</hAcc><vAcc>3.000000</vAcc></extensions></trkpt>
      <trkpt lon="-123.279812" lat="44.564138"><ele>80.463699</ele><time>2020-10-06T23:44:15Z</time><extensions><speed>5.600000</speed><course>356.132812</course><hAcc>5.000000</hAcc><vAcc>3.000000</vAcc></extensions></trkpt>
      <trkpt lon="-123.279818" lat="44.564192"><ele>80.709724</ele><time>2020-10-06T23:44:16Z</time><extensions><speed>5.600000</speed><course>356.132812</course><hAcc>5.000000</hAcc><vAcc>3.000000</vAcc></extensions></trkpt>
      <trkpt lon="-123.279853" lat="44.564246"><ele>80.883995</ele><time>2020-10-06T23:44:17Z</time><extensions><speed>5.920000</speed><course>353.320312</course><hAcc>5.000000</hAcc><vAcc>3.000000</vAcc></extensions></trkpt>
      <trkpt lon="-123.279847" lat="44.564294"><ele>81.179626</ele><time>2020-10-06T23:44:18Z</time><extensions><speed>5.430000</speed><course>354.023438</course><hAcc>5.000000</hAcc><vAcc>3.000000</vAcc></extensions></trkpt>
      <trkpt lon="-123.279869" lat="44.564345"><ele>81.057129</ele><time>2020-10-06T23:44:19Z</time><extensions><speed>5.520000</speed><course>346.289062</course><hAcc>5.000000</hAcc><vAcc>3.000000</vAcc></extensions></trkpt>
      <trkpt lon="-123.279857" lat="44.564404"><ele>81.211418</ele><time>2020-10-06T23:44:20Z</time><extensions><speed>5.520000</speed><course>359.296875</course><hAcc>5.000000</hAcc><vAcc>3.000000</vAcc></extensions></trkpt>
      <trkpt lon="-123.279854" lat="44.564465"><ele>81.303368</ele><time>2020-10-06T23:44:21Z</time><extensions><speed>5.940000</speed><course>358.242188</course><hAcc>5.000000</hAcc><vAcc>3.000000</vAcc></extensions></trkpt>
      <trkpt lon="-123.279851" lat="44.564516"><ele>81.496063</ele><time>2020-10-06T23:44:22Z</time><extensions><speed>5.940000</speed><course>1.406250</course><hAcc>5.000000</hAcc><vAcc>3.000000</vAcc></extensions></trkpt>
      <trkpt lon="-123.279857" lat="44.564564"><ele>81.655060</ele><time>2020-10-06T23:44:23Z</time><extensions><speed>5.400000</speed><course>356.132812</course><hAcc>5.000000</hAcc><vAcc>3.000000</vAcc></extensions></trkpt>
      <trkpt lon="-123.279861" lat="44.564625"><ele>81.376328</ele><time>2020-10-06T23:44:24Z</time><extensions><speed>6.330000</speed><course>358.593750</course><hAcc>5.000000</hAcc><vAcc>3.000000</vAcc></extensions></trkpt>
      <trkpt lon="-123.279869" lat="44.564678"><ele>81.425621</ele><time>2020-10-06T23:44:25Z</time><extensions><speed>6.130000</speed><course>353.320312</course><hAcc>5.000000</hAcc><vAcc>3.000000</vAcc></extensions></trkpt>
      <trkpt lon="-123.279879" lat="44.564736"><ele>81.624069</ele><time>2020-10-06T23:44:26Z</time><extensions><speed>6.190000</speed><course>350.156250</course><hAcc>5.000000</hAcc><vAcc>3.000000</vAcc></extensions></trkpt>
      <trkpt lon="-123.279908" lat="44.564783"><ele>81.838028</ele><time>2020-10-06T23:44:27Z</time><extensions><speed>6.130000</speed><course>356.484375</course><hAcc>5.000000</hAcc><vAcc>3.000000</vAcc></extensions></trkpt>
      <trkpt lon="-123.279923" lat="44.564843"><ele>81.293579</ele><time>2020-10-06T23:44:28Z</time><extensions><speed>5.640000</speed><course>0.000000</course><hAcc>5.000000</hAcc><vAcc>3.000000</vAcc></extensions></trkpt>
      <trkpt lon="-123.279915" lat="44.564884"><ele>81.430794</ele><time>2020-10-06T23:44:29Z</time><extensions><speed>5.640000</speed><course>4.921875</course><hAcc>5.000000</hAcc><vAcc>3.000000</vAcc></extensions></trkpt>
      <trkpt lon="-123.279908" lat="44.564932"><ele>81.718292</ele><time>2020-10-06T23:44:30Z</time><extensions><speed>5.200000</speed><course>3.164062</course><hAcc>5.000000</hAcc><vAcc>3.000000</vAcc></extensions></trkpt>
      <trkpt lon="-123.279906" lat="44.564980"><ele>81.603600</ele><time>2020-10-06T23:44:31Z</time><extensions><speed>5.000000</speed><course>0.703125</course><hAcc>5.000000</hAcc><vAcc>4.000000</vAcc></extensions></trkpt>
      <trkpt lon="-123.279903" lat="44.565030"><ele>81.496803</ele><time>2020-10-06T23:44:32Z</time><extensions><speed>5.090000</speed><course>2.812500</course><hAcc>5.000000</hAcc><vAcc>4.000000</vAcc></extensions></trkpt>
      <trkpt lon="-123.279920" lat="44.565100"><ele>81.527405</ele><time>2020-10-06T23:44:33Z</time><extensions><speed>5.390000</speed><course>359.648438</course><hAcc>5.000000</hAcc><vAcc>4.000000</vAcc></extensions></trkpt>
      <trkpt lon="-123.279923" lat="44.565150"><ele>81.329712</ele><time>2020-10-06T23:44:34Z</time><extensions><speed>5.390000</speed><course>355.429688</course><hAcc>5.000000</hAcc><vAcc>4.000000</vAcc></extensions></trkpt>
      <trkpt lon="-123.279898" lat="44.565175"><ele>81.395004</ele><time>2020-10-06T23:44:35Z</time><extensions><speed>5.390000</speed><course>9.843750</course><hAcc>5.000000</hAcc><vAcc>4.000000</vAcc></extensions></trkpt>
      <trkpt lon="-123.279885" lat="44.565211"><ele>81.085480</ele><time>2020-10-06T23:44:36Z</time><extensions><speed>3.510000</speed><course>13.359375</course><hAcc>5.000000</hAcc><vAcc>4.000000</vAcc></extensions></trkpt>
      <trkpt lon="-123.279866" lat="44.565255"><ele>81.065369</ele><time>2020-10-06T23:44:37Z</time><extensions><speed>5.210000</speed><course>2.812500</course><hAcc>5.000000</hAcc><vAcc>3.000000</vAcc></extensions></trkpt>
      <trkpt lon="-123.279883" lat="44.565314"><ele>81.298729</ele><time>2020-10-06T23:44:38Z</time><extensions><speed>5.210000</speed><course>355.781250</course><hAcc>5.000000</hAcc><vAcc>3.000000</vAcc></extensions></trkpt>
      <trkpt lon="-123.279897" lat="44.565365"><ele>81.471451</ele><time>2020-10-06T23:44:39Z</time><extensions><speed>5.400000</speed><course>354.023438</course><hAcc>5.000000</hAcc><vAcc>3.000000</vAcc></extensions></trkpt>
      <trkpt lon="-123.279896" lat="44.565384"><ele>81.492729</ele><time>2020-10-06T23:44:40Z</time><extensions><speed>5.400000</speed><course>355.429688</course><hAcc>5.000000</hAcc><vAcc>3.000000</vAcc></extensions></trkpt>
      <trkpt lon="-123.279883" lat="44.565443"><ele>81.650665</ele><time>2020-10-06T23:44:41Z</time><extensions><speed>5.650000</speed><course>5.625000</course><hAcc>5.000000</hAcc><vAcc>3.000000</vAcc></extensions></trkpt>
      <trkpt lon="-123.279878" lat="44.565497"><ele>81.588135</ele><time>2020-10-06T23:44:42Z</time><extensions><speed>6.250000</speed><course>6.328125</course><hAcc>5.000000</hAcc><vAcc>3.000000</vAcc></extensions></trkpt>
      <trkpt lon="-123.279858" lat="44.565548"><ele>81.886032</ele><time>2020-10-06T23:44:43Z</time><extensions><speed>5.650000</speed><course>3.867188</course><hAcc>5.000000</hAcc><vAcc>3.000000</vAcc></extensions></trkpt>
      <trkpt lon="-123.279853" lat="44.565608"><ele>82.179520</ele><time>2020-10-06T23:44:44Z</time><extensions><speed>6.070000</speed><course>2.109375</course><hAcc>5.000000</hAcc><vAcc>3.000000</vAcc></extensions></trkpt>
      <trkpt lon="-123.279864" lat="44.565672"><ele>82.155678</ele><time>2020-10-06T23:44:45Z</time><extensions><speed>6.070000</speed><course>356.484375</course><hAcc>5.000000</hAcc><vAcc>3.000000</vAcc></extensions></trkpt>
      <trkpt lon="-123.279887" lat="44.565745"><ele>82.256325</ele><time>2020-10-06T23:44:46Z</time><extensions><speed>7.050000</speed><course>346.992188</course><hAcc>5.000000</hAcc><vAcc>3.000000</vAcc></extensions></trkpt>
      <trkpt lon="-123.279894" lat="44.565809"><ele>82.061638</ele><time>2020-10-06T23:44:47Z</time><extensions><speed>7.090000</speed><course>357.187500</course><hAcc>5.000000</hAcc><vAcc>3.000000</vAcc></extensions></trkpt>
      <trkpt lon="-123.279895" lat="44.565879"><ele>81.954338</ele><time>2020-10-06T23:44:48Z</time><extensions><speed>7.090000</speed><course>359.296875</course><hAcc>5.000000</hAcc><vAcc>3.000000</vAcc></extensions></trkpt>
      <trkpt lon="-123.279896" lat="44.565933"><ele>81.925934</ele><time>2020-10-06T23:44:49Z</time><extensions><speed>7.090000</speed><course>358.945312</course><hAcc>5.000000</hAcc><vAcc>3.000000</vAcc></extensions></trkpt>
      <trkpt lon="-123.279893" lat="44.566003"><ele>81.980705</ele><time>2020-10-06T23:44:50Z</time><extensions><speed>6.380000</speed><course>358.945312</course><hAcc>5.000000</hAcc><vAcc>3.000000</vAcc></extensions></trkpt>
      <trkpt lon="-123.279900" lat="44.566069"><ele>81.849312</ele><time>2020-10-06T23:44:51Z</time><extensions><speed>6.870000</speed><course>355.781250</course><hAcc>5.000000</hAcc><vAcc>3.000000</vAcc></extensions></trkpt>
      <trkpt lon="-123.279916" lat="44.566141"><ele>81.884628</ele><time>2020-10-06T23:44:52Z</time><extensions><speed>6.870000</speed><course>354.375000</course><hAcc>5.000000</hAcc><vAcc>3.000000</vAcc></extensions></trkpt>
      <trkpt lon="-123.279871" lat="44.566145"><ele>81.643982</ele><time>2020-10-06T23:44:53Z</time><extensions><speed>6.870000</speed><course>0.351562</course><hAcc>5.000000</hAcc><vAcc>3.000000</vAcc></extensions></trkpt>
      <trkpt lon="-123.279873" lat="44.566185"><ele>81.905014</ele><time>2020-10-06T23:44:54Z</time><extensions><speed>4.900000</speed><course>1.757812</course><hAcc>5.000000</hAcc><vAcc>3.000000</vAcc></extensions></trkpt>
      <trkpt lon="-123.279874" lat="44.566242"><ele>81.800865</ele><time>2020-10-06T23:44:55Z</time><extensions><speed>5.530000</speed><course>1.054688</course><hAcc>5.000000</hAcc><vAcc>3.000000</vAcc></extensions></trkpt>
      <trkpt lon="-123.279874" lat="44.566308"><ele>81.885811</ele><time>2020-10-06T23:44:56Z</time><extensions><speed>5.530000</speed><course>0.000000</course><hAcc>5.000000</hAcc><vAcc>4.000000</vAcc></extensions></trkpt>
      <trkpt lon="-123.279861" lat="44.566339"><ele>81.731964</ele><time>2020-10-06T23:44:57Z</time><extensions><speed>5.020000</speed><course>358.242188</course><hAcc>5.000000</hAcc><vAcc>4.000000</vAcc></extensions></trkpt>
      <trkpt lon="-123.279860" lat="44.566379"><ele>81.830009</ele><time>2020-10-06T23:44:58Z</time><extensions><speed>4.630000</speed><course>4.218750</course><hAcc>5.000000</hAcc><vAcc>4.000000</vAcc></extensions></trkpt>
      <trkpt lon="-123.279853" lat="44.566428"><ele>81.856689</ele><time>2020-10-06T23:44:59Z</time><extensions><speed>4.700000</speed><course>3.867188</course><hAcc>5.000000</hAcc><vAcc>4.000000</vAcc></extensions></trkpt>
      <trkpt lon="-123.279857" lat="44.566480"><ele>82.022942</ele><time>2020-10-06T23:45:00Z</time><extensions><speed>4.780000</speed><course>357.890625</course><hAcc>5.000000</hAcc><vAcc>4.000000</vAcc></extensions></trkpt>
      <trkpt lon="-123.279862" lat="44.566517"><ele>82.032318</ele><time>2020-10-06T23:45:01Z</time><extensions><speed>4.700000</speed><course>359.296875</course><hAcc>5.000000</hAcc><vAcc>4.000000</vAcc></extensions></trkpt>
      <trkpt lon="-123.279833" lat="44.566549"><ele>81.640022</ele><time>2020-10-06T23:45:02Z</time><extensions><speed>4.570000</speed><course>4.218750</course><hAcc>5.000000</hAcc><vAcc>4.000000</vAcc></extensions></trkpt>
      <trkpt lon="-123.279833" lat="44.566600"><ele>82.115128</ele><time>2020-10-06T23:45:03Z</time><extensions><speed>4.570000</speed><course>1.054688</course><hAcc>5.000000</hAcc><vAcc>4.000000</vAcc></extensions></trkpt>
      <trkpt lon="-123.279844" lat="44.566642"><ele>82.092239</ele><time>2020-10-06T23:45:04Z</time><extensions><speed>4.770000</speed><course>355.078125</course><hAcc>5.000000</hAcc><vAcc>3.000000</vAcc></extensions></trkpt>
      <trkpt lon="-123.279848" lat="44.566700"><ele>82.395164</ele><time>2020-10-06T23:45:05Z</time><extensions><speed>4.770000</speed><course>2.460938</course><hAcc>5.000000</hAcc><vAcc>3.000000</vAcc></extensions></trkpt>
      <trkpt lon="-123.279853" lat="44.566750"><ele>82.439445</ele><time>2020-10-06T23:45:06Z</time><extensions><speed>4.710000</speed><course>356.835938</course><hAcc>5.000000</hAcc><vAcc>3.000000</vAcc></extensions></trkpt>
      <trkpt lon="-123.279853" lat="44.566799"><ele>82.504387</ele><time>2020-10-06T23:45:07Z</time><extensions><speed>4.710000</speed><course>358.593750</course><hAcc>5.000000</hAcc><vAcc>3.000000</vAcc></extensions></trkpt>
      <trkpt lon="-123.279860" lat="44.566850"><ele>82.643936</ele><time>2020-10-06T23:45:08Z</time><extensions><speed>5.010000</speed><course>356.835938</course><hAcc>5.000000</hAcc><vAcc>3.000000</vAcc></extensions></trkpt>
      <trkpt lon="-123.279862" lat="44.566895"><ele>82.660004</ele><time>2020-10-06T23:45:09Z</time><extensions><speed>5.150000</speed><course>350.859375</course><hAcc>5.000000</hAcc><vAcc>3.000000</vAcc></extensions></trkpt>
      <trkpt lon="-123.279873" lat="44.566947"><ele>82.625107</ele><time>2020-10-06T23:45:10Z</time><extensions><speed>5.240000</speed><course>350.859375</course><hAcc>5.000000</hAcc><vAcc>3.000000</vAcc></extensions></trkpt>
      <trkpt lon="-123.279887" lat="44.567001"><ele>82.705711</ele><time>2020-10-06T23:45:11Z</time><extensions><speed>5.240000</speed><course>356.835938</course><hAcc>5.000000</hAcc><vAcc>3.000000</vAcc></extensions></trkpt>
      <trkpt lon="-123.279899" lat="44.567062"><ele>82.913078</ele><time>2020-10-06T23:45:12Z</time><extensions><speed>5.510000</speed><course>357.539062</course><hAcc>5.000000</hAcc><vAcc>3.000000</vAcc></extensions></trkpt>
      <trkpt lon="-123.279891" lat="44.567119"><ele>82.790771</ele><time>2020-10-06T23:45:13Z</time><extensions><speed>6.160000</speed><course>359.648438</course><hAcc>5.000000</hAcc><vAcc>3.000000</vAcc></extensions></trkpt>
      <trkpt lon="-123.279893" lat="44.567187"><ele>83.337006</ele><time>2020-10-06T23:45:14Z</time><extensions><speed>6.360000</speed><course>359.296875</course><hAcc>5.000000</hAcc><vAcc>3.000000</vAcc></extensions></trkpt>
      <trkpt lon="-123.279894" lat="44.567255"><ele>83.100777</ele><time>2020-10-06T23:45:15Z</time><extensions><speed>6.360000</speed><course>358.593750</course><hAcc>5.000000</hAcc><vAcc>3.000000</vAcc></extensions></trkpt>
      <trkpt lon="-123.279918" lat="44.567314"><ele>83.430702</ele><time>2020-10-06T23:45:16Z</time><extensions><speed>6.580000</speed><course>350.156250</course><hAcc>5.000000</hAcc><vAcc>3.000000</vAcc></extensions></trkpt>
      <trkpt lon="-123.279902" lat="44.567382"><ele>83.125412</ele><time>2020-10-06T23:45:17Z</time><extensions><speed>6.880000</speed><course>1.054688</course><hAcc>5.000000</hAcc><vAcc>3.000000</vAcc></extensions></trkpt>
      <trkpt lon="-123.279907" lat="44.567453"><ele>82.668221</ele><time>2020-10-06T23:45:18Z</time><extensions><speed>5.330000</speed><course>10.195312</course><hAcc>5.000000</hAcc><vAcc>3.000000</vAcc></extensions></trkpt>
      <trkpt lon="-123.279890" lat="44.567515"><ele>82.892975</ele><time>2020-10-06T23:45:19Z</time><extensions><speed>5.470000</speed><course>7.382812</course><hAcc>5.000000</hAcc><vAcc>3.000000</vAcc></extensions></trkpt>
      <trkpt lon="-123.279880" lat="44.567575"><ele>82.723885</ele><time>2020-10-06T23:45:20Z</time><extensions><speed>5.470000</speed><course>3.164062</course><hAcc>5.000000</hAcc><vAcc>4.000000</vAcc></extensions></trkpt>
      <trkpt lon="-123.279888" lat="44.567620"><ele>82.615135</ele><time>2020-10-06T23:45:21Z</time><extensions><speed>5.470000</speed><course>357.187500</course><hAcc>5.000000</hAcc><vAcc>3.000000</vAcc></extensions></trkpt>
      <trkpt lon="-123.279925" lat="44.567685"><ele>82.260628</ele><time>2020-10-06T23:45:22Z</time><extensions><speed>5.810000</speed><course>352.968750</course><hAcc>5.000000</hAcc><vAcc>3.000000</vAcc></extensions></trkpt>
      <trkpt lon="-123.279920" lat="44.567746"><ele>82.130043</ele><time>2020-10-06T23:45:23Z</time><extensions><speed>6.040000</speed><course>359.648438</course><hAcc>5.000000</hAcc><vAcc>3.000000</vAcc></extensions></trkpt>
      <trkpt lon="-123.279918" lat="44.567781"><ele>82.245171</ele><time>2020-10-06T23:45:24Z</time><extensions><speed>6.320000</speed><course>0.703125</course><hAcc>5.000000</hAcc><vAcc>4.000000</vAcc></extensions></trkpt>
      <trkpt lon="-123.279914" lat="44.567820"><ele>82.086960</ele><time>2020-10-06T23:45:25Z</time><extensions><speed>6.040000</speed><course>350.156250</course><hAcc>5.000000</hAcc><vAcc>4.000000</vAcc></extensions></trkpt>
      <trkpt lon="-123.279906" lat="44.567861"><ele>82.304688</ele><time>2020-10-06T23:45:26Z</time><extensions><speed>4.480000</speed><course>352.968750</course><hAcc>5.000000</hAcc><vAcc>4.000000</vAcc></extensions></trkpt>
      <trkpt lon="-123.279895" lat="44.567919"><ele>82.231163</ele><time>2020-10-06T23:45:27Z</time><extensions><speed>5.260000</speed><course>4.218750</course><hAcc>5.000000</hAcc><vAcc>4.000000</vAcc></extensions></trkpt>
      <trkpt lon="-123.279881" lat="44.567973"><ele>82.174850</ele><time>2020-10-06T23:45:28Z</time><extensions><speed>5.260000</speed><course>7.382812</course><hAcc>5.000000</hAcc><vAcc>4.000000</vAcc></extensions></trkpt>
      <trkpt lon="-123.279882" lat="44.568020"><ele>82.013840</ele><time>2020-10-06T23:45:29Z</time><extensions><speed>5.260000</speed><course>359.296875</course><hAcc>5.000000</hAcc><vAcc>3.000000</vAcc></extensions></trkpt>
      <trkpt lon="-123.279841" lat="44.568072"><ele>82.162102</ele><time>2020-10-06T23:45:30Z</time><extensions><speed>5.260000</speed><course>18.984375</course><hAcc>5.000000</hAcc><vAcc>3.000000</vAcc></extensions></trkpt>
      <trkpt lon="-123.279853" lat="44.568136"><ele>81.573967</ele><time>2020-10-06T23:45:31Z</time><extensions><speed>5.790000</speed><course>3.867188</course><hAcc>5.000000</hAcc><vAcc>3.000000</vAcc></extensions></trkpt>
      <trkpt lon="-123.279882" lat="44.568199"><ele>82.089462</ele><time>2020-10-06T23:45:32Z</time><extensions><speed>5.790000</speed><course>353.671875</course><hAcc>5.000000</hAcc><vAcc>3.000000</vAcc></extensions></trkpt>
      <trkpt lon="-123.279874" lat="44.568256"><ele>81.680084</ele><time>2020-10-06T23:45:33Z</time><extensions><speed>5.780000</speed><course>3.515625</course><hAcc>5.000000</hAcc><vAcc>3.000000</vAcc></extensions></trkpt>
      <trkpt lon="-123.279906" lat="44.568334"><ele>81.867630</ele><time>2020-10-06T23:45:34Z</time><extensions><speed>5.780000</speed><course>354.726562</course><hAcc>5.000000</hAcc><vAcc>3.000000</vAcc></extensions></trkpt>
      <trkpt lon="-123.279896" lat="44.568401"><ele>81.457718</ele><time>2020-10-06T23:45:35Z</time><extensions><speed>6.310000</speed><course>8.085938</course><hAcc>5.000000</hAcc><vAcc>3.000000</vAcc></extensions></trkpt>
      <trkpt lon="-123.279891" lat="44.568451"><ele>81.941994</ele><time>2020-10-06T23:45:36Z</time><extensions><speed>6.350000</speed><course>3.515625</course><hAcc>5.000000</hAcc><vAcc>3.000000</vAcc></extensions></trkpt>
      <trkpt lon="-123.279934" lat="44.568523"><ele>81.540054</ele><time>2020-10-06T23:45:37Z</time><extensions><speed>6.350000</speed><course>355.078125</course><hAcc>5.000000</hAcc><vAcc>3.000000</vAcc></extensions></trkpt>
      <trkpt lon="-123.279964" lat="44.568576"><ele>81.931793</ele><time>2020-10-06T23:45:38Z</time><extensions><speed>6.230000</speed><course>348.398438</course><hAcc>5.000000</hAcc><vAcc>3.000000</vAcc></extensions></trkpt>
      <trkpt lon="-123.279980" lat="44.568631"><ele>81.226440</ele><time>2020-10-06T23:45:39Z</time><extensions><speed>6.100000</speed><course>346.289062</course><hAcc>5.000000</hAcc><vAcc>3.000000</vAcc></extensions></trkpt>
      <trkpt lon="-123.279982" lat="44.568672"><ele>81.602982</ele><time>2020-10-06T23:45:40Z</time><extensions><speed>5.490000</speed><course>356.484375</course><hAcc>5.000000</hAcc><vAcc>3.000000</vAcc></extensions></trkpt>
      <trkpt lon="-123.280009" lat="44.568736"><ele>81.364792</ele><time>2020-10-06T23:45:41Z</time><extensions><speed>5.710000</speed><course>357.539062</course><hAcc>5.000000</hAcc><vAcc>3.000000</vAcc></extensions></trkpt>
      <trkpt lon="-123.280018" lat="44.568791"><ele>81.769630</ele><time>2020-10-06T23:45:42Z</time><extensions><speed>5.600000</speed><course>358.242188</course><hAcc>5.000000</hAcc><vAcc>3.000000</vAcc></extensions></trkpt>
      <trkpt lon="-123.280043" lat="44.568855"><ele>81.042343</ele><time>2020-10-06T23:45:43Z</time><extensions><speed>5.640000</speed><course>1.054688</course><hAcc>5.000000</hAcc><vAcc>3.000000</vAcc></extensions></trkpt>
      <trkpt lon="-123.280046" lat="44.568905"><ele>81.220558</ele><time>2020-10-06T23:45:44Z</time><extensions><speed>5.590000</speed><course>357.539062</course><hAcc>5.000000</hAcc><vAcc>3.000000</vAcc></extensions></trkpt>
      <trkpt lon="-123.280059" lat="44.568958"><ele>81.144379</ele><time>2020-10-06T23:45:45Z</time><extensions><speed>5.820000</speed><course>345.937500</course><hAcc>5.000000</hAcc><vAcc>3.000000</vAcc></extensions></trkpt>
      <trkpt lon="-123.280078" lat="44.569005"><ele>81.506554</ele><time>2020-10-06T23:45:46Z</time><extensions><speed>5.590000</speed><course>343.828125</course><hAcc>5.000000</hAcc><vAcc>3.000000</vAcc></extensions></trkpt>
      <trkpt lon="-123.280095" lat="44.569055"><ele>81.838547</ele><time>2020-10-06T23:45:47Z</time><extensions><speed>5.820000</speed><course>344.179688</course><hAcc>5.000000</hAcc><vAcc>3.000000</vAcc></extensions></trkpt>
      <trkpt lon="-123.280120" lat="44.569095"><ele>81.827667</ele><time>2020-10-06T23:45:48Z</time><extensions><speed>5.320000</speed><course>337.148438</course><hAcc>5.000000</hAcc><vAcc>3.000000</vAcc></extensions></trkpt>
      <trkpt lon="-123.280155" lat="44.569144"><ele>81.678520</ele><time>2020-10-06T23:45:49Z</time><extensions><speed>6.190000</speed><course>330.820312</course><hAcc>5.000000</hAcc><vAcc>3.000000</vAcc></extensions></trkpt>
      <trkpt lon="-123.280201" lat="44.569188"><ele>81.819489</ele><time>2020-10-06T23:45:50Z</time><extensions><speed>6.210000</speed><course>323.085938</course><hAcc>5.000000</hAcc><vAcc>3.000000</vAcc></extensions></trkpt>
      <trkpt lon="-123.280242" lat="44.569231"><ele>81.414650</ele><time>2020-10-06T23:45:51Z</time><extensions><speed>6.210000</speed><course>323.789062</course><hAcc>5.000000</hAcc><vAcc>3.000000</vAcc></extensions></trkpt>
      <trkpt lon="-123.280297" lat="44.569268"><ele>81.733948</ele><time>2020-10-06T23:45:52Z</time><extensions><speed>6.210000</speed><course>317.460938</course><hAcc>5.000000</hAcc><vAcc>3.000000</vAcc></extensions></trkpt>
      <trkpt lon="-123.280334" lat="44.569321"><ele>81.451424</ele><time>2020-10-06T23:45:53Z</time><extensions><speed>6.360000</speed><course>326.601562</course><hAcc>5.000000</hAcc><vAcc>3.000000</vAcc></extensions></trkpt>
      <trkpt lon="-123.280408" lat="44.569361"><ele>81.360886</ele><time>2020-10-06T23:45:54Z</time><extensions><speed>6.360000</speed><course>323.437500</course><hAcc>5.000000</hAcc><vAcc>3.000000</vAcc></extensions></trkpt>
      <trkpt lon="-123.280477" lat="44.569401"><ele>81.145279</ele><time>2020-10-06T23:45:55Z</time><extensions><speed>5.900000</speed><course>318.515625</course><hAcc>5.000000</hAcc><vAcc>3.000000</vAcc></extensions></trkpt>
      <trkpt lon="-123.280534" lat="44.569451"><ele>80.943924</ele><time>2020-10-06T23:45:56Z</time><extensions><speed>5.670000</speed><course>322.382812</course><hAcc>5.000000</hAcc><vAcc>3.000000</vAcc></extensions></trkpt>
      <trkpt lon="-123.280592" lat="44.569492"><ele>81.615463</ele><time>2020-10-06T23:45:57Z</time><extensions><speed>5.670000</speed><course>318.867188</course><hAcc>5.000000</hAcc><vAcc>3.000000</vAcc></extensions></trkpt>
      <trkpt lon="-123.280634" lat="44.569537"><ele>81.486824</ele><time>2020-10-06T23:45:58Z</time><extensions><speed>6.010000</speed><course>319.218750</course><hAcc>5.000000</hAcc><vAcc>3.000000</vAcc></extensions></trkpt>
      <trkpt lon="-123.280678" lat="44.569571"><ele>81.806107</ele><time>2020-10-06T23:45:59Z</time><extensions><speed>6.010000</speed><course>316.757812</course><hAcc>5.000000</hAcc><vAcc>3.000000</vAcc></extensions></trkpt>
      <trkpt lon="-123.280731" lat="44.569610"><ele>81.723976</ele><time>2020-10-06T23:46:00Z</time><extensions><speed>5.750000</speed><course>317.812500</course><hAcc>5.000000</hAcc><vAcc>3.000000</vAcc></extensions></trkpt>
      <trkpt lon="-123.280773" lat="44.569654"><ele>81.706055</ele><time>2020-10-06T23:46:01Z</time><extensions><speed>5.750000</speed><course>320.625000</course><hAcc>5.000000</hAcc><vAcc>3.000000</vAcc></extensions></trkpt>
      <trkpt lon="-123.280823" lat="44.569690"><ele>81.605812</ele><time>2020-10-06T23:46:02Z</time><extensions><speed>5.760000</speed><course>316.757812</course><hAcc>5.000000</hAcc><vAcc>3.000000</vAcc></extensions></trkpt>
      <trkpt lon="-123.280863" lat="44.569736"><ele>81.925423</ele><time>2020-10-06T23:46:03Z</time><extensions><speed>5.770000</speed><course>322.382812</course><hAcc>5.000000</hAcc><vAcc>3.000000</vAcc></extensions></trkpt>
      <trkpt lon="-123.280908" lat="44.569766"><ele>81.737785</ele><time>2020-10-06T23:46:04Z</time><extensions><speed>5.770000</speed><course>321.679688</course><hAcc>5.000000</hAcc><vAcc>3.000000</vAcc></extensions></trkpt>
      <trkpt lon="-123.280952" lat="44.569804"><ele>81.993820</ele><time>2020-10-06T23:46:05Z</time><extensions><speed>5.500000</speed><course>320.976562</course><hAcc>5.000000</hAcc><vAcc>3.000000</vAcc></extensions></trkpt>
      <trkpt lon="-123.280989" lat="44.569847"><ele>81.975258</ele><time>2020-10-06T23:46:06Z</time><extensions><speed>5.380000</speed><course>324.492188</course><hAcc>5.000000</hAcc><vAcc>3.000000</vAcc></extensions></trkpt>
      <trkpt lon="-123.281044" lat="44.569889"><ele>82.420700</ele><time>2020-10-06T23:46:07Z</time><extensions><speed>5.500000</speed><course>313.242188</course><hAcc>5.000000</hAcc><vAcc>3.000000</vAcc></extensions></trkpt>
      <trkpt lon="-123.281086" lat="44.569921"><ele>82.103638</ele><time>2020-10-06T23:46:08Z</time><extensions><speed>5.560000</speed><course>317.109375</course><hAcc>5.000000</hAcc><vAcc>3.000000</vAcc></extensions></trkpt>
      <trkpt lon="-123.281139" lat="44.569952"><ele>81.874336</ele><time>2020-10-06T23:46:09Z</time><extensions><speed>5.560000</speed><course>305.156250</course><hAcc>5.000000</hAcc><vAcc>3.000000</vAcc></extensions></trkpt>
      <trkpt lon="-123.281168" lat="44.569993"><ele>82.062836</ele><time>2020-10-06T23:46:10Z</time><extensions><speed>5.340000</speed><course>319.570312</course><hAcc>5.000000</hAcc><vAcc>3.000000</vAcc></extensions></trkpt>
      <trkpt lon="-123.281209" lat="44.570031"><ele>82.297874</ele><time>2020-10-06T23:46:11Z</time><extensions><speed>5.140000</speed><course>317.460938</course><hAcc>5.000000</hAcc><vAcc>3.000000</vAcc></extensions></trkpt>
      <trkpt lon="-123.281239" lat="44.570067"><ele>82.424095</ele><time>2020-10-06T23:46:12Z</time><extensions><speed>5.270000</speed><course>318.164062</course><hAcc>5.000000</hAcc><vAcc>3.000000</vAcc></extensions></trkpt>
      <trkpt lon="-123.281292" lat="44.570105"><ele>81.994408</ele><time>2020-10-06T23:46:13Z</time><extensions><speed>5.680000</speed><course>312.187500</course><hAcc>5.000000</hAcc><vAcc>3.000000</vAcc></extensions></trkpt>
      <trkpt lon="-123.281349" lat="44.570153"><ele>82.406853</ele><time>2020-10-06T23:46:14Z</time><extensions><speed>5.680000</speed><course>319.921875</course><hAcc>5.000000</hAcc><vAcc>3.000000</vAcc></extensions></trkpt>
      <trkpt lon="-123.281383" lat="44.570197"><ele>82.419174</ele><time>2020-10-06T23:46:15Z</time><extensions><speed>6.100000</speed><course>322.382812</course><hAcc>5.000000</hAcc><vAcc>3.000000</vAcc></extensions></trkpt>
      <trkpt lon="-123.281419" lat="44.570232"><ele>82.131165</ele><time>2020-10-06T23:46:16Z</time><extensions><speed>6.100000</speed><course>324.140625</course><hAcc>5.000000</hAcc><vAcc>3.000000</vAcc></extensions></trkpt>
      <trkpt lon="-123.281457" lat="44.570263"><ele>82.375519</ele><time>2020-10-06T23:46:17Z</time><extensions><speed>5.350000</speed><course>317.460938</course><hAcc>5.000000</hAcc><vAcc>3.000000</vAcc></extensions></trkpt>
      <trkpt lon="-123.281508" lat="44.570300"><ele>81.993134</ele><time>2020-10-06T23:46:18Z</time><extensions><speed>5.790000</speed><course>314.296875</course><hAcc>5.000000</hAcc><vAcc>3.000000</vAcc></extensions></trkpt>
      <trkpt lon="-123.281560" lat="44.570331"><ele>82.464226</ele><time>2020-10-06T23:46:19Z</time><extensions><speed>5.680000</speed><course>310.781250</course><hAcc>5.000000</hAcc><vAcc>3.000000</vAcc></extensions></trkpt>
      <trkpt lon="-123.281604" lat="44.570363"><ele>82.347084</ele><time>2020-10-06T23:46:20Z</time><extensions><speed>5.680000</speed><course>312.890625</course><hAcc>5.000000</hAcc><vAcc>3.000000</vAcc></extensions></trkpt>
      <trkpt lon="-123.281627" lat="44.570397"><ele>82.227318</ele><time>2020-10-06T23:46:21Z</time><extensions><speed>5.470000</speed><course>328.359375</course><hAcc>5.000000</hAcc><vAcc>3.000000</vAcc></extensions></trkpt>
      <trkpt lon="-123.281663" lat="44.570433"><ele>82.454109</ele><time>2020-10-06T23:46:22Z</time><extensions><speed>5.070000</speed><course>325.195312</course><hAcc>5.000000</hAcc><vAcc>3.000000</vAcc></extensions></trkpt>
      <trkpt lon="-123.281700" lat="44.570461"><ele>82.210289</ele><time>2020-10-06T23:46:23Z</time><extensions><speed>5.070000</speed><course>317.460938</course><hAcc>5.000000</hAcc><vAcc>3.000000</vAcc></extensions></trkpt>
      <trkpt lon="-123.281740" lat="44.570499"><ele>82.279167</ele><time>2020-10-06T23:46:24Z</time><extensions><speed>5.070000</speed><course>317.460938</course><hAcc>5.000000</hAcc><vAcc>3.000000</vAcc></extensions></trkpt>
      <trkpt lon="-123.281775" lat="44.570540"><ele>82.154594</ele><time>2020-10-06T23:46:25Z</time><extensions><speed>5.090000</speed><course>324.843750</course><hAcc>5.000000</hAcc><vAcc>3.000000</vAcc></extensions></trkpt>
      <trkpt lon="-123.281819" lat="44.570582"><ele>82.330894</ele><time>2020-10-06T23:46:26Z</time><extensions><speed>5.540000</speed><course>325.546875</course><hAcc>5.000000</hAcc><vAcc>3.000000</vAcc></extensions></trkpt>
      <trkpt lon="-123.281864" lat="44.570609"><ele>81.997032</ele><time>2020-10-06T23:46:27Z</time><extensions><speed>5.450000</speed><course>319.570312</course><hAcc>5.000000</hAcc><vAcc>3.000000</vAcc></extensions></trkpt>
      <trkpt lon="-123.281913" lat="44.570641"><ele>82.081726</ele><time>2020-10-06T23:46:28Z</time><extensions><speed>5.450000</speed><course>319.570312</course><hAcc>5.000000</hAcc><vAcc>3.000000</vAcc></extensions></trkpt>
      <trkpt lon="-123.281960" lat="44.570676"><ele>82.028717</ele><time>2020-10-06T23:46:29Z</time><extensions><speed>5.400000</speed><course>321.328125</course><hAcc>5.000000</hAcc><vAcc>3.000000</vAcc></extensions></trkpt>
      <trkpt lon="-123.281997" lat="44.570716"><ele>81.825935</ele><time>2020-10-06T23:46:30Z</time><extensions><speed>5.350000</speed><course>324.492188</course><hAcc>5.000000</hAcc><vAcc>3.000000</vAcc></extensions></trkpt>
      <trkpt lon="-123.282039" lat="44.570755"><ele>82.206505</ele><time>2020-10-06T23:46:31Z</time><extensions><speed>5.280000</speed><course>323.437500</course><hAcc>5.000000</hAcc><vAcc>3.000000</vAcc></extensions></trkpt>
      <trkpt lon="-123.282105" lat="44.570794"><ele>82.057968</ele><time>2020-10-06T23:46:32Z</time><extensions><speed>6.390000</speed><course>319.921875</course><hAcc>5.000000</hAcc><vAcc>3.000000</vAcc></extensions></trkpt>
      <trkpt lon="-123.282139" lat="44.570829"><ele>82.006775</ele><time>2020-10-06T23:46:33Z</time><extensions><speed>5.280000</speed><course>320.976562</course><hAcc>5.000000</hAcc><vAcc>3.000000</vAcc></extensions></trkpt>
      <trkpt lon="-123.282194" lat="44.570871"><ele>82.059906</ele><time>2020-10-06T23:46:34Z</time><extensions><speed>5.550000</speed><course>319.570312</course><hAcc>5.000000</hAcc><vAcc>3.000000</vAcc></extensions></trkpt>
      <trkpt lon="-123.282259" lat="44.570894"><ele>82.234924</ele><time>2020-10-06T23:46:35Z</time><extensions><speed>5.270000</speed><course>299.882812</course><hAcc>5.000000</hAcc><vAcc>3.000000</vAcc></extensions></trkpt>
      <trkpt lon="-123.282318" lat="44.570924"><ele>82.129486</ele><time>2020-10-06T23:46:36Z</time><extensions><speed>5.420000</speed><course>304.804688</course><hAcc>5.000000</hAcc><vAcc>3.000000</vAcc></extensions></trkpt>
      <trkpt lon="-123.282351" lat="44.570966"><ele>82.031303</ele><time>2020-10-06T23:46:37Z</time><extensions><speed>5.420000</speed><course>324.843750</course><hAcc>5.000000</hAcc><vAcc>3.000000</vAcc></extensions></trkpt>
      <trkpt lon="-123.282399" lat="44.571019"><ele>82.143913</ele><time>2020-10-06T23:46:38Z</time><extensions><speed>5.480000</speed><course>324.492188</course><hAcc>5.000000</hAcc><vAcc>3.000000</vAcc></extensions></trkpt>
      <trkpt lon="-123.282450" lat="44.571057"><ele>81.724289</ele><time>2020-10-06T23:46:39Z</time><extensions><speed>6.100000</speed><course>319.570312</course><hAcc>5.000000</hAcc><vAcc>3.000000</vAcc></extensions></trkpt>
      <trkpt lon="-123.282486" lat="44.571093"><ele>82.009293</ele><time>2020-10-06T23:46:40Z</time><extensions><speed>6.100000</speed><course>318.515625</course><hAcc>5.000000</hAcc><vAcc>3.000000</vAcc></extensions></trkpt>
      <trkpt lon="-123.282544" lat="44.571130"><ele>82.100624</ele><time>2020-10-06T23:46:41Z</time><extensions><speed>5.960000</speed><course>315.351562</course><hAcc>5.000000</hAcc><vAcc>3.000000</vAcc></extensions></trkpt>
      <trkpt lon="-123.282591" lat="44.571168"><ele>81.943329</ele><time>2020-10-06T23:46:42Z</time><extensions><speed>5.870000</speed><course>314.296875</course><hAcc>5.000000</hAcc><vAcc>3.000000</vAcc></extensions></trkpt>
      <trkpt lon="-123.282626" lat="44.571211"><ele>81.782570</ele><time>2020-10-06T23:46:43Z</time><extensions><speed>5.870000</speed><course>319.570312</course><hAcc>5.000000</hAcc><vAcc>3.000000</vAcc></extensions></trkpt>
      <trkpt lon="-123.282669" lat="44.571251"><ele>81.714401</ele><time>2020-10-06T23:46:44Z</time><extensions><speed>5.600000</speed><course>318.164062</course><hAcc>5.000000</hAcc><vAcc>3.000000</vAcc></extensions></trkpt>
      <trkpt lon="-123.282726" lat="44.571283"><ele>81.554901</ele><time>2020-10-06T23:46:45Z</time><extensions><speed>5.600000</speed><course>309.375000</course><hAcc>5.000000</hAcc><vAcc>3.000000</vAcc></extensions></trkpt>
      <trkpt lon="-123.282769" lat="44.571321"><ele>81.586372</ele><time>2020-10-06T23:46:46Z</time><extensions><speed>5.260000</speed><course>318.867188</course><hAcc>5.000000</hAcc><vAcc>3.000000</vAcc></extensions></trkpt>
      <trkpt lon="-123.282811" lat="44.571373"><ele>81.640526</ele><time>2020-10-06T23:46:47Z</time><extensions><speed>5.260000</speed><course>329.765625</course><hAcc>5.000000</hAcc><vAcc>3.000000</vAcc></extensions></trkpt>
      <trkpt lon="-123.282875" lat="44.571420"><ele>81.594368</ele><time>2020-10-06T23:46:48Z</time><extensions><speed>6.260000</speed><course>318.164062</course><hAcc>5.000000</hAcc><vAcc>3.000000</vAcc></extensions></trkpt>
      <trkpt lon="-123.282930" lat="44.571466"><ele>82.381325</ele><time>2020-10-06T23:46:49Z</time><extensions><speed>6.970000</speed><course>316.757812</course><hAcc>5.000000</hAcc><vAcc>3.000000</vAcc></extensions></trkpt>
      <trkpt lon="-123.282975" lat="44.571521"><ele>82.492920</ele><time>2020-10-06T23:46:50Z</time><extensions><speed>6.840000</speed><course>324.492188</course><hAcc>5.000000</hAcc><vAcc>3.000000</vAcc></extensions></trkpt>
      <trkpt lon="-123.283035" lat="44.571580"><ele>82.029305</ele><time>2020-10-06T23:46:51Z</time><extensions><speed>6.970000</speed><course>320.625000</course><hAcc>5.000000</hAcc><vAcc>3.000000</vAcc></extensions></trkpt>
      <trkpt lon="-123.283102" lat="44.571631"><ele>82.420708</ele><time>2020-10-06T23:46:52Z</time><extensions><speed>7.650000</speed><course>322.382812</course><hAcc>5.000000</hAcc><vAcc>3.000000</vAcc></extensions></trkpt>
      <trkpt lon="-123.283160" lat="44.571685"><ele>82.155731</ele><time>2020-10-06T23:46:53Z</time><extensions><speed>7.650000</speed><course>322.382812</course><hAcc>5.000000</hAcc><vAcc>3.000000</vAcc></extensions></trkpt>
      <trkpt lon="-123.283208" lat="44.571749"><ele>82.079514</ele><time>2020-10-06T23:46:54Z</time><extensions><speed>7.650000</speed><course>324.492188</course><hAcc>5.000000</hAcc><vAcc>3.000000</vAcc></extensions></trkpt>
      <trkpt lon="-123.283263" lat="44.571802"><ele>82.195496</ele><time>2020-10-06T23:46:55Z</time><extensions><speed>7.570000</speed><course>324.492188</course><hAcc>5.000000</hAcc><vAcc>3.000000</vAcc></extensions></trkpt>
      <trkpt lon="-123.283302" lat="44.571861"><ele>82.214928</ele><time>2020-10-06T23:46:56Z</time><extensions><speed>7.410000</speed><course>333.632812</course><hAcc>5.000000</hAcc><vAcc>3.000000</vAcc></extensions></trkpt>
      <trkpt lon="-123.283321" lat="44.571923"><ele>82.238365</ele><time>2020-10-06T23:46:57Z</time><extensions><speed>7.300000</speed><course>340.312500</course><hAcc>5.000000</hAcc><vAcc>3.000000</vAcc></extensions></trkpt>
      <trkpt lon="-123.283316" lat="44.571986"><ele>82.481712</ele><time>2020-10-06T23:46:58Z</time><extensions><speed>6.790000</speed><course>354.023438</course><hAcc>5.000000</hAcc><vAcc>3.000000</vAcc></extensions></trkpt>
      <trkpt lon="-123.283313" lat="44.572055"><ele>82.494598</ele><time>2020-10-06T23:46:59Z</time><extensions><speed>7.310000</speed><course>0.703125</course><hAcc>5.000000</hAcc><vAcc>3.000000</vAcc></extensions></trkpt>
      <trkpt lon="-123.283315" lat="44.572119"><ele>82.434525</ele><time>2020-10-06T23:47:00Z</time><extensions><speed>7.380000</speed><course>358.593750</course><hAcc>5.000000</hAcc><vAcc>3.000000</vAcc></extensions></trkpt>
      <trkpt lon="-123.283315" lat="44.572185"><ele>81.912331</ele><time>2020-10-06T23:47:01Z</time><extensions><speed>7.250000</speed><course>355.429688</course><hAcc>5.000000</hAcc><vAcc>3.000000</vAcc></extensions></trkpt>
      <trkpt lon="-123.283317" lat="44.572253"><ele>81.844727</ele><time>2020-10-06T23:47:02Z</time><extensions><speed>7.170000</speed><course>357.539062</course><hAcc>5.000000</hAcc><vAcc>3.000000</vAcc></extensions></trkpt>
      <trkpt lon="-123.283353" lat="44.572317"><ele>81.955658</ele><time>2020-10-06T23:47:03Z</time><extensions><speed>7.200000</speed><course>356.132812</course><hAcc>5.000000</hAcc><vAcc>3.000000</vAcc></extensions></trkpt>
      <trkpt lon="-123.283375" lat="44.572382"><ele>80.907051</ele><time>2020-10-06T23:47:04Z</time><extensions><speed>7.200000</speed><course>358.593750</course><hAcc>5.000000</hAcc><vAcc>3.000000</vAcc></extensions></trkpt>
      <trkpt lon="-123.283368" lat="44.572439"><ele>80.160431</ele><time>2020-10-06T23:47:05Z</time><extensions><speed>7.410000</speed><course>358.242188</course><hAcc>5.000000</hAcc><vAcc>3.000000</vAcc></extensions></trkpt>
      <trkpt lon="-123.283371" lat="44.572515"><ele>79.836906</ele><time>2020-10-06T23:47:06Z</time><extensions><speed>7.010000</speed><course>2.812500</course><hAcc>5.000000</hAcc><vAcc>3.000000</vAcc></extensions></trkpt>
      <trkpt lon="-123.283361" lat="44.572584"><ele>78.900848</ele><time>2020-10-06T23:47:07Z</time><extensions><speed>7.220000</speed><course>3.164062</course><hAcc>5.000000</hAcc><vAcc>3.000000</vAcc></extensions></trkpt>
      <trkpt lon="-123.283344" lat="44.572656"><ele>78.658653</ele><time>2020-10-06T23:47:08Z</time><extensions><speed>7.850000</speed><course>8.437500</course><hAcc>5.000000</hAcc><vAcc>3.000000</vAcc></extensions></trkpt>
      <trkpt lon="-123.283334" lat="44.572726"><ele>78.404999</ele><time>2020-10-06T23:47:09Z</time><extensions><speed>7.890000</speed><course>5.976562</course><hAcc>5.000000</hAcc><vAcc>3.000000</vAcc></extensions></trkpt>
      <trkpt lon="-123.283327" lat="44.572796"><ele>78.174797</ele><time>2020-10-06T23:47:10Z</time><extensions><speed>7.750000</speed><course>2.460938</course><hAcc>5.000000</hAcc><vAcc>3.000000</vAcc></extensions></trkpt>
      <trkpt lon="-123.283322" lat="44.572864"><ele>77.740608</ele><time>2020-10-06T23:47:11Z</time><extensions><speed>7.290000</speed><course>2.460938</course><hAcc>5.000000</hAcc><vAcc>3.000000</vAcc></extensions></trkpt>
      <trkpt lon="-123.283334" lat="44.572935"><ele>77.344574</ele><time>2020-10-06T23:47:12Z</time><extensions><speed>7.280000</speed><course>2.109375</course><hAcc>5.000000</hAcc><vAcc>3.000000</vAcc></extensions></trkpt>
      <trkpt lon="-123.283327" lat="44.572999"><ele>76.906693</ele><time>2020-10-06T23:47:13Z</time><extensions><speed>6.930000</speed><course>4.218750</course><hAcc>5.000000</hAcc><vAcc>3.000000</vAcc></extensions></trkpt>
      <trkpt lon="-123.283324" lat="44.573057"><ele>76.653549</ele><time>2020-10-06T23:47:14Z</time><extensions><speed>6.620000</speed><course>5.625000</course><hAcc>5.000000</hAcc><vAcc>3.000000</vAcc></extensions></trkpt>
      <trkpt lon="-123.283310" lat="44.573117"><ele>76.594124</ele><time>2020-10-06T23:47:15Z</time><extensions><speed>6.920000</speed><course>4.218750</course><hAcc>5.000000</hAcc><vAcc>3.000000</vAcc></extensions></trkpt>
      <trkpt lon="-123.283304" lat="44.573179"><ele>76.462547</ele><time>2020-10-06T23:47:16Z</time><extensions><speed>6.920000</speed><course>4.218750</course><hAcc>5.000000</hAcc><vAcc>3.000000</vAcc></extensions></trkpt>
      <trkpt lon="-123.283319" lat="44.573252"><ele>76.665024</ele><time>2020-10-06T23:47:17Z</time><extensions><speed>7.200000</speed><course>2.109375</course><hAcc>5.000000</hAcc><vAcc>3.000000</vAcc></extensions></trkpt>
      <trkpt lon="-123.283313" lat="44.573315"><ele>76.262466</ele><time>2020-10-06T23:47:18Z</time><extensions><speed>7.050000</speed><course>2.109375</course><hAcc>5.000000</hAcc><vAcc>3.000000</vAcc></extensions></trkpt>
      <trkpt lon="-123.283317" lat="44.573385"><ele>76.525208</ele><time>2020-10-06T23:47:19Z</time><extensions><speed>7.050000</speed><course>5.273438</course><hAcc>5.000000</hAcc><vAcc>3.000000</vAcc></extensions></trkpt>
      <trkpt lon="-123.283318" lat="44.573451"><ele>76.103905</ele><time>2020-10-06T23:47:20Z</time><extensions><speed>7.020000</speed><course>4.921875</course><hAcc>5.000000</hAcc><vAcc>3.000000</vAcc></extensions></trkpt>
      <trkpt lon="-123.283311" lat="44.573512"><ele>76.764641</ele><time>2020-10-06T23:47:21Z</time><extensions><speed>6.980000</speed><course>3.164062</course><hAcc>5.000000</hAcc><vAcc>3.000000</vAcc></extensions></trkpt>
      <trkpt lon="-123.283306" lat="44.573572"><ele>75.919182</ele><time>2020-10-06T23:47:22Z</time><extensions><speed>6.850000</speed><course>0.703125</course><hAcc>5.000000</hAcc><vAcc>3.000000</vAcc></extensions></trkpt>
      <trkpt lon="-123.283305" lat="44.573635"><ele>75.720634</ele><time>2020-10-06T23:47:23Z</time><extensions><speed>6.820000</speed><course>2.109375</course><hAcc>5.000000</hAcc><vAcc>3.000000</vAcc></extensions></trkpt>
      <trkpt lon="-123.283299" lat="44.573692"><ele>75.904877</ele><time>2020-10-06T23:47:24Z</time><extensions><speed>6.350000</speed><course>3.164062</course><hAcc>5.000000</hAcc><vAcc>3.000000</vAcc></extensions></trkpt>
      <trkpt lon="-123.283289" lat="44.573741"><ele>75.566513</ele><time>2020-10-06T23:47:25Z</time><extensions><speed>6.200000</speed><course>0.703125</course><hAcc>5.000000</hAcc><vAcc>3.000000</vAcc></extensions></trkpt>
      <trkpt lon="-123.283288" lat="44.573800"><ele>75.443832</ele><time>2020-10-06T23:47:26Z</time><extensions><speed>5.980000</speed><course>2.460938</course><hAcc>5.000000</hAcc><vAcc>3.000000</vAcc></extensions></trkpt>
      <trkpt lon="-123.283280" lat="44.573854"><ele>75.432205</ele><time>2020-10-06T23:47:27Z</time><extensions><speed>6.030000</speed><course>4.570312</course><hAcc>5.000000</hAcc><vAcc>3.000000</vAcc></extensions></trkpt>
      <trkpt lon="-123.283274" lat="44.573906"><ele>75.604469</ele><time>2020-10-06T23:47:28Z</time><extensions><speed>5.580000</speed><course>3.515625</course><hAcc>5.000000</hAcc><vAcc>3.000000</vAcc></extensions></trkpt>
      <trkpt lon="-123.283274" lat="44.573950"><ele>75.711334</ele><time>2020-10-06T23:47:29Z</time><extensions><speed>5.580000</speed><course>1.406250</course><hAcc>5.000000</hAcc><vAcc>3.000000</vAcc></extensions></trkpt>
      <trkpt lon="-123.283273" lat="44.573996"><ele>75.724525</ele><time>2020-10-06T23:47:30Z</time><extensions><speed>5.500000</speed><course>0.351562</course><hAcc>5.000000</hAcc><vAcc>3.000000</vAcc></extensions></trkpt>
      <trkpt lon="-123.283266" lat="44.574040"><ele>75.597595</ele><time>2020-10-06T23:47:31Z</time><extensions><speed>5.070000</speed><course>1.406250</course><hAcc>5.000000</hAcc><vAcc>3.000000</vAcc></extensions></trkpt>
      <trkpt lon="-123.283275" lat="44.574080"><ele>76.017929</ele><time>2020-10-06T23:47:32Z</time><extensions><speed>4.670000</speed><course>4.570312</course><hAcc>5.000000</hAcc><vAcc>3.000000</vAcc></extensions></trkpt>
      <trkpt lon="-123.283267" lat="44.574113"><ele>75.871368</ele><time>2020-10-06T23:47:33Z</time><extensions><speed>4.670000</speed><course>4.218750</course><hAcc>5.000000</hAcc><vAcc>3.000000</vAcc></extensions></trkpt>
      <trkpt lon="-123.283282" lat="44.574165"><ele>76.169014</ele><time>2020-10-06T23:47:34Z</time><extensions><speed>4.670000</speed><course>1.406250</course><hAcc>5.000000</hAcc><vAcc>3.000000</vAcc></extensions></trkpt>
      <trkpt lon="-123.283267" lat="44.574204"><ele>76.098961</ele><time>2020-10-06T23:47:35Z</time><extensions><speed>4.760000</speed><course>9.843750</course><hAcc>5.000000</hAcc><vAcc>3.000000</vAcc></extensions></trkpt>
      <trkpt lon="-123.283268" lat="44.574246"><ele>76.055206</ele><time>2020-10-06T23:47:36Z</time><extensions><speed>4.760000</speed><course>1.757812</course><hAcc>5.000000</hAcc><vAcc>3.000000</vAcc></extensions></trkpt>
      <trkpt lon="-123.283261" lat="44.574296"><ele>75.994873</ele><time>2020-10-06T23:47:37Z</time><extensions><speed>5.080000</speed><course>1.406250</course><hAcc>5.000000</hAcc><vAcc>3.000000</vAcc></extensions></trkpt>
      <trkpt lon="-123.283277" lat="44.574343"><ele>76.497879</ele><time>2020-10-06T23:47:38Z</time><extensions><speed>5.080000</speed><course>359.648438</course><hAcc>5.000000</hAcc><vAcc>3.000000</vAcc></extensions></trkpt>
      <trkpt lon="-123.283277" lat="44.574385"><ele>75.917252</ele><time>2020-10-06T23:47:39Z</time><extensions><speed>4.940000</speed><course>358.945312</course><hAcc>5.000000</hAcc><vAcc>3.000000</vAcc></extensions></trkpt>
      <trkpt lon="-123.283271" lat="44.574428"><ele>75.636826</ele><time>2020-10-06T23:47:40Z</time><extensions><speed>4.940000</speed><course>1.757812</course><hAcc>5.000000</hAcc><vAcc>3.000000</vAcc></extensions></trkpt>
      <trkpt lon="-123.283260" lat="44.574477"><ele>75.636681</ele><time>2020-10-06T23:47:41Z</time><extensions><speed>5.790000</speed><course>2.109375</course><hAcc>5.000000</hAcc><vAcc>3.000000</vAcc></extensions></trkpt>
      <trkpt lon="-123.283248" lat="44.574547"><ele>75.459137</ele><time>2020-10-06T23:47:42Z</time><extensions><speed>6.020000</speed><course>1.054688</course><hAcc>5.000000</hAcc><vAcc>3.000000</vAcc></extensions></trkpt>
      <trkpt lon="-123.283244" lat="44.574599"><ele>75.223198</ele><time>2020-10-06T23:47:43Z</time><extensions><speed>5.920000</speed><course>4.218750</course><hAcc>5.000000</hAcc><vAcc>3.000000</vAcc></extensions></trkpt>
      <trkpt lon="-123.283236" lat="44.574650"><ele>75.261734</ele><time>2020-10-06T23:47:44Z</time><extensions><speed>5.920000</speed><course>4.921875</course><hAcc>5.000000</hAcc><vAcc>3.000000</vAcc></extensions></trkpt>
      <trkpt lon="-123.283233" lat="44.574706"><ele>75.228111</ele><time>2020-10-06T23:47:45Z</time><extensions><speed>5.920000</speed><course>2.812500</course><hAcc>5.000000</hAcc><vAcc>3.000000</vAcc></extensions></trkpt>
      <trkpt lon="-123.283220" lat="44.574768"><ele>75.026566</ele><time>2020-10-06T23:47:46Z</time><extensions><speed>6.930000</speed><course>2.109375</course><hAcc>5.000000</hAcc><vAcc>3.000000</vAcc></extensions></trkpt>
      <trkpt lon="-123.283221" lat="44.574832"><ele>74.753677</ele><time>2020-10-06T23:47:47Z</time><extensions><speed>6.930000</speed><course>9.140625</course><hAcc>5.000000</hAcc><vAcc>3.000000</vAcc></extensions></trkpt>
      <trkpt lon="-123.283229" lat="44.574894"><ele>75.139679</ele><time>2020-10-06T23:47:48Z</time><extensions><speed>6.640000</speed><course>8.437500</course><hAcc>5.000000</hAcc><vAcc>3.000000</vAcc></extensions></trkpt>
      <trkpt lon="-123.283215" lat="44.574953"><ele>74.387405</ele><time>2020-10-06T23:47:49Z</time><extensions><speed>6.640000</speed><course>7.031250</course><hAcc>5.000000</hAcc><vAcc>3.000000</vAcc></extensions></trkpt>
      <trkpt lon="-123.283211" lat="44.575023"><ele>74.049416</ele><time>2020-10-06T23:47:50Z</time><extensions><speed>7.540000</speed><course>1.757812</course><hAcc>5.000000</hAcc><vAcc>3.000000</vAcc></extensions></trkpt>
      <trkpt lon="-123.283205" lat="44.575091"><ele>74.217484</ele><time>2020-10-06T23:47:51Z</time><extensions><speed>7.680000</speed><course>2.812500</course><hAcc>5.000000</hAcc><vAcc>3.000000</vAcc></extensions></trkpt>
      <trkpt lon="-123.283196" lat="44.575160"><ele>73.922821</ele><time>2020-10-06T23:47:52Z</time><extensions><speed>7.680000</speed><course>2.460938</course><hAcc>5.000000</hAcc><vAcc>3.000000</vAcc></extensions></trkpt>
      <trkpt lon="-123.283188" lat="44.575226"><ele>73.686760</ele><time>2020-10-06T23:47:53Z</time><extensions><speed>7.680000</speed><course>2.460938</course><hAcc>5.000000</hAcc><vAcc>3.000000</vAcc></extensions></trkpt>
      <trkpt lon="-123.283182" lat="44.575295"><ele>73.717590</ele><time>2020-10-06T23:47:54Z</time><extensions><speed>7.710000</speed><course>3.164062</course><hAcc>5.000000</hAcc><vAcc>3.000000</vAcc></extensions></trkpt>
      <trkpt lon="-123.283180" lat="44.575371"><ele>73.575783</ele><time>2020-10-06T23:47:55Z</time><extensions><speed>7.740000</speed><course>2.460938</course><hAcc>5.000000</hAcc><vAcc>3.000000</vAcc></extensions></trkpt>
      <trkpt lon="-123.283196" lat="44.575436"><ele>73.553238</ele><time>2020-10-06T23:47:56Z</time><extensions><speed>6.880000</speed><course>2.812500</course><hAcc>5.000000</hAcc><vAcc>3.000000</vAcc></extensions></trkpt>
      <trkpt lon="-123.283180" lat="44.575498"><ele>72.931183</ele><time>2020-10-06T23:47:57Z</time><extensions><speed>7.870000</speed><course>1.406250</course><hAcc>5.000000</hAcc><vAcc>3.000000</vAcc></extensions></trkpt>
      <trkpt lon="-123.283184" lat="44.575572"><ele>73.067299</ele><time>2020-10-06T23:47:58Z</time><extensions><speed>7.840000</speed><course>2.109375</course><hAcc>5.000000</hAcc><vAcc>3.000000</vAcc></extensions></trkpt>
      <trkpt lon="-123.283186" lat="44.575642"><ele>72.700089</ele><time>2020-10-06T23:47:59Z</time><extensions><speed>7.590000</speed><course>2.812500</course><hAcc>5.000000</hAcc><vAcc>3.000000</vAcc></extensions></trkpt>
      <trkpt lon="-123.283190" lat="44.575717"><ele>72.412628</ele><time>2020-10-06T23:48:00Z</time><extensions><speed>7.810000</speed><course>1.406250</course><hAcc>5.000000</hAcc><vAcc>3.000000</vAcc></extensions></trkpt>
      <trkpt lon="-123.283196" lat="44.575786"><ele>72.435799</ele><time>2020-10-06T23:48:01Z</time><extensions><speed>7.510000</speed><course>355.429688</course><hAcc>5.000000</hAcc><vAcc>3.000000</vAcc></extensions></trkpt>
      <trkpt lon="-123.283200" lat="44.575849"><ele>72.319870</ele><time>2020-10-06T23:48:02Z</time><extensions><speed>7.260000</speed><course>3.515625</course><hAcc>5.000000</hAcc><vAcc>3.000000</vAcc></extensions></trkpt>
      <trkpt lon="-123.283187" lat="44.575915"><ele>72.312744</ele><time>2020-10-06T23:48:03Z</time><extensions><speed>7.530000</speed><course>10.898438</course><hAcc>5.000000</hAcc><vAcc>3.000000</vAcc></extensions></trkpt>
      <trkpt lon="-123.283183" lat="44.575980"><ele>72.242157</ele><time>2020-10-06T23:48:04Z</time><extensions><speed>7.320000</speed><course>1.757812</course><hAcc>5.000000</hAcc><vAcc>3.000000</vAcc></extensions></trkpt>
      <trkpt lon="-123.283184" lat="44.576042"><ele>72.177582</ele><time>2020-10-06T23:48:05Z</time><extensions><speed>7.170000</speed><course>2.109375</course><hAcc>5.000000</hAcc><vAcc>3.000000</vAcc></extensions></trkpt>
      <trkpt lon="-123.283178" lat="44.576112"><ele>72.088997</ele><time>2020-10-06T23:48:06Z</time><extensions><speed>7.270000</speed><course>358.593750</course><hAcc>5.000000</hAcc><vAcc>3.000000</vAcc></extensions></trkpt>
      <trkpt lon="-123.283179" lat="44.576175"><ele>72.000069</ele><time>2020-10-06T23:48:07Z</time><extensions><speed>6.590000</speed><course>357.539062</course><hAcc>5.000000</hAcc><vAcc>3.000000</vAcc></extensions></trkpt>
      <trkpt lon="-123.283181" lat="44.576237"><ele>72.096245</ele><time>2020-10-06T23:48:08Z</time><extensions><speed>7.000000</speed><course>356.835938</course><hAcc>5.000000</hAcc><vAcc>3.000000</vAcc></extensions></trkpt>
      <trkpt lon="-123.283200" lat="44.576296"><ele>72.188164</ele><time>2020-10-06T23:48:09Z</time><extensions><speed>6.040000</speed><course>352.265625</course><hAcc>5.000000</hAcc><vAcc>3.000000</vAcc></extensions></trkpt>
      <trkpt lon="-123.283212" lat="44.576349"><ele>71.955460</ele><time>2020-10-06T23:48:10Z</time><extensions><speed>5.820000</speed><course>354.023438</course><hAcc>5.000000</hAcc><vAcc>3.000000</vAcc></extensions></trkpt>
      <trkpt lon="-123.283189" lat="44.576388"><ele>72.043053</ele><time>2020-10-06T23:48:11Z</time><extensions><speed>4.680000</speed><course>15.820312</course><hAcc>5.000000</hAcc><vAcc>3.000000</vAcc></extensions></trkpt>
      <trkpt lon="-123.283180" lat="44.576434"><ele>72.270309</ele><time>2020-10-06T23:48:12Z</time><extensions><speed>5.360000</speed><course>5.976562</course><hAcc>5.000000</hAcc><vAcc>3.000000</vAcc></extensions></trkpt>
      <trkpt lon="-123.283202" lat="44.576477"><ele>72.009689</ele><time>2020-10-06T23:48:13Z</time><extensions><speed>5.360000</speed><course>333.632812</course><hAcc>5.000000</hAcc><vAcc>3.000000</vAcc></extensions></trkpt>
      <trkpt lon="-123.283265" lat="44.576515"><ele>71.913849</ele><time>2020-10-06T23:48:14Z</time><extensions><speed>4.750000</speed><course>297.070312</course><hAcc>5.000000</hAcc><vAcc>3.000000</vAcc></extensions></trkpt>
      <trkpt lon="-123.283295" lat="44.576530"><ele>71.736954</ele><time>2020-10-06T23:48:15Z</time><extensions><speed>4.650000</speed><course>299.882812</course><hAcc>5.000000</hAcc><vAcc>3.000000</vAcc></extensions></trkpt>
      <trkpt lon="-123.283336" lat="44.576547"><ele>72.151192</ele><time>2020-10-06T23:48:16Z</time><extensions><speed>3.730000</speed><course>299.882812</course><hAcc>5.000000</hAcc><vAcc>3.000000</vAcc></extensions></trkpt>
      <trkpt lon="-123.283364" lat="44.576532"><ele>71.725273</ele><time>2020-10-06T23:48:17Z</time><extensions><speed>2.230000</speed><course>275.976562</course><hAcc>5.000000</hAcc><vAcc>3.000000</vAcc></extensions></trkpt>
      <trkpt lon="-123.283380" lat="44.576516"><ele>71.508461</ele><time>2020-10-06T23:48:18Z</time><extensions><speed>2.230000</speed><course>245.390625</course><hAcc>5.000000</hAcc><vAcc>3.000000</vAcc></extensions></trkpt>
      <trkpt lon="-123.283399" lat="44.576510"><ele>71.506386</ele><time>2020-10-06T23:48:19Z</time><extensions><speed>1.610000</speed><course>245.390625</course><hAcc>5.000000</hAcc><vAcc>3.000000</vAcc></extensions></trkpt>
      <trkpt lon="-123.283399" lat="44.576510"><ele>71.770432</ele><time>2020-10-06T23:48:20Z</time><extensions><speed>0.000000</speed><course>294.257812</course><hAcc>5.000000</hAcc><vAcc>3.000000</vAcc></extensions></trkpt>
      <trkpt lon="-123.283399" lat="44.576510"><ele>71.656784</ele><time>2020-10-06T23:48:21Z</time><extensions><speed>0.000000</speed><course>294.257812</course><hAcc>5.000000</hAcc><vAcc>3.000000</vAcc></extensions></trkpt>
      <trkpt lon="-123.283413" lat="44.576504"><ele>71.629646</ele><time>2020-10-06T23:48:22Z</time><extensions><speed>1.000000</speed><course>255.234375</course><hAcc>5.000000</hAcc><vAcc>3.000000</vAcc></extensions></trkpt>
      <trkpt lon="-123.283426" lat="44.576501"><ele>71.826942</ele><time>2020-10-06T23:48:23Z</time><extensions><speed>1.000000</speed><course>255.234375</course><hAcc>5.000000</hAcc><vAcc>3.000000</vAcc></extensions></trkpt>
      <trkpt lon="-123.283428" lat="44.576519"><ele>72.029953</ele><time>2020-10-06T23:48:24Z</time><extensions><speed>1.000000</speed><course>345.234375</course><hAcc>5.000000</hAcc><vAcc>4.000000</vAcc></extensions></trkpt>
      <trkpt lon="-123.283446" lat="44.576516"><ele>71.861320</ele><time>2020-10-06T23:48:25Z</time><extensions><speed>1.030000</speed><course>293.554688</course><hAcc>5.000000</hAcc><vAcc>4.000000</vAcc></extensions></trkpt>
      <trkpt lon="-123.283461" lat="44.576512"><ele>71.968918</ele><time>2020-10-06T23:48:26Z</time><extensions><speed>1.030000</speed><course>300.585938</course><hAcc>5.000000</hAcc><vAcc>4.000000</vAcc></extensions></trkpt>
      <trkpt lon="-123.283472" lat="44.576507"><ele>71.893013</ele><time>2020-10-06T23:48:27Z</time><extensions><speed>0.550000</speed><course>251.718750</course><hAcc>10.000000</hAcc><vAcc>4.000000</vAcc></extensions></trkpt>
      <trkpt lon="-123.283481" lat="44.576505"><ele>71.929504</ele><time>2020-10-06T23:48:28Z</time><extensions><speed>0.550000</speed><course>270.000000</course><hAcc>10.000000</hAcc><vAcc>4.000000</vAcc></extensions></trkpt>
      <trkpt lon="-123.283487" lat="44.576491"><ele>71.879562</ele><time>2020-10-06T23:48:29Z</time><extensions><speed>0.550000</speed><course>227.109375</course><hAcc>5.000000</hAcc><vAcc>4.000000</vAcc></extensions></trkpt>
      <trkpt lon="-123.283487" lat="44.576486"><ele>71.940002</ele><time>2020-10-06T23:48:30Z</time><extensions><speed>0.380000</speed><course>189.492188</course><hAcc>5.000000</hAcc><vAcc>4.000000</vAcc></extensions></trkpt>
      <trkpt lon="-123.283481" lat="44.576482"><ele>71.908844</ele><time>2020-10-06T23:48:31Z</time><extensions><speed>0.370000</speed><course>163.125000</course><hAcc>5.000000</hAcc><vAcc>4.000000</vAcc></extensions></trkpt>
      <trkpt lon="-123.283475" lat="44.576482"><ele>71.818100</ele><time>2020-10-06T23:48:32Z</time><extensions><speed>0.230000</speed><course>146.250000</course><hAcc>10.000000</hAcc><vAcc>4.000000</vAcc></extensions></trkpt>
      <trkpt lon="-123.283470" lat="44.576482"><ele>71.842682</ele><time>2020-10-06T23:48:33Z</time><extensions><speed>0.240000</speed><course>169.453125</course><hAcc>10.000000</hAcc><vAcc>4.000000</vAcc></extensions></trkpt>
      <trkpt lon="-123.283468" lat="44.576483"><ele>72.346260</ele><time>2020-10-06T23:48:34Z</time><extensions><speed>0.240000</speed><course>156.093750</course><hAcc>10.000000</hAcc><vAcc>4.000000</vAcc></extensions></trkpt>
      <trkpt lon="-123.283464" lat="44.576485"><ele>72.301643</ele><time>2020-10-06T23:48:35Z</time><extensions><speed>0.340000</speed><course>123.750000</course><hAcc>5.000000</hAcc><vAcc>4.000000</vAcc></extensions></trkpt>
      <trkpt lon="-123.283464" lat="44.576485"><ele>72.459091</ele><time>2020-10-06T23:48:36Z</time><extensions><speed>0.000000</speed><course>106.523438</course><hAcc>5.000000</hAcc><vAcc>4.000000</vAcc></extensions></trkpt>
      <trkpt lon="-123.283456" lat="44.576494"><ele>72.385178</ele><time>2020-10-06T23:48:37Z</time><extensions><speed>0.670000</speed><course>69.609375</course><hAcc>10.000000</hAcc><vAcc>4.000000</vAcc></extensions></trkpt>
      <trkpt lon="-123.283449" lat="44.576494"><ele>72.342346</ele><time>2020-10-06T23:48:38Z</time><extensions><speed>0.420000</speed><course>82.265625</course><hAcc>5.000000</hAcc><vAcc>4.000000</vAcc></extensions></trkpt>
      <trkpt lon="-123.283436" lat="44.576491"><ele>72.323105</ele><time>2020-10-06T23:48:39Z</time><extensions><speed>0.670000</speed><course>105.820312</course><hAcc>5.000000</hAcc><vAcc>4.000000</vAcc></extensions></trkpt>
      <trkpt lon="-123.283426" lat="44.576484"><ele>72.354759</ele><time>2020-10-06T23:48:40Z</time><extensions><speed>0.500000</speed><course>143.085938</course><hAcc>10.000000</hAcc><vAcc>4.000000</vAcc></extensions></trkpt>
      <trkpt lon="-123.283423" lat="44.576479"><ele>72.381660</ele><time>2020-10-06T23:48:41Z</time><extensions><speed>0.190000</speed><course>149.765625</course><hAcc>10.000000</hAcc><vAcc>4.000000</vAcc></extensions></trkpt>
      <trkpt lon="-123.283420" lat="44.576476"><ele>72.383865</ele><time>2020-10-06T23:48:42Z</time><extensions><speed>0.480000</speed><course>155.742188</course><hAcc>10.000000</hAcc><vAcc>4.000000</vAcc></extensions></trkpt>
      <trkpt lon="-123.283416" lat="44.576474"><ele>72.173134</ele><time>2020-10-06T23:48:43Z</time><extensions><speed>0.480000</speed><course>101.953125</course><hAcc>10.000000</hAcc><vAcc>4.000000</vAcc></extensions></trkpt>
      <trkpt lon="-123.283410" lat="44.576472"><ele>72.227798</ele><time>2020-10-06T23:48:44Z</time><extensions><speed>0.480000</speed><course>87.187500</course><hAcc>10.000000</hAcc><vAcc>4.000000</vAcc></extensions></trkpt>
      <trkpt lon="-123.283404" lat="44.576476"><ele>72.291519</ele><time>2020-10-06T23:48:45Z</time><extensions><speed>0.570000</speed><course>41.835938</course><hAcc>10.000000</hAcc><vAcc>4.000000</vAcc></extensions></trkpt>
      <trkpt lon="-123.283403" lat="44.576481"><ele>72.207901</ele><time>2020-10-06T23:48:46Z</time><extensions><speed>0.240000</speed><course>13.710938</course><hAcc>5.000000</hAcc><vAcc>4.000000</vAcc></extensions></trkpt>
      <trkpt lon="-123.283408" lat="44.576486"><ele>72.333794</ele><time>2020-10-06T23:48:47Z</time><extensions><speed>0.570000</speed><course>323.085938</course><hAcc>5.000000</hAcc><vAcc>4.000000</vAcc></extensions></trkpt>
      <trkpt lon="-123.283416" lat="44.576492"><ele>72.192390</ele><time>2020-10-06T23:48:48Z</time><extensions><speed>0.350000</speed><course>302.695312</course><hAcc>5.000000</hAcc><vAcc>4.000000</vAcc></extensions></trkpt>
      <trkpt lon="-123.283427" lat="44.576497"><ele>72.172485</ele><time>2020-10-06T23:48:49Z</time><extensions><speed>0.590000</speed><course>292.851562</course><hAcc>5.000000</hAcc><vAcc>4.000000</vAcc></extensions></trkpt>
      <trkpt lon="-123.283435" lat="44.576502"><ele>72.155083</ele><time>2020-10-06T23:48:50Z</time><extensions><speed>0.450000</speed><course>287.578125</course><hAcc>5.000000</hAcc><vAcc>4.000000</vAcc></extensions></trkpt>
      <trkpt lon="-123.283436" lat="44.576502"><ele>72.251633</ele><time>2020-10-06T23:48:51Z</time><extensions><speed>0.450000</speed><course>292.148438</course><hAcc>5.000000</hAcc><vAcc>4.000000</vAcc></extensions></trkpt>
      <trkpt lon="-123.283435" lat="44.576503"><ele>72.185188</ele><time>2020-10-06T23:48:52Z</time><extensions><speed>0.340000</speed><course>318.164062</course><hAcc>5.000000</hAcc><vAcc>4.000000</vAcc></extensions></trkpt>
      <trkpt lon="-123.283435" lat="44.576503"><ele>72.188980</ele><time>2020-10-06T23:48:53Z</time><extensions><speed>0.000000</speed><course>350.859375</course><hAcc>5.000000</hAcc><vAcc>4.000000</vAcc></extensions></trkpt>
      <trkpt lon="-123.283425" lat="44.576503"><ele>72.175781</ele><time>2020-10-06T23:48:54Z</time><extensions><speed>0.320000</speed><course>55.546875</course><hAcc>5.000000</hAcc><vAcc>4.000000</vAcc></extensions></trkpt>
      <trkpt lon="-123.283417" lat="44.576500"><ele>72.178650</ele><time>2020-10-06T23:48:55Z</time><extensions><speed>0.230000</speed><course>132.539062</course><hAcc>5.000000</hAcc><vAcc>4.000000</vAcc></extensions></trkpt>
      <trkpt lon="-123.283411" lat="44.576497"><ele>72.213806</ele><time>2020-10-06T23:48:56Z</time><extensions><speed>0.170000</speed><course>132.539062</course><hAcc>5.000000</hAcc><vAcc>4.000000</vAcc></extensions></trkpt>
      <trkpt lon="-123.283411" lat="44.576497"><ele>72.159546</ele><time>2020-10-06T23:48:57Z</time><extensions><speed>0.000000</speed><course>132.539062</course><hAcc>5.000000</hAcc><vAcc>4.000000</vAcc></extensions></trkpt>
      <trkpt lon="-123.283411" lat="44.576497"><ele>72.215469</ele><time>2020-10-06T23:48:58Z</time><extensions><speed>0.000000</speed><course>132.539062</course><hAcc>5.000000</hAcc><vAcc>4.000000</vAcc></extensions></trkpt>
      <trkpt lon="-123.283411" lat="44.576497"><ele>72.180725</ele><time>2020-10-06T23:48:59Z</time><extensions><speed>0.000000</speed><course>132.539062</course><hAcc>5.000000</hAcc><vAcc>4.000000</vAcc></extensions></trkpt>
      <trkpt lon="-123.283411" lat="44.576497"><ele>72.183304</ele><time>2020-10-06T23:49:00Z</time><extensions><speed>0.000000</speed><course>132.539062</course><hAcc>5.000000</hAcc><vAcc>4.000000</vAcc></extensions></trkpt>
      <trkpt lon="-123.283411" lat="44.576497"><ele>72.241577</ele><time>2020-10-06T23:49:01Z</time><extensions><speed>0.000000</speed><course>132.539062</course><hAcc>5.000000</hAcc><vAcc>4.000000</vAcc></extensions></trkpt>
      <trkpt lon="-123.283411" lat="44.576497"><ele>72.302765</ele><time>2020-10-06T23:49:02Z</time><extensions><speed>0.000000</speed><course>132.539062</course><hAcc>5.000000</hAcc><vAcc>4.000000</vAcc></extensions></trkpt>
      <trkpt lon="-123.283411" lat="44.576497"><ele>72.219635</ele><time>2020-10-06T23:49:03Z</time><extensions><speed>0.000000</speed><course>132.539062</course><hAcc>5.000000</hAcc><vAcc>4.000000</vAcc></extensions></trkpt>
      <trkpt lon="-123.283411" lat="44.576497"><ele>72.148491</ele><time>2020-10-06T23:49:04Z</time><extensions><speed>0.000000</speed><course>156.445312</course><hAcc>5.000000</hAcc><vAcc>4.000000</vAcc></extensions></trkpt>
      <trkpt lon="-123.283411" lat="44.576497"><ele>72.299202</ele><time>2020-10-06T23:49:05Z</time><extensions><speed>0.000000</speed><course>297.070312</course><hAcc>5.000000</hAcc><vAcc>4.000000</vAcc></extensions></trkpt>
      <trkpt lon="-123.283411" lat="44.576497"><ele>72.135956</ele><time>2020-10-06T23:49:06Z</time><extensions><speed>0.000000</speed><course>324.492188</course><hAcc>5.000000</hAcc><vAcc>4.000000</vAcc></extensions></trkpt>
      <trkpt lon="-123.283411" lat="44.576497"><ele>72.153831</ele><time>2020-10-06T23:49:07Z</time><extensions><speed>0.000000</speed><course>320.273438</course><hAcc>5.000000</hAcc><vAcc>4.000000</vAcc></extensions></trkpt>
      <trkpt lon="-123.283411" lat="44.576497"><ele>72.181885</ele><time>2020-10-06T23:49:08Z</time><extensions><speed>0.000000</speed><course>319.921875</course><hAcc>5.000000</hAcc><vAcc>4.000000</vAcc></extensions></trkpt>
      <trkpt lon="-123.283411" lat="44.576497"><ele>72.181175</ele><time>2020-10-06T23:49:09Z</time><extensions><speed>0.000000</speed><course>323.085938</course><hAcc>5.000000</hAcc><vAcc>3.000000</vAcc></extensions></trkpt>
    </trkseg>
  </trk>
</gpx>