<?xml version="1.0" encoding="UTF-8"?>
<gpx version="1.1" creator="Apple Health Export" xmlns="http://www.topografix.com/GPX/1/1" xmlns:xsi="http://www.w3.org/2001/XMLSchema-instance" xsi:schemaLocation="http://www.topografix.com/GPX/1/1 http://www.topografix.com/GPX/1/1/gpx.xsd">
  <metadata>
    <time>2021-02-21T19:24:47Z</time>
  </metadata>
  <trk>
    <name>Route 2020-10-03 1:00pm</name>
    <trkseg>
      <trkpt lon="-123.283676" lat="44.576807"><ele>33.568150</ele><time>2020-10-03T19:53:54Z</time><extensions><speed>0.000000</speed><course>-1.000000</course><hAcc>47.997478</hAcc><vAcc>26.106930</vAcc></extensions></trkpt>
      <trkpt lon="-123.283273" lat="44.576558"><ele>72.815529</ele><time>2020-10-03T19:53:55Z</time><extensions><speed>2.511023</speed><course>71.853683</course><hAcc>11.999370</hAcc><vAcc>17.655212</vAcc></extensions></trkpt>
      <trkpt lon="-123.283258" lat="44.576541"><ele>74.919899</ele><time>2020-10-03T19:53:56Z</time><extensions><speed>2.511023</speed><course>110.705177</course><hAcc>11.999370</hAcc><vAcc>20.710283</vAcc></extensions></trkpt>
      <trkpt lon="-123.283205" lat="44.576494"><ele>74.063698</ele><time>2020-10-03T19:53:57Z</time><extensions><speed>2.906822</speed><course>148.952530</course><hAcc>15.999160</hAcc><vAcc>2.400000</vAcc></extensions></trkpt>
      <trkpt lon="-123.283368" lat="44.576148"><ele>72.320015</ele><time>2020-10-03T19:54:04Z</time><extensions><speed>7.020000</speed><course>182.460938</course><hAcc>5.000000</hAcc><vAcc>12.000000</vAcc></extensions></trkpt>
      <trkpt lon="-123.283349" lat="44.575955"><ele>66.992989</ele><time>2020-10-03T19:54:06Z</time><extensions><speed>7.410000</speed><course>179.296875</course><hAcc>5.000000</hAcc><vAcc>8.000000</vAcc></extensions></trkpt>
      <trkpt lon="-123.283343" lat="44.575877"><ele>73.223579</ele><time>2020-10-03T19:54:07Z</time><extensions><speed>7.610000</speed><course>183.515625</course><hAcc>5.000000</hAcc><vAcc>6.000000</vAcc></extensions></trkpt>
      <trkpt lon="-123.283215" lat="44.575952"><ele>73.575203</ele><time>2020-10-03T19:54:08Z</time><extensions><speed>8.280000</speed><course>175.781250</course><hAcc>30.000000</hAcc><vAcc>3.000000</vAcc></extensions></trkpt>
      <trkpt lon="-123.283331" lat="44.575794"><ele>74.312752</ele><time>2020-10-03T19:54:09Z</time><extensions><speed>7.950000</speed><course>182.109375</course><hAcc>5.000000</hAcc><vAcc>3.000000</vAcc></extensions></trkpt>
      <trkpt lon="-123.283379" lat="44.575747"><ele>74.244148</ele><time>2020-10-03T19:54:10Z</time><extensions><speed>8.120000</speed><course>181.054688</course><hAcc>5.000000</hAcc><vAcc>3.000000</vAcc></extensions></trkpt>
      <trkpt lon="-123.283381" lat="44.575670"><ele>74.365852</ele><time>2020-10-03T19:54:11Z</time><extensions><speed>8.150000</speed><course>182.812500</course><hAcc>5.000000</hAcc><vAcc>3.000000</vAcc></extensions></trkpt>
      <trkpt lon="-123.283357" lat="44.575584"><ele>74.735847</ele><time>2020-10-03T19:54:12Z</time><extensions><speed>8.350000</speed><course>183.164062</course><hAcc>5.000000</hAcc><vAcc>3.000000</vAcc></extensions></trkpt>
      <trkpt lon="-123.283359" lat="44.575504"><ele>74.752205</ele><time>2020-10-03T19:54:13Z</time><extensions><speed>8.410000</speed><course>182.109375</course><hAcc>5.000000</hAcc><vAcc>3.000000</vAcc></extensions></trkpt>
      <trkpt lon="-123.283365" lat="44.575419"><ele>74.912605</ele><time>2020-10-03T19:54:14Z</time><extensions><speed>8.640000</speed><course>182.109375</course><hAcc>5.000000</hAcc><vAcc>3.000000</vAcc></extensions></trkpt>
      <trkpt lon="-123.283369" lat="44.575339"><ele>74.862495</ele><time>2020-10-03T19:54:15Z</time><extensions><speed>8.640000</speed><course>180.351562</course><hAcc>5.000000</hAcc><vAcc>3.000000</vAcc></extensions></trkpt>
      <trkpt lon="-123.283371" lat="44.575269"><ele>75.031624</ele><time>2020-10-03T19:54:16Z</time><extensions><speed>8.290000</speed><course>180.703125</course><hAcc>5.000000</hAcc><vAcc>3.000000</vAcc></extensions></trkpt>
      <trkpt lon="-123.283392" lat="44.575198"><ele>75.005440</ele><time>2020-10-03T19:54:17Z</time><extensions><speed>7.890000</speed><course>189.140625</course><hAcc>5.000000</hAcc><vAcc>3.000000</vAcc></extensions></trkpt>
      <trkpt lon="-123.283410" lat="44.575129"><ele>75.257942</ele><time>2020-10-03T19:54:18Z</time><extensions><speed>7.690000</speed><course>187.031250</course><hAcc>5.000000</hAcc><vAcc>3.000000</vAcc></extensions></trkpt>
      <trkpt lon="-123.283426" lat="44.575066"><ele>75.779305</ele><time>2020-10-03T19:54:19Z</time><extensions><speed>7.130000</speed><course>186.328125</course><hAcc>5.000000</hAcc><vAcc>3.000000</vAcc></extensions></trkpt>
      <trkpt lon="-123.283436" lat="44.575006"><ele>75.679634</ele><time>2020-10-03T19:54:20Z</time><extensions><speed>6.900000</speed><course>185.273438</course><hAcc>5.000000</hAcc><vAcc>3.000000</vAcc></extensions></trkpt>
      <trkpt lon="-123.283433" lat="44.574944"><ele>75.849312</ele><time>2020-10-03T19:54:21Z</time><extensions><speed>6.640000</speed><course>180.000000</course><hAcc>5.000000</hAcc><vAcc>3.000000</vAcc></extensions></trkpt>
      <trkpt lon="-123.283435" lat="44.574891"><ele>75.722115</ele><time>2020-10-03T19:54:22Z</time><extensions><speed>6.300000</speed><course>180.000000</course><hAcc>5.000000</hAcc><vAcc>3.000000</vAcc></extensions></trkpt>
      <trkpt lon="-123.283435" lat="44.574845"><ele>75.858833</ele><time>2020-10-03T19:54:23Z</time><extensions><speed>5.750000</speed><course>181.406250</course><hAcc>5.000000</hAcc><vAcc>3.000000</vAcc></extensions></trkpt>
      <trkpt lon="-123.283425" lat="44.574799"><ele>75.961800</ele><time>2020-10-03T19:54:24Z</time><extensions><speed>5.330000</speed><course>179.648438</course><hAcc>5.000000</hAcc><vAcc>3.000000</vAcc></extensions></trkpt>
      <trkpt lon="-123.283430" lat="44.574741"><ele>75.905952</ele><time>2020-10-03T19:54:25Z</time><extensions><speed>4.950000</speed><course>182.812500</course><hAcc>5.000000</hAcc><vAcc>3.000000</vAcc></extensions></trkpt>
      <trkpt lon="-123.283409" lat="44.574696"><ele>75.755013</ele><time>2020-10-03T19:54:26Z</time><extensions><speed>5.110000</speed><course>181.406250</course><hAcc>5.000000</hAcc><vAcc>3.000000</vAcc></extensions></trkpt>
      <trkpt lon="-123.283410" lat="44.574655"><ele>75.874153</ele><time>2020-10-03T19:54:27Z</time><extensions><speed>5.140000</speed><course>180.703125</course><hAcc>5.000000</hAcc><vAcc>3.000000</vAcc></extensions></trkpt>
      <trkpt lon="-123.283395" lat="44.574606"><ele>75.771919</ele><time>2020-10-03T19:54:28Z</time><extensions><speed>5.470000</speed><course>181.757812</course><hAcc>5.000000</hAcc><vAcc>3.000000</vAcc></extensions></trkpt>
      <trkpt lon="-123.283385" lat="44.574558"><ele>75.953377</ele><time>2020-10-03T19:54:29Z</time><extensions><speed>5.470000</speed><course>181.406250</course><hAcc>5.000000</hAcc><vAcc>3.000000</vAcc></extensions></trkpt>
      <trkpt lon="-123.283389" lat="44.574508"><ele>75.710152</ele><time>2020-10-03T19:54:30Z</time><extensions><speed>5.630000</speed><course>181.757812</course><hAcc>5.000000</hAcc><vAcc>3.000000</vAcc></extensions></trkpt>
      <trkpt lon="-123.283392" lat="44.574457"><ele>75.711861</ele><time>2020-10-03T19:54:31Z</time><extensions><speed>5.630000</speed><course>181.757812</course><hAcc>5.000000</hAcc><vAcc>3.000000</vAcc></extensions></trkpt>
      <trkpt lon="-123.283448" lat="44.574403"><ele>77.382881</ele><time>2020-10-03T19:54:32Z</time><extensions><speed>5.630000</speed><course>184.218750</course><hAcc>5.000000</hAcc><vAcc>3.000000</vAcc></extensions></trkpt>
      <trkpt lon="-123.283458" lat="44.574355"><ele>77.554024</ele><time>2020-10-03T19:54:33Z</time><extensions><speed>5.200000</speed><course>184.921875</course><hAcc>5.000000</hAcc><vAcc>3.000000</vAcc></extensions></trkpt>
      <trkpt lon="-123.283449" lat="44.574313"><ele>77.679085</ele><time>2020-10-03T19:54:34Z</time><extensions><speed>5.170000</speed><course>181.054688</course><hAcc>5.000000</hAcc><vAcc>3.000000</vAcc></extensions></trkpt>
      <trkpt lon="-123.283450" lat="44.574266"><ele>77.590157</ele><time>2020-10-03T19:54:35Z</time><extensions><speed>5.120000</speed><course>181.054688</course><hAcc>5.000000</hAcc><vAcc>3.000000</vAcc></extensions></trkpt>
      <trkpt lon="-123.283454" lat="44.574209"><ele>77.700325</ele><time>2020-10-03T19:54:36Z</time><extensions><speed>5.980000</speed><course>178.945312</course><hAcc>5.000000</hAcc><vAcc>3.000000</vAcc></extensions></trkpt>
      <trkpt lon="-123.283452" lat="44.574155"><ele>77.706795</ele><time>2020-10-03T19:54:37Z</time><extensions><speed>5.990000</speed><course>178.945312</course><hAcc>5.000000</hAcc><vAcc>3.000000</vAcc></extensions></trkpt>
      <trkpt lon="-123.283475" lat="44.574121"><ele>77.815376</ele><time>2020-10-03T19:54:38Z</time><extensions><speed>5.980000</speed><course>192.304688</course><hAcc>5.000000</hAcc><vAcc>3.000000</vAcc></extensions></trkpt>
      <trkpt lon="-123.283433" lat="44.574026"><ele>76.647285</ele><time>2020-10-03T19:54:39Z</time><extensions><speed>5.990000</speed><course>181.054688</course><hAcc>5.000000</hAcc><vAcc>4.000000</vAcc></extensions></trkpt>
      <trkpt lon="-123.283454" lat="44.573965"><ele>76.339668</ele><time>2020-10-03T19:54:40Z</time><extensions><speed>6.260000</speed><course>183.867188</course><hAcc>5.000000</hAcc><vAcc>4.000000</vAcc></extensions></trkpt>
      <trkpt lon="-123.283463" lat="44.573902"><ele>75.802071</ele><time>2020-10-03T19:54:41Z</time><extensions><speed>6.770000</speed><course>185.625000</course><hAcc>5.000000</hAcc><vAcc>4.000000</vAcc></extensions></trkpt>
      <trkpt lon="-123.283459" lat="44.573845"><ele>76.336067</ele><time>2020-10-03T19:54:42Z</time><extensions><speed>7.620000</speed><course>181.054688</course><hAcc>5.000000</hAcc><vAcc>4.000000</vAcc></extensions></trkpt>
      <trkpt lon="-123.283460" lat="44.573785"><ele>76.320442</ele><time>2020-10-03T19:54:43Z</time><extensions><speed>7.150000</speed><course>182.109375</course><hAcc>5.000000</hAcc><vAcc>4.000000</vAcc></extensions></trkpt>
      <trkpt lon="-123.283465" lat="44.573722"><ele>76.218025</ele><time>2020-10-03T19:54:44Z</time><extensions><speed>7.150000</speed><course>182.460938</course><hAcc>5.000000</hAcc><vAcc>4.000000</vAcc></extensions></trkpt>
      <trkpt lon="-123.283472" lat="44.573676"><ele>76.004707</ele><time>2020-10-03T19:54:45Z</time><extensions><speed>7.120000</speed><course>180.703125</course><hAcc>5.000000</hAcc><vAcc>4.000000</vAcc></extensions></trkpt>
      <trkpt lon="-123.283482" lat="44.573616"><ele>76.080818</ele><time>2020-10-03T19:54:46Z</time><extensions><speed>6.680000</speed><course>183.164062</course><hAcc>5.000000</hAcc><vAcc>4.000000</vAcc></extensions></trkpt>
      <trkpt lon="-123.283478" lat="44.573554"><ele>75.995125</ele><time>2020-10-03T19:54:47Z</time><extensions><speed>6.820000</speed><course>178.945312</course><hAcc>5.000000</hAcc><vAcc>4.000000</vAcc></extensions></trkpt>
      <trkpt lon="-123.283477" lat="44.573493"><ele>75.991035</ele><time>2020-10-03T19:54:48Z</time><extensions><speed>6.820000</speed><course>178.945312</course><hAcc>5.000000</hAcc><vAcc>4.000000</vAcc></extensions></trkpt>
      <trkpt lon="-123.283471" lat="44.573431"><ele>75.839668</ele><time>2020-10-03T19:54:49Z</time><extensions><speed>6.760000</speed><course>184.921875</course><hAcc>5.000000</hAcc><vAcc>4.000000</vAcc></extensions></trkpt>
      <trkpt lon="-123.283489" lat="44.573364"><ele>75.367317</ele><time>2020-10-03T19:54:50Z</time><extensions><speed>6.760000</speed><course>182.460938</course><hAcc>5.000000</hAcc><vAcc>4.000000</vAcc></extensions></trkpt>
      <trkpt lon="-123.283502" lat="44.573304"><ele>74.843513</ele><time>2020-10-03T19:54:51Z</time><extensions><speed>6.580000</speed><course>183.164062</course><hAcc>5.000000</hAcc><vAcc>3.000000</vAcc></extensions></trkpt>
      <trkpt lon="-123.283502" lat="44.573248"><ele>74.582222</ele><time>2020-10-03T19:54:52Z</time><extensions><speed>6.420000</speed><course>180.000000</course><hAcc>5.000000</hAcc><vAcc>3.000000</vAcc></extensions></trkpt>
      <trkpt lon="-123.283511" lat="44.573197"><ele>74.637276</ele><time>2020-10-03T19:54:53Z</time><extensions><speed>5.880000</speed><course>184.218750</course><hAcc>5.000000</hAcc><vAcc>3.000000</vAcc></extensions></trkpt>
      <trkpt lon="-123.283514" lat="44.573132"><ele>74.446236</ele><time>2020-10-03T19:54:54Z</time><extensions><speed>6.180000</speed><course>183.515625</course><hAcc>5.000000</hAcc><vAcc>3.000000</vAcc></extensions></trkpt>
      <trkpt lon="-123.283519" lat="44.573077"><ele>74.463692</ele><time>2020-10-03T19:54:55Z</time><extensions><speed>6.170000</speed><course>183.515625</course><hAcc>5.000000</hAcc><vAcc>3.000000</vAcc></extensions></trkpt>
      <trkpt lon="-123.283514" lat="44.573023"><ele>74.181099</ele><time>2020-10-03T19:54:56Z</time><extensions><speed>6.380000</speed><course>181.406250</course><hAcc>5.000000</hAcc><vAcc>3.000000</vAcc></extensions></trkpt>
      <trkpt lon="-123.283520" lat="44.572970"><ele>74.230659</ele><time>2020-10-03T19:54:57Z</time><extensions><speed>6.170000</speed><course>183.515625</course><hAcc>5.000000</hAcc><vAcc>3.000000</vAcc></extensions></trkpt>
      <trkpt lon="-123.283518" lat="44.572909"><ele>74.112068</ele><time>2020-10-03T19:54:58Z</time><extensions><speed>6.070000</speed><course>181.054688</course><hAcc>5.000000</hAcc><vAcc>3.000000</vAcc></extensions></trkpt>
      <trkpt lon="-123.283521" lat="44.572856"><ele>74.298409</ele><time>2020-10-03T19:54:59Z</time><extensions><speed>5.820000</speed><course>180.000000</course><hAcc>5.000000</hAcc><vAcc>3.000000</vAcc></extensions></trkpt>
      <trkpt lon="-123.283533" lat="44.572810"><ele>74.710030</ele><time>2020-10-03T19:55:00Z</time><extensions><speed>5.820000</speed><course>184.218750</course><hAcc>5.000000</hAcc><vAcc>3.000000</vAcc></extensions></trkpt>
      <trkpt lon="-123.283519" lat="44.572762"><ele>75.566597</ele><time>2020-10-03T19:55:01Z</time><extensions><speed>5.670000</speed><course>188.789062</course><hAcc>5.000000</hAcc><vAcc>3.000000</vAcc></extensions></trkpt>
      <trkpt lon="-123.283530" lat="44.572712"><ele>75.625801</ele><time>2020-10-03T19:55:02Z</time><extensions><speed>5.480000</speed><course>188.789062</course><hAcc>5.000000</hAcc><vAcc>3.000000</vAcc></extensions></trkpt>
      <trkpt lon="-123.283530" lat="44.572649"><ele>75.538765</ele><time>2020-10-03T19:55:03Z</time><extensions><speed>5.490000</speed><course>182.460938</course><hAcc>5.000000</hAcc><vAcc>3.000000</vAcc></extensions></trkpt>
      <trkpt lon="-123.283530" lat="44.572599"><ele>75.617867</ele><time>2020-10-03T19:55:04Z</time><extensions><speed>5.580000</speed><course>182.460938</course><hAcc>5.000000</hAcc><vAcc>3.000000</vAcc></extensions></trkpt>
      <trkpt lon="-123.283527" lat="44.572547"><ele>74.493660</ele><time>2020-10-03T19:55:05Z</time><extensions><speed>5.490000</speed><course>180.000000</course><hAcc>5.000000</hAcc><vAcc>3.000000</vAcc></extensions></trkpt>
      <trkpt lon="-123.283527" lat="44.572498"><ele>74.625496</ele><time>2020-10-03T19:55:06Z</time><extensions><speed>5.450000</speed><course>180.000000</course><hAcc>5.000000</hAcc><vAcc>3.000000</vAcc></extensions></trkpt>
      <trkpt lon="-123.283538" lat="44.572440"><ele>75.142647</ele><time>2020-10-03T19:55:07Z</time><extensions><speed>5.770000</speed><course>186.328125</course><hAcc>5.000000</hAcc><vAcc>3.000000</vAcc></extensions></trkpt>
      <trkpt lon="-123.283528" lat="44.572407"><ele>75.451180</ele><time>2020-10-03T19:55:08Z</time><extensions><speed>6.090000</speed><course>181.757812</course><hAcc>5.000000</hAcc><vAcc>3.000000</vAcc></extensions></trkpt>
      <trkpt lon="-123.283530" lat="44.572352"><ele>75.541695</ele><time>2020-10-03T19:55:09Z</time><extensions><speed>6.090000</speed><course>181.757812</course><hAcc>5.000000</hAcc><vAcc>3.000000</vAcc></extensions></trkpt>
      <trkpt lon="-123.283538" lat="44.572302"><ele>75.220772</ele><time>2020-10-03T19:55:10Z</time><extensions><speed>6.090000</speed><course>180.703125</course><hAcc>5.000000</hAcc><vAcc>3.000000</vAcc></extensions></trkpt>
      <trkpt lon="-123.283531" lat="44.572254"><ele>74.642586</ele><time>2020-10-03T19:55:11Z</time><extensions><speed>5.800000</speed><course>172.265625</course><hAcc>5.000000</hAcc><vAcc>3.000000</vAcc></extensions></trkpt>
      <trkpt lon="-123.283537" lat="44.572205"><ele>75.086372</ele><time>2020-10-03T19:55:12Z</time><extensions><speed>5.800000</speed><course>191.953125</course><hAcc>5.000000</hAcc><vAcc>3.000000</vAcc></extensions></trkpt>
      <trkpt lon="-123.283553" lat="44.572157"><ele>74.517586</ele><time>2020-10-03T19:55:13Z</time><extensions><speed>5.740000</speed><course>193.359375</course><hAcc>5.000000</hAcc><vAcc>3.000000</vAcc></extensions></trkpt>
      <trkpt lon="-123.283570" lat="44.572107"><ele>74.689034</ele><time>2020-10-03T19:55:14Z</time><extensions><speed>5.740000</speed><course>193.359375</course><hAcc>5.000000</hAcc><vAcc>3.000000</vAcc></extensions></trkpt>
      <trkpt lon="-123.283532" lat="44.572040"><ele>75.195625</ele><time>2020-10-03T19:55:15Z</time><extensions><speed>5.740000</speed><course>185.625000</course><hAcc>5.000000</hAcc><vAcc>4.000000</vAcc></extensions></trkpt>
      <trkpt lon="-123.283539" lat="44.571987"><ele>75.333076</ele><time>2020-10-03T19:55:16Z</time><extensions><speed>5.950000</speed><course>185.625000</course><hAcc>5.000000</hAcc><vAcc>4.000000</vAcc></extensions></trkpt>
      <trkpt lon="-123.283538" lat="44.571907"><ele>75.593208</ele><time>2020-10-03T19:55:17Z</time><extensions><speed>6.840000</speed><course>182.460938</course><hAcc>5.000000</hAcc><vAcc>4.000000</vAcc></extensions></trkpt>
      <trkpt lon="-123.283524" lat="44.571840"><ele>75.353951</ele><time>2020-10-03T19:55:18Z</time><extensions><speed>6.650000</speed><course>172.617188</course><hAcc>5.000000</hAcc><vAcc>4.000000</vAcc></extensions></trkpt>
      <trkpt lon="-123.283495" lat="44.571797"><ele>75.323982</ele><time>2020-10-03T19:55:19Z</time><extensions><speed>6.840000</speed><course>154.687500</course><hAcc>5.000000</hAcc><vAcc>3.000000</vAcc></extensions></trkpt>
      <trkpt lon="-123.283427" lat="44.571741"><ele>76.042854</ele><time>2020-10-03T19:55:20Z</time><extensions><speed>6.670000</speed><course>144.492188</course><hAcc>5.000000</hAcc><vAcc>4.000000</vAcc></extensions></trkpt>
      <trkpt lon="-123.283387" lat="44.571680"><ele>76.570015</ele><time>2020-10-03T19:55:21Z</time><extensions><speed>7.360000</speed><course>139.921875</course><hAcc>5.000000</hAcc><vAcc>4.000000</vAcc></extensions></trkpt>
      <trkpt lon="-123.283328" lat="44.571629"><ele>76.588264</ele><time>2020-10-03T19:55:22Z</time><extensions><speed>7.360000</speed><course>139.921875</course><hAcc>5.000000</hAcc><vAcc>4.000000</vAcc></extensions></trkpt>
      <trkpt lon="-123.283285" lat="44.571594"><ele>76.378792</ele><time>2020-10-03T19:55:23Z</time><extensions><speed>7.360000</speed><course>142.382812</course><hAcc>5.000000</hAcc><vAcc>4.000000</vAcc></extensions></trkpt>
      <trkpt lon="-123.283226" lat="44.571561"><ele>76.395271</ele><time>2020-10-03T19:55:24Z</time><extensions><speed>6.420000</speed><course>136.054688</course><hAcc>5.000000</hAcc><vAcc>4.000000</vAcc></extensions></trkpt>
      <trkpt lon="-123.283175" lat="44.571522"><ele>76.511055</ele><time>2020-10-03T19:55:25Z</time><extensions><speed>5.890000</speed><course>136.054688</course><hAcc>5.000000</hAcc><vAcc>4.000000</vAcc></extensions></trkpt>
      <trkpt lon="-123.283142" lat="44.571481"><ele>76.709846</ele><time>2020-10-03T19:55:26Z</time><extensions><speed>4.800000</speed><course>146.953125</course><hAcc>5.000000</hAcc><vAcc>4.000000</vAcc></extensions></trkpt>
      <trkpt lon="-123.283119" lat="44.571428"><ele>76.601692</ele><time>2020-10-03T19:55:27Z</time><extensions><speed>5.370000</speed><course>155.390625</course><hAcc>5.000000</hAcc><vAcc>4.000000</vAcc></extensions></trkpt>
      <trkpt lon="-123.283091" lat="44.571384"><ele>76.673653</ele><time>2020-10-03T19:55:28Z</time><extensions><speed>5.370000</speed><course>155.390625</course><hAcc>5.000000</hAcc><vAcc>4.000000</vAcc></extensions></trkpt>
      <trkpt lon="-123.283019" lat="44.571341"><ele>76.159004</ele><time>2020-10-03T19:55:29Z</time><extensions><speed>5.370000</speed><course>147.304688</course><hAcc>5.000000</hAcc><vAcc>4.000000</vAcc></extensions></trkpt>
      <trkpt lon="-123.282975" lat="44.571298"><ele>76.508553</ele><time>2020-10-03T19:55:30Z</time><extensions><speed>5.370000</speed><course>155.742188</course><hAcc>5.000000</hAcc><vAcc>4.000000</vAcc></extensions></trkpt>
      <trkpt lon="-123.282948" lat="44.571244"><ele>76.622932</ele><time>2020-10-03T19:55:31Z</time><extensions><speed>5.570000</speed><course>155.039062</course><hAcc>5.000000</hAcc><vAcc>4.000000</vAcc></extensions></trkpt>
      <trkpt lon="-123.282934" lat="44.571210"><ele>76.435188</ele><time>2020-10-03T19:55:32Z</time><extensions><speed>4.210000</speed><course>159.609375</course><hAcc>5.000000</hAcc><vAcc>4.000000</vAcc></extensions></trkpt>
      <trkpt lon="-123.282906" lat="44.571167"><ele>76.102058</ele><time>2020-10-03T19:55:33Z</time><extensions><speed>4.460000</speed><course>158.203125</course><hAcc>5.000000</hAcc><vAcc>4.000000</vAcc></extensions></trkpt>
      <trkpt lon="-123.282830" lat="44.571120"><ele>76.240669</ele><time>2020-10-03T19:55:34Z</time><extensions><speed>4.460000</speed><course>149.062500</course><hAcc>5.000000</hAcc><vAcc>4.000000</vAcc></extensions></trkpt>
      <trkpt lon="-123.282769" lat="44.571085"><ele>76.227913</ele><time>2020-10-03T19:55:35Z</time><extensions><speed>5.540000</speed><course>137.812500</course><hAcc>5.000000</hAcc><vAcc>4.000000</vAcc></extensions></trkpt>
      <trkpt lon="-123.282711" lat="44.571042"><ele>75.791939</ele><time>2020-10-03T19:55:36Z</time><extensions><speed>5.640000</speed><course>137.812500</course><hAcc>5.000000</hAcc><vAcc>4.000000</vAcc></extensions></trkpt>
      <trkpt lon="-123.282661" lat="44.570997"><ele>75.590950</ele><time>2020-10-03T19:55:37Z</time><extensions><speed>6.030000</speed><course>137.460938</course><hAcc>5.000000</hAcc><vAcc>4.000000</vAcc></extensions></trkpt>
      <trkpt lon="-123.282639" lat="44.570971"><ele>76.313423</ele><time>2020-10-03T19:55:38Z</time><extensions><speed>6.030000</speed><course>156.093750</course><hAcc>5.000000</hAcc><vAcc>4.000000</vAcc></extensions></trkpt>
      <trkpt lon="-123.282612" lat="44.570944"><ele>77.104439</ele><time>2020-10-03T19:55:39Z</time><extensions><speed>4.620000</speed><course>145.546875</course><hAcc>5.000000</hAcc><vAcc>4.000000</vAcc></extensions></trkpt>
      <trkpt lon="-123.282592" lat="44.570910"><ele>76.938240</ele><time>2020-10-03T19:55:40Z</time><extensions><speed>4.290000</speed><course>158.554688</course><hAcc>5.000000</hAcc><vAcc>4.000000</vAcc></extensions></trkpt>
      <trkpt lon="-123.282572" lat="44.570870"><ele>77.173103</ele><time>2020-10-03T19:55:41Z</time><extensions><speed>4.100000</speed><course>163.476562</course><hAcc>5.000000</hAcc><vAcc>4.000000</vAcc></extensions></trkpt>
      <trkpt lon="-123.282558" lat="44.570834"><ele>77.226875</ele><time>2020-10-03T19:55:42Z</time><extensions><speed>4.100000</speed><course>163.476562</course><hAcc>5.000000</hAcc><vAcc>4.000000</vAcc></extensions></trkpt>
      <trkpt lon="-123.282473" lat="44.570805"><ele>77.237007</ele><time>2020-10-03T19:55:43Z</time><extensions><speed>4.100000</speed><course>134.648438</course><hAcc>5.000000</hAcc><vAcc>4.000000</vAcc></extensions></trkpt>
      <trkpt lon="-123.282421" lat="44.570768"><ele>77.113167</ele><time>2020-10-03T19:55:44Z</time><extensions><speed>4.570000</speed><course>134.648438</course><hAcc>5.000000</hAcc><vAcc>4.000000</vAcc></extensions></trkpt>
      <trkpt lon="-123.282364" lat="44.570730"><ele>77.117378</ele><time>2020-10-03T19:55:45Z</time><extensions><speed>4.990000</speed><course>136.757812</course><hAcc>5.000000</hAcc><vAcc>4.000000</vAcc></extensions></trkpt>
      <trkpt lon="-123.282323" lat="44.570701"><ele>76.758369</ele><time>2020-10-03T19:55:46Z</time><extensions><speed>4.690000</speed><course>136.406250</course><hAcc>5.000000</hAcc><vAcc>4.000000</vAcc></extensions></trkpt>
      <trkpt lon="-123.282281" lat="44.570670"><ele>77.122871</ele><time>2020-10-03T19:55:47Z</time><extensions><speed>4.690000</speed><course>131.132812</course><hAcc>5.000000</hAcc><vAcc>4.000000</vAcc></extensions></trkpt>
      <trkpt lon="-123.282205" lat="44.570628"><ele>77.640999</ele><time>2020-10-03T19:55:48Z</time><extensions><speed>4.690000</speed><course>133.242188</course><hAcc>5.000000</hAcc><vAcc>4.000000</vAcc></extensions></trkpt>
      <trkpt lon="-123.282160" lat="44.570598"><ele>77.771492</ele><time>2020-10-03T19:55:49Z</time><extensions><speed>4.890000</speed><course>133.242188</course><hAcc>5.000000</hAcc><vAcc>4.000000</vAcc></extensions></trkpt>
      <trkpt lon="-123.282122" lat="44.570556"><ele>78.158150</ele><time>2020-10-03T19:55:50Z</time><extensions><speed>4.890000</speed><course>135.000000</course><hAcc>5.000000</hAcc><vAcc>4.000000</vAcc></extensions></trkpt>
      <trkpt lon="-123.282082" lat="44.570528"><ele>79.211922</ele><time>2020-10-03T19:55:51Z</time><extensions><speed>4.590000</speed><course>146.601562</course><hAcc>5.000000</hAcc><vAcc>4.000000</vAcc></extensions></trkpt>
      <trkpt lon="-123.282051" lat="44.570494"><ele>78.918709</ele><time>2020-10-03T19:55:52Z</time><extensions><speed>4.630000</speed><course>144.140625</course><hAcc>5.000000</hAcc><vAcc>4.000000</vAcc></extensions></trkpt>
      <trkpt lon="-123.282017" lat="44.570460"><ele>78.915413</ele><time>2020-10-03T19:55:53Z</time><extensions><speed>4.630000</speed><course>144.140625</course><hAcc>5.000000</hAcc><vAcc>4.000000</vAcc></extensions></trkpt>
      <trkpt lon="-123.281975" lat="44.570439"><ele>79.126472</ele><time>2020-10-03T19:55:54Z</time><extensions><speed>4.630000</speed><course>136.054688</course><hAcc>5.000000</hAcc><vAcc>3.000000</vAcc></extensions></trkpt>
      <trkpt lon="-123.281933" lat="44.570408"><ele>79.049202</ele><time>2020-10-03T19:55:55Z</time><extensions><speed>4.790000</speed><course>136.406250</course><hAcc>5.000000</hAcc><vAcc>3.000000</vAcc></extensions></trkpt>
      <trkpt lon="-123.281886" lat="44.570369"><ele>79.159615</ele><time>2020-10-03T19:55:56Z</time><extensions><speed>3.910000</speed><course>146.601562</course><hAcc>5.000000</hAcc><vAcc>3.000000</vAcc></extensions></trkpt>
      <trkpt lon="-123.281868" lat="44.570338"><ele>79.294319</ele><time>2020-10-03T19:55:57Z</time><extensions><speed>4.130000</speed><course>149.765625</course><hAcc>5.000000</hAcc><vAcc>3.000000</vAcc></extensions></trkpt>
      <trkpt lon="-123.281809" lat="44.570315"><ele>79.275154</ele><time>2020-10-03T19:55:58Z</time><extensions><speed>3.910000</speed><course>149.414062</course><hAcc>5.000000</hAcc><vAcc>3.000000</vAcc></extensions></trkpt>
      <trkpt lon="-123.281810" lat="44.570275"><ele>79.420418</ele><time>2020-10-03T19:55:59Z</time><extensions><speed>4.130000</speed><course>169.804688</course><hAcc>5.000000</hAcc><vAcc>3.000000</vAcc></extensions></trkpt>
      <trkpt lon="-123.281798" lat="44.570239"><ele>79.185860</ele><time>2020-10-03T19:56:00Z</time><extensions><speed>3.710000</speed><course>163.476562</course><hAcc>5.000000</hAcc><vAcc>3.000000</vAcc></extensions></trkpt>
      <trkpt lon="-123.281766" lat="44.570208"><ele>78.742989</ele><time>2020-10-03T19:56:01Z</time><extensions><speed>3.710000</speed><course>163.476562</course><hAcc>5.000000</hAcc><vAcc>4.000000</vAcc></extensions></trkpt>
      <trkpt lon="-123.281732" lat="44.570180"><ele>78.393318</ele><time>2020-10-03T19:56:02Z</time><extensions><speed>3.590000</speed><course>148.007812</course><hAcc>5.000000</hAcc><vAcc>4.000000</vAcc></extensions></trkpt>
      <trkpt lon="-123.281699" lat="44.570147"><ele>78.369209</ele><time>2020-10-03T19:56:03Z</time><extensions><speed>3.590000</speed><course>152.929688</course><hAcc>5.000000</hAcc><vAcc>4.000000</vAcc></extensions></trkpt>
      <trkpt lon="-123.281665" lat="44.570110"><ele>78.361763</ele><time>2020-10-03T19:56:04Z</time><extensions><speed>4.660000</speed><course>148.710938</course><hAcc>5.000000</hAcc><vAcc>4.000000</vAcc></extensions></trkpt>
      <trkpt lon="-123.281623" lat="44.570074"><ele>78.046700</ele><time>2020-10-03T19:56:05Z</time><extensions><speed>4.850000</speed><course>133.593750</course><hAcc>5.000000</hAcc><vAcc>4.000000</vAcc></extensions></trkpt>
      <trkpt lon="-123.281577" lat="44.570042"><ele>78.332954</ele><time>2020-10-03T19:56:06Z</time><extensions><speed>4.730000</speed><course>138.867188</course><hAcc>5.000000</hAcc><vAcc>4.000000</vAcc></extensions></trkpt>
      <trkpt lon="-123.281528" lat="44.570013"><ele>78.314400</ele><time>2020-10-03T19:56:07Z</time><extensions><speed>4.730000</speed><course>134.296875</course><hAcc>5.000000</hAcc><vAcc>4.000000</vAcc></extensions></trkpt>
      <trkpt lon="-123.281478" lat="44.569982"><ele>77.739876</ele><time>2020-10-03T19:56:08Z</time><extensions><speed>4.730000</speed><course>136.054688</course><hAcc>5.000000</hAcc><vAcc>3.000000</vAcc></extensions></trkpt>
      <trkpt lon="-123.281428" lat="44.569950"><ele>77.903809</ele><time>2020-10-03T19:56:09Z</time><extensions><speed>4.920000</speed><course>135.703125</course><hAcc>5.000000</hAcc><vAcc>3.000000</vAcc></extensions></trkpt>
      <trkpt lon="-123.281379" lat="44.569917"><ele>77.849831</ele><time>2020-10-03T19:56:10Z</time><extensions><speed>4.920000</speed><course>138.515625</course><hAcc>5.000000</hAcc><vAcc>4.000000</vAcc></extensions></trkpt>
      <trkpt lon="-123.281332" lat="44.569884"><ele>77.816338</ele><time>2020-10-03T19:56:11Z</time><extensions><speed>4.770000</speed><course>137.812500</course><hAcc>5.000000</hAcc><vAcc>4.000000</vAcc></extensions></trkpt>
      <trkpt lon="-123.281235" lat="44.569845"><ele>78.027466</ele><time>2020-10-03T19:56:12Z</time><extensions><speed>4.770000</speed><course>140.273438</course><hAcc>5.000000</hAcc><vAcc>4.000000</vAcc></extensions></trkpt>
      <trkpt lon="-123.281175" lat="44.569799"><ele>77.142715</ele><time>2020-10-03T19:56:13Z</time><extensions><speed>4.940000</speed><course>142.734375</course><hAcc>5.000000</hAcc><vAcc>4.000000</vAcc></extensions></trkpt>
      <trkpt lon="-123.281137" lat="44.569770"><ele>76.648590</ele><time>2020-10-03T19:56:14Z</time><extensions><speed>4.600000</speed><course>148.359375</course><hAcc>5.000000</hAcc><vAcc>3.000000</vAcc></extensions></trkpt>
      <trkpt lon="-123.281100" lat="44.569731"><ele>76.400612</ele><time>2020-10-03T19:56:15Z</time><extensions><speed>4.660000</speed><course>140.273438</course><hAcc>5.000000</hAcc><vAcc>3.000000</vAcc></extensions></trkpt>
      <trkpt lon="-123.281057" lat="44.569690"><ele>76.231194</ele><time>2020-10-03T19:56:16Z</time><extensions><speed>4.660000</speed><course>144.140625</course><hAcc>5.000000</hAcc><vAcc>4.000000</vAcc></extensions></trkpt>
      <trkpt lon="-123.281020" lat="44.569656"><ele>76.010826</ele><time>2020-10-03T19:56:17Z</time><extensions><speed>4.770000</speed><course>141.328125</course><hAcc>5.000000</hAcc><vAcc>4.000000</vAcc></extensions></trkpt>
      <trkpt lon="-123.280970" lat="44.569620"><ele>75.980759</ele><time>2020-10-03T19:56:18Z</time><extensions><speed>4.810000</speed><course>143.437500</course><hAcc>5.000000</hAcc><vAcc>4.000000</vAcc></extensions></trkpt>
      <trkpt lon="-123.280932" lat="44.569590"><ele>75.719688</ele><time>2020-10-03T19:56:19Z</time><extensions><speed>4.420000</speed><course>143.437500</course><hAcc>5.000000</hAcc><vAcc>4.000000</vAcc></extensions></trkpt>
      <trkpt lon="-123.280882" lat="44.569557"><ele>75.638969</ele><time>2020-10-03T19:56:20Z</time><extensions><speed>4.960000</speed><course>136.757812</course><hAcc>5.000000</hAcc><vAcc>4.000000</vAcc></extensions></trkpt>
      <trkpt lon="-123.280836" lat="44.569515"><ele>75.764671</ele><time>2020-10-03T19:56:21Z</time><extensions><speed>4.920000</speed><course>144.843750</course><hAcc>5.000000</hAcc><vAcc>4.000000</vAcc></extensions></trkpt>
      <trkpt lon="-123.280781" lat="44.569479"><ele>75.595512</ele><time>2020-10-03T19:56:22Z</time><extensions><speed>4.960000</speed><course>131.484375</course><hAcc>5.000000</hAcc><vAcc>4.000000</vAcc></extensions></trkpt>
      <trkpt lon="-123.280741" lat="44.569449"><ele>75.548470</ele><time>2020-10-03T19:56:23Z</time><extensions><speed>4.800000</speed><course>135.703125</course><hAcc>5.000000</hAcc><vAcc>4.000000</vAcc></extensions></trkpt>
      <trkpt lon="-123.280683" lat="44.569418"><ele>75.573929</ele><time>2020-10-03T19:56:24Z</time><extensions><speed>4.990000</speed><course>130.429688</course><hAcc>5.000000</hAcc><vAcc>4.000000</vAcc></extensions></trkpt>
      <trkpt lon="-123.280635" lat="44.569389"><ele>75.498657</ele><time>2020-10-03T19:56:25Z</time><extensions><speed>4.960000</speed><course>130.429688</course><hAcc>5.000000</hAcc><vAcc>4.000000</vAcc></extensions></trkpt>
      <trkpt lon="-123.280601" lat="44.569366"><ele>78.140022</ele><time>2020-10-03T19:56:26Z</time><extensions><speed>4.960000</speed><course>131.835938</course><hAcc>5.000000</hAcc><vAcc>4.000000</vAcc></extensions></trkpt>
      <trkpt lon="-123.280571" lat="44.569324"><ele>78.136314</ele><time>2020-10-03T19:56:27Z</time><extensions><speed>4.960000</speed><course>139.570312</course><hAcc>5.000000</hAcc><vAcc>4.000000</vAcc></extensions></trkpt>
      <trkpt lon="-123.280512" lat="44.569274"><ele>75.973381</ele><time>2020-10-03T19:56:28Z</time><extensions><speed>5.020000</speed><course>144.843750</course><hAcc>5.000000</hAcc><vAcc>3.000000</vAcc></extensions></trkpt>
      <trkpt lon="-123.280466" lat="44.569237"><ele>75.863274</ele><time>2020-10-03T19:56:29Z</time><extensions><speed>5.020000</speed><course>138.515625</course><hAcc>5.000000</hAcc><vAcc>3.000000</vAcc></extensions></trkpt>
      <trkpt lon="-123.280413" lat="44.569209"><ele>77.691254</ele><time>2020-10-03T19:56:30Z</time><extensions><speed>5.020000</speed><course>133.945312</course><hAcc>5.000000</hAcc><vAcc>3.000000</vAcc></extensions></trkpt>
      <trkpt lon="-123.280360" lat="44.569168"><ele>78.325897</ele><time>2020-10-03T19:56:31Z</time><extensions><speed>5.000000</speed><course>138.515625</course><hAcc>5.000000</hAcc><vAcc>3.000000</vAcc></extensions></trkpt>
      <trkpt lon="-123.280321" lat="44.569135"><ele>77.729530</ele><time>2020-10-03T19:56:32Z</time><extensions><speed>5.060000</speed><course>138.164062</course><hAcc>5.000000</hAcc><vAcc>3.000000</vAcc></extensions></trkpt>
      <trkpt lon="-123.280277" lat="44.569097"><ele>77.936897</ele><time>2020-10-03T19:56:33Z</time><extensions><speed>5.720000</speed><course>141.679688</course><hAcc>5.000000</hAcc><vAcc>3.000000</vAcc></extensions></trkpt>
      <trkpt lon="-123.280227" lat="44.569055"><ele>77.542542</ele><time>2020-10-03T19:56:34Z</time><extensions><speed>5.720000</speed><course>141.328125</course><hAcc>5.000000</hAcc><vAcc>3.000000</vAcc></extensions></trkpt>
      <trkpt lon="-123.280180" lat="44.569001"><ele>77.862968</ele><time>2020-10-03T19:56:35Z</time><extensions><speed>5.390000</speed><course>140.625000</course><hAcc>5.000000</hAcc><vAcc>4.000000</vAcc></extensions></trkpt>
      <trkpt lon="-123.280142" lat="44.568951"><ele>77.659370</ele><time>2020-10-03T19:56:36Z</time><extensions><speed>5.390000</speed><course>158.554688</course><hAcc>5.000000</hAcc><vAcc>4.000000</vAcc></extensions></trkpt>
      <trkpt lon="-123.280117" lat="44.568908"><ele>77.487602</ele><time>2020-10-03T19:56:37Z</time><extensions><speed>5.310000</speed><course>157.851562</course><hAcc>5.000000</hAcc><vAcc>4.000000</vAcc></extensions></trkpt>
      <trkpt lon="-123.280090" lat="44.568861"><ele>77.197319</ele><time>2020-10-03T19:56:38Z</time><extensions><speed>5.950000</speed><course>161.015625</course><hAcc>5.000000</hAcc><vAcc>4.000000</vAcc></extensions></trkpt>
      <trkpt lon="-123.280077" lat="44.568806"><ele>77.443436</ele><time>2020-10-03T19:56:39Z</time><extensions><speed>5.610000</speed><course>172.968750</course><hAcc>5.000000</hAcc><vAcc>4.000000</vAcc></extensions></trkpt>
      <trkpt lon="-123.280068" lat="44.568756"><ele>77.081963</ele><time>2020-10-03T19:56:40Z</time><extensions><speed>5.610000</speed><course>172.968750</course><hAcc>5.000000</hAcc><vAcc>4.000000</vAcc></extensions></trkpt>
      <trkpt lon="-123.280092" lat="44.568696"><ele>77.049072</ele><time>2020-10-03T19:56:41Z</time><extensions><speed>5.920000</speed><course>173.671875</course><hAcc>5.000000</hAcc><vAcc>4.000000</vAcc></extensions></trkpt>
      <trkpt lon="-123.280094" lat="44.568646"><ele>76.935493</ele><time>2020-10-03T19:56:42Z</time><extensions><speed>5.920000</speed><course>178.242188</course><hAcc>5.000000</hAcc><vAcc>4.000000</vAcc></extensions></trkpt>
      <trkpt lon="-123.280092" lat="44.568594"><ele>76.836685</ele><time>2020-10-03T19:56:43Z</time><extensions><speed>5.720000</speed><course>178.242188</course><hAcc>5.000000</hAcc><vAcc>4.000000</vAcc></extensions></trkpt>
      <trkpt lon="-123.280103" lat="44.568536"><ele>77.053497</ele><time>2020-10-03T19:56:44Z</time><extensions><speed>5.720000</speed><course>184.218750</course><hAcc>5.000000</hAcc><vAcc>3.000000</vAcc></extensions></trkpt>
      <trkpt lon="-123.280096" lat="44.568473"><ele>77.286446</ele><time>2020-10-03T19:56:45Z</time><extensions><speed>7.040000</speed><course>177.187500</course><hAcc>5.000000</hAcc><vAcc>3.000000</vAcc></extensions></trkpt>
      <trkpt lon="-123.280096" lat="44.568409"><ele>77.451019</ele><time>2020-10-03T19:56:46Z</time><extensions><speed>7.100000</speed><course>175.429688</course><hAcc>5.000000</hAcc><vAcc>4.000000</vAcc></extensions></trkpt>
      <trkpt lon="-123.280102" lat="44.568340"><ele>77.618011</ele><time>2020-10-03T19:56:47Z</time><extensions><speed>7.510000</speed><course>177.187500</course><hAcc>5.000000</hAcc><vAcc>3.000000</vAcc></extensions></trkpt>
      <trkpt lon="-123.280096" lat="44.568273"><ele>77.690750</ele><time>2020-10-03T19:56:48Z</time><extensions><speed>7.500000</speed><course>176.835938</course><hAcc>5.000000</hAcc><vAcc>4.000000</vAcc></extensions></trkpt>
      <trkpt lon="-123.280096" lat="44.568198"><ele>77.786278</ele><time>2020-10-03T19:56:49Z</time><extensions><speed>7.510000</speed><course>178.945312</course><hAcc>5.000000</hAcc><vAcc>3.000000</vAcc></extensions></trkpt>
      <trkpt lon="-123.280086" lat="44.568131"><ele>77.449203</ele><time>2020-10-03T19:56:50Z</time><extensions><speed>8.060000</speed><course>178.242188</course><hAcc>5.000000</hAcc><vAcc>3.000000</vAcc></extensions></trkpt>
      <trkpt lon="-123.280089" lat="44.568061"><ele>77.548538</ele><time>2020-10-03T19:56:51Z</time><extensions><speed>8.270000</speed><course>179.296875</course><hAcc>5.000000</hAcc><vAcc>4.000000</vAcc></extensions></trkpt>
      <trkpt lon="-123.280088" lat="44.567986"><ele>77.520676</ele><time>2020-10-03T19:56:52Z</time><extensions><speed>8.260000</speed><course>179.296875</course><hAcc>5.000000</hAcc><vAcc>4.000000</vAcc></extensions></trkpt>
      <trkpt lon="-123.280094" lat="44.567894"><ele>77.600067</ele><time>2020-10-03T19:56:53Z</time><extensions><speed>9.580000</speed><course>181.054688</course><hAcc>5.000000</hAcc><vAcc>4.000000</vAcc></extensions></trkpt>
      <trkpt lon="-123.280096" lat="44.567807"><ele>77.892601</ele><time>2020-10-03T19:56:54Z</time><extensions><speed>9.580000</speed><course>181.054688</course><hAcc>5.000000</hAcc><vAcc>4.000000</vAcc></extensions></trkpt>
      <trkpt lon="-123.280102" lat="44.567726"><ele>78.539558</ele><time>2020-10-03T19:56:55Z</time><extensions><speed>9.350000</speed><course>182.109375</course><hAcc>5.000000</hAcc><vAcc>4.000000</vAcc></extensions></trkpt>
      <trkpt lon="-123.280107" lat="44.567642"><ele>79.147430</ele><time>2020-10-03T19:56:56Z</time><extensions><speed>9.350000</speed><course>182.109375</course><hAcc>5.000000</hAcc><vAcc>4.000000</vAcc></extensions></trkpt>
      <trkpt lon="-123.280111" lat="44.567570"><ele>78.926880</ele><time>2020-10-03T19:56:57Z</time><extensions><speed>8.870000</speed><course>183.515625</course><hAcc>5.000000</hAcc><vAcc>4.000000</vAcc></extensions></trkpt>
      <trkpt lon="-123.280062" lat="44.567491"><ele>78.801010</ele><time>2020-10-03T19:56:58Z</time><extensions><speed>8.830000</speed><course>177.890625</course><hAcc>5.000000</hAcc><vAcc>3.000000</vAcc></extensions></trkpt>
      <trkpt lon="-123.280034" lat="44.567426"><ele>78.087296</ele><time>2020-10-03T19:56:59Z</time><extensions><speed>7.750000</speed><course>178.945312</course><hAcc>5.000000</hAcc><vAcc>4.000000</vAcc></extensions></trkpt>
      <trkpt lon="-123.280013" lat="44.567347"><ele>78.053116</ele><time>2020-10-03T19:57:00Z</time><extensions><speed>8.600000</speed><course>178.945312</course><hAcc>5.000000</hAcc><vAcc>4.000000</vAcc></extensions></trkpt>
      <trkpt lon="-123.279994" lat="44.567255"><ele>78.397652</ele><time>2020-10-03T19:57:01Z</time><extensions><speed>9.360000</speed><course>172.968750</course><hAcc>5.000000</hAcc><vAcc>4.000000</vAcc></extensions></trkpt>
      <trkpt lon="-123.279987" lat="44.567181"><ele>78.219559</ele><time>2020-10-03T19:57:02Z</time><extensions><speed>8.160000</speed><course>178.593750</course><hAcc>5.000000</hAcc><vAcc>4.000000</vAcc></extensions></trkpt>
      <trkpt lon="-123.280005" lat="44.567112"><ele>78.075256</ele><time>2020-10-03T19:57:03Z</time><extensions><speed>7.690000</speed><course>186.328125</course><hAcc>5.000000</hAcc><vAcc>4.000000</vAcc></extensions></trkpt>
      <trkpt lon="-123.280028" lat="44.567039"><ele>77.529434</ele><time>2020-10-03T19:57:04Z</time><extensions><speed>8.300000</speed><course>182.812500</course><hAcc>5.000000</hAcc><vAcc>4.000000</vAcc></extensions></trkpt>
      <trkpt lon="-123.280032" lat="44.566965"><ele>77.776596</ele><time>2020-10-03T19:57:05Z</time><extensions><speed>8.170000</speed><course>177.890625</course><hAcc>5.000000</hAcc><vAcc>3.000000</vAcc></extensions></trkpt>
      <trkpt lon="-123.280022" lat="44.566889"><ele>77.775482</ele><time>2020-10-03T19:57:06Z</time><extensions><speed>7.620000</speed><course>183.164062</course><hAcc>5.000000</hAcc><vAcc>4.000000</vAcc></extensions></trkpt>
      <trkpt lon="-123.280013" lat="44.566803"><ele>77.925079</ele><time>2020-10-03T19:57:07Z</time><extensions><speed>8.360000</speed><course>176.484375</course><hAcc>5.000000</hAcc><vAcc>4.000000</vAcc></extensions></trkpt>
      <trkpt lon="-123.280006" lat="44.566728"><ele>78.440315</ele><time>2020-10-03T19:57:08Z</time><extensions><speed>8.360000</speed><course>176.484375</course><hAcc>5.000000</hAcc><vAcc>4.000000</vAcc></extensions></trkpt>
      <trkpt lon="-123.280031" lat="44.566647"><ele>78.117668</ele><time>2020-10-03T19:57:09Z</time><extensions><speed>8.150000</speed><course>178.593750</course><hAcc>5.000000</hAcc><vAcc>4.000000</vAcc></extensions></trkpt>
      <trkpt lon="-123.280041" lat="44.566570"><ele>77.542068</ele><time>2020-10-03T19:57:10Z</time><extensions><speed>7.690000</speed><course>185.976562</course><hAcc>5.000000</hAcc><vAcc>4.000000</vAcc></extensions></trkpt>
      <trkpt lon="-123.280059" lat="44.566509"><ele>77.697182</ele><time>2020-10-03T19:57:11Z</time><extensions><speed>7.350000</speed><course>184.570312</course><hAcc>5.000000</hAcc><vAcc>4.000000</vAcc></extensions></trkpt>
      <trkpt lon="-123.280070" lat="44.566447"><ele>77.697495</ele><time>2020-10-03T19:57:12Z</time><extensions><speed>7.020000</speed><course>182.460938</course><hAcc>5.000000</hAcc><vAcc>4.000000</vAcc></extensions></trkpt>
      <trkpt lon="-123.280049" lat="44.566384"><ele>77.692543</ele><time>2020-10-03T19:57:13Z</time><extensions><speed>6.620000</speed><course>176.835938</course><hAcc>5.000000</hAcc><vAcc>4.000000</vAcc></extensions></trkpt>
      <trkpt lon="-123.280044" lat="44.566324"><ele>77.122047</ele><time>2020-10-03T19:57:14Z</time><extensions><speed>6.630000</speed><course>176.835938</course><hAcc>10.000000</hAcc><vAcc>4.000000</vAcc></extensions></trkpt>
      <trkpt lon="-123.280038" lat="44.566277"><ele>78.051750</ele><time>2020-10-03T19:57:15Z</time><extensions><speed>6.380000</speed><course>174.023438</course><hAcc>5.000000</hAcc><vAcc>4.000000</vAcc></extensions></trkpt>
      <trkpt lon="-123.279986" lat="44.566192"><ele>78.437561</ele><time>2020-10-03T19:57:16Z</time><extensions><speed>7.000000</speed><course>182.109375</course><hAcc>5.000000</hAcc><vAcc>4.000000</vAcc></extensions></trkpt>
      <trkpt lon="-123.279978" lat="44.566128"><ele>78.573807</ele><time>2020-10-03T19:57:17Z</time><extensions><speed>6.880000</speed><course>175.078125</course><hAcc>5.000000</hAcc><vAcc>4.000000</vAcc></extensions></trkpt>
      <trkpt lon="-123.279971" lat="44.566067"><ele>78.061340</ele><time>2020-10-03T19:57:18Z</time><extensions><speed>6.830000</speed><course>175.078125</course><hAcc>5.000000</hAcc><vAcc>4.000000</vAcc></extensions></trkpt>
      <trkpt lon="-123.279998" lat="44.566030"><ele>77.780632</ele><time>2020-10-03T19:57:19Z</time><extensions><speed>5.640000</speed><course>180.351562</course><hAcc>5.000000</hAcc><vAcc>4.000000</vAcc></extensions></trkpt>
      <trkpt lon="-123.279987" lat="44.565961"><ele>77.459946</ele><time>2020-10-03T19:57:20Z</time><extensions><speed>5.980000</speed><course>176.132812</course><hAcc>5.000000</hAcc><vAcc>4.000000</vAcc></extensions></trkpt>
      <trkpt lon="-123.279988" lat="44.565889"><ele>77.638870</ele><time>2020-10-03T19:57:21Z</time><extensions><speed>6.110000</speed><course>177.539062</course><hAcc>5.000000</hAcc><vAcc>4.000000</vAcc></extensions></trkpt>
      <trkpt lon="-123.280000" lat="44.565848"><ele>77.572441</ele><time>2020-10-03T19:57:22Z</time><extensions><speed>6.110000</speed><course>182.460938</course><hAcc>5.000000</hAcc><vAcc>4.000000</vAcc></extensions></trkpt>
      <trkpt lon="-123.280008" lat="44.565795"><ele>77.466103</ele><time>2020-10-03T19:57:23Z</time><extensions><speed>5.720000</speed><course>182.812500</course><hAcc>5.000000</hAcc><vAcc>4.000000</vAcc></extensions></trkpt>
      <trkpt lon="-123.280032" lat="44.565725"><ele>77.021194</ele><time>2020-10-03T19:57:24Z</time><extensions><speed>5.720000</speed><course>187.382812</course><hAcc>5.000000</hAcc><vAcc>4.000000</vAcc></extensions></trkpt>
      <trkpt lon="-123.280025" lat="44.565698"><ele>77.651947</ele><time>2020-10-03T19:57:25Z</time><extensions><speed>6.380000</speed><course>180.703125</course><hAcc>5.000000</hAcc><vAcc>4.000000</vAcc></extensions></trkpt>
      <trkpt lon="-123.280022" lat="44.565618"><ele>77.161743</ele><time>2020-10-03T19:57:26Z</time><extensions><speed>6.910000</speed><course>189.843750</course><hAcc>5.000000</hAcc><vAcc>4.000000</vAcc></extensions></trkpt>
      <trkpt lon="-123.280037" lat="44.565557"><ele>76.672928</ele><time>2020-10-03T19:57:27Z</time><extensions><speed>6.910000</speed><course>189.843750</course><hAcc>10.000000</hAcc><vAcc>4.000000</vAcc></extensions></trkpt>
      <trkpt lon="-123.280009" lat="44.565496"><ele>76.608017</ele><time>2020-10-03T19:57:28Z</time><extensions><speed>6.910000</speed><course>183.867188</course><hAcc>10.000000</hAcc><vAcc>4.000000</vAcc></extensions></trkpt>
      <trkpt lon="-123.279981" lat="44.565438"><ele>77.437912</ele><time>2020-10-03T19:57:29Z</time><extensions><speed>5.840000</speed><course>180.000000</course><hAcc>5.000000</hAcc><vAcc>4.000000</vAcc></extensions></trkpt>
      <trkpt lon="-123.280015" lat="44.565370"><ele>77.268761</ele><time>2020-10-03T19:57:30Z</time><extensions><speed>5.840000</speed><course>174.023438</course><hAcc>5.000000</hAcc><vAcc>4.000000</vAcc></extensions></trkpt>
      <trkpt lon="-123.280008" lat="44.565324"><ele>77.476906</ele><time>2020-10-03T19:57:31Z</time><extensions><speed>5.090000</speed><course>174.023438</course><hAcc>10.000000</hAcc><vAcc>4.000000</vAcc></extensions></trkpt>
      <trkpt lon="-123.280007" lat="44.565266"><ele>77.152542</ele><time>2020-10-03T19:57:32Z</time><extensions><speed>5.090000</speed><course>175.781250</course><hAcc>5.000000</hAcc><vAcc>4.000000</vAcc></extensions></trkpt>
      <trkpt lon="-123.280020" lat="44.565201"><ele>76.652687</ele><time>2020-10-03T19:57:33Z</time><extensions><speed>5.880000</speed><course>183.164062</course><hAcc>5.000000</hAcc><vAcc>4.000000</vAcc></extensions></trkpt>
      <trkpt lon="-123.280030" lat="44.565158"><ele>76.581421</ele><time>2020-10-03T19:57:34Z</time><extensions><speed>6.100000</speed><course>182.109375</course><hAcc>5.000000</hAcc><vAcc>4.000000</vAcc></extensions></trkpt>
      <trkpt lon="-123.280033" lat="44.565106"><ele>76.457184</ele><time>2020-10-03T19:57:35Z</time><extensions><speed>6.100000</speed><course>180.000000</course><hAcc>5.000000</hAcc><vAcc>4.000000</vAcc></extensions></trkpt>
      <trkpt lon="-123.280044" lat="44.565057"><ele>76.833160</ele><time>2020-10-03T19:57:36Z</time><extensions><speed>5.800000</speed><course>181.757812</course><hAcc>5.000000</hAcc><vAcc>4.000000</vAcc></extensions></trkpt>
      <trkpt lon="-123.280037" lat="44.565009"><ele>76.992859</ele><time>2020-10-03T19:57:37Z</time><extensions><speed>5.530000</speed><course>182.812500</course><hAcc>5.000000</hAcc><vAcc>4.000000</vAcc></extensions></trkpt>
      <trkpt lon="-123.280022" lat="44.564937"><ele>76.770226</ele><time>2020-10-03T19:57:38Z</time><extensions><speed>5.980000</speed><course>173.320312</course><hAcc>5.000000</hAcc><vAcc>4.000000</vAcc></extensions></trkpt>
      <trkpt lon="-123.280024" lat="44.564896"><ele>75.974419</ele><time>2020-10-03T19:57:39Z</time><extensions><speed>5.980000</speed><course>175.078125</course><hAcc>5.000000</hAcc><vAcc>4.000000</vAcc></extensions></trkpt>
      <trkpt lon="-123.280018" lat="44.564844"><ele>76.395317</ele><time>2020-10-03T19:57:40Z</time><extensions><speed>5.870000</speed><course>175.078125</course><hAcc>5.000000</hAcc><vAcc>4.000000</vAcc></extensions></trkpt>
      <trkpt lon="-123.280023" lat="44.564769"><ele>76.304031</ele><time>2020-10-03T19:57:41Z</time><extensions><speed>5.870000</speed><course>178.242188</course><hAcc>5.000000</hAcc><vAcc>4.000000</vAcc></extensions></trkpt>
      <trkpt lon="-123.280034" lat="44.564722"><ele>76.602928</ele><time>2020-10-03T19:57:42Z</time><extensions><speed>5.980000</speed><course>182.109375</course><hAcc>5.000000</hAcc><vAcc>4.000000</vAcc></extensions></trkpt>
      <trkpt lon="-123.280019" lat="44.564654"><ele>76.382431</ele><time>2020-10-03T19:57:43Z</time><extensions><speed>6.470000</speed><course>179.648438</course><hAcc>5.000000</hAcc><vAcc>4.000000</vAcc></extensions></trkpt>
      <trkpt lon="-123.280031" lat="44.564608"><ele>76.664001</ele><time>2020-10-03T19:57:44Z</time><extensions><speed>6.470000</speed><course>187.031250</course><hAcc>5.000000</hAcc><vAcc>4.000000</vAcc></extensions></trkpt>
      <trkpt lon="-123.280050" lat="44.564573"><ele>76.291985</ele><time>2020-10-03T19:57:45Z</time><extensions><speed>5.670000</speed><course>187.031250</course><hAcc>5.000000</hAcc><vAcc>4.000000</vAcc></extensions></trkpt>
      <trkpt lon="-123.280055" lat="44.564514"><ele>75.806335</ele><time>2020-10-03T19:57:46Z</time><extensions><speed>5.670000</speed><course>184.218750</course><hAcc>5.000000</hAcc><vAcc>4.000000</vAcc></extensions></trkpt>
      <trkpt lon="-123.280055" lat="44.564463"><ele>75.904579</ele><time>2020-10-03T19:57:47Z</time><extensions><speed>6.050000</speed><course>185.976562</course><hAcc>5.000000</hAcc><vAcc>4.000000</vAcc></extensions></trkpt>
      <trkpt lon="-123.280060" lat="44.564398"><ele>76.060066</ele><time>2020-10-03T19:57:48Z</time><extensions><speed>6.110000</speed><course>187.382812</course><hAcc>5.000000</hAcc><vAcc>4.000000</vAcc></extensions></trkpt>
      <trkpt lon="-123.280058" lat="44.564344"><ele>76.159676</ele><time>2020-10-03T19:57:49Z</time><extensions><speed>6.110000</speed><course>180.703125</course><hAcc>5.000000</hAcc><vAcc>4.000000</vAcc></extensions></trkpt>
      <trkpt lon="-123.280049" lat="44.564287"><ele>76.315155</ele><time>2020-10-03T19:57:50Z</time><extensions><speed>6.180000</speed><course>174.726562</course><hAcc>5.000000</hAcc><vAcc>4.000000</vAcc></extensions></trkpt>
      <trkpt lon="-123.280042" lat="44.564231"><ele>75.831802</ele><time>2020-10-03T19:57:51Z</time><extensions><speed>6.230000</speed><course>174.726562</course><hAcc>5.000000</hAcc><vAcc>4.000000</vAcc></extensions></trkpt>
      <trkpt lon="-123.280059" lat="44.564170"><ele>75.990158</ele><time>2020-10-03T19:57:52Z</time><extensions><speed>5.950000</speed><course>177.890625</course><hAcc>5.000000</hAcc><vAcc>4.000000</vAcc></extensions></trkpt>
      <trkpt lon="-123.280057" lat="44.564117"><ele>76.138519</ele><time>2020-10-03T19:57:53Z</time><extensions><speed>5.950000</speed><course>177.890625</course><hAcc>5.000000</hAcc><vAcc>4.000000</vAcc></extensions></trkpt>
      <trkpt lon="-123.280030" lat="44.564063"><ele>76.082878</ele><time>2020-10-03T19:57:54Z</time><extensions><speed>5.950000</speed><course>175.781250</course><hAcc>5.000000</hAcc><vAcc>4.000000</vAcc></extensions></trkpt>
      <trkpt lon="-123.280017" lat="44.564004"><ele>75.700325</ele><time>2020-10-03T19:57:55Z</time><extensions><speed>6.450000</speed><course>167.343750</course><hAcc>5.000000</hAcc><vAcc>4.000000</vAcc></extensions></trkpt>
      <trkpt lon="-123.279998" lat="44.563944"><ele>75.275299</ele><time>2020-10-03T19:57:56Z</time><extensions><speed>6.810000</speed><course>167.343750</course><hAcc>5.000000</hAcc><vAcc>4.000000</vAcc></extensions></trkpt>
      <trkpt lon="-123.279977" lat="44.563895"><ele>75.057625</ele><time>2020-10-03T19:57:57Z</time><extensions><speed>6.890000</speed><course>162.421875</course><hAcc>5.000000</hAcc><vAcc>4.000000</vAcc></extensions></trkpt>
      <trkpt lon="-123.279951" lat="44.563836"><ele>74.771431</ele><time>2020-10-03T19:57:58Z</time><extensions><speed>6.890000</speed><course>162.421875</course><hAcc>5.000000</hAcc><vAcc>4.000000</vAcc></extensions></trkpt>
      <trkpt lon="-123.279923" lat="44.563767"><ele>75.211807</ele><time>2020-10-03T19:57:59Z</time><extensions><speed>6.890000</speed><course>155.742188</course><hAcc>5.000000</hAcc><vAcc>4.000000</vAcc></extensions></trkpt>
      <trkpt lon="-123.279891" lat="44.563699"><ele>74.744537</ele><time>2020-10-03T19:58:00Z</time><extensions><speed>6.940000</speed><course>163.125000</course><hAcc>5.000000</hAcc><vAcc>4.000000</vAcc></extensions></trkpt>
      <trkpt lon="-123.279871" lat="44.563634"><ele>75.117599</ele><time>2020-10-03T19:58:01Z</time><extensions><speed>7.530000</speed><course>165.585938</course><hAcc>5.000000</hAcc><vAcc>4.000000</vAcc></extensions></trkpt>
      <trkpt lon="-123.279847" lat="44.563570"><ele>75.136070</ele><time>2020-10-03T19:58:02Z</time><extensions><speed>7.690000</speed><course>160.664062</course><hAcc>5.000000</hAcc><vAcc>4.000000</vAcc></extensions></trkpt>
      <trkpt lon="-123.279815" lat="44.563505"><ele>74.902214</ele><time>2020-10-03T19:58:03Z</time><extensions><speed>7.680000</speed><course>160.664062</course><hAcc>5.000000</hAcc><vAcc>4.000000</vAcc></extensions></trkpt>
      <trkpt lon="-123.279772" lat="44.563447"><ele>73.624352</ele><time>2020-10-03T19:58:04Z</time><extensions><speed>6.650000</speed><course>160.312500</course><hAcc>5.000000</hAcc><vAcc>4.000000</vAcc></extensions></trkpt>
      <trkpt lon="-123.279742" lat="44.563377"><ele>72.873444</ele><time>2020-10-03T19:58:05Z</time><extensions><speed>7.140000</speed><course>163.125000</course><hAcc>5.000000</hAcc><vAcc>4.000000</vAcc></extensions></trkpt>
      <trkpt lon="-123.279719" lat="44.563324"><ele>72.472389</ele><time>2020-10-03T19:58:06Z</time><extensions><speed>6.110000</speed><course>163.476562</course><hAcc>5.000000</hAcc><vAcc>4.000000</vAcc></extensions></trkpt>
      <trkpt lon="-123.279683" lat="44.563275"><ele>72.501160</ele><time>2020-10-03T19:58:07Z</time><extensions><speed>5.840000</speed><course>151.875000</course><hAcc>5.000000</hAcc><vAcc>4.000000</vAcc></extensions></trkpt>
      <trkpt lon="-123.279586" lat="44.563249"><ele>71.736275</ele><time>2020-10-03T19:58:08Z</time><extensions><speed>5.540000</speed><course>112.851562</course><hAcc>5.000000</hAcc><vAcc>4.000000</vAcc></extensions></trkpt>
      <trkpt lon="-123.279526" lat="44.563242"><ele>71.392525</ele><time>2020-10-03T19:58:09Z</time><extensions><speed>4.190000</speed><course>88.945312</course><hAcc>5.000000</hAcc><vAcc>3.000000</vAcc></extensions></trkpt>
      <trkpt lon="-123.279476" lat="44.563243"><ele>71.240280</ele><time>2020-10-03T19:58:10Z</time><extensions><speed>2.640000</speed><course>82.617188</course><hAcc>5.000000</hAcc><vAcc>3.000000</vAcc></extensions></trkpt>
      <trkpt lon="-123.279448" lat="44.563262"><ele>71.191742</ele><time>2020-10-03T19:58:11Z</time><extensions><speed>2.640000</speed><course>46.757812</course><hAcc>5.000000</hAcc><vAcc>3.000000</vAcc></extensions></trkpt>
      <trkpt lon="-123.279433" lat="44.563271"><ele>71.330696</ele><time>2020-10-03T19:58:12Z</time><extensions><speed>1.750000</speed><course>18.281250</course><hAcc>5.000000</hAcc><vAcc>4.000000</vAcc></extensions></trkpt>
      <trkpt lon="-123.279443" lat="44.563284"><ele>71.450821</ele><time>2020-10-03T19:58:13Z</time><extensions><speed>1.330000</speed><course>86.835938</course><hAcc>5.000000</hAcc><vAcc>4.000000</vAcc></extensions></trkpt>
      <trkpt lon="-123.279443" lat="44.563284"><ele>71.458168</ele><time>2020-10-03T19:58:14Z</time><extensions><speed>0.000000</speed><course>86.484375</course><hAcc>5.000000</hAcc><vAcc>3.000000</vAcc></extensions></trkpt>
      <trkpt lon="-123.279443" lat="44.563284"><ele>71.798737</ele><time>2020-10-03T19:58:15Z</time><extensions><speed>0.000000</speed><course>87.539062</course><hAcc>5.000000</hAcc><vAcc>3.000000</vAcc></extensions></trkpt>
      <trkpt lon="-123.279443" lat="44.563284"><ele>72.086510</ele><time>2020-10-03T19:58:16Z</time><extensions><speed>0.000000</speed><course>87.187500</course><hAcc>5.000000</hAcc><vAcc>4.000000</vAcc></extensions></trkpt>
      <trkpt lon="-123.279446" lat="44.563257"><ele>72.038231</ele><time>2020-10-03T19:58:17Z</time><extensions><speed>0.190000</speed><course>88.945312</course><hAcc>5.000000</hAcc><vAcc>4.000000</vAcc></extensions></trkpt>
      <trkpt lon="-123.279457" lat="44.563247"><ele>72.044411</ele><time>2020-10-03T19:58:18Z</time><extensions><speed>0.240000</speed><course>90.000000</course><hAcc>5.000000</hAcc><vAcc>4.000000</vAcc></extensions></trkpt>
      <trkpt lon="-123.279457" lat="44.563247"><ele>72.147369</ele><time>2020-10-03T19:58:19Z</time><extensions><speed>0.000000</speed><course>89.648438</course><hAcc>5.000000</hAcc><vAcc>4.000000</vAcc></extensions></trkpt>
      <trkpt lon="-123.279457" lat="44.563247"><ele>72.288391</ele><time>2020-10-03T19:58:20Z</time><extensions><speed>0.000000</speed><course>89.648438</course><hAcc>5.000000</hAcc><vAcc>4.000000</vAcc></extensions></trkpt>
      <trkpt lon="-123.279457" lat="44.563247"><ele>72.332710</ele><time>2020-10-03T19:58:21Z</time><extensions><speed>0.000000</speed><course>89.648438</course><hAcc>5.000000</hAcc><vAcc>4.000000</vAcc></extensions></trkpt>
      <trkpt lon="-123.279405" lat="44.563281"><ele>72.677910</ele><time>2020-10-03T19:58:22Z</time><extensions><speed>0.280929</speed><course>19.261652</course><hAcc>5.999685</hAcc><vAcc>2.400000</vAcc></extensions></trkpt>
      <trkpt lon="-123.279457" lat="44.563247"><ele>72.355347</ele><time>2020-10-03T19:58:22Z</time><extensions><speed>0.000000</speed><course>89.648438</course><hAcc>5.000000</hAcc><vAcc>4.000000</vAcc></extensions></trkpt>
      <trkpt lon="-123.279457" lat="44.563247"><ele>72.417999</ele><time>2020-10-03T19:58:23Z</time><extensions><speed>0.000000</speed><course>89.648438</course><hAcc>5.000000</hAcc><vAcc>4.000000</vAcc></extensions></trkpt>
      <trkpt lon="-123.279457" lat="44.563247"><ele>72.494171</ele><time>2020-10-03T19:58:24Z</time><extensions><speed>0.000000</speed><course>89.648438</course><hAcc>5.000000</hAcc><vAcc>4.000000</vAcc></extensions></trkpt>
      <trkpt lon="-123.279457" lat="44.563247"><ele>72.565903</ele><time>2020-10-03T19:58:25Z</time><extensions><speed>0.000000</speed><course>89.648438</course><hAcc>5.000000</hAcc><vAcc>4.000000</vAcc></extensions></trkpt>
      <trkpt lon="-123.279457" lat="44.563247"><ele>72.586472</ele><time>2020-10-03T19:58:26Z</time><extensions><speed>0.000000</speed><course>89.648438</course><hAcc>5.000000</hAcc><vAcc>4.000000</vAcc></extensions></trkpt>
      <trkpt lon="-123.279457" lat="44.563247"><ele>72.733238</ele><time>2020-10-03T19:58:27Z</time><extensions><speed>0.000000</speed><course>89.648438</course><hAcc>5.000000</hAcc><vAcc>4.000000</vAcc></extensions></trkpt>
      <trkpt lon="-123.279457" lat="44.563247"><ele>72.845573</ele><time>2020-10-03T19:58:28Z</time><extensions><speed>0.000000</speed><course>89.648438</course><hAcc>5.000000</hAcc><vAcc>4.000000</vAcc></extensions></trkpt>
      <trkpt lon="-123.279457" lat="44.563247"><ele>72.914162</ele><time>2020-10-03T19:58:29Z</time><extensions><speed>0.000000</speed><course>89.648438</course><hAcc>5.000000</hAcc><vAcc>4.000000</vAcc></extensions></trkpt>
      <trkpt lon="-123.279457" lat="44.563247"><ele>73.043007</ele><time>2020-10-03T19:58:30Z</time><extensions><speed>0.000000</speed><course>89.648438</course><hAcc>5.000000</hAcc><vAcc>4.000000</vAcc></extensions></trkpt>
      <trkpt lon="-123.279457" lat="44.563247"><ele>73.080345</ele><time>2020-10-03T19:58:31Z</time><extensions><speed>0.000000</speed><course>89.648438</course><hAcc>5.000000</hAcc><vAcc>4.000000</vAcc></extensions></trkpt>
      <trkpt lon="-123.279457" lat="44.563247"><ele>73.179634</ele><time>2020-10-03T19:58:32Z</time><extensions><speed>0.000000</speed><course>89.648438</course><hAcc>5.000000</hAcc><vAcc>4.000000</vAcc></extensions></trkpt>
      <trkpt lon="-123.279457" lat="44.563247"><ele>73.194420</ele><time>2020-10-03T19:58:33Z</time><extensions><speed>0.000000</speed><course>89.648438</course><hAcc>5.000000</hAcc><vAcc>4.000000</vAcc></extensions></trkpt>
      <trkpt lon="-123.279457" lat="44.563247"><ele>73.305672</ele><time>2020-10-03T19:58:34Z</time><extensions><speed>0.000000</speed><course>89.648438</course><hAcc>5.000000</hAcc><vAcc>4.000000</vAcc></extensions></trkpt>
      <trkpt lon="-123.279457" lat="44.563247"><ele>73.339699</ele><time>2020-10-03T19:58:35Z</time><extensions><speed>0.000000</speed><course>89.648438</course><hAcc>5.000000</hAcc><vAcc>4.000000</vAcc></extensions></trkpt>
      <trkpt lon="-123.279457" lat="44.563247"><ele>73.329391</ele><time>2020-10-03T19:58:36Z</time><extensions><speed>0.000000</speed><course>89.648438</course><hAcc>5.000000</hAcc><vAcc>4.000000</vAcc></extensions></trkpt>
      <trkpt lon="-123.279457" lat="44.563247"><ele>73.358650</ele><time>2020-10-03T19:58:37Z</time><extensions><speed>0.000000</speed><course>89.648438</course><hAcc>5.000000</hAcc><vAcc>4.000000</vAcc></extensions></trkpt>
      <trkpt lon="-123.279457" lat="44.563247"><ele>73.371521</ele><time>2020-10-03T19:58:38Z</time><extensions><speed>0.000000</speed><course>89.648438</course><hAcc>5.000000</hAcc><vAcc>4.000000</vAcc></extensions></trkpt>
      <trkpt lon="-123.279457" lat="44.563247"><ele>73.480003</ele><time>2020-10-03T19:58:39Z</time><extensions><speed>0.000000</speed><course>89.648438</course><hAcc>5.000000</hAcc><vAcc>4.000000</vAcc></extensions></trkpt>
      <trkpt lon="-123.279457" lat="44.563247"><ele>73.430931</ele><time>2020-10-03T19:58:40Z</time><extensions><speed>0.000000</speed><course>89.648438</course><hAcc>5.000000</hAcc><vAcc>4.000000</vAcc></extensions></trkpt>
      <trkpt lon="-123.279457" lat="44.563247"><ele>73.506073</ele><time>2020-10-03T19:58:41Z</time><extensions><speed>0.000000</speed><course>89.648438</course><hAcc>5.000000</hAcc><vAcc>4.000000</vAcc></extensions></trkpt>
      <trkpt lon="-123.279457" lat="44.563247"><ele>73.432259</ele><time>2020-10-03T19:58:42Z</time><extensions><speed>0.000000</speed><course>89.648438</course><hAcc>5.000000</hAcc><vAcc>3.000000</vAcc></extensions></trkpt>
      <trkpt lon="-123.279457" lat="44.563247"><ele>73.622902</ele><time>2020-10-03T19:58:43Z</time><extensions><speed>0.000000</speed><course>89.648438</course><hAcc>5.000000</hAcc><vAcc>4.000000</vAcc></extensions></trkpt>
      <trkpt lon="-123.279457" lat="44.563247"><ele>73.647675</ele><time>2020-10-03T19:58:44Z</time><extensions><speed>0.000000</speed><course>89.648438</course><hAcc>5.000000</hAcc><vAcc>4.000000</vAcc></extensions></trkpt>
      <trkpt lon="-123.279457" lat="44.563247"><ele>73.706856</ele><time>2020-10-03T19:58:45Z</time><extensions><speed>0.000000</speed><course>89.648438</course><hAcc>5.000000</hAcc><vAcc>4.000000</vAcc></extensions></trkpt>
      <trkpt lon="-123.279457" lat="44.563247"><ele>73.727730</ele><time>2020-10-03T19:58:46Z</time><extensions><speed>0.000000</speed><course>89.648438</course><hAcc>5.000000</hAcc><vAcc>4.000000</vAcc></extensions></trkpt>
      <trkpt lon="-123.279457" lat="44.563247"><ele>73.755730</ele><time>2020-10-03T19:58:47Z</time><extensions><speed>0.000000</speed><course>89.648438</course><hAcc>5.000000</hAcc><vAcc>4.000000</vAcc></extensions></trkpt>
      <trkpt lon="-123.279457" lat="44.563247"><ele>73.758217</ele><time>2020-10-03T19:58:48Z</time><extensions><speed>0.000000</speed><course>-1.000000</course><hAcc>5.000000</hAcc><vAcc>3.000000</vAcc></extensions></trkpt>
      <trkpt lon="-123.279457" lat="44.563247"><ele>73.847794</ele><time>2020-10-03T19:58:49Z</time><extensions><speed>0.000000</speed><course>-1.000000</course><hAcc>5.000000</hAcc><vAcc>3.000000</vAcc></extensions></trkpt>
      <trkpt lon="-123.279457" lat="44.563247"><ele>73.877747</ele><time>2020-10-03T19:58:50Z</time><extensions><speed>0.000000</speed><course>-1.000000</course><hAcc>5.000000</hAcc><vAcc>3.000000</vAcc></extensions></trkpt>
      <trkpt lon="-123.279449" lat="44.563286"><ele>73.984764</ele><time>2020-10-03T19:58:51Z</time><extensions><speed>0.330000</speed><course>333.632812</course><hAcc>5.000000</hAcc><vAcc>3.000000</vAcc></extensions></trkpt>
      <trkpt lon="-123.279451" lat="44.563293"><ele>74.032661</ele><time>2020-10-03T19:58:52Z</time><extensions><speed>0.760000</speed><course>347.343750</course><hAcc>5.000000</hAcc><vAcc>3.000000</vAcc></extensions></trkpt>
      <trkpt lon="-123.279449" lat="44.563299"><ele>74.145615</ele><time>2020-10-03T19:58:53Z</time><extensions><speed>0.610000</speed><course>3.164062</course><hAcc>5.000000</hAcc><vAcc>3.000000</vAcc></extensions></trkpt>
      <trkpt lon="-123.279449" lat="44.563299"><ele>74.209991</ele><time>2020-10-03T19:58:54Z</time><extensions><speed>0.000000</speed><course>10.898438</course><hAcc>5.000000</hAcc><vAcc>3.000000</vAcc></extensions></trkpt>
      <trkpt lon="-123.279446" lat="44.563297"><ele>74.126335</ele><time>2020-10-03T19:58:55Z</time><extensions><speed>0.350000</speed><course>343.476562</course><hAcc>5.000000</hAcc><vAcc>3.000000</vAcc></extensions></trkpt>
      <trkpt lon="-123.279446" lat="44.563296"><ele>74.378998</ele><time>2020-10-03T19:58:56Z</time><extensions><speed>0.210000</speed><course>77.695312</course><hAcc>5.000000</hAcc><vAcc>3.000000</vAcc></extensions></trkpt>
      <trkpt lon="-123.279441" lat="44.563296"><ele>74.278534</ele><time>2020-10-03T19:58:57Z</time><extensions><speed>0.350000</speed><course>51.328125</course><hAcc>5.000000</hAcc><vAcc>3.000000</vAcc></extensions></trkpt>
      <trkpt lon="-123.279435" lat="44.563296"><ele>74.401573</ele><time>2020-10-03T19:58:58Z</time><extensions><speed>0.370000</speed><course>73.828125</course><hAcc>5.000000</hAcc><vAcc>3.000000</vAcc></extensions></trkpt>
      <trkpt lon="-123.279427" lat="44.563294"><ele>74.332870</ele><time>2020-10-03T19:58:59Z</time><extensions><speed>0.500000</speed><course>71.367188</course><hAcc>5.000000</hAcc><vAcc>3.000000</vAcc></extensions></trkpt>
      <trkpt lon="-123.279422" lat="44.563290"><ele>74.544609</ele><time>2020-10-03T19:59:00Z</time><extensions><speed>0.500000</speed><course>105.820312</course><hAcc>5.000000</hAcc><vAcc>3.000000</vAcc></extensions></trkpt>
      <trkpt lon="-123.279421" lat="44.563282"><ele>74.432785</ele><time>2020-10-03T19:59:01Z</time><extensions><speed>0.500000</speed><course>188.085938</course><hAcc>5.000000</hAcc><vAcc>3.000000</vAcc></extensions></trkpt>
      <trkpt lon="-123.279424" lat="44.563276"><ele>74.602989</ele><time>2020-10-03T19:59:02Z</time><extensions><speed>0.450000</speed><course>204.609375</course><hAcc>5.000000</hAcc><vAcc>3.000000</vAcc></extensions></trkpt>
      <trkpt lon="-123.279430" lat="44.563271"><ele>74.596252</ele><time>2020-10-03T19:59:03Z</time><extensions><speed>0.580000</speed><course>218.320312</course><hAcc>5.000000</hAcc><vAcc>3.000000</vAcc></extensions></trkpt>
      <trkpt lon="-123.279437" lat="44.563267"><ele>74.523552</ele><time>2020-10-03T19:59:04Z</time><extensions><speed>0.680000</speed><course>227.460938</course><hAcc>5.000000</hAcc><vAcc>3.000000</vAcc></extensions></trkpt>
      <trkpt lon="-123.279443" lat="44.563262"><ele>74.502083</ele><time>2020-10-03T19:59:05Z</time><extensions><speed>0.580000</speed><course>229.218750</course><hAcc>5.000000</hAcc><vAcc>3.000000</vAcc></extensions></trkpt>
      <trkpt lon="-123.279446" lat="44.563260"><ele>74.582870</ele><time>2020-10-03T19:59:06Z</time><extensions><speed>0.470000</speed><course>225.703125</course><hAcc>5.000000</hAcc><vAcc>3.000000</vAcc></extensions></trkpt>
      <trkpt lon="-123.279446" lat="44.563260"><ele>74.544609</ele><time>2020-10-03T19:59:07Z</time><extensions><speed>0.000000</speed><course>36.210938</course><hAcc>5.000000</hAcc><vAcc>3.000000</vAcc></extensions></trkpt>
      <trkpt lon="-123.279446" lat="44.563260"><ele>74.442963</ele><time>2020-10-03T19:59:08Z</time><extensions><speed>0.000000</speed><course>36.210938</course><hAcc>5.000000</hAcc><vAcc>3.000000</vAcc></extensions></trkpt>
      <trkpt lon="-123.279446" lat="44.563260"><ele>74.461487</ele><time>2020-10-03T19:59:09Z</time><extensions><speed>0.000000</speed><course>36.210938</course><hAcc>5.000000</hAcc><vAcc>3.000000</vAcc></extensions></trkpt>
      <trkpt lon="-123.279446" lat="44.563260"><ele>74.458656</ele><time>2020-10-03T19:59:10Z</time><extensions><speed>0.000000</speed><course>36.210938</course><hAcc>5.000000</hAcc><vAcc>3.000000</vAcc></extensions></trkpt>
      <trkpt lon="-123.279446" lat="44.563260"><ele>74.413589</ele><time>2020-10-03T19:59:11Z</time><extensions><speed>0.000000</speed><course>36.210938</course><hAcc>5.000000</hAcc><vAcc>3.000000</vAcc></extensions></trkpt>
      <trkpt lon="-123.279439" lat="44.563265"><ele>74.493095</ele><time>2020-10-03T19:59:12Z</time><extensions><speed>0.610000</speed><course>19.335938</course><hAcc>5.000000</hAcc><vAcc>3.000000</vAcc></extensions></trkpt>
      <trkpt lon="-123.279439" lat="44.563265"><ele>74.439720</ele><time>2020-10-03T19:59:13Z</time><extensions><speed>0.000000</speed><course>15.117188</course><hAcc>5.000000</hAcc><vAcc>3.000000</vAcc></extensions></trkpt>
      <trkpt lon="-123.279434" lat="44.563269"><ele>74.421501</ele><time>2020-10-03T19:59:14Z</time><extensions><speed>0.610000</speed><course>16.523438</course><hAcc>5.000000</hAcc><vAcc>3.000000</vAcc></extensions></trkpt>
      <trkpt lon="-123.279430" lat="44.563273"><ele>74.437958</ele><time>2020-10-03T19:59:15Z</time><extensions><speed>0.630000</speed><course>22.500000</course><hAcc>5.000000</hAcc><vAcc>3.000000</vAcc></extensions></trkpt>
      <trkpt lon="-123.279430" lat="44.563273"><ele>74.407982</ele><time>2020-10-03T19:59:16Z</time><extensions><speed>0.000000</speed><course>26.015625</course><hAcc>5.000000</hAcc><vAcc>3.000000</vAcc></extensions></trkpt>
      <trkpt lon="-123.279430" lat="44.563273"><ele>74.403488</ele><time>2020-10-03T19:59:17Z</time><extensions><speed>0.000000</speed><course>26.015625</course><hAcc>5.000000</hAcc><vAcc>3.000000</vAcc></extensions></trkpt>
      <trkpt lon="-123.279430" lat="44.563273"><ele>74.339363</ele><time>2020-10-03T19:59:18Z</time><extensions><speed>0.000000</speed><course>26.015625</course><hAcc>5.000000</hAcc><vAcc>3.000000</vAcc></extensions></trkpt>
      <trkpt lon="-123.279430" lat="44.563273"><ele>74.360008</ele><time>2020-10-03T19:59:19Z</time><extensions><speed>0.000000</speed><course>26.015625</course><hAcc>5.000000</hAcc><vAcc>3.000000</vAcc></extensions></trkpt>
      <trkpt lon="-123.279430" lat="44.563273"><ele>74.294052</ele><time>2020-10-03T19:59:20Z</time><extensions><speed>0.000000</speed><course>26.015625</course><hAcc>5.000000</hAcc><vAcc>3.000000</vAcc></extensions></trkpt>
      <trkpt lon="-123.279430" lat="44.563273"><ele>74.255287</ele><time>2020-10-03T19:59:21Z</time><extensions><speed>0.000000</speed><course>26.015625</course><hAcc>5.000000</hAcc><vAcc>3.000000</vAcc></extensions></trkpt>
      <trkpt lon="-123.279426" lat="44.563267"><ele>74.341263</ele><time>2020-10-03T19:59:22Z</time><extensions><speed>0.490000</speed><course>155.039062</course><hAcc>5.000000</hAcc><vAcc>3.000000</vAcc></extensions></trkpt>
      <trkpt lon="-123.279427" lat="44.563259"><ele>74.239616</ele><time>2020-10-03T19:59:23Z</time><extensions><speed>0.490000</speed><course>174.726562</course><hAcc>5.000000</hAcc><vAcc>3.000000</vAcc></extensions></trkpt>
      <trkpt lon="-123.279432" lat="44.563250"><ele>74.278854</ele><time>2020-10-03T19:59:24Z</time><extensions><speed>0.790000</speed><course>196.523438</course><hAcc>5.000000</hAcc><vAcc>3.000000</vAcc></extensions></trkpt>
      <trkpt lon="-123.279440" lat="44.563239"><ele>74.227249</ele><time>2020-10-03T19:59:25Z</time><extensions><speed>1.360000</speed><course>181.406250</course><hAcc>5.000000</hAcc><vAcc>3.000000</vAcc></extensions></trkpt>
      <trkpt lon="-123.279440" lat="44.563229"><ele>74.207756</ele><time>2020-10-03T19:59:26Z</time><extensions><speed>1.360000</speed><course>158.203125</course><hAcc>5.000000</hAcc><vAcc>3.000000</vAcc></extensions></trkpt>
      <trkpt lon="-123.279434" lat="44.563221"><ele>74.346992</ele><time>2020-10-03T19:59:27Z</time><extensions><speed>1.080000</speed><course>131.484375</course><hAcc>5.000000</hAcc><vAcc>3.000000</vAcc></extensions></trkpt>
      <trkpt lon="-123.279423" lat="44.563215"><ele>74.340141</ele><time>2020-10-03T19:59:28Z</time><extensions><speed>1.080000</speed><course>107.929688</course><hAcc>5.000000</hAcc><vAcc>3.000000</vAcc></extensions></trkpt>
      <trkpt lon="-123.279407" lat="44.563210"><ele>74.298561</ele><time>2020-10-03T19:59:29Z</time><extensions><speed>1.290000</speed><course>110.390625</course><hAcc>5.000000</hAcc><vAcc>3.000000</vAcc></extensions></trkpt>
      <trkpt lon="-123.279386" lat="44.563207"><ele>73.951378</ele><time>2020-10-03T19:59:30Z</time><extensions><speed>1.680000</speed><course>104.765625</course><hAcc>5.000000</hAcc><vAcc>3.000000</vAcc></extensions></trkpt>
      <trkpt lon="-123.279365" lat="44.563203"><ele>73.549751</ele><time>2020-10-03T19:59:31Z</time><extensions><speed>1.460000</speed><course>112.500000</course><hAcc>5.000000</hAcc><vAcc>3.000000</vAcc></extensions></trkpt>
      <trkpt lon="-123.279345" lat="44.563199"><ele>73.511932</ele><time>2020-10-03T19:59:32Z</time><extensions><speed>1.560000</speed><course>108.281250</course><hAcc>5.000000</hAcc><vAcc>3.000000</vAcc></extensions></trkpt>
      <trkpt lon="-123.279326" lat="44.563196"><ele>73.586617</ele><time>2020-10-03T19:59:33Z</time><extensions><speed>1.460000</speed><course>103.710938</course><hAcc>5.000000</hAcc><vAcc>3.000000</vAcc></extensions></trkpt>
      <trkpt lon="-123.279306" lat="44.563194"><ele>73.461906</ele><time>2020-10-03T19:59:34Z</time><extensions><speed>1.550000</speed><course>94.218750</course><hAcc>5.000000</hAcc><vAcc>3.000000</vAcc></extensions></trkpt>
      <trkpt lon="-123.279290" lat="44.563195"><ele>73.437141</ele><time>2020-10-03T19:59:35Z</time><extensions><speed>1.550000</speed><course>57.304688</course><hAcc>5.000000</hAcc><vAcc>3.000000</vAcc></extensions></trkpt>
      <trkpt lon="-123.279273" lat="44.563195"><ele>73.314407</ele><time>2020-10-03T19:59:36Z</time><extensions><speed>1.490000</speed><course>94.921875</course><hAcc>5.000000</hAcc><vAcc>3.000000</vAcc></extensions></trkpt>
      <trkpt lon="-123.279253" lat="44.563195"><ele>73.372040</ele><time>2020-10-03T19:59:37Z</time><extensions><speed>1.490000</speed><course>99.843750</course><hAcc>5.000000</hAcc><vAcc>3.000000</vAcc></extensions></trkpt>
      <trkpt lon="-123.279233" lat="44.563193"><ele>73.255585</ele><time>2020-10-03T19:59:38Z</time><extensions><speed>1.490000</speed><course>94.570312</course><hAcc>5.000000</hAcc><vAcc>3.000000</vAcc></extensions></trkpt>
      <trkpt lon="-123.279215" lat="44.563191"><ele>73.196487</ele><time>2020-10-03T19:59:39Z</time><extensions><speed>1.380000</speed><course>94.921875</course><hAcc>5.000000</hAcc><vAcc>3.000000</vAcc></extensions></trkpt>
      <trkpt lon="-123.279196" lat="44.563189"><ele>73.115822</ele><time>2020-10-03T19:59:40Z</time><extensions><speed>1.390000</speed><course>91.406250</course><hAcc>5.000000</hAcc><vAcc>3.000000</vAcc></extensions></trkpt>
      <trkpt lon="-123.279178" lat="44.563188"><ele>73.074921</ele><time>2020-10-03T19:59:41Z</time><extensions><speed>1.390000</speed><course>86.484375</course><hAcc>5.000000</hAcc><vAcc>3.000000</vAcc></extensions></trkpt>
      <trkpt lon="-123.279160" lat="44.563187"><ele>73.119621</ele><time>2020-10-03T19:59:42Z</time><extensions><speed>1.390000</speed><course>88.945312</course><hAcc>5.000000</hAcc><vAcc>3.000000</vAcc></extensions></trkpt>
      <trkpt lon="-123.279145" lat="44.563188"><ele>73.072792</ele><time>2020-10-03T19:59:43Z</time><extensions><speed>1.010000</speed><course>70.312500</course><hAcc>5.000000</hAcc><vAcc>3.000000</vAcc></extensions></trkpt>
      <trkpt lon="-123.279132" lat="44.563190"><ele>73.222656</ele><time>2020-10-03T19:59:44Z</time><extensions><speed>1.010000</speed><course>47.460938</course><hAcc>5.000000</hAcc><vAcc>3.000000</vAcc></extensions></trkpt>
      <trkpt lon="-123.279121" lat="44.563194"><ele>73.121025</ele><time>2020-10-03T19:59:45Z</time><extensions><speed>1.000000</speed><course>39.375000</course><hAcc>5.000000</hAcc><vAcc>3.000000</vAcc></extensions></trkpt>
      <trkpt lon="-123.279111" lat="44.563198"><ele>73.210007</ele><time>2020-10-03T19:59:46Z</time><extensions><speed>0.930000</speed><course>50.273438</course><hAcc>5.000000</hAcc><vAcc>3.000000</vAcc></extensions></trkpt>
      <trkpt lon="-123.279102" lat="44.563203"><ele>73.195541</ele><time>2020-10-03T19:59:47Z</time><extensions><speed>0.920000</speed><course>43.242188</course><hAcc>5.000000</hAcc><vAcc>3.000000</vAcc></extensions></trkpt>
      <trkpt lon="-123.279096" lat="44.563205"><ele>73.270958</ele><time>2020-10-03T19:59:48Z</time><extensions><speed>0.480000</speed><course>83.671875</course><hAcc>5.000000</hAcc><vAcc>3.000000</vAcc></extensions></trkpt>
      <trkpt lon="-123.279079" lat="44.563210"><ele>73.126411</ele><time>2020-10-03T19:59:49Z</time><extensions><speed>1.520000</speed><course>61.875000</course><hAcc>5.000000</hAcc><vAcc>3.000000</vAcc></extensions></trkpt>
      <trkpt lon="-123.279061" lat="44.563212"><ele>73.090233</ele><time>2020-10-03T19:59:50Z</time><extensions><speed>1.100000</speed><course>78.750000</course><hAcc>5.000000</hAcc><vAcc>3.000000</vAcc></extensions></trkpt>
      <trkpt lon="-123.279055" lat="44.563209"><ele>73.118073</ele><time>2020-10-03T19:59:51Z</time><extensions><speed>1.100000</speed><course>77.695312</course><hAcc>5.000000</hAcc><vAcc>3.000000</vAcc></extensions></trkpt>
      <trkpt lon="-123.279048" lat="44.563209"><ele>73.201218</ele><time>2020-10-03T19:59:52Z</time><extensions><speed>0.880000</speed><course>76.289062</course><hAcc>5.000000</hAcc><vAcc>3.000000</vAcc></extensions></trkpt>
      <trkpt lon="-123.279037" lat="44.563211"><ele>73.112862</ele><time>2020-10-03T19:59:53Z</time><extensions><speed>1.040000</speed><course>59.414062</course><hAcc>5.000000</hAcc><vAcc>3.000000</vAcc></extensions></trkpt>
      <trkpt lon="-123.279026" lat="44.563214"><ele>73.137474</ele><time>2020-10-03T19:59:54Z</time><extensions><speed>0.880000</speed><course>55.546875</course><hAcc>5.000000</hAcc><vAcc>3.000000</vAcc></extensions></trkpt>
      <trkpt lon="-123.279021" lat="44.563214"><ele>73.099464</ele><time>2020-10-03T19:59:55Z</time><extensions><speed>0.860000</speed><course>81.914062</course><hAcc>10.000000</hAcc><vAcc>3.000000</vAcc></extensions></trkpt>
      <trkpt lon="-123.279014" lat="44.563210"><ele>73.013260</ele><time>2020-10-03T19:59:56Z</time><extensions><speed>0.770000</speed><course>78.750000</course><hAcc>10.000000</hAcc><vAcc>3.000000</vAcc></extensions></trkpt>
      <trkpt lon="-123.279008" lat="44.563206"><ele>73.026360</ele><time>2020-10-03T19:59:57Z</time><extensions><speed>0.670000</speed><course>101.601562</course><hAcc>10.000000</hAcc><vAcc>3.000000</vAcc></extensions></trkpt>
      <trkpt lon="-123.279002" lat="44.563204"><ele>73.109749</ele><time>2020-10-03T19:59:58Z</time><extensions><speed>0.740000</speed><course>89.648438</course><hAcc>10.000000</hAcc><vAcc>3.000000</vAcc></extensions></trkpt>
      <trkpt lon="-123.278996" lat="44.563202"><ele>73.034660</ele><time>2020-10-03T19:59:59Z</time><extensions><speed>0.700000</speed><course>75.234375</course><hAcc>10.000000</hAcc><vAcc>3.000000</vAcc></extensions></trkpt>
      <trkpt lon="-123.278994" lat="44.563204"><ele>73.188972</ele><time>2020-10-03T20:00:00Z</time><extensions><speed>0.730000</speed><course>48.164062</course><hAcc>10.000000</hAcc><vAcc>3.000000</vAcc></extensions></trkpt>
      <trkpt lon="-123.278998" lat="44.563201"><ele>73.058998</ele><time>2020-10-03T20:00:01Z</time><extensions><speed>0.180000</speed><course>42.187500</course><hAcc>10.000000</hAcc><vAcc>3.000000</vAcc></extensions></trkpt>
      <trkpt lon="-123.278998" lat="44.563201"><ele>73.094604</ele><time>2020-10-03T20:00:02Z</time><extensions><speed>0.000000</speed><course>26.367188</course><hAcc>10.000000</hAcc><vAcc>3.000000</vAcc></extensions></trkpt>
      <trkpt lon="-123.279007" lat="44.563190"><ele>72.958763</ele><time>2020-10-03T20:00:03Z</time><extensions><speed>0.280000</speed><course>53.789062</course><hAcc>10.000000</hAcc><vAcc>3.000000</vAcc></extensions></trkpt>
      <trkpt lon="-123.278999" lat="44.563184"><ele>72.979660</ele><time>2020-10-03T20:00:04Z</time><extensions><speed>0.280000</speed><course>76.289062</course><hAcc>30.000000</hAcc><vAcc>3.000000</vAcc></extensions></trkpt>
      <trkpt lon="-123.278978" lat="44.563178"><ele>73.103317</ele><time>2020-10-03T20:00:05Z</time><extensions><speed>0.800000</speed><course>86.132812</course><hAcc>30.000000</hAcc><vAcc>3.000000</vAcc></extensions></trkpt>
      <trkpt lon="-123.278955" lat="44.563173"><ele>73.172363</ele><time>2020-10-03T20:00:06Z</time><extensions><speed>1.300000</speed><course>88.945312</course><hAcc>30.000000</hAcc><vAcc>3.000000</vAcc></extensions></trkpt>
      <trkpt lon="-123.278934" lat="44.563168"><ele>73.116249</ele><time>2020-10-03T20:00:07Z</time><extensions><speed>1.300000</speed><course>91.054688</course><hAcc>30.000000</hAcc><vAcc>3.000000</vAcc></extensions></trkpt>
      <trkpt lon="-123.278934" lat="44.563168"><ele>72.977257</ele><time>2020-10-03T20:00:08Z</time><extensions><speed>0.000000</speed><course>91.054688</course><hAcc>30.000000</hAcc><vAcc>3.000000</vAcc></extensions></trkpt>
      <trkpt lon="-123.278934" lat="44.563168"><ele>73.132874</ele><time>2020-10-03T20:00:09Z</time><extensions><speed>0.000000</speed><course>91.054688</course><hAcc>30.000000</hAcc><vAcc>3.000000</vAcc></extensions></trkpt>
      <trkpt lon="-123.278934" lat="44.563168"><ele>73.118492</ele><time>2020-10-03T20:00:10Z</time><extensions><speed>0.000000</speed><course>91.054688</course><hAcc>30.000000</hAcc><vAcc>3.000000</vAcc></extensions></trkpt>
      <trkpt lon="-123.278910" lat="44.563151"><ele>77.073051</ele><time>2020-10-03T20:00:44Z</time><extensions><speed>0.000000</speed><course>-1.000000</course><hAcc>30.000000</hAcc><vAcc>4.000000</vAcc></extensions></trkpt>
      <trkpt lon="-123.278885" lat="44.563163"><ele>77.347389</ele><time>2020-10-03T20:00:45Z</time><extensions><speed>0.360000</speed><course>125.507812</course><hAcc>30.000000</hAcc><vAcc>4.000000</vAcc></extensions></trkpt>
      <trkpt lon="-123.278887" lat="44.563160"><ele>77.376671</ele><time>2020-10-03T20:00:46Z</time><extensions><speed>0.200000</speed><course>132.890625</course><hAcc>30.000000</hAcc><vAcc>4.000000</vAcc></extensions></trkpt>
    </trkseg>
  </trk>
</gpx>