<?xml version="1.0" encoding="UTF-8"?>
<gpx version="1.1" creator="Apple Health Export" xmlns="http://www.topografix.com/GPX/1/1" xmlns:xsi="http://www.w3.org/2001/XMLSchema-instance" xsi:schemaLocation="http://www.topografix.com/GPX/1/1 http://www.topografix.com/GPX/1/1/gpx.xsd">
  <metadata>
    <time>2021-02-21T19:24:48Z</time>
  </metadata>
  <trk>
    <name>Route 2020-12-04 5:52pm</name>
    <trkseg>
      <trkpt lon="-123.279517" lat="44.563301"><ele>75.037666</ele><time>2020-12-05T01:46:35Z</time><extensions><speed>0.200000</speed><course>300.234375</course><hAcc>9.435094</hAcc><vAcc>24.000000</vAcc></extensions></trkpt>
      <trkpt lon="-123.279479" lat="44.563327"><ele>73.385078</ele><time>2020-12-05T01:46:37Z</time><extensions><speed>0.000000</speed><course>36.562500</course><hAcc>7.282027</hAcc><vAcc>4.000000</vAcc></extensions></trkpt>
      <trkpt lon="-123.279477" lat="44.563323"><ele>74.324226</ele><time>2020-12-05T01:46:38Z</time><extensions><speed>0.000000</speed><course>130.429688</course><hAcc>5.179725</hAcc><vAcc>6.000000</vAcc></extensions></trkpt>
      <trkpt lon="-123.279476" lat="44.563321"><ele>75.018379</ele><time>2020-12-05T01:46:39Z</time><extensions><speed>0.000000</speed><course>130.429688</course><hAcc>4.527339</hAcc><vAcc>6.000000</vAcc></extensions></trkpt>
      <trkpt lon="-123.279475" lat="44.563320"><ele>75.608589</ele><time>2020-12-05T01:46:40Z</time><extensions><speed>0.000000</speed><course>130.429688</course><hAcc>4.222235</hAcc><vAcc>6.000000</vAcc></extensions></trkpt>
      <trkpt lon="-123.279474" lat="44.563319"><ele>75.983284</ele><time>2020-12-05T01:46:41Z</time><extensions><speed>0.000000</speed><course>130.429688</course><hAcc>4.029349</hAcc><vAcc>6.000000</vAcc></extensions></trkpt>
      <trkpt lon="-123.279474" lat="44.563319"><ele>76.283028</ele><time>2020-12-05T01:46:42Z</time><extensions><speed>0.000000</speed><course>130.429688</course><hAcc>3.845042</hAcc><vAcc>6.000000</vAcc></extensions></trkpt>
      <trkpt lon="-123.279473" lat="44.563319"><ele>76.469002</ele><time>2020-12-05T01:46:43Z</time><extensions><speed>0.000000</speed><course>130.429688</course><hAcc>3.715576</hAcc><vAcc>6.000000</vAcc></extensions></trkpt>
      <trkpt lon="-123.279473" lat="44.563319"><ele>76.593513</ele><time>2020-12-05T01:46:44Z</time><extensions><speed>0.000000</speed><course>130.429688</course><hAcc>3.625292</hAcc><vAcc>6.000000</vAcc></extensions></trkpt>
      <trkpt lon="-123.279473" lat="44.563319"><ele>76.662849</ele><time>2020-12-05T01:46:45Z</time><extensions><speed>0.000000</speed><course>130.429688</course><hAcc>3.624328</hAcc><vAcc>6.000000</vAcc></extensions></trkpt>
      <trkpt lon="-123.279473" lat="44.563319"><ele>76.682442</ele><time>2020-12-05T01:46:46Z</time><extensions><speed>0.000000</speed><course>130.429688</course><hAcc>3.632876</hAcc><vAcc>6.000000</vAcc></extensions></trkpt>
      <trkpt lon="-123.279472" lat="44.563318"><ele>76.682014</ele><time>2020-12-05T01:46:47Z</time><extensions><speed>0.000000</speed><course>130.429688</course><hAcc>3.655283</hAcc><vAcc>6.000000</vAcc></extensions></trkpt>
      <trkpt lon="-123.279472" lat="44.563318"><ele>76.614815</ele><time>2020-12-05T01:46:48Z</time><extensions><speed>0.000000</speed><course>130.429688</course><hAcc>3.779766</hAcc><vAcc>6.000000</vAcc></extensions></trkpt>
      <trkpt lon="-123.279472" lat="44.563318"><ele>76.614815</ele><time>2020-12-05T01:46:49Z</time><extensions><speed>0.000000</speed><course>-1.000000</course><hAcc>3.779766</hAcc><vAcc>6.000000</vAcc></extensions></trkpt>
      <trkpt lon="-123.279471" lat="44.563318"><ele>76.555367</ele><time>2020-12-05T01:46:50Z</time><extensions><speed>0.000000</speed><course>-1.000000</course><hAcc>3.896528</hAcc><vAcc>6.000000</vAcc></extensions></trkpt>
      <trkpt lon="-123.279471" lat="44.563318"><ele>76.521797</ele><time>2020-12-05T01:46:51Z</time><extensions><speed>0.000000</speed><course>-1.000000</course><hAcc>4.142700</hAcc><vAcc>6.000000</vAcc></extensions></trkpt>
      <trkpt lon="-123.279470" lat="44.563318"><ele>76.453316</ele><time>2020-12-05T01:46:52Z</time><extensions><speed>0.000000</speed><course>-1.000000</course><hAcc>4.256228</hAcc><vAcc>8.000000</vAcc></extensions></trkpt>
      <trkpt lon="-123.279470" lat="44.563318"><ele>76.432869</ele><time>2020-12-05T01:46:53Z</time><extensions><speed>0.000000</speed><course>-1.000000</course><hAcc>4.236506</hAcc><vAcc>8.000000</vAcc></extensions></trkpt>
      <trkpt lon="-123.279469" lat="44.563318"><ele>76.400154</ele><time>2020-12-05T01:46:54Z</time><extensions><speed>0.000000</speed><course>-1.000000</course><hAcc>4.098712</hAcc><vAcc>6.000000</vAcc></extensions></trkpt>
      <trkpt lon="-123.279469" lat="44.563318"><ele>76.367683</ele><time>2020-12-05T01:46:55Z</time><extensions><speed>0.000000</speed><course>-1.000000</course><hAcc>4.045920</hAcc><vAcc>6.000000</vAcc></extensions></trkpt>
      <trkpt lon="-123.279469" lat="44.563318"><ele>76.373787</ele><time>2020-12-05T01:46:56Z</time><extensions><speed>0.000000</speed><course>-1.000000</course><hAcc>3.945966</hAcc><vAcc>6.000000</vAcc></extensions></trkpt>
      <trkpt lon="-123.279468" lat="44.563318"><ele>76.384041</ele><time>2020-12-05T01:46:57Z</time><extensions><speed>0.000000</speed><course>-1.000000</course><hAcc>3.895193</hAcc><vAcc>6.000000</vAcc></extensions></trkpt>
      <trkpt lon="-123.279468" lat="44.563319"><ele>76.369209</ele><time>2020-12-05T01:46:58Z</time><extensions><speed>0.000000</speed><course>-1.000000</course><hAcc>4.227779</hAcc><vAcc>8.000000</vAcc></extensions></trkpt>
      <trkpt lon="-123.279468" lat="44.563319"><ele>76.352608</ele><time>2020-12-05T01:46:59Z</time><extensions><speed>0.000000</speed><course>-1.000000</course><hAcc>4.096217</hAcc><vAcc>6.000000</vAcc></extensions></trkpt>
      <trkpt lon="-123.279468" lat="44.563319"><ele>76.373726</ele><time>2020-12-05T01:47:00Z</time><extensions><speed>0.000000</speed><course>-1.000000</course><hAcc>4.016444</hAcc><vAcc>6.000000</vAcc></extensions></trkpt>
      <trkpt lon="-123.279468" lat="44.563319"><ele>76.354622</ele><time>2020-12-05T01:47:01Z</time><extensions><speed>0.000000</speed><course>-1.000000</course><hAcc>4.107300</hAcc><vAcc>6.000000</vAcc></extensions></trkpt>
      <trkpt lon="-123.279468" lat="44.563320"><ele>76.354134</ele><time>2020-12-05T01:47:02Z</time><extensions><speed>0.000000</speed><course>-1.000000</course><hAcc>4.078586</hAcc><vAcc>6.000000</vAcc></extensions></trkpt>
      <trkpt lon="-123.279468" lat="44.563320"><ele>76.351509</ele><time>2020-12-05T01:47:03Z</time><extensions><speed>0.000000</speed><course>-1.000000</course><hAcc>4.008929</hAcc><vAcc>6.000000</vAcc></extensions></trkpt>
      <trkpt lon="-123.279468" lat="44.563320"><ele>76.336311</ele><time>2020-12-05T01:47:04Z</time><extensions><speed>0.000000</speed><course>-1.000000</course><hAcc>4.005743</hAcc><vAcc>6.000000</vAcc></extensions></trkpt>
      <trkpt lon="-123.279467" lat="44.563320"><ele>76.324593</ele><time>2020-12-05T01:47:05Z</time><extensions><speed>0.000000</speed><course>-1.000000</course><hAcc>3.944121</hAcc><vAcc>6.000000</vAcc></extensions></trkpt>
      <trkpt lon="-123.279467" lat="44.563321"><ele>76.353096</ele><time>2020-12-05T01:47:06Z</time><extensions><speed>0.000000</speed><course>-1.000000</course><hAcc>3.908023</hAcc><vAcc>6.000000</vAcc></extensions></trkpt>
      <trkpt lon="-123.279467" lat="44.563321"><ele>76.349068</ele><time>2020-12-05T01:47:07Z</time><extensions><speed>0.000000</speed><course>-1.000000</course><hAcc>3.837598</hAcc><vAcc>6.000000</vAcc></extensions></trkpt>
      <trkpt lon="-123.279467" lat="44.563321"><ele>76.341621</ele><time>2020-12-05T01:47:08Z</time><extensions><speed>0.000000</speed><course>-1.000000</course><hAcc>3.728397</hAcc><vAcc>6.000000</vAcc></extensions></trkpt>
      <trkpt lon="-123.279442" lat="44.563347"><ele>73.187607</ele><time>2020-12-05T01:47:09Z</time><extensions><speed>0.039420</speed><course>-1.000000</course><hAcc>4.797467</hAcc><vAcc>3.287681</vAcc></extensions></trkpt>
      <trkpt lon="-123.279445" lat="44.563340"><ele>73.157852</ele><time>2020-12-05T01:47:10Z</time><extensions><speed>0.013322</speed><course>-1.000000</course><hAcc>4.791507</hAcc><vAcc>3.296362</vAcc></extensions></trkpt>
      <trkpt lon="-123.279446" lat="44.563337"><ele>73.323456</ele><time>2020-12-05T01:47:11Z</time><extensions><speed>0.018959</speed><course>-1.000000</course><hAcc>4.796372</hAcc><vAcc>3.289278</vAcc></extensions></trkpt>
      <trkpt lon="-123.279448" lat="44.563334"><ele>73.310043</ele><time>2020-12-05T01:47:12Z</time><extensions><speed>0.000000</speed><course>-1.000000</course><hAcc>4.794047</hAcc><vAcc>3.292666</vAcc></extensions></trkpt>
      <trkpt lon="-123.279447" lat="44.563333"><ele>73.362061</ele><time>2020-12-05T01:47:13Z</time><extensions><speed>0.032797</speed><course>-1.000000</course><hAcc>4.790547</hAcc><vAcc>3.297756</vAcc></extensions></trkpt>
      <trkpt lon="-123.279445" lat="44.563331"><ele>73.318481</ele><time>2020-12-05T01:47:14Z</time><extensions><speed>0.024905</speed><course>-1.000000</course><hAcc>4.793046</hAcc><vAcc>3.294123</vAcc></extensions></trkpt>
      <trkpt lon="-123.279440" lat="44.563329"><ele>73.318176</ele><time>2020-12-05T01:47:15Z</time><extensions><speed>0.000000</speed><course>-1.000000</course><hAcc>4.800004</hAcc><vAcc>3.283977</vAcc></extensions></trkpt>
      <trkpt lon="-123.279441" lat="44.563327"><ele>73.304176</ele><time>2020-12-05T01:47:16Z</time><extensions><speed>0.011048</speed><course>-1.000000</course><hAcc>4.775843</hAcc><vAcc>3.319015</vAcc></extensions></trkpt>
      <trkpt lon="-123.279441" lat="44.563325"><ele>73.267326</ele><time>2020-12-05T01:47:17Z</time><extensions><speed>0.021282</speed><course>-1.000000</course><hAcc>4.778270</hAcc><vAcc>3.315519</vAcc></extensions></trkpt>
      <trkpt lon="-123.279440" lat="44.563324"><ele>73.227676</ele><time>2020-12-05T01:47:18Z</time><extensions><speed>0.018309</speed><course>-1.000000</course><hAcc>4.781252</hAcc><vAcc>3.311218</vAcc></extensions></trkpt>
      <trkpt lon="-123.279440" lat="44.563323"><ele>73.217941</ele><time>2020-12-05T01:47:19Z</time><extensions><speed>0.013141</speed><course>-1.000000</course><hAcc>4.786011</hAcc><vAcc>3.304337</vAcc></extensions></trkpt>
      <trkpt lon="-123.279436" lat="44.563323"><ele>73.085838</ele><time>2020-12-05T01:47:20Z</time><extensions><speed>0.000000</speed><course>-1.000000</course><hAcc>4.789248</hAcc><vAcc>3.299642</vAcc></extensions></trkpt>
      <trkpt lon="-123.279432" lat="44.563324"><ele>73.054062</ele><time>2020-12-05T01:47:21Z</time><extensions><speed>0.029225</speed><course>-1.000000</course><hAcc>4.797505</hAcc><vAcc>3.287625</vAcc></extensions></trkpt>
      <trkpt lon="-123.279432" lat="44.563328"><ele>73.018585</ele><time>2020-12-05T01:47:22Z</time><extensions><speed>0.025681</speed><course>-1.000000</course><hAcc>4.799456</hAcc><vAcc>3.284778</vAcc></extensions></trkpt>
      <trkpt lon="-123.279432" lat="44.563328"><ele>72.811790</ele><time>2020-12-05T01:47:23Z</time><extensions><speed>0.192023</speed><course>-1.000000</course><hAcc>4.799931</hAcc><vAcc>3.284084</vAcc></extensions></trkpt>
      <trkpt lon="-123.279429" lat="44.563336"><ele>72.983376</ele><time>2020-12-05T01:47:24Z</time><extensions><speed>0.053376</speed><course>-1.000000</course><hAcc>4.797007</hAcc><vAcc>3.288352</vAcc></extensions></trkpt>
      <trkpt lon="-123.279435" lat="44.563335"><ele>73.001305</ele><time>2020-12-05T01:47:25Z</time><extensions><speed>0.127021</speed><course>-1.000000</course><hAcc>4.801148</hAcc><vAcc>3.282302</vAcc></extensions></trkpt>
      <trkpt lon="-123.279436" lat="44.563337"><ele>72.941757</ele><time>2020-12-05T01:47:26Z</time><extensions><speed>0.036131</speed><course>-1.000000</course><hAcc>4.798697</hAcc><vAcc>3.285885</vAcc></extensions></trkpt>
      <trkpt lon="-123.279433" lat="44.563338"><ele>72.908524</ele><time>2020-12-05T01:47:27Z</time><extensions><speed>0.021824</speed><course>-1.000000</course><hAcc>4.801799</hAcc><vAcc>3.281351</vAcc></extensions></trkpt>
      <trkpt lon="-123.279431" lat="44.563338"><ele>72.878761</ele><time>2020-12-05T01:47:28Z</time><extensions><speed>0.039532</speed><course>-1.000000</course><hAcc>4.799513</hAcc><vAcc>3.284693</vAcc></extensions></trkpt>
      <trkpt lon="-123.279428" lat="44.563337"><ele>72.849106</ele><time>2020-12-05T01:47:29Z</time><extensions><speed>0.225313</speed><course>-1.000000</course><hAcc>4.803824</hAcc><vAcc>3.278386</vAcc></extensions></trkpt>
      <trkpt lon="-123.279426" lat="44.563332"><ele>72.807251</ele><time>2020-12-05T01:47:30Z</time><extensions><speed>0.047379</speed><course>-1.000000</course><hAcc>4.799631</hAcc><vAcc>3.284521</vAcc></extensions></trkpt>
      <trkpt lon="-123.279427" lat="44.563328"><ele>72.811996</ele><time>2020-12-05T01:47:31Z</time><extensions><speed>0.062032</speed><course>-1.000000</course><hAcc>4.794903</hAcc><vAcc>3.291420</vAcc></extensions></trkpt>
      <trkpt lon="-123.279422" lat="44.563326"><ele>72.687668</ele><time>2020-12-05T01:47:32Z</time><extensions><speed>0.092912</speed><course>-1.000000</course><hAcc>4.792920</hAcc><vAcc>3.294307</vAcc></extensions></trkpt>
      <trkpt lon="-123.279430" lat="44.563324"><ele>72.578094</ele><time>2020-12-05T01:47:33Z</time><extensions><speed>0.474359</speed><course>-1.000000</course><hAcc>4.794997</hAcc><vAcc>3.291283</vAcc></extensions></trkpt>
      <trkpt lon="-123.279424" lat="44.563320"><ele>73.064903</ele><time>2020-12-05T01:47:34Z</time><extensions><speed>0.244946</speed><course>-1.000000</course><hAcc>4.793768</hAcc><vAcc>3.293072</vAcc></extensions></trkpt>
      <trkpt lon="-123.279447" lat="44.563312"><ele>72.532295</ele><time>2020-12-05T01:47:35Z</time><extensions><speed>1.093579</speed><course>230.165802</course><hAcc>4.794116</hAcc><vAcc>3.292566</vAcc></extensions></trkpt>
      <trkpt lon="-123.279453" lat="44.563291"><ele>72.491165</ele><time>2020-12-05T01:47:36Z</time><extensions><speed>1.435339</speed><course>193.252945</course><hAcc>4.799266</hAcc><vAcc>3.285055</vAcc></extensions></trkpt>
      <trkpt lon="-123.279462" lat="44.563272"><ele>72.259598</ele><time>2020-12-05T01:47:37Z</time><extensions><speed>1.559890</speed><course>190.135208</course><hAcc>4.794233</hAcc><vAcc>3.292395</vAcc></extensions></trkpt>
      <trkpt lon="-123.279479" lat="44.563250"><ele>72.245506</ele><time>2020-12-05T01:47:38Z</time><extensions><speed>2.137454</speed><course>200.258118</course><hAcc>4.790135</hAcc><vAcc>3.298354</vAcc></extensions></trkpt>
      <trkpt lon="-123.279503" lat="44.563226"><ele>72.008316</ele><time>2020-12-05T01:47:39Z</time><extensions><speed>2.559273</speed><course>206.808655</course><hAcc>4.795819</hAcc><vAcc>3.290084</vAcc></extensions></trkpt>
      <trkpt lon="-123.279505" lat="44.563196"><ele>71.902779</ele><time>2020-12-05T01:47:40Z</time><extensions><speed>3.096090</speed><course>189.269928</course><hAcc>4.795582</hAcc><vAcc>3.290429</vAcc></extensions></trkpt>
      <trkpt lon="-123.279507" lat="44.563157"><ele>71.947914</ele><time>2020-12-05T01:47:41Z</time><extensions><speed>3.510677</speed><course>183.524902</course><hAcc>4.793584</hAcc><vAcc>3.293340</vAcc></extensions></trkpt>
      <trkpt lon="-123.279515" lat="44.563120"><ele>72.115601</ele><time>2020-12-05T01:47:42Z</time><extensions><speed>3.846905</speed><course>182.959747</course><hAcc>4.793917</hAcc><vAcc>3.292856</vAcc></extensions></trkpt>
      <trkpt lon="-123.279506" lat="44.563076"><ele>71.785576</ele><time>2020-12-05T01:47:43Z</time><extensions><speed>4.256204</speed><course>174.763763</course><hAcc>4.793273</hAcc><vAcc>3.293792</vAcc></extensions></trkpt>
      <trkpt lon="-123.279504" lat="44.563031"><ele>72.138214</ele><time>2020-12-05T01:47:44Z</time><extensions><speed>4.671619</speed><course>175.931610</course><hAcc>4.790700</hAcc><vAcc>3.297533</vAcc></extensions></trkpt>
      <trkpt lon="-123.279493" lat="44.562982"><ele>71.747543</ele><time>2020-12-05T01:47:45Z</time><extensions><speed>5.028828</speed><course>175.570175</course><hAcc>4.788560</hAcc><vAcc>3.300641</vAcc></extensions></trkpt>
      <trkpt lon="-123.279487" lat="44.562928"><ele>71.477310</ele><time>2020-12-05T01:47:46Z</time><extensions><speed>5.405750</speed><course>176.083099</course><hAcc>4.790097</hAcc><vAcc>3.298410</vAcc></extensions></trkpt>
      <trkpt lon="-123.279501" lat="44.562873"><ele>71.501060</ele><time>2020-12-05T01:47:47Z</time><extensions><speed>5.625791</speed><course>183.310394</course><hAcc>4.791684</hAcc><vAcc>3.296104</vAcc></extensions></trkpt>
      <trkpt lon="-123.279509" lat="44.562821"><ele>71.786407</ele><time>2020-12-05T01:47:48Z</time><extensions><speed>5.673122</speed><course>182.767654</course><hAcc>4.792365</hAcc><vAcc>3.295114</vAcc></extensions></trkpt>
      <trkpt lon="-123.279496" lat="44.562764"><ele>71.167381</ele><time>2020-12-05T01:47:49Z</time><extensions><speed>5.832502</speed><course>176.300827</course><hAcc>4.788686</hAcc><vAcc>3.300458</vAcc></extensions></trkpt>
      <trkpt lon="-123.279502" lat="44.562705"><ele>71.450401</ele><time>2020-12-05T01:47:50Z</time><extensions><speed>6.123114</speed><course>181.326157</course><hAcc>4.791207</hAcc><vAcc>3.296798</vAcc></extensions></trkpt>
      <trkpt lon="-123.279507" lat="44.562643"><ele>71.401344</ele><time>2020-12-05T01:47:51Z</time><extensions><speed>6.311551</speed><course>182.499969</course><hAcc>4.787099</hAcc><vAcc>3.302759</vAcc></extensions></trkpt>
      <trkpt lon="-123.279515" lat="44.562589"><ele>71.435959</ele><time>2020-12-05T01:47:52Z</time><extensions><speed>6.363367</speed><course>184.025620</course><hAcc>4.794656</hAcc><vAcc>3.291780</vAcc></extensions></trkpt>
      <trkpt lon="-123.279495" lat="44.562533"><ele>71.041435</ele><time>2020-12-05T01:47:53Z</time><extensions><speed>6.409549</speed><course>174.309814</course><hAcc>4.791482</hAcc><vAcc>3.296398</vAcc></extensions></trkpt>
      <trkpt lon="-123.279448" lat="44.562480"><ele>71.028763</ele><time>2020-12-05T01:47:54Z</time><extensions><speed>6.625780</speed><course>157.139801</course><hAcc>4.794492</hAcc><vAcc>3.292017</vAcc></extensions></trkpt>
      <trkpt lon="-123.279357" lat="44.562456"><ele>71.231300</ele><time>2020-12-05T01:47:55Z</time><extensions><speed>6.720826</speed><course>127.619553</course><hAcc>4.793918</hAcc><vAcc>3.292854</vAcc></extensions></trkpt>
      <trkpt lon="-123.279242" lat="44.562442"><ele>71.149925</ele><time>2020-12-05T01:47:56Z</time><extensions><speed>6.708084</speed><course>123.524559</course><hAcc>4.729792</hAcc><vAcc>3.384318</vAcc></extensions></trkpt>
      <trkpt lon="-123.279181" lat="44.562394"><ele>71.530792</ele><time>2020-12-05T01:47:57Z</time><extensions><speed>6.911588</speed><course>133.918442</course><hAcc>4.731945</hAcc><vAcc>3.381307</vAcc></extensions></trkpt>
      <trkpt lon="-123.279156" lat="44.562341"><ele>71.974373</ele><time>2020-12-05T01:47:58Z</time><extensions><speed>6.411979</speed><course>152.132141</course><hAcc>4.728577</hAcc><vAcc>3.386016</vAcc></extensions></trkpt>
      <trkpt lon="-123.279140" lat="44.562283"><ele>71.185349</ele><time>2020-12-05T01:47:59Z</time><extensions><speed>6.356034</speed><course>163.740631</course><hAcc>4.731628</hAcc><vAcc>3.381750</vAcc></extensions></trkpt>
      <trkpt lon="-123.279116" lat="44.562223"><ele>71.327820</ele><time>2020-12-05T01:48:00Z</time><extensions><speed>6.588323</speed><course>162.449448</course><hAcc>4.730531</hAcc><vAcc>3.383285</vAcc></extensions></trkpt>
      <trkpt lon="-123.279084" lat="44.562177"><ele>71.460228</ele><time>2020-12-05T01:48:01Z</time><extensions><speed>5.917854</speed><course>155.836182</course><hAcc>4.733897</hAcc><vAcc>3.378574</vAcc></extensions></trkpt>
      <trkpt lon="-123.279039" lat="44.562131"><ele>71.149277</ele><time>2020-12-05T01:48:02Z</time><extensions><speed>6.005734</speed><course>147.216644</course><hAcc>4.735742</hAcc><vAcc>3.375987</vAcc></extensions></trkpt>
      <trkpt lon="-123.278995" lat="44.562100"><ele>70.104813</ele><time>2020-12-05T01:48:03Z</time><extensions><speed>5.277920</speed><course>138.766403</course><hAcc>4.739209</hAcc><vAcc>3.371118</vAcc></extensions></trkpt>
      <trkpt lon="-123.278933" lat="44.562064"><ele>70.787750</ele><time>2020-12-05T01:48:04Z</time><extensions><speed>5.715007</speed><course>132.554703</course><hAcc>4.739501</hAcc><vAcc>3.370708</vAcc></extensions></trkpt>
      <trkpt lon="-123.278874" lat="44.562042"><ele>70.690193</ele><time>2020-12-05T01:48:05Z</time><extensions><speed>5.498888</speed><course>123.854591</course><hAcc>4.748818</hAcc><vAcc>3.357568</vAcc></extensions></trkpt>
      <trkpt lon="-123.278812" lat="44.562018"><ele>69.748405</ele><time>2020-12-05T01:48:06Z</time><extensions><speed>5.426581</speed><course>118.291191</course><hAcc>4.748285</hAcc><vAcc>3.358321</vAcc></extensions></trkpt>
      <trkpt lon="-123.278733" lat="44.562012"><ele>70.330727</ele><time>2020-12-05T01:48:07Z</time><extensions><speed>5.729233</speed><course>102.397690</course><hAcc>4.741840</hAcc><vAcc>3.367415</vAcc></extensions></trkpt>
      <trkpt lon="-123.278667" lat="44.562006"><ele>70.152283</ele><time>2020-12-05T01:48:08Z</time><extensions><speed>5.339649</speed><course>98.831329</course><hAcc>4.730612</hAcc><vAcc>3.383172</vAcc></extensions></trkpt>
      <trkpt lon="-123.278612" lat="44.562002"><ele>71.121567</ele><time>2020-12-05T01:48:09Z</time><extensions><speed>4.868815</speed><course>96.963631</course><hAcc>4.730399</hAcc><vAcc>3.383469</vAcc></extensions></trkpt>
      <trkpt lon="-123.278555" lat="44.561997"><ele>70.695679</ele><time>2020-12-05T01:48:10Z</time><extensions><speed>4.614959</speed><course>95.094223</course><hAcc>4.734380</hAcc><vAcc>3.377897</vAcc></extensions></trkpt>
      <trkpt lon="-123.278490" lat="44.561997"><ele>70.755936</ele><time>2020-12-05T01:48:11Z</time><extensions><speed>4.720923</speed><course>93.189583</course><hAcc>4.734080</hAcc><vAcc>3.378317</vAcc></extensions></trkpt>
      <trkpt lon="-123.278425" lat="44.561989"><ele>70.491974</ele><time>2020-12-05T01:48:12Z</time><extensions><speed>5.082499</speed><course>95.222298</course><hAcc>4.736169</hAcc><vAcc>3.375387</vAcc></extensions></trkpt>
      <trkpt lon="-123.278363" lat="44.561979"><ele>70.141853</ele><time>2020-12-05T01:48:13Z</time><extensions><speed>5.032419</speed><course>101.307213</course><hAcc>4.735990</hAcc><vAcc>3.375639</vAcc></extensions></trkpt>
      <trkpt lon="-123.278305" lat="44.561964"><ele>69.947441</ele><time>2020-12-05T01:48:14Z</time><extensions><speed>4.932196</speed><course>106.400948</course><hAcc>4.736504</hAcc><vAcc>3.374918</vAcc></extensions></trkpt>
      <trkpt lon="-123.278257" lat="44.561947"><ele>70.037598</ele><time>2020-12-05T01:48:15Z</time><extensions><speed>4.374074</speed><course>109.529755</course><hAcc>4.736040</hAcc><vAcc>3.375569</vAcc></extensions></trkpt>
      <trkpt lon="-123.278203" lat="44.561935"><ele>70.646202</ele><time>2020-12-05T01:48:16Z</time><extensions><speed>4.428477</speed><course>107.502075</course><hAcc>4.735567</hAcc><vAcc>3.376232</vAcc></extensions></trkpt>
      <trkpt lon="-123.278154" lat="44.561929"><ele>70.232254</ele><time>2020-12-05T01:48:17Z</time><extensions><speed>4.246078</speed><course>101.586380</course><hAcc>4.732796</hAcc><vAcc>3.380115</vAcc></extensions></trkpt>
      <trkpt lon="-123.278092" lat="44.561920"><ele>70.538658</ele><time>2020-12-05T01:48:18Z</time><extensions><speed>4.729956</speed><course>101.227058</course><hAcc>4.728430</hAcc><vAcc>3.386220</vAcc></extensions></trkpt>
      <trkpt lon="-123.278023" lat="44.561919"><ele>70.634529</ele><time>2020-12-05T01:48:19Z</time><extensions><speed>5.029197</speed><course>93.410660</course><hAcc>4.733840</hAcc><vAcc>3.378653</vAcc></extensions></trkpt>
      <trkpt lon="-123.277949" lat="44.561916"><ele>70.652641</ele><time>2020-12-05T01:48:20Z</time><extensions><speed>5.631946</speed><course>92.043930</course><hAcc>4.728924</hAcc><vAcc>3.385530</vAcc></extensions></trkpt>
      <trkpt lon="-123.277887" lat="44.561920"><ele>70.389175</ele><time>2020-12-05T01:48:21Z</time><extensions><speed>5.101195</speed><course>88.876328</course><hAcc>4.731139</hAcc><vAcc>3.382435</vAcc></extensions></trkpt>
      <trkpt lon="-123.277807" lat="44.561918"><ele>70.348122</ele><time>2020-12-05T01:48:22Z</time><extensions><speed>5.649387</speed><course>90.928772</course><hAcc>4.727986</hAcc><vAcc>3.386840</vAcc></extensions></trkpt>
      <trkpt lon="-123.277737" lat="44.561916"><ele>70.208115</ele><time>2020-12-05T01:48:23Z</time><extensions><speed>5.697714</speed><course>91.935127</course><hAcc>4.728820</hAcc><vAcc>3.385675</vAcc></extensions></trkpt>
      <trkpt lon="-123.277664" lat="44.561916"><ele>70.179314</ele><time>2020-12-05T01:48:24Z</time><extensions><speed>5.618805</speed><course>90.840553</course><hAcc>4.730777</hAcc><vAcc>3.382941</vAcc></extensions></trkpt>
      <trkpt lon="-123.277586" lat="44.561914"><ele>70.385132</ele><time>2020-12-05T01:48:25Z</time><extensions><speed>6.010935</speed><course>91.036774</course><hAcc>4.730037</hAcc><vAcc>3.383975</vAcc></extensions></trkpt>
      <trkpt lon="-123.277513" lat="44.561915"><ele>70.032639</ele><time>2020-12-05T01:48:26Z</time><extensions><speed>5.834113</speed><course>91.096039</course><hAcc>4.735101</hAcc><vAcc>3.376885</vAcc></extensions></trkpt>
      <trkpt lon="-123.277434" lat="44.561919"><ele>70.294556</ele><time>2020-12-05T01:48:27Z</time><extensions><speed>5.990856</speed><course>89.055244</course><hAcc>4.734070</hAcc><vAcc>3.378330</vAcc></extensions></trkpt>
      <trkpt lon="-123.277355" lat="44.561915"><ele>69.836578</ele><time>2020-12-05T01:48:28Z</time><extensions><speed>6.248121</speed><course>92.184860</course><hAcc>4.732286</hAcc><vAcc>3.380829</vAcc></extensions></trkpt>
      <trkpt lon="-123.277280" lat="44.561911"><ele>70.034462</ele><time>2020-12-05T01:48:29Z</time><extensions><speed>6.172995</speed><course>94.263718</course><hAcc>4.736712</hAcc><vAcc>3.374625</vAcc></extensions></trkpt>
      <trkpt lon="-123.277195" lat="44.561913"><ele>69.596031</ele><time>2020-12-05T01:48:30Z</time><extensions><speed>6.307838</speed><course>90.506027</course><hAcc>4.732861</hAcc><vAcc>3.380024</vAcc></extensions></trkpt>
      <trkpt lon="-123.277104" lat="44.561913"><ele>69.507988</ele><time>2020-12-05T01:48:31Z</time><extensions><speed>6.747886</speed><course>89.705322</course><hAcc>4.731990</hAcc><vAcc>3.381244</vAcc></extensions></trkpt>
      <trkpt lon="-123.277015" lat="44.561909"><ele>69.725258</ele><time>2020-12-05T01:48:32Z</time><extensions><speed>7.173054</speed><course>91.255676</course><hAcc>4.735221</hAcc><vAcc>3.376716</vAcc></extensions></trkpt>
      <trkpt lon="-123.276941" lat="44.561912"><ele>70.159569</ele><time>2020-12-05T01:48:33Z</time><extensions><speed>6.395685</speed><course>89.129379</course><hAcc>4.732037</hAcc><vAcc>3.381178</vAcc></extensions></trkpt>
      <trkpt lon="-123.276854" lat="44.561903"><ele>69.795769</ele><time>2020-12-05T01:48:34Z</time><extensions><speed>6.599098</speed><course>92.237473</course><hAcc>4.731555</hAcc><vAcc>3.381852</vAcc></extensions></trkpt>
      <trkpt lon="-123.276776" lat="44.561903"><ele>69.789055</ele><time>2020-12-05T01:48:35Z</time><extensions><speed>6.365685</speed><course>91.765663</course><hAcc>4.737499</hAcc><vAcc>3.373521</vAcc></extensions></trkpt>
      <trkpt lon="-123.276708" lat="44.561888"><ele>69.401924</ele><time>2020-12-05T01:48:36Z</time><extensions><speed>5.930862</speed><course>100.747124</course><hAcc>4.738566</hAcc><vAcc>3.372021</vAcc></extensions></trkpt>
      <trkpt lon="-123.276625" lat="44.561894"><ele>69.648811</ele><time>2020-12-05T01:48:37Z</time><extensions><speed>6.050463</speed><course>92.020584</course><hAcc>4.738902</hAcc><vAcc>3.371549</vAcc></extensions></trkpt>
      <trkpt lon="-123.276544" lat="44.561899"><ele>69.351921</ele><time>2020-12-05T01:48:38Z</time><extensions><speed>6.216855</speed><course>86.566154</course><hAcc>4.733068</hAcc><vAcc>3.379734</vAcc></extensions></trkpt>
      <trkpt lon="-123.276450" lat="44.561898"><ele>69.868713</ele><time>2020-12-05T01:48:39Z</time><extensions><speed>6.916039</speed><course>88.945786</course><hAcc>4.737484</hAcc><vAcc>3.373543</vAcc></extensions></trkpt>
      <trkpt lon="-123.276384" lat="44.561883"><ele>69.279243</ele><time>2020-12-05T01:48:40Z</time><extensions><speed>6.122856</speed><course>96.776169</course><hAcc>4.733930</hAcc><vAcc>3.378527</vAcc></extensions></trkpt>
      <trkpt lon="-123.276302" lat="44.561886"><ele>69.699089</ele><time>2020-12-05T01:48:41Z</time><extensions><speed>6.223027</speed><course>91.340836</course><hAcc>4.735190</hAcc><vAcc>3.376760</vAcc></extensions></trkpt>
      <trkpt lon="-123.276244" lat="44.561879"><ele>69.076584</ele><time>2020-12-05T01:48:42Z</time><extensions><speed>5.403572</speed><course>95.082817</course><hAcc>4.737099</hAcc><vAcc>3.374082</vAcc></extensions></trkpt>
      <trkpt lon="-123.276158" lat="44.561880"><ele>69.461205</ele><time>2020-12-05T01:48:43Z</time><extensions><speed>6.184415</speed><course>92.992935</course><hAcc>4.737374</hAcc><vAcc>3.373696</vAcc></extensions></trkpt>
      <trkpt lon="-123.276082" lat="44.561884"><ele>69.807236</ele><time>2020-12-05T01:48:44Z</time><extensions><speed>6.190854</speed><course>88.335922</course><hAcc>4.732886</hAcc><vAcc>3.379989</vAcc></extensions></trkpt>
      <trkpt lon="-123.276011" lat="44.561883"><ele>69.573013</ele><time>2020-12-05T01:48:45Z</time><extensions><speed>6.025209</speed><course>88.478828</course><hAcc>4.732843</hAcc><vAcc>3.380049</vAcc></extensions></trkpt>
      <trkpt lon="-123.275955" lat="44.561879"><ele>69.627136</ele><time>2020-12-05T01:48:46Z</time><extensions><speed>5.391881</speed><course>89.220467</course><hAcc>4.733911</hAcc><vAcc>3.378554</vAcc></extensions></trkpt>
      <trkpt lon="-123.275878" lat="44.561889"><ele>69.875359</ele><time>2020-12-05T01:48:47Z</time><extensions><speed>5.754048</speed><course>82.418648</course><hAcc>4.734344</hAcc><vAcc>3.377947</vAcc></extensions></trkpt>
      <trkpt lon="-123.275808" lat="44.561890"><ele>69.641350</ele><time>2020-12-05T01:48:48Z</time><extensions><speed>5.761032</speed><course>84.134468</course><hAcc>4.734834</hAcc><vAcc>3.377260</vAcc></extensions></trkpt>
      <trkpt lon="-123.275747" lat="44.561901"><ele>69.639610</ele><time>2020-12-05T01:48:49Z</time><extensions><speed>5.318410</speed><course>80.532860</course><hAcc>4.736575</hAcc><vAcc>3.374818</vAcc></extensions></trkpt>
      <trkpt lon="-123.275657" lat="44.561917"><ele>70.082794</ele><time>2020-12-05T01:48:50Z</time><extensions><speed>6.278714</speed><course>79.439552</course><hAcc>4.736348</hAcc><vAcc>3.375136</vAcc></extensions></trkpt>
      <trkpt lon="-123.275587" lat="44.561918"><ele>70.263885</ele><time>2020-12-05T01:48:51Z</time><extensions><speed>6.007990</speed><course>84.639435</course><hAcc>4.736359</hAcc><vAcc>3.375121</vAcc></extensions></trkpt>
      <trkpt lon="-123.275520" lat="44.561913"><ele>70.034554</ele><time>2020-12-05T01:48:52Z</time><extensions><speed>5.407803</speed><course>91.289940</course><hAcc>4.737583</hAcc><vAcc>3.373403</vAcc></extensions></trkpt>
      <trkpt lon="-123.275439" lat="44.561912"><ele>70.198753</ele><time>2020-12-05T01:48:53Z</time><extensions><speed>6.003522</speed><course>89.669769</course><hAcc>4.735365</hAcc><vAcc>3.376515</vAcc></extensions></trkpt>
      <trkpt lon="-123.275356" lat="44.561912"><ele>69.749252</ele><time>2020-12-05T01:48:54Z</time><extensions><speed>6.398860</speed><course>89.748528</course><hAcc>4.737866</hAcc><vAcc>3.373005</vAcc></extensions></trkpt>
      <trkpt lon="-123.275290" lat="44.561916"><ele>69.690453</ele><time>2020-12-05T01:48:55Z</time><extensions><speed>5.691839</speed><course>88.757301</course><hAcc>4.736824</hAcc><vAcc>3.374468</vAcc></extensions></trkpt>
      <trkpt lon="-123.275212" lat="44.561913"><ele>69.737854</ele><time>2020-12-05T01:48:56Z</time><extensions><speed>5.920674</speed><course>91.391907</course><hAcc>4.735198</hAcc><vAcc>3.376749</vAcc></extensions></trkpt>
      <trkpt lon="-123.275145" lat="44.561911"><ele>69.592079</ele><time>2020-12-05T01:48:57Z</time><extensions><speed>5.509950</speed><course>93.116516</course><hAcc>4.737498</hAcc><vAcc>3.373523</vAcc></extensions></trkpt>
      <trkpt lon="-123.275069" lat="44.561913"><ele>69.381020</ele><time>2020-12-05T01:48:58Z</time><extensions><speed>5.614120</speed><course>90.790901</course><hAcc>4.733558</hAcc><vAcc>3.379048</vAcc></extensions></trkpt>
      <trkpt lon="-123.275002" lat="44.561910"><ele>69.813942</ele><time>2020-12-05T01:48:59Z</time><extensions><speed>5.625581</speed><course>91.743126</course><hAcc>4.734486</hAcc><vAcc>3.377748</vAcc></extensions></trkpt>
      <trkpt lon="-123.274933" lat="44.561911"><ele>70.004868</ele><time>2020-12-05T01:49:00Z</time><extensions><speed>5.457797</speed><course>91.045395</course><hAcc>4.733034</hAcc><vAcc>3.379781</vAcc></extensions></trkpt>
      <trkpt lon="-123.274855" lat="44.561912"><ele>70.138939</ele><time>2020-12-05T01:49:01Z</time><extensions><speed>5.783745</speed><course>89.625298</course><hAcc>4.731650</hAcc><vAcc>3.381719</vAcc></extensions></trkpt>
      <trkpt lon="-123.274783" lat="44.561909"><ele>69.627571</ele><time>2020-12-05T01:49:02Z</time><extensions><speed>5.743846</speed><course>91.484917</course><hAcc>4.735682</hAcc><vAcc>3.376071</vAcc></extensions></trkpt>
      <trkpt lon="-123.274710" lat="44.561914"><ele>69.540726</ele><time>2020-12-05T01:49:03Z</time><extensions><speed>5.538747</speed><course>89.631813</course><hAcc>4.734593</hAcc><vAcc>3.377598</vAcc></extensions></trkpt>
      <trkpt lon="-123.274642" lat="44.561916"><ele>69.830627</ele><time>2020-12-05T01:49:04Z</time><extensions><speed>5.320349</speed><course>88.154320</course><hAcc>4.729245</hAcc><vAcc>3.385082</vAcc></extensions></trkpt>
      <trkpt lon="-123.274580" lat="44.561916"><ele>69.390396</ele><time>2020-12-05T01:49:05Z</time><extensions><speed>5.049255</speed><course>92.018234</course><hAcc>4.732140</hAcc><vAcc>3.381033</vAcc></extensions></trkpt>
      <trkpt lon="-123.274500" lat="44.561900"><ele>69.403870</ele><time>2020-12-05T01:49:06Z</time><extensions><speed>5.716021</speed><course>104.480522</course><hAcc>4.728281</hAcc><vAcc>3.386428</vAcc></extensions></trkpt>
      <trkpt lon="-123.274458" lat="44.561864"><ele>69.521721</ele><time>2020-12-05T01:49:07Z</time><extensions><speed>5.351932</speed><course>131.246719</course><hAcc>4.730196</hAcc><vAcc>3.383753</vAcc></extensions></trkpt>
      <trkpt lon="-123.274454" lat="44.561820"><ele>69.517967</ele><time>2020-12-05T01:49:08Z</time><extensions><speed>4.747676</speed><course>161.110703</course><hAcc>4.727353</hAcc><vAcc>3.387723</vAcc></extensions></trkpt>
      <trkpt lon="-123.274467" lat="44.561767"><ele>70.321297</ele><time>2020-12-05T01:49:09Z</time><extensions><speed>5.464723</speed><course>182.244873</course><hAcc>4.727777</hAcc><vAcc>3.387131</vAcc></extensions></trkpt>
      <trkpt lon="-123.274458" lat="44.561721"><ele>69.227722</ele><time>2020-12-05T01:49:10Z</time><extensions><speed>5.289673</speed><course>176.956482</course><hAcc>4.735051</hAcc><vAcc>3.376955</vAcc></extensions></trkpt>
      <trkpt lon="-123.274463" lat="44.561660"><ele>69.269302</ele><time>2020-12-05T01:49:11Z</time><extensions><speed>6.120563</speed><course>177.684769</course><hAcc>4.730557</hAcc><vAcc>3.383248</vAcc></extensions></trkpt>
      <trkpt lon="-123.274471" lat="44.561602"><ele>69.321571</ele><time>2020-12-05T01:49:12Z</time><extensions><speed>6.611115</speed><course>182.332596</course><hAcc>4.741651</hAcc><vAcc>3.367682</vAcc></extensions></trkpt>
      <trkpt lon="-123.274469" lat="44.561555"><ele>69.888275</ele><time>2020-12-05T01:49:13Z</time><extensions><speed>5.932754</speed><course>180.934082</course><hAcc>4.739061</hAcc><vAcc>3.371326</vAcc></extensions></trkpt>
      <trkpt lon="-123.274460" lat="44.561500"><ele>70.194237</ele><time>2020-12-05T01:49:14Z</time><extensions><speed>5.944163</speed><course>176.308594</course><hAcc>4.735600</hAcc><vAcc>3.376186</vAcc></extensions></trkpt>
      <trkpt lon="-123.274446" lat="44.561440"><ele>71.048515</ele><time>2020-12-05T01:49:15Z</time><extensions><speed>6.598000</speed><course>171.766647</course><hAcc>4.738167</hAcc><vAcc>3.372582</vAcc></extensions></trkpt>
      <trkpt lon="-123.274422" lat="44.561384"><ele>70.463707</ele><time>2020-12-05T01:49:16Z</time><extensions><speed>6.461589</speed><course>167.114517</course><hAcc>4.736120</hAcc><vAcc>3.375456</vAcc></extensions></trkpt>
      <trkpt lon="-123.274392" lat="44.561325"><ele>70.714981</ele><time>2020-12-05T01:49:17Z</time><extensions><speed>6.745813</speed><course>162.042419</course><hAcc>4.735153</hAcc><vAcc>3.376813</vAcc></extensions></trkpt>
      <trkpt lon="-123.274352" lat="44.561270"><ele>70.531479</ele><time>2020-12-05T01:49:18Z</time><extensions><speed>6.873109</speed><course>154.716949</course><hAcc>4.733182</hAcc><vAcc>3.379574</vAcc></extensions></trkpt>
      <trkpt lon="-123.274319" lat="44.561220"><ele>70.762344</ele><time>2020-12-05T01:49:19Z</time><extensions><speed>6.575867</speed><course>156.479340</course><hAcc>4.736067</hAcc><vAcc>3.375531</vAcc></extensions></trkpt>
      <trkpt lon="-123.274288" lat="44.561164"><ele>69.962143</ele><time>2020-12-05T01:49:20Z</time><extensions><speed>6.581998</speed><course>159.385452</course><hAcc>4.737810</hAcc><vAcc>3.373084</vAcc></extensions></trkpt>
      <trkpt lon="-123.274280" lat="44.561104"><ele>71.417107</ele><time>2020-12-05T01:49:21Z</time><extensions><speed>6.599598</speed><course>169.500534</course><hAcc>4.738554</hAcc><vAcc>3.372039</vAcc></extensions></trkpt>
      <trkpt lon="-123.274266" lat="44.561034"><ele>71.152367</ele><time>2020-12-05T01:49:22Z</time><extensions><speed>7.306624</speed><course>172.789551</course><hAcc>4.731661</hAcc><vAcc>3.381704</vAcc></extensions></trkpt>
      <trkpt lon="-123.274267" lat="44.560970"><ele>70.666626</ele><time>2020-12-05T01:49:23Z</time><extensions><speed>7.484645</speed><course>178.752029</course><hAcc>4.732378</hAcc><vAcc>3.380701</vAcc></extensions></trkpt>
      <trkpt lon="-123.274256" lat="44.560907"><ele>70.373413</ele><time>2020-12-05T01:49:24Z</time><extensions><speed>7.302765</speed><course>175.243744</course><hAcc>4.735444</hAcc><vAcc>3.376404</vAcc></extensions></trkpt>
      <trkpt lon="-123.274252" lat="44.560849"><ele>70.698830</ele><time>2020-12-05T01:49:25Z</time><extensions><speed>6.896328</speed><course>174.709656</course><hAcc>4.730540</hAcc><vAcc>3.383271</vAcc></extensions></trkpt>
      <trkpt lon="-123.274247" lat="44.560786"><ele>70.589043</ele><time>2020-12-05T01:49:26Z</time><extensions><speed>6.921243</speed><course>175.805359</course><hAcc>4.729918</hAcc><vAcc>3.384142</vAcc></extensions></trkpt>
      <trkpt lon="-123.274233" lat="44.560729"><ele>71.238281</ele><time>2020-12-05T01:49:27Z</time><extensions><speed>6.864317</speed><course>173.414871</course><hAcc>4.732365</hAcc><vAcc>3.380719</vAcc></extensions></trkpt>
      <trkpt lon="-123.274226" lat="44.560666"><ele>71.251411</ele><time>2020-12-05T01:49:28Z</time><extensions><speed>6.967995</speed><course>175.110703</course><hAcc>4.736252</hAcc><vAcc>3.375271</vAcc></extensions></trkpt>
      <trkpt lon="-123.274191" lat="44.560610"><ele>69.783928</ele><time>2020-12-05T01:49:29Z</time><extensions><speed>6.715753</speed><course>167.113968</course><hAcc>4.737095</hAcc><vAcc>3.374087</vAcc></extensions></trkpt>
      <trkpt lon="-123.274184" lat="44.560540"><ele>69.815926</ele><time>2020-12-05T01:49:30Z</time><extensions><speed>7.225450</speed><course>170.422165</course><hAcc>4.733085</hAcc><vAcc>3.379711</vAcc></extensions></trkpt>
      <trkpt lon="-123.274172" lat="44.560479"><ele>69.182022</ele><time>2020-12-05T01:49:31Z</time><extensions><speed>6.992150</speed><course>172.944016</course><hAcc>4.734842</hAcc><vAcc>3.377249</vAcc></extensions></trkpt>
      <trkpt lon="-123.274170" lat="44.560422"><ele>69.343979</ele><time>2020-12-05T01:49:32Z</time><extensions><speed>6.556102</speed><course>177.056702</course><hAcc>4.733877</hAcc><vAcc>3.378602</vAcc></extensions></trkpt>
      <trkpt lon="-123.274154" lat="44.560365"><ele>69.257347</ele><time>2020-12-05T01:49:33Z</time><extensions><speed>6.443681</speed><course>171.602127</course><hAcc>4.732550</hAcc><vAcc>3.380459</vAcc></extensions></trkpt>
      <trkpt lon="-123.274138" lat="44.560316"><ele>69.775887</ele><time>2020-12-05T01:49:34Z</time><extensions><speed>6.006240</speed><course>168.185089</course><hAcc>4.730047</hAcc><vAcc>3.383961</vAcc></extensions></trkpt>
      <trkpt lon="-123.274114" lat="44.560266"><ele>69.110451</ele><time>2020-12-05T01:49:35Z</time><extensions><speed>5.730489</speed><course>164.839386</course><hAcc>4.732828</hAcc><vAcc>3.380070</vAcc></extensions></trkpt>
      <trkpt lon="-123.274090" lat="44.560220"><ele>69.647705</ele><time>2020-12-05T01:49:36Z</time><extensions><speed>5.597649</speed><course>159.687805</course><hAcc>4.733921</hAcc><vAcc>3.378540</vAcc></extensions></trkpt>
      <trkpt lon="-123.274040" lat="44.560185"><ele>69.379539</ele><time>2020-12-05T01:49:37Z</time><extensions><speed>5.398085</speed><course>141.934723</course><hAcc>4.732757</hAcc><vAcc>3.380170</vAcc></extensions></trkpt>
      <trkpt lon="-123.273987" lat="44.560151"><ele>70.396790</ele><time>2020-12-05T01:49:38Z</time><extensions><speed>5.665979</speed><course>136.735367</course><hAcc>4.731703</hAcc><vAcc>3.381645</vAcc></extensions></trkpt>
      <trkpt lon="-123.273950" lat="44.560118"><ele>70.208511</ele><time>2020-12-05T01:49:39Z</time><extensions><speed>4.937387</speed><course>143.498093</course><hAcc>4.734944</hAcc><vAcc>3.377105</vAcc></extensions></trkpt>
      <trkpt lon="-123.273896" lat="44.560083"><ele>69.852539</ele><time>2020-12-05T01:49:40Z</time><extensions><speed>5.326603</speed><course>135.501038</course><hAcc>4.732168</hAcc><vAcc>3.380994</vAcc></extensions></trkpt>
      <trkpt lon="-123.273841" lat="44.560046"><ele>70.267296</ele><time>2020-12-05T01:49:41Z</time><extensions><speed>5.894849</speed><course>133.027954</course><hAcc>4.735944</hAcc><vAcc>3.375703</vAcc></extensions></trkpt>
      <trkpt lon="-123.273782" lat="44.560025"><ele>70.053635</ele><time>2020-12-05T01:49:42Z</time><extensions><speed>5.359474</speed><course>122.619934</course><hAcc>4.735389</hAcc><vAcc>3.376482</vAcc></extensions></trkpt>
      <trkpt lon="-123.273729" lat="44.559997"><ele>69.995781</ele><time>2020-12-05T01:49:43Z</time><extensions><speed>5.166238</speed><course>121.759598</course><hAcc>4.733357</hAcc><vAcc>3.379329</vAcc></extensions></trkpt>
      <trkpt lon="-123.273657" lat="44.559990"><ele>70.443680</ele><time>2020-12-05T01:49:44Z</time><extensions><speed>5.192216</speed><course>104.892380</course><hAcc>4.736402</hAcc><vAcc>3.375061</vAcc></extensions></trkpt>
      <trkpt lon="-123.273588" lat="44.560000"><ele>70.242310</ele><time>2020-12-05T01:49:45Z</time><extensions><speed>5.215559</speed><course>86.379906</course><hAcc>4.735992</hAcc><vAcc>3.375635</vAcc></extensions></trkpt>
      <trkpt lon="-123.273527" lat="44.560016"><ele>70.298241</ele><time>2020-12-05T01:49:46Z</time><extensions><speed>4.882531</speed><course>75.746704</course><hAcc>4.728402</hAcc><vAcc>3.386259</vAcc></extensions></trkpt>
      <trkpt lon="-123.273466" lat="44.560016"><ele>70.049133</ele><time>2020-12-05T01:49:47Z</time><extensions><speed>4.795162</speed><course>81.778435</course><hAcc>4.742396</hAcc><vAcc>3.366633</vAcc></extensions></trkpt>
      <trkpt lon="-123.273405" lat="44.560021"><ele>70.232758</ele><time>2020-12-05T01:49:48Z</time><extensions><speed>4.814047</speed><course>81.223793</course><hAcc>4.724805</hAcc><vAcc>3.391275</vAcc></extensions></trkpt>
      <trkpt lon="-123.273361" lat="44.560021"><ele>69.806664</ele><time>2020-12-05T01:49:49Z</time><extensions><speed>4.033909</speed><course>83.805237</course><hAcc>4.739811</hAcc><vAcc>3.370270</vAcc></extensions></trkpt>
      <trkpt lon="-123.273312" lat="44.560021"><ele>70.048340</ele><time>2020-12-05T01:49:50Z</time><extensions><speed>3.676875</speed><course>86.291603</course><hAcc>4.739867</hAcc><vAcc>3.370192</vAcc></extensions></trkpt>
      <trkpt lon="-123.273271" lat="44.560014"><ele>69.613930</ele><time>2020-12-05T01:49:51Z</time><extensions><speed>3.210848</speed><course>93.300056</course><hAcc>4.741623</hAcc><vAcc>3.367721</vAcc></extensions></trkpt>
      <trkpt lon="-123.273229" lat="44.560009"><ele>70.061607</ele><time>2020-12-05T01:49:52Z</time><extensions><speed>2.991566</speed><course>96.758949</course><hAcc>4.755282</hAcc><vAcc>3.348407</vAcc></extensions></trkpt>
      <trkpt lon="-123.273181" lat="44.560028"><ele>70.026154</ele><time>2020-12-05T01:49:53Z</time><extensions><speed>3.055333</speed><course>76.140205</course><hAcc>4.742430</hAcc><vAcc>3.366585</vAcc></extensions></trkpt>
      <trkpt lon="-123.273157" lat="44.560019"><ele>69.028793</ele><time>2020-12-05T01:49:54Z</time><extensions><speed>2.643079</speed><course>87.168343</course><hAcc>4.743729</hAcc><vAcc>3.364755</vAcc></extensions></trkpt>
      <trkpt lon="-123.273113" lat="44.560011"><ele>69.535950</ele><time>2020-12-05T01:49:55Z</time><extensions><speed>3.157966</speed><course>95.476967</course><hAcc>4.744569</hAcc><vAcc>3.363570</vAcc></extensions></trkpt>
      <trkpt lon="-123.273050" lat="44.560016"><ele>69.267914</ele><time>2020-12-05T01:49:56Z</time><extensions><speed>4.192247</speed><course>86.712631</course><hAcc>4.754824</hAcc><vAcc>3.349058</vAcc></extensions></trkpt>
      <trkpt lon="-123.272997" lat="44.560034"><ele>68.997475</ele><time>2020-12-05T01:49:57Z</time><extensions><speed>4.221519</speed><course>75.812965</course><hAcc>4.760622</hAcc><vAcc>3.340811</vAcc></extensions></trkpt>
      <trkpt lon="-123.272948" lat="44.560017"><ele>69.369118</ele><time>2020-12-05T01:49:58Z</time><extensions><speed>4.152904</speed><course>91.725372</course><hAcc>4.746738</hAcc><vAcc>3.360508</vAcc></extensions></trkpt>
      <trkpt lon="-123.272897" lat="44.560029"><ele>69.165100</ele><time>2020-12-05T01:49:59Z</time><extensions><speed>3.599023</speed><course>85.686371</course><hAcc>4.744703</hAcc><vAcc>3.363381</vAcc></extensions></trkpt>
      <trkpt lon="-123.272838" lat="44.560032"><ele>69.511787</ele><time>2020-12-05T01:50:00Z</time><extensions><speed>4.109420</speed><course>88.624702</course><hAcc>4.741295</hAcc><vAcc>3.368183</vAcc></extensions></trkpt>
      <trkpt lon="-123.272781" lat="44.560039"><ele>69.014191</ele><time>2020-12-05T01:50:01Z</time><extensions><speed>3.994087</speed><course>80.969574</course><hAcc>4.743690</hAcc><vAcc>3.364810</vAcc></extensions></trkpt>
      <trkpt lon="-123.272724" lat="44.560043"><ele>69.533157</ele><time>2020-12-05T01:50:02Z</time><extensions><speed>4.356211</speed><course>81.683434</course><hAcc>4.755772</hAcc><vAcc>3.347711</vAcc></extensions></trkpt>
      <trkpt lon="-123.272661" lat="44.560067"><ele>68.992249</ele><time>2020-12-05T01:50:03Z</time><extensions><speed>4.316763</speed><course>72.022392</course><hAcc>4.740340</hAcc><vAcc>3.369527</vAcc></extensions></trkpt>
      <trkpt lon="-123.272592" lat="44.560061"><ele>69.539246</ele><time>2020-12-05T01:50:04Z</time><extensions><speed>4.763111</speed><course>89.769035</course><hAcc>4.738497</hAcc><vAcc>3.372118</vAcc></extensions></trkpt>
      <trkpt lon="-123.272529" lat="44.560069"><ele>68.735176</ele><time>2020-12-05T01:50:05Z</time><extensions><speed>4.617076</speed><course>86.138741</course><hAcc>4.739097</hAcc><vAcc>3.371275</vAcc></extensions></trkpt>
      <trkpt lon="-123.272455" lat="44.560080"><ele>69.677925</ele><time>2020-12-05T01:50:06Z</time><extensions><speed>5.390348</speed><course>80.939354</course><hAcc>4.733478</hAcc><vAcc>3.379161</vAcc></extensions></trkpt>
      <trkpt lon="-123.272390" lat="44.560080"><ele>69.411972</ele><time>2020-12-05T01:50:07Z</time><extensions><speed>5.192281</speed><course>86.456612</course><hAcc>4.737311</hAcc><vAcc>3.373785</vAcc></extensions></trkpt>
      <trkpt lon="-123.272333" lat="44.560079"><ele>69.251312</ele><time>2020-12-05T01:50:08Z</time><extensions><speed>4.809701</speed><course>87.682632</course><hAcc>4.734054</hAcc><vAcc>3.378354</vAcc></extensions></trkpt>
      <trkpt lon="-123.272277" lat="44.560077"><ele>69.094666</ele><time>2020-12-05T01:50:09Z</time><extensions><speed>4.501503</speed><course>91.299370</course><hAcc>4.740267</hAcc><vAcc>3.369630</vAcc></extensions></trkpt>
      <trkpt lon="-123.272210" lat="44.560088"><ele>69.951439</ele><time>2020-12-05T01:50:10Z</time><extensions><speed>4.844983</speed><course>83.944748</course><hAcc>4.747007</hAcc><vAcc>3.360129</vAcc></extensions></trkpt>
      <trkpt lon="-123.272139" lat="44.560102"><ele>69.654877</ele><time>2020-12-05T01:50:11Z</time><extensions><speed>5.297639</speed><course>79.767563</course><hAcc>4.751719</hAcc><vAcc>3.353462</vAcc></extensions></trkpt>
      <trkpt lon="-123.272073" lat="44.560087"><ele>69.189926</ele><time>2020-12-05T01:50:12Z</time><extensions><speed>5.215576</speed><course>94.016525</course><hAcc>4.743699</hAcc><vAcc>3.364797</vAcc></extensions></trkpt>
      <trkpt lon="-123.272013" lat="44.560083"><ele>69.270592</ele><time>2020-12-05T01:50:13Z</time><extensions><speed>4.833600</speed><course>99.130203</course><hAcc>4.736051</hAcc><vAcc>3.375554</vAcc></extensions></trkpt>
      <trkpt lon="-123.271953" lat="44.560079"><ele>69.383293</ele><time>2020-12-05T01:50:14Z</time><extensions><speed>4.710811</speed><course>98.430496</course><hAcc>4.731381</hAcc><vAcc>3.382096</vAcc></extensions></trkpt>
      <trkpt lon="-123.271896" lat="44.560085"><ele>69.022827</ele><time>2020-12-05T01:50:15Z</time><extensions><speed>4.511338</speed><course>87.083717</course><hAcc>4.739991</hAcc><vAcc>3.370019</vAcc></extensions></trkpt>
      <trkpt lon="-123.271826" lat="44.560093"><ele>69.350937</ele><time>2020-12-05T01:50:16Z</time><extensions><speed>4.941979</speed><course>84.012161</course><hAcc>4.735538</hAcc><vAcc>3.376273</vAcc></extensions></trkpt>
      <trkpt lon="-123.271757" lat="44.560103"><ele>69.422737</ele><time>2020-12-05T01:50:17Z</time><extensions><speed>5.303015</speed><course>84.133942</course><hAcc>4.737718</hAcc><vAcc>3.373213</vAcc></extensions></trkpt>
      <trkpt lon="-123.271687" lat="44.560113"><ele>68.922005</ele><time>2020-12-05T01:50:18Z</time><extensions><speed>5.376595</speed><course>79.795059</course><hAcc>4.733775</hAcc><vAcc>3.378744</vAcc></extensions></trkpt>
      <trkpt lon="-123.271612" lat="44.560119"><ele>69.037590</ele><time>2020-12-05T01:50:19Z</time><extensions><speed>5.806497</speed><course>84.040733</course><hAcc>4.737697</hAcc><vAcc>3.373243</vAcc></extensions></trkpt>
      <trkpt lon="-123.271548" lat="44.560122"><ele>69.106529</ele><time>2020-12-05T01:50:20Z</time><extensions><speed>5.340901</speed><course>86.427773</course><hAcc>4.741975</hAcc><vAcc>3.367226</vAcc></extensions></trkpt>
      <trkpt lon="-123.271478" lat="44.560119"><ele>69.560936</ele><time>2020-12-05T01:50:21Z</time><extensions><speed>5.440244</speed><course>92.276184</course><hAcc>4.736643</hAcc><vAcc>3.374722</vAcc></extensions></trkpt>
      <trkpt lon="-123.271420" lat="44.560110"><ele>69.607025</ele><time>2020-12-05T01:50:22Z</time><extensions><speed>5.022704</speed><course>98.428169</course><hAcc>4.741482</hAcc><vAcc>3.367920</vAcc></extensions></trkpt>
      <trkpt lon="-123.271356" lat="44.560101"><ele>70.080856</ele><time>2020-12-05T01:50:23Z</time><extensions><speed>5.083141</speed><course>99.088310</course><hAcc>4.736355</hAcc><vAcc>3.375127</vAcc></extensions></trkpt>
      <trkpt lon="-123.271287" lat="44.560098"><ele>69.879990</ele><time>2020-12-05T01:50:24Z</time><extensions><speed>5.395150</speed><course>96.902138</course><hAcc>4.740076</hAcc><vAcc>3.369899</vAcc></extensions></trkpt>
      <trkpt lon="-123.271223" lat="44.560103"><ele>69.416191</ele><time>2020-12-05T01:50:25Z</time><extensions><speed>5.109396</speed><course>88.179382</course><hAcc>4.739743</hAcc><vAcc>3.370367</vAcc></extensions></trkpt>
      <trkpt lon="-123.271149" lat="44.560102"><ele>69.826103</ele><time>2020-12-05T01:50:26Z</time><extensions><speed>5.528455</speed><course>90.584541</course><hAcc>4.742212</hAcc><vAcc>3.366892</vAcc></extensions></trkpt>
      <trkpt lon="-123.271086" lat="44.560090"><ele>69.018456</ele><time>2020-12-05T01:50:27Z</time><extensions><speed>5.064306</speed><course>109.204590</course><hAcc>4.750586</hAcc><vAcc>3.355067</vAcc></extensions></trkpt>
      <trkpt lon="-123.271049" lat="44.560028"><ele>68.299698</ele><time>2020-12-05T01:50:28Z</time><extensions><speed>5.772329</speed><course>146.973251</course><hAcc>4.738451</hAcc><vAcc>3.372183</vAcc></extensions></trkpt>
      <trkpt lon="-123.271056" lat="44.559978"><ele>68.975113</ele><time>2020-12-05T01:50:29Z</time><extensions><speed>5.527000</speed><course>167.150101</course><hAcc>4.737871</hAcc><vAcc>3.372998</vAcc></extensions></trkpt>
      <trkpt lon="-123.271060" lat="44.559934"><ele>68.666824</ele><time>2020-12-05T01:50:30Z</time><extensions><speed>5.333378</speed><course>176.478592</course><hAcc>4.741315</hAcc><vAcc>3.368155</vAcc></extensions></trkpt>
      <trkpt lon="-123.271044" lat="44.559884"><ele>69.505531</ele><time>2020-12-05T01:50:31Z</time><extensions><speed>5.576681</speed><course>172.143280</course><hAcc>4.737209</hAcc><vAcc>3.373927</vAcc></extensions></trkpt>
      <trkpt lon="-123.271040" lat="44.559830"><ele>69.903549</ele><time>2020-12-05T01:50:32Z</time><extensions><speed>6.052190</speed><course>174.139679</course><hAcc>4.736433</hAcc><vAcc>3.375018</vAcc></extensions></trkpt>
      <trkpt lon="-123.271015" lat="44.559786"><ele>69.487381</ele><time>2020-12-05T01:50:33Z</time><extensions><speed>5.556634</speed><course>164.382065</course><hAcc>4.739227</hAcc><vAcc>3.371093</vAcc></extensions></trkpt>
      <trkpt lon="-123.271033" lat="44.559734"><ele>71.268730</ele><time>2020-12-05T01:50:34Z</time><extensions><speed>5.581259</speed><course>179.069000</course><hAcc>4.733926</hAcc><vAcc>3.378532</vAcc></extensions></trkpt>
      <trkpt lon="-123.271017" lat="44.559680"><ele>70.917953</ele><time>2020-12-05T01:50:35Z</time><extensions><speed>5.914985</speed><course>175.545319</course><hAcc>4.736169</hAcc><vAcc>3.375387</vAcc></extensions></trkpt>
      <trkpt lon="-123.271018" lat="44.559631"><ele>71.346649</ele><time>2020-12-05T01:50:36Z</time><extensions><speed>5.674262</speed><course>177.385864</course><hAcc>4.726735</hAcc><vAcc>3.388586</vAcc></extensions></trkpt>
      <trkpt lon="-123.271000" lat="44.559576"><ele>70.685661</ele><time>2020-12-05T01:50:37Z</time><extensions><speed>5.891435</speed><course>170.933777</course><hAcc>4.724864</hAcc><vAcc>3.391195</vAcc></extensions></trkpt>
      <trkpt lon="-123.270983" lat="44.559525"><ele>71.260246</ele><time>2020-12-05T01:50:38Z</time><extensions><speed>5.934527</speed><course>168.019592</course><hAcc>4.728852</hAcc><vAcc>3.385631</vAcc></extensions></trkpt>
      <trkpt lon="-123.270974" lat="44.559468"><ele>70.916672</ele><time>2020-12-05T01:50:39Z</time><extensions><speed>6.099511</speed><course>170.985336</course><hAcc>4.728729</hAcc><vAcc>3.385802</vAcc></extensions></trkpt>
      <trkpt lon="-123.270983" lat="44.559422"><ele>70.313461</ele><time>2020-12-05T01:50:40Z</time><extensions><speed>5.490948</speed><course>179.468536</course><hAcc>4.733926</hAcc><vAcc>3.378532</vAcc></extensions></trkpt>
      <trkpt lon="-123.270962" lat="44.559372"><ele>70.031456</ele><time>2020-12-05T01:50:41Z</time><extensions><speed>5.567249</speed><course>176.064240</course><hAcc>4.742352</hAcc><vAcc>3.366695</vAcc></extensions></trkpt>
      <trkpt lon="-123.270951" lat="44.559328"><ele>69.296440</ele><time>2020-12-05T01:50:42Z</time><extensions><speed>5.197367</speed><course>176.875931</course><hAcc>4.727677</hAcc><vAcc>3.387271</vAcc></extensions></trkpt>
      <trkpt lon="-123.270943" lat="44.559286"><ele>69.844666</ele><time>2020-12-05T01:50:43Z</time><extensions><speed>4.896103</speed><course>177.719849</course><hAcc>4.727070</hAcc><vAcc>3.388119</vAcc></extensions></trkpt>
      <trkpt lon="-123.270955" lat="44.559237"><ele>69.727570</ele><time>2020-12-05T01:50:44Z</time><extensions><speed>5.190465</speed><course>183.482361</course><hAcc>4.731913</hAcc><vAcc>3.381351</vAcc></extensions></trkpt>
      <trkpt lon="-123.270952" lat="44.559199"><ele>69.617439</ele><time>2020-12-05T01:50:45Z</time><extensions><speed>4.624946</speed><course>181.448837</course><hAcc>4.730982</hAcc><vAcc>3.382653</vAcc></extensions></trkpt>
      <trkpt lon="-123.270955" lat="44.559150"><ele>69.346092</ele><time>2020-12-05T01:50:46Z</time><extensions><speed>5.079584</speed><course>179.403885</course><hAcc>4.729114</hAcc><vAcc>3.385265</vAcc></extensions></trkpt>
      <trkpt lon="-123.270944" lat="44.559115"><ele>69.731255</ele><time>2020-12-05T01:50:47Z</time><extensions><speed>4.339171</speed><course>172.174118</course><hAcc>4.732975</hAcc><vAcc>3.379864</vAcc></extensions></trkpt>
      <trkpt lon="-123.270912" lat="44.559063"><ele>70.431465</ele><time>2020-12-05T01:50:48Z</time><extensions><speed>5.255711</speed><course>162.509720</course><hAcc>4.737025</hAcc><vAcc>3.374185</vAcc></extensions></trkpt>
      <trkpt lon="-123.270902" lat="44.559035"><ele>69.203758</ele><time>2020-12-05T01:50:49Z</time><extensions><speed>4.144979</speed><course>165.349808</course><hAcc>4.732442</hAcc><vAcc>3.380611</vAcc></extensions></trkpt>
      <trkpt lon="-123.270894" lat="44.559002"><ele>70.564583</ele><time>2020-12-05T01:50:50Z</time><extensions><speed>3.915652</speed><course>168.272934</course><hAcc>4.734456</hAcc><vAcc>3.377790</vAcc></extensions></trkpt>
      <trkpt lon="-123.270892" lat="44.558969"><ele>70.403748</ele><time>2020-12-05T01:50:51Z</time><extensions><speed>3.630891</speed><course>175.426804</course><hAcc>4.732936</hAcc><vAcc>3.379918</vAcc></extensions></trkpt>
      <trkpt lon="-123.270886" lat="44.558939"><ele>70.071625</ele><time>2020-12-05T01:50:52Z</time><extensions><speed>3.364091</speed><course>176.221771</course><hAcc>4.739973</hAcc><vAcc>3.370043</vAcc></extensions></trkpt>
      <trkpt lon="-123.270869" lat="44.558907"><ele>70.365356</ele><time>2020-12-05T01:50:53Z</time><extensions><speed>3.523075</speed><course>167.002350</course><hAcc>4.756360</hAcc><vAcc>3.346876</vAcc></extensions></trkpt>
      <trkpt lon="-123.270854" lat="44.558870"><ele>70.312790</ele><time>2020-12-05T01:50:54Z</time><extensions><speed>3.845506</speed><course>164.112457</course><hAcc>4.752222</hAcc><vAcc>3.352749</vAcc></extensions></trkpt>
      <trkpt lon="-123.270858" lat="44.558833"><ele>70.128082</ele><time>2020-12-05T01:50:55Z</time><extensions><speed>3.911312</speed><course>172.026657</course><hAcc>4.737506</hAcc><vAcc>3.373510</vAcc></extensions></trkpt>
      <trkpt lon="-123.270851" lat="44.558801"><ele>70.257080</ele><time>2020-12-05T01:50:56Z</time><extensions><speed>3.694762</speed><course>170.964172</course><hAcc>4.742470</hAcc><vAcc>3.366528</vAcc></extensions></trkpt>
      <trkpt lon="-123.270865" lat="44.558770"><ele>70.183403</ele><time>2020-12-05T01:50:57Z</time><extensions><speed>3.564945</speed><course>190.640503</course><hAcc>4.755348</hAcc><vAcc>3.348313</vAcc></extensions></trkpt>
      <trkpt lon="-123.270878" lat="44.558744"><ele>69.881500</ele><time>2020-12-05T01:50:58Z</time><extensions><speed>3.373360</speed><course>200.781174</course><hAcc>4.760258</hAcc><vAcc>3.341329</vAcc></extensions></trkpt>
      <trkpt lon="-123.270901" lat="44.558723"><ele>70.088982</ele><time>2020-12-05T01:50:59Z</time><extensions><speed>3.158800</speed><course>215.119354</course><hAcc>4.754512</hAcc><vAcc>3.349501</vAcc></extensions></trkpt>
      <trkpt lon="-123.270955" lat="44.558701"><ele>70.456581</ele><time>2020-12-05T01:51:00Z</time><extensions><speed>4.160676</speed><course>236.534042</course><hAcc>4.753031</hAcc><vAcc>3.351601</vAcc></extensions></trkpt>
      <trkpt lon="-123.270969" lat="44.558715"><ele>70.052467</ele><time>2020-12-05T01:51:01Z</time><extensions><speed>2.441678</speed><course>264.243927</course><hAcc>4.756182</hAcc><vAcc>3.347129</vAcc></extensions></trkpt>
      <trkpt lon="-123.271013" lat="44.558722"><ele>69.805176</ele><time>2020-12-05T01:51:02Z</time><extensions><speed>3.498984</speed><course>279.684418</course><hAcc>4.743165</hAcc><vAcc>3.365549</vAcc></extensions></trkpt>
      <trkpt lon="-123.271050" lat="44.558718"><ele>70.816086</ele><time>2020-12-05T01:51:03Z</time><extensions><speed>3.370658</speed><course>274.474609</course><hAcc>4.748240</hAcc><vAcc>3.358385</vAcc></extensions></trkpt>
      <trkpt lon="-123.271074" lat="44.558716"><ele>70.549713</ele><time>2020-12-05T01:51:04Z</time><extensions><speed>2.879374</speed><course>271.984955</course><hAcc>4.762064</hAcc><vAcc>3.338754</vAcc></extensions></trkpt>
      <trkpt lon="-123.271096" lat="44.558708"><ele>69.815918</ele><time>2020-12-05T01:51:05Z</time><extensions><speed>2.343406</speed><course>259.120605</course><hAcc>4.798596</hAcc><vAcc>3.286032</vAcc></extensions></trkpt>
      <trkpt lon="-123.271121" lat="44.558698"><ele>70.229935</ele><time>2020-12-05T01:51:06Z</time><extensions><speed>1.941567</speed><course>259.363434</course><hAcc>4.774495</hAcc><vAcc>3.320954</vAcc></extensions></trkpt>
      <trkpt lon="-123.271127" lat="44.558695"><ele>70.141953</ele><time>2020-12-05T01:51:07Z</time><extensions><speed>1.381131</speed><course>253.999527</course><hAcc>4.805457</hAcc><vAcc>3.275991</vAcc></extensions></trkpt>
      <trkpt lon="-123.271122" lat="44.558705"><ele>70.717041</ele><time>2020-12-05T01:51:08Z</time><extensions><speed>0.497814</speed><course>291.853516</course><hAcc>4.784475</hAcc><vAcc>3.306560</vAcc></extensions></trkpt>
      <trkpt lon="-123.271140" lat="44.558701"><ele>70.228371</ele><time>2020-12-05T01:51:09Z</time><extensions><speed>0.678726</speed><course>267.853973</course><hAcc>4.787992</hAcc><vAcc>3.301465</vAcc></extensions></trkpt>
      <trkpt lon="-123.271155" lat="44.558704"><ele>70.135216</ele><time>2020-12-05T01:51:10Z</time><extensions><speed>0.832142</speed><course>269.533295</course><hAcc>4.776163</hAcc><vAcc>3.318555</vAcc></extensions></trkpt>
      <trkpt lon="-123.271169" lat="44.558714"><ele>70.629364</ele><time>2020-12-05T01:51:11Z</time><extensions><speed>0.800671</speed><course>283.272675</course><hAcc>4.774688</hAcc><vAcc>3.320677</vAcc></extensions></trkpt>
      <trkpt lon="-123.271159" lat="44.558719"><ele>70.778381</ele><time>2020-12-05T01:51:12Z</time><extensions><speed>0.301026</speed><course>90.250458</course><hAcc>4.761719</hAcc><vAcc>3.339247</vAcc></extensions></trkpt>
      <trkpt lon="-123.271167" lat="44.558721"><ele>70.283653</ele><time>2020-12-05T01:51:13Z</time><extensions><speed>0.000000</speed><course>94.696732</course><hAcc>4.751944</hAcc><vAcc>3.353143</vAcc></extensions></trkpt>
      <trkpt lon="-123.271167" lat="44.558717"><ele>70.631104</ele><time>2020-12-05T01:51:14Z</time><extensions><speed>0.000000</speed><course>94.696732</course><hAcc>4.746782</hAcc><vAcc>3.360445</vAcc></extensions></trkpt>
      <trkpt lon="-123.271170" lat="44.558713"><ele>70.560127</ele><time>2020-12-05T01:51:15Z</time><extensions><speed>0.000000</speed><course>94.696724</course><hAcc>4.739219</hAcc><vAcc>3.371103</vAcc></extensions></trkpt>
      <trkpt lon="-123.271167" lat="44.558706"><ele>70.474136</ele><time>2020-12-05T01:51:16Z</time><extensions><speed>0.000000</speed><course>94.696724</course><hAcc>4.743444</hAcc><vAcc>3.365156</vAcc></extensions></trkpt>
      <trkpt lon="-123.271171" lat="44.558708"><ele>70.234001</ele><time>2020-12-05T01:51:17Z</time><extensions><speed>0.000000</speed><course>94.696724</course><hAcc>4.737850</hAcc><vAcc>3.373028</vAcc></extensions></trkpt>
      <trkpt lon="-123.271171" lat="44.558705"><ele>70.007301</ele><time>2020-12-05T01:51:18Z</time><extensions><speed>0.000000</speed><course>116.953163</course><hAcc>4.732404</hAcc><vAcc>3.380664</vAcc></extensions></trkpt>
      <trkpt lon="-123.271170" lat="44.558699"><ele>69.910034</ele><time>2020-12-05T01:51:19Z</time><extensions><speed>0.395867</speed><course>157.476944</course><hAcc>4.730988</hAcc><vAcc>3.382646</vAcc></extensions></trkpt>
      <trkpt lon="-123.271176" lat="44.558699"><ele>70.552567</ele><time>2020-12-05T01:51:20Z</time><extensions><speed>0.000000</speed><course>155.690140</course><hAcc>4.735822</hAcc><vAcc>3.375874</vAcc></extensions></trkpt>
      <trkpt lon="-123.271177" lat="44.558700"><ele>70.467812</ele><time>2020-12-05T01:51:21Z</time><extensions><speed>0.000000</speed><course>186.207687</course><hAcc>4.728253</hAcc><vAcc>3.386467</vAcc></extensions></trkpt>
      <trkpt lon="-123.271181" lat="44.558698"><ele>70.574867</ele><time>2020-12-05T01:51:22Z</time><extensions><speed>0.000000</speed><course>186.207687</course><hAcc>4.734378</hAcc><vAcc>3.377899</vAcc></extensions></trkpt>
      <trkpt lon="-123.271167" lat="44.558692"><ele>70.794205</ele><time>2020-12-05T01:51:23Z</time><extensions><speed>1.066125</speed><course>119.526451</course><hAcc>4.743048</hAcc><vAcc>3.365715</vAcc></extensions></trkpt>
      <trkpt lon="-123.271168" lat="44.558691"><ele>71.169632</ele><time>2020-12-05T01:51:24Z</time><extensions><speed>0.506453</speed><course>123.095184</course><hAcc>4.741268</hAcc><vAcc>3.368221</vAcc></extensions></trkpt>
      <trkpt lon="-123.271150" lat="44.558707"><ele>71.085281</ele><time>2020-12-05T01:51:25Z</time><extensions><speed>1.013638</speed><course>49.669453</course><hAcc>4.748189</hAcc><vAcc>3.358457</vAcc></extensions></trkpt>
      <trkpt lon="-123.271137" lat="44.558702"><ele>70.411400</ele><time>2020-12-05T01:51:26Z</time><extensions><speed>1.038728</speed><course>70.143494</course><hAcc>4.747166</hAcc><vAcc>3.359904</vAcc></extensions></trkpt>
      <trkpt lon="-123.271126" lat="44.558698"><ele>70.933182</ele><time>2020-12-05T01:51:27Z</time><extensions><speed>1.025566</speed><course>80.927391</course><hAcc>4.746842</hAcc><vAcc>3.360361</vAcc></extensions></trkpt>
      <trkpt lon="-123.271123" lat="44.558695"><ele>70.811859</ele><time>2020-12-05T01:51:28Z</time><extensions><speed>0.646105</speed><course>85.525681</course><hAcc>4.750999</hAcc><vAcc>3.354481</vAcc></extensions></trkpt>
      <trkpt lon="-123.271121" lat="44.558695"><ele>70.827408</ele><time>2020-12-05T01:51:29Z</time><extensions><speed>0.000000</speed><course>85.303360</course><hAcc>4.748193</hAcc><vAcc>3.358452</vAcc></extensions></trkpt>
      <trkpt lon="-123.271113" lat="44.558691"><ele>70.696899</ele><time>2020-12-05T01:51:30Z</time><extensions><speed>0.000000</speed><course>85.303368</course><hAcc>4.786354</hAcc><vAcc>3.303840</vAcc></extensions></trkpt>
      <trkpt lon="-123.271109" lat="44.558691"><ele>70.755264</ele><time>2020-12-05T01:51:31Z</time><extensions><speed>0.000000</speed><course>85.303368</course><hAcc>4.814471</hAcc><vAcc>3.262730</vAcc></extensions></trkpt>
      <trkpt lon="-123.271109" lat="44.558693"><ele>70.967087</ele><time>2020-12-05T01:51:32Z</time><extensions><speed>0.000000</speed><course>85.303368</course><hAcc>4.935626</hAcc><vAcc>3.076384</vAcc></extensions></trkpt>
      <trkpt lon="-123.271106" lat="44.558686"><ele>70.861481</ele><time>2020-12-05T01:51:33Z</time><extensions><speed>0.000000</speed><course>85.303375</course><hAcc>4.951439</hAcc><vAcc>3.050867</vAcc></extensions></trkpt>
      <trkpt lon="-123.271104" lat="44.558678"><ele>70.737251</ele><time>2020-12-05T01:51:34Z</time><extensions><speed>0.000000</speed><course>85.303375</course><hAcc>5.022976</hAcc><vAcc>2.931595</vAcc></extensions></trkpt>
      <trkpt lon="-123.271107" lat="44.558676"><ele>70.885773</ele><time>2020-12-05T01:51:35Z</time><extensions><speed>0.000000</speed><course>85.303368</course><hAcc>4.888137</hAcc><vAcc>3.151293</vAcc></extensions></trkpt>
      <trkpt lon="-123.271104" lat="44.558669"><ele>70.909340</ele><time>2020-12-05T01:51:36Z</time><extensions><speed>0.000000</speed><course>85.303368</course><hAcc>4.855917</hAcc><vAcc>3.200720</vAcc></extensions></trkpt>
      <trkpt lon="-123.271102" lat="44.558661"><ele>71.125504</ele><time>2020-12-05T01:51:37Z</time><extensions><speed>0.000000</speed><course>85.303368</course><hAcc>4.868559</hAcc><vAcc>3.181457</vAcc></extensions></trkpt>
      <trkpt lon="-123.271095" lat="44.558656"><ele>71.101936</ele><time>2020-12-05T01:51:38Z</time><extensions><speed>0.000000</speed><course>85.303375</course><hAcc>4.893947</hAcc><vAcc>3.142264</vAcc></extensions></trkpt>
      <trkpt lon="-123.271093" lat="44.558654"><ele>71.057182</ele><time>2020-12-05T01:51:39Z</time><extensions><speed>0.000000</speed><course>85.303375</course><hAcc>4.946634</hAcc><vAcc>3.058651</vAcc></extensions></trkpt>
      <trkpt lon="-123.271089" lat="44.558655"><ele>71.074669</ele><time>2020-12-05T01:51:40Z</time><extensions><speed>0.000000</speed><course>85.303375</course><hAcc>5.045284</hAcc><vAcc>2.893035</vAcc></extensions></trkpt>
      <trkpt lon="-123.271090" lat="44.558651"><ele>71.280815</ele><time>2020-12-05T01:51:41Z</time><extensions><speed>0.000000</speed><course>85.303375</course><hAcc>5.080577</hAcc><vAcc>2.830595</vAcc></extensions></trkpt>
      <trkpt lon="-123.271096" lat="44.558641"><ele>70.947083</ele><time>2020-12-05T01:51:42Z</time><extensions><speed>0.000000</speed><course>85.303375</course><hAcc>5.240882</hAcc><vAcc>2.521447</vAcc></extensions></trkpt>
      <trkpt lon="-123.271108" lat="44.558670"><ele>70.984978</ele><time>2020-12-05T01:51:43Z</time><extensions><speed>0.000000</speed><course>354.103821</course><hAcc>5.191294</hAcc><vAcc>2.622022</vAcc></extensions></trkpt>
      <trkpt lon="-123.271122" lat="44.558689"><ele>70.780373</ele><time>2020-12-05T01:51:44Z</time><extensions><speed>0.779847</speed><course>332.215912</course><hAcc>5.136962</hAcc><vAcc>2.726931</vAcc></extensions></trkpt>
      <trkpt lon="-123.271139" lat="44.558698"><ele>71.063690</ele><time>2020-12-05T01:51:45Z</time><extensions><speed>0.000000</speed><course>285.335052</course><hAcc>5.025705</hAcc><vAcc>2.926913</vAcc></extensions></trkpt>
      <trkpt lon="-123.271151" lat="44.558710"><ele>71.202499</ele><time>2020-12-05T01:51:46Z</time><extensions><speed>0.766064</speed><course>309.022644</course><hAcc>5.034640</hAcc><vAcc>2.911519</vAcc></extensions></trkpt>
      <trkpt lon="-123.271144" lat="44.558711"><ele>70.873238</ele><time>2020-12-05T01:51:47Z</time><extensions><speed>0.000000</speed><course>308.579803</course><hAcc>5.029169</hAcc><vAcc>2.920958</vAcc></extensions></trkpt>
      <trkpt lon="-123.271136" lat="44.558710"><ele>70.929222</ele><time>2020-12-05T01:51:48Z</time><extensions><speed>0.000000</speed><course>308.579803</course><hAcc>5.053953</hAcc><vAcc>2.877863</vAcc></extensions></trkpt>
      <trkpt lon="-123.271132" lat="44.558711"><ele>70.961891</ele><time>2020-12-05T01:51:49Z</time><extensions><speed>0.000000</speed><course>308.579803</course><hAcc>5.102038</hAcc><vAcc>2.791727</vAcc></extensions></trkpt>
      <trkpt lon="-123.271122" lat="44.558737"><ele>71.046379</ele><time>2020-12-05T01:51:50Z</time><extensions><speed>1.297735</speed><course>19.035561</course><hAcc>5.142671</hAcc><vAcc>2.716150</vAcc></extensions></trkpt>
      <trkpt lon="-123.271119" lat="44.558749"><ele>70.907776</ele><time>2020-12-05T01:51:51Z</time><extensions><speed>1.364714</speed><course>14.012801</course><hAcc>5.107186</hAcc><vAcc>2.782298</vAcc></extensions></trkpt>
      <trkpt lon="-123.271128" lat="44.558748"><ele>70.556366</ele><time>2020-12-05T01:51:52Z</time><extensions><speed>0.626893</speed><course>359.141876</course><hAcc>5.065954</hAcc><vAcc>2.856685</vAcc></extensions></trkpt>
      <trkpt lon="-123.271119" lat="44.558744"><ele>70.856400</ele><time>2020-12-05T01:51:53Z</time><extensions><speed>0.000000</speed><course>359.141876</course><hAcc>5.102251</hAcc><vAcc>2.791340</vAcc></extensions></trkpt>
      <trkpt lon="-123.271127" lat="44.558732"><ele>70.878326</ele><time>2020-12-05T01:51:54Z</time><extensions><speed>0.000000</speed><course>359.141876</course><hAcc>5.149827</hAcc><vAcc>2.702557</vAcc></extensions></trkpt>
      <trkpt lon="-123.271129" lat="44.558738"><ele>71.201027</ele><time>2020-12-05T01:51:55Z</time><extensions><speed>0.000000</speed><course>359.141876</course><hAcc>5.253304</hAcc><vAcc>2.495464</vAcc></extensions></trkpt>
      <trkpt lon="-123.271128" lat="44.558733"><ele>71.202423</ele><time>2020-12-05T01:51:56Z</time><extensions><speed>0.000000</speed><course>359.141876</course><hAcc>5.269966</hAcc><vAcc>2.460081</vAcc></extensions></trkpt>
      <trkpt lon="-123.271123" lat="44.558735"><ele>71.316330</ele><time>2020-12-05T01:51:57Z</time><extensions><speed>0.000000</speed><course>359.141876</course><hAcc>5.104635</hAcc><vAcc>2.786976</vAcc></extensions></trkpt>
      <trkpt lon="-123.271120" lat="44.558736"><ele>71.142700</ele><time>2020-12-05T01:51:58Z</time><extensions><speed>0.000000</speed><course>359.141876</course><hAcc>5.152274</hAcc><vAcc>2.697891</vAcc></extensions></trkpt>
      <trkpt lon="-123.271113" lat="44.558740"><ele>70.845383</ele><time>2020-12-05T01:51:59Z</time><extensions><speed>0.000000</speed><course>359.141876</course><hAcc>5.035839</hAcc><vAcc>2.909444</vAcc></extensions></trkpt>
      <trkpt lon="-123.271111" lat="44.558732"><ele>70.654434</ele><time>2020-12-05T01:52:00Z</time><extensions><speed>0.000000</speed><course>352.477905</course><hAcc>5.061433</hAcc><vAcc>2.864688</vAcc></extensions></trkpt>
      <trkpt lon="-123.271104" lat="44.558728"><ele>71.140060</ele><time>2020-12-05T01:52:01Z</time><extensions><speed>0.000000</speed><course>352.477905</course><hAcc>4.996121</hAcc><vAcc>2.977130</vAcc></extensions></trkpt>
      <trkpt lon="-123.271101" lat="44.558732"><ele>70.990608</ele><time>2020-12-05T01:52:02Z</time><extensions><speed>0.000000</speed><course>352.477905</course><hAcc>5.130980</hAcc><vAcc>2.738172</vAcc></extensions></trkpt>
      <trkpt lon="-123.271094" lat="44.558725"><ele>70.453377</ele><time>2020-12-05T01:52:03Z</time><extensions><speed>0.000000</speed><course>352.477936</course><hAcc>5.204113</hAcc><vAcc>2.596488</vAcc></extensions></trkpt>
      <trkpt lon="-123.271100" lat="44.558730"><ele>70.631363</ele><time>2020-12-05T01:52:04Z</time><extensions><speed>0.000000</speed><course>352.477905</course><hAcc>5.051855</hAcc><vAcc>2.881545</vAcc></extensions></trkpt>
      <trkpt lon="-123.271093" lat="44.558725"><ele>70.726700</ele><time>2020-12-05T01:52:05Z</time><extensions><speed>0.000000</speed><course>352.477936</course><hAcc>5.103004</hAcc><vAcc>2.789961</vAcc></extensions></trkpt>
      <trkpt lon="-123.271099" lat="44.558725"><ele>70.829300</ele><time>2020-12-05T01:52:06Z</time><extensions><speed>0.000000</speed><course>352.477905</course><hAcc>5.065033</hAcc><vAcc>2.858317</vAcc></extensions></trkpt>
      <trkpt lon="-123.271100" lat="44.558728"><ele>70.863571</ele><time>2020-12-05T01:52:07Z</time><extensions><speed>0.000000</speed><course>352.477905</course><hAcc>5.065058</hAcc><vAcc>2.858273</vAcc></extensions></trkpt>
      <trkpt lon="-123.271101" lat="44.558722"><ele>70.729462</ele><time>2020-12-05T01:52:08Z</time><extensions><speed>0.000000</speed><course>352.477905</course><hAcc>4.978914</hAcc><vAcc>3.005820</vAcc></extensions></trkpt>
      <trkpt lon="-123.271110" lat="44.558721"><ele>70.683266</ele><time>2020-12-05T01:52:09Z</time><extensions><speed>0.000000</speed><course>352.477905</course><hAcc>4.992802</hAcc><vAcc>2.982694</vAcc></extensions></trkpt>
      <trkpt lon="-123.271103" lat="44.558711"><ele>70.657120</ele><time>2020-12-05T01:52:10Z</time><extensions><speed>0.000000</speed><course>352.477905</course><hAcc>4.955358</hAcc><vAcc>3.044497</vAcc></extensions></trkpt>
      <trkpt lon="-123.271117" lat="44.558711"><ele>70.727592</ele><time>2020-12-05T01:52:11Z</time><extensions><speed>0.000000</speed><course>352.477905</course><hAcc>5.007444</hAcc><vAcc>2.958046</vAcc></extensions></trkpt>
      <trkpt lon="-123.271117" lat="44.558707"><ele>70.624199</ele><time>2020-12-05T01:52:12Z</time><extensions><speed>0.000000</speed><course>352.477905</course><hAcc>4.992904</hAcc><vAcc>2.982523</vAcc></extensions></trkpt>
      <trkpt lon="-123.271114" lat="44.558703"><ele>70.679741</ele><time>2020-12-05T01:52:13Z</time><extensions><speed>0.000000</speed><course>352.477905</course><hAcc>5.007804</hAcc><vAcc>2.957437</vAcc></extensions></trkpt>
      <trkpt lon="-123.271104" lat="44.558707"><ele>70.813957</ele><time>2020-12-05T01:52:14Z</time><extensions><speed>0.000000</speed><course>352.477905</course><hAcc>4.974076</hAcc><vAcc>3.013819</vAcc></extensions></trkpt>
      <trkpt lon="-123.271103" lat="44.558710"><ele>70.708694</ele><time>2020-12-05T01:52:15Z</time><extensions><speed>0.000000</speed><course>352.477905</course><hAcc>4.944293</hAcc><vAcc>3.062433</vAcc></extensions></trkpt>
      <trkpt lon="-123.271093" lat="44.558711"><ele>70.673347</ele><time>2020-12-05T01:52:16Z</time><extensions><speed>0.000000</speed><course>352.477936</course><hAcc>4.920920</hAcc><vAcc>3.099851</vAcc></extensions></trkpt>
      <trkpt lon="-123.271092" lat="44.558716"><ele>70.738708</ele><time>2020-12-05T01:52:17Z</time><extensions><speed>0.000000</speed><course>352.477936</course><hAcc>4.840017</hAcc><vAcc>3.224713</vAcc></extensions></trkpt>
      <trkpt lon="-123.271095" lat="44.558718"><ele>70.662766</ele><time>2020-12-05T01:52:18Z</time><extensions><speed>0.000000</speed><course>352.477936</course><hAcc>4.825707</hAcc><vAcc>3.246088</vAcc></extensions></trkpt>
      <trkpt lon="-123.271091" lat="44.558717"><ele>70.526291</ele><time>2020-12-05T01:52:19Z</time><extensions><speed>0.000000</speed><course>352.477936</course><hAcc>4.815285</hAcc><vAcc>3.261529</vAcc></extensions></trkpt>
      <trkpt lon="-123.271080" lat="44.558710"><ele>70.669296</ele><time>2020-12-05T01:52:20Z</time><extensions><speed>0.000000</speed><course>352.477936</course><hAcc>4.821117</hAcc><vAcc>3.252901</vAcc></extensions></trkpt>
      <trkpt lon="-123.271079" lat="44.558705"><ele>70.657837</ele><time>2020-12-05T01:52:21Z</time><extensions><speed>0.000000</speed><course>352.477936</course><hAcc>4.822927</hAcc><vAcc>3.250217</vAcc></extensions></trkpt>
      <trkpt lon="-123.271074" lat="44.558696"><ele>70.607765</ele><time>2020-12-05T01:52:22Z</time><extensions><speed>0.000000</speed><course>352.477936</course><hAcc>4.819626</hAcc><vAcc>3.255111</vAcc></extensions></trkpt>
      <trkpt lon="-123.271078" lat="44.558703"><ele>70.851753</ele><time>2020-12-05T01:52:23Z</time><extensions><speed>0.000000</speed><course>352.477936</course><hAcc>4.808843</hAcc><vAcc>3.271019</vAcc></extensions></trkpt>
      <trkpt lon="-123.271073" lat="44.558704"><ele>70.808975</ele><time>2020-12-05T01:52:24Z</time><extensions><speed>0.000000</speed><course>352.477936</course><hAcc>4.793054</hAcc><vAcc>3.294111</vAcc></extensions></trkpt>
      <trkpt lon="-123.271060" lat="44.558709"><ele>70.812759</ele><time>2020-12-05T01:52:25Z</time><extensions><speed>0.648705</speed><course>28.318449</course><hAcc>4.796274</hAcc><vAcc>3.289421</vAcc></extensions></trkpt>
      <trkpt lon="-123.271060" lat="44.558700"><ele>70.656532</ele><time>2020-12-05T01:52:26Z</time><extensions><speed>0.000000</speed><course>26.576412</course><hAcc>4.791458</hAcc><vAcc>3.296432</vAcc></extensions></trkpt>
    </trkseg>
  </trk>
</gpx>