<?xml version="1.0" encoding="UTF-8"?>
<gpx version="1.1" creator="Apple Health Export" xmlns="http://www.topografix.com/GPX/1/1" xmlns:xsi="http://www.w3.org/2001/XMLSchema-instance" xsi:schemaLocation="http://www.topografix.com/GPX/1/1 http://www.topografix.com/GPX/1/1/gpx.xsd">
  <metadata>
    <time>2021-02-21T19:24:48Z</time>
  </metadata>
  <trk>
    <name>Route 2020-12-04 8:41am</name>
    <trkseg>
      <trkpt lon="-123.279949" lat="44.564533"><ele>77.790794</ele><time>2020-12-04T16:34:30Z</time><extensions><speed>5.531586</speed><course>229.977631</course><hAcc>2.239637</hAcc><vAcc>1.144552</vAcc></extensions></trkpt>
      <trkpt lon="-123.279977" lat="44.564488"><ele>77.491554</ele><time>2020-12-04T16:34:31Z</time><extensions><speed>5.375412</speed><course>211.302490</course><hAcc>1.822801</hAcc><vAcc>1.001877</vAcc></extensions></trkpt>
      <trkpt lon="-123.280003" lat="44.564445"><ele>77.191277</ele><time>2020-12-04T16:34:32Z</time><extensions><speed>5.038235</speed><course>205.042099</course><hAcc>1.947092</hAcc><vAcc>0.891056</vAcc></extensions></trkpt>
      <trkpt lon="-123.280027" lat="44.564405"><ele>76.888634</ele><time>2020-12-04T16:34:33Z</time><extensions><speed>4.628378</speed><course>202.148819</course><hAcc>1.946095</hAcc><vAcc>0.810658</vAcc></extensions></trkpt>
      <trkpt lon="-123.280047" lat="44.564367"><ele>76.581589</ele><time>2020-12-04T16:34:34Z</time><extensions><speed>4.319921</speed><course>194.110504</course><hAcc>1.920748</hAcc><vAcc>0.756971</vAcc></extensions></trkpt>
      <trkpt lon="-123.280063" lat="44.564331"><ele>76.268227</ele><time>2020-12-04T16:34:35Z</time><extensions><speed>4.164842</speed><course>208.062424</course><hAcc>1.912173</hAcc><vAcc>0.724566</vAcc></extensions></trkpt>
      <trkpt lon="-123.280067" lat="44.564293"><ele>75.948128</ele><time>2020-12-04T16:34:36Z</time><extensions><speed>4.319471</speed><course>198.172562</course><hAcc>1.911430</hAcc><vAcc>0.707419</vAcc></extensions></trkpt>
      <trkpt lon="-123.280061" lat="44.564254"><ele>75.622513</ele><time>2020-12-04T16:34:37Z</time><extensions><speed>4.556246</speed><course>180.688370</course><hAcc>1.911966</hAcc><vAcc>0.700062</vAcc></extensions></trkpt>
      <trkpt lon="-123.280051" lat="44.564213"><ele>75.293198</ele><time>2020-12-04T16:34:38Z</time><extensions><speed>4.593758</speed><course>167.459351</course><hAcc>1.912420</hAcc><vAcc>0.698248</vAcc></extensions></trkpt>
      <trkpt lon="-123.280044" lat="44.564172"><ele>74.961792</ele><time>2020-12-04T16:34:39Z</time><extensions><speed>4.516736</speed><course>172.500809</course><hAcc>1.912237</hAcc><vAcc>0.699083</vAcc></extensions></trkpt>
      <trkpt lon="-123.280043" lat="44.564133"><ele>74.629822</ele><time>2020-12-04T16:34:40Z</time><extensions><speed>4.320070</speed><course>173.459991</course><hAcc>1.911785</hAcc><vAcc>0.700817</vAcc></extensions></trkpt>
      <trkpt lon="-123.280047" lat="44.564096"><ele>74.299232</ele><time>2020-12-04T16:34:41Z</time><extensions><speed>3.970174</speed><course>178.550629</course><hAcc>1.911354</hAcc><vAcc>0.702531</vAcc></extensions></trkpt>
      <trkpt lon="-123.280050" lat="44.564062"><ele>73.973198</ele><time>2020-12-04T16:34:42Z</time><extensions><speed>3.554904</speed><course>193.580719</course><hAcc>1.910836</hAcc><vAcc>0.703836</vAcc></extensions></trkpt>
      <trkpt lon="-123.280046" lat="44.564030"><ele>73.656670</ele><time>2020-12-04T16:34:43Z</time><extensions><speed>3.544439</speed><course>184.134811</course><hAcc>1.910421</hAcc><vAcc>0.704642</vAcc></extensions></trkpt>
      <trkpt lon="-123.280036" lat="44.563997"><ele>73.355835</ele><time>2020-12-04T16:34:44Z</time><extensions><speed>3.927363</speed><course>175.469040</course><hAcc>1.910327</hAcc><vAcc>0.704988</vAcc></extensions></trkpt>
      <trkpt lon="-123.280022" lat="44.563962"><ele>73.076241</ele><time>2020-12-04T16:34:45Z</time><extensions><speed>4.331750</speed><course>172.295166</course><hAcc>1.910271</hAcc><vAcc>0.704939</vAcc></extensions></trkpt>
      <trkpt lon="-123.280004" lat="44.563924"><ele>72.820984</ele><time>2020-12-04T16:34:46Z</time><extensions><speed>4.522414</speed><course>169.674026</course><hAcc>1.909975</hAcc><vAcc>0.704536</vAcc></extensions></trkpt>
      <trkpt lon="-123.279984" lat="44.563886"><ele>72.590294</ele><time>2020-12-04T16:34:47Z</time><extensions><speed>4.479075</speed><course>164.947525</course><hAcc>1.909822</hAcc><vAcc>0.703790</vAcc></extensions></trkpt>
      <trkpt lon="-123.279963" lat="44.563849"><ele>72.382660</ele><time>2020-12-04T16:34:48Z</time><extensions><speed>4.374183</speed><course>159.886627</course><hAcc>1.909960</hAcc><vAcc>0.702729</vAcc></extensions></trkpt>
      <trkpt lon="-123.279939" lat="44.563814"><ele>72.196198</ele><time>2020-12-04T16:34:49Z</time><extensions><speed>4.302896</speed><course>154.444504</course><hAcc>1.910028</hAcc><vAcc>0.701484</vAcc></extensions></trkpt>
      <trkpt lon="-123.279915" lat="44.563780"><ele>72.029404</ele><time>2020-12-04T16:34:50Z</time><extensions><speed>4.168723</speed><course>155.048111</course><hAcc>1.910003</hAcc><vAcc>0.700437</vAcc></extensions></trkpt>
      <trkpt lon="-123.279894" lat="44.563746"><ele>71.882019</ele><time>2020-12-04T16:34:51Z</time><extensions><speed>4.032505</speed><course>149.663803</course><hAcc>1.910388</hAcc><vAcc>0.700431</vAcc></extensions></trkpt>
      <trkpt lon="-123.279877" lat="44.563712"><ele>71.755257</ele><time>2020-12-04T16:34:52Z</time><extensions><speed>3.993249</speed><course>156.213379</course><hAcc>1.911603</hAcc><vAcc>0.703026</vAcc></extensions></trkpt>
      <trkpt lon="-123.279868" lat="44.563677"><ele>71.649994</ele><time>2020-12-04T16:34:53Z</time><extensions><speed>3.918571</speed><course>161.021759</course><hAcc>1.913194</hAcc><vAcc>0.710783</vAcc></extensions></trkpt>
      <trkpt lon="-123.279869" lat="44.563642"><ele>71.565834</ele><time>2020-12-04T16:34:54Z</time><extensions><speed>4.001315</speed><course>183.770889</course><hAcc>1.914609</hAcc><vAcc>0.727455</vAcc></extensions></trkpt>
      <trkpt lon="-123.279882" lat="44.563607"><ele>71.501175</ele><time>2020-12-04T16:34:55Z</time><extensions><speed>4.143918</speed><course>187.411469</course><hAcc>1.917626</hAcc><vAcc>0.757929</vAcc></extensions></trkpt>
      <trkpt lon="-123.279912" lat="44.563575"><ele>71.369072</ele><time>2020-12-04T16:34:56Z</time><extensions><speed>4.394835</speed><course>208.062424</course><hAcc>1.915301</hAcc><vAcc>0.725538</vAcc></extensions></trkpt>
      <trkpt lon="-123.279957" lat="44.563549"><ele>71.461143</ele><time>2020-12-04T16:34:57Z</time><extensions><speed>4.941459</speed><course>198.172562</course><hAcc>1.914399</hAcc><vAcc>0.707970</vAcc></extensions></trkpt>
      <trkpt lon="-123.280015" lat="44.563531"><ele>71.548805</ele><time>2020-12-04T16:34:58Z</time><extensions><speed>5.138825</speed><course>180.688370</course><hAcc>1.914752</hAcc><vAcc>0.700027</vAcc></extensions></trkpt>
      <trkpt lon="-123.280076" lat="44.563520"><ele>71.629738</ele><time>2020-12-04T16:34:59Z</time><extensions><speed>4.883484</speed><course>167.459351</course><hAcc>1.914210</hAcc><vAcc>0.697459</vAcc></extensions></trkpt>
      <trkpt lon="-123.280135" lat="44.563512"><ele>71.702911</ele><time>2020-12-04T16:35:00Z</time><extensions><speed>4.551458</speed><course>172.500809</course><hAcc>1.913422</hAcc><vAcc>0.697366</vAcc></extensions></trkpt>
      <trkpt lon="-123.280189" lat="44.563506"><ele>71.768738</ele><time>2020-12-04T16:35:01Z</time><extensions><speed>4.195137</speed><course>173.459991</course><hAcc>1.913088</hAcc><vAcc>0.697993</vAcc></extensions></trkpt>
      <trkpt lon="-123.280239" lat="44.563499"><ele>71.828720</ele><time>2020-12-04T16:35:02Z</time><extensions><speed>3.953869</speed><course>178.550629</course><hAcc>1.912898</hAcc><vAcc>0.698422</vAcc></extensions></trkpt>
      <trkpt lon="-123.280289" lat="44.563491"><ele>71.885399</ele><time>2020-12-04T16:35:03Z</time><extensions><speed>4.112419</speed><course>193.580719</course><hAcc>1.912909</hAcc><vAcc>0.698282</vAcc></extensions></trkpt>
      <trkpt lon="-123.280341" lat="44.563481"><ele>71.941490</ele><time>2020-12-04T16:35:04Z</time><extensions><speed>4.457200</speed><course>184.134811</course><hAcc>1.913265</hAcc><vAcc>0.697529</vAcc></extensions></trkpt>
      <trkpt lon="-123.280394" lat="44.563466"><ele>71.998703</ele><time>2020-12-04T16:35:05Z</time><extensions><speed>4.591306</speed><course>175.469040</course><hAcc>1.913656</hAcc><vAcc>0.696280</vAcc></extensions></trkpt>
      <trkpt lon="-123.280444" lat="44.563449"><ele>72.057175</ele><time>2020-12-04T16:35:06Z</time><extensions><speed>4.320352</speed><course>172.295166</course><hAcc>1.913841</hAcc><vAcc>0.694717</vAcc></extensions></trkpt>
      <trkpt lon="-123.280491" lat="44.563433"><ele>72.115524</ele><time>2020-12-04T16:35:07Z</time><extensions><speed>3.889062</speed><course>169.674026</course><hAcc>1.914213</hAcc><vAcc>0.693025</vAcc></extensions></trkpt>
      <trkpt lon="-123.280534" lat="44.563419"><ele>72.171211</ele><time>2020-12-04T16:35:08Z</time><extensions><speed>3.576996</speed><course>164.947525</course><hAcc>1.914661</hAcc><vAcc>0.691360</vAcc></extensions></trkpt>
      <trkpt lon="-123.280575" lat="44.563410"><ele>72.221390</ele><time>2020-12-04T16:35:09Z</time><extensions><speed>3.304671</speed><course>159.886627</course><hAcc>1.914849</hAcc><vAcc>0.689837</vAcc></extensions></trkpt>
      <trkpt lon="-123.280615" lat="44.563404"><ele>72.263672</ele><time>2020-12-04T16:35:10Z</time><extensions><speed>3.219143</speed><course>154.444504</course><hAcc>1.914996</hAcc><vAcc>0.688533</vAcc></extensions></trkpt>
      <trkpt lon="-123.280657" lat="44.563402"><ele>72.296059</ele><time>2020-12-04T16:35:11Z</time><extensions><speed>3.361773</speed><course>155.048111</course><hAcc>1.914858</hAcc><vAcc>0.687492</vAcc></extensions></trkpt>
      <trkpt lon="-123.280700" lat="44.563402"><ele>72.317413</ele><time>2020-12-04T16:35:12Z</time><extensions><speed>3.553124</speed><course>149.663803</course><hAcc>1.914500</hAcc><vAcc>0.686735</vAcc></extensions></trkpt>
      <trkpt lon="-123.280746" lat="44.563403"><ele>72.327538</ele><time>2020-12-04T16:35:13Z</time><extensions><speed>3.812216</speed><course>156.213379</course><hAcc>1.914201</hAcc><vAcc>0.686273</vAcc></extensions></trkpt>
      <trkpt lon="-123.280797" lat="44.563403"><ele>72.326141</ele><time>2020-12-04T16:35:14Z</time><extensions><speed>4.160842</speed><course>161.021759</course><hAcc>1.914221</hAcc><vAcc>0.686105</vAcc></extensions></trkpt>
      <trkpt lon="-123.280851" lat="44.563401"><ele>72.312218</ele><time>2020-12-04T16:35:15Z</time><extensions><speed>4.501382</speed><course>183.770889</course><hAcc>1.914651</hAcc><vAcc>0.686231</vAcc></extensions></trkpt>
      <trkpt lon="-123.280909" lat="44.563397"><ele>72.284508</ele><time>2020-12-04T16:35:16Z</time><extensions><speed>4.784516</speed><course>187.411469</course><hAcc>1.914939</hAcc><vAcc>0.686648</vAcc></extensions></trkpt>
      <trkpt lon="-123.280968" lat="44.563393"><ele>72.242409</ele><time>2020-12-04T16:35:17Z</time><extensions><speed>4.632533</speed><course>206.663132</course><hAcc>1.914774</hAcc><vAcc>0.687353</vAcc></extensions></trkpt>
      <trkpt lon="-123.281023" lat="44.563391"><ele>72.187256</ele><time>2020-12-04T16:35:18Z</time><extensions><speed>4.178324</speed><course>217.040924</course><hAcc>1.914499</hAcc><vAcc>0.688339</vAcc></extensions></trkpt>
      <trkpt lon="-123.281074" lat="44.563391"><ele>72.122963</ele><time>2020-12-04T16:35:19Z</time><extensions><speed>3.924563</speed><course>241.654816</course><hAcc>1.914493</hAcc><vAcc>0.689590</vAcc></extensions></trkpt>
      <trkpt lon="-123.281124" lat="44.563391"><ele>72.055229</ele><time>2020-12-04T16:35:20Z</time><extensions><speed>3.951412</speed><course>253.730072</course><hAcc>1.914722</hAcc><vAcc>0.691064</vAcc></extensions></trkpt>
      <trkpt lon="-123.281174" lat="44.563391"><ele>71.990685</ele><time>2020-12-04T16:35:21Z</time><extensions><speed>4.065410</speed><course>260.010681</course><hAcc>1.914981</hAcc><vAcc>0.692696</vAcc></extensions></trkpt>
      <trkpt lon="-123.281225" lat="44.563391"><ele>71.935722</ele><time>2020-12-04T16:35:22Z</time><extensions><speed>4.003839</speed><course>264.171082</course><hAcc>1.915126</hAcc><vAcc>0.694381</vAcc></extensions></trkpt>
      <trkpt lon="-123.281274" lat="44.563393"><ele>71.895767</ele><time>2020-12-04T16:35:23Z</time><extensions><speed>3.822485</speed><course>260.771149</course><hAcc>1.915116</hAcc><vAcc>0.695985</vAcc></extensions></trkpt>
      <trkpt lon="-123.281323" lat="44.563397"><ele>71.875557</ele><time>2020-12-04T16:35:24Z</time><extensions><speed>3.861191</speed><course>262.314087</course><hAcc>1.914930</hAcc><vAcc>0.697348</vAcc></extensions></trkpt>
      <trkpt lon="-123.281372" lat="44.563400"><ele>71.878639</ele><time>2020-12-04T16:35:25Z</time><extensions><speed>4.021782</speed><course>263.531403</course><hAcc>1.914739</hAcc><vAcc>0.698321</vAcc></extensions></trkpt>
      <trkpt lon="-123.281423" lat="44.563403"><ele>71.906715</ele><time>2020-12-04T16:35:26Z</time><extensions><speed>4.135853</speed><course>255.810883</course><hAcc>1.914640</hAcc><vAcc>0.698812</vAcc></extensions></trkpt>
      <trkpt lon="-123.281474" lat="44.563406"><ele>71.960159</ele><time>2020-12-04T16:35:27Z</time><extensions><speed>4.053682</speed><course>245.441101</course><hAcc>1.914704</hAcc><vAcc>0.698883</vAcc></extensions></trkpt>
      <trkpt lon="-123.281523" lat="44.563410"><ele>72.038979</ele><time>2020-12-04T16:35:28Z</time><extensions><speed>3.692055</speed><course>236.357239</course><hAcc>1.914663</hAcc><vAcc>0.698888</vAcc></extensions></trkpt>
      <trkpt lon="-123.281568" lat="44.563414"><ele>72.143791</ele><time>2020-12-04T16:35:29Z</time><extensions><speed>3.467144</speed><course>254.050156</course><hAcc>1.914394</hAcc><vAcc>0.699670</vAcc></extensions></trkpt>
      <trkpt lon="-123.281611" lat="44.563417"><ele>72.275391</ele><time>2020-12-04T16:35:30Z</time><extensions><speed>3.532093</speed><course>251.538101</course><hAcc>1.914189</hAcc><vAcc>0.702814</vAcc></extensions></trkpt>
      <trkpt lon="-123.281657" lat="44.563414"><ele>72.433128</ele><time>2020-12-04T16:35:31Z</time><extensions><speed>3.730621</speed><course>265.802399</course><hAcc>1.914145</hAcc><vAcc>0.710918</vAcc></extensions></trkpt>
      <trkpt lon="-123.281703" lat="44.563403"><ele>72.613976</ele><time>2020-12-04T16:35:32Z</time><extensions><speed>4.051782</speed><course>264.905975</course><hAcc>1.914399</hAcc><vAcc>0.727782</vAcc></extensions></trkpt>
      <trkpt lon="-123.281746" lat="44.563382"><ele>72.813881</ele><time>2020-12-04T16:35:33Z</time><extensions><speed>4.429625</speed><course>260.731812</course><hAcc>1.916780</hAcc><vAcc>0.758336</vAcc></extensions></trkpt>
      <trkpt lon="-123.281786" lat="44.563350"><ele>72.178246</ele><time>2020-12-04T16:35:34Z</time><extensions><speed>4.771408</speed><course>208.062424</course><hAcc>1.914811</hAcc><vAcc>0.726181</vAcc></extensions></trkpt>
      <trkpt lon="-123.281815" lat="44.563312"><ele>72.184593</ele><time>2020-12-04T16:35:35Z</time><extensions><speed>4.910335</speed><course>198.172562</course><hAcc>1.914282</hAcc><vAcc>0.708418</vAcc></extensions></trkpt>
      <trkpt lon="-123.281833" lat="44.563271"><ele>72.169502</ele><time>2020-12-04T16:35:36Z</time><extensions><speed>4.617622</speed><course>180.688370</course><hAcc>1.914764</hAcc><vAcc>0.700353</vAcc></extensions></trkpt>
      <trkpt lon="-123.281842" lat="44.563233"><ele>72.132065</ele><time>2020-12-04T16:35:37Z</time><extensions><speed>4.024892</speed><course>167.459351</course><hAcc>1.914900</hAcc><vAcc>0.697716</vAcc></extensions></trkpt>
      <trkpt lon="-123.281847" lat="44.563199"><ele>72.074783</ele><time>2020-12-04T16:35:38Z</time><extensions><speed>3.584172</speed><course>172.500809</course><hAcc>1.914550</hAcc><vAcc>0.697586</vAcc></extensions></trkpt>
      <trkpt lon="-123.281853" lat="44.563167"><ele>72.004578</ele><time>2020-12-04T16:35:39Z</time><extensions><speed>3.509801</speed><course>173.459991</course><hAcc>1.914186</hAcc><vAcc>0.698189</vAcc></extensions></trkpt>
      <trkpt lon="-123.281863" lat="44.563136"><ele>71.931435</ele><time>2020-12-04T16:35:40Z</time><extensions><speed>3.723580</speed><course>178.550629</course><hAcc>1.914042</hAcc><vAcc>0.698600</vAcc></extensions></trkpt>
      <trkpt lon="-123.281874" lat="44.563102"><ele>71.865562</ele><time>2020-12-04T16:35:41Z</time><extensions><speed>4.036582</speed><course>193.580719</course><hAcc>1.913899</hAcc><vAcc>0.698446</vAcc></extensions></trkpt>
      <trkpt lon="-123.281879" lat="44.563065"><ele>71.814522</ele><time>2020-12-04T16:35:42Z</time><extensions><speed>4.212410</speed><course>184.134811</course><hAcc>1.913686</hAcc><vAcc>0.697690</vAcc></extensions></trkpt>
      <trkpt lon="-123.281878" lat="44.563027"><ele>71.782593</ele><time>2020-12-04T16:35:43Z</time><extensions><speed>4.214457</speed><course>175.469040</course><hAcc>1.913579</hAcc><vAcc>0.696465</vAcc></extensions></trkpt>
      <trkpt lon="-123.281874" lat="44.562990"><ele>71.772041</ele><time>2020-12-04T16:35:44Z</time><extensions><speed>4.107347</speed><course>172.295166</course><hAcc>1.913628</hAcc><vAcc>0.694977</vAcc></extensions></trkpt>
      <trkpt lon="-123.281869" lat="44.562954"><ele>71.783630</ele><time>2020-12-04T16:35:45Z</time><extensions><speed>3.883302</speed><course>169.674026</course><hAcc>1.913688</hAcc><vAcc>0.693437</vAcc></extensions></trkpt>
      <trkpt lon="-123.281861" lat="44.562920"><ele>71.817123</ele><time>2020-12-04T16:35:46Z</time><extensions><speed>3.730538</speed><course>164.947525</course><hAcc>1.913732</hAcc><vAcc>0.692031</vAcc></extensions></trkpt>
      <trkpt lon="-123.281855" lat="44.562886"><ele>71.872002</ele><time>2020-12-04T16:35:47Z</time><extensions><speed>3.877360</speed><course>159.886627</course><hAcc>1.913777</hAcc><vAcc>0.690904</vAcc></extensions></trkpt>
      <trkpt lon="-123.281854" lat="44.562850"><ele>71.947121</ele><time>2020-12-04T16:35:48Z</time><extensions><speed>4.134047</speed><course>154.444504</course><hAcc>1.913774</hAcc><vAcc>0.690158</vAcc></extensions></trkpt>
      <trkpt lon="-123.281856" lat="44.562813"><ele>72.040321</ele><time>2020-12-04T16:35:49Z</time><extensions><speed>4.147040</speed><course>155.048111</course><hAcc>1.913727</hAcc><vAcc>0.689853</vAcc></extensions></trkpt>
      <trkpt lon="-123.281857" lat="44.562776"><ele>72.149010</ele><time>2020-12-04T16:35:50Z</time><extensions><speed>4.059805</speed><course>149.663803</course><hAcc>1.913650</hAcc><vAcc>0.690010</vAcc></extensions></trkpt>
      <trkpt lon="-123.281858" lat="44.562740"><ele>72.270287</ele><time>2020-12-04T16:35:51Z</time><extensions><speed>4.061455</speed><course>156.213379</course><hAcc>1.913711</hAcc><vAcc>0.690613</vAcc></extensions></trkpt>
      <trkpt lon="-123.281858" lat="44.562703"><ele>72.400246</ele><time>2020-12-04T16:35:52Z</time><extensions><speed>4.096535</speed><course>161.021759</course><hAcc>1.913864</hAcc><vAcc>0.691610</vAcc></extensions></trkpt>
      <trkpt lon="-123.281857" lat="44.562666"><ele>72.533691</ele><time>2020-12-04T16:35:53Z</time><extensions><speed>4.096577</speed><course>183.770889</course><hAcc>1.913945</hAcc><vAcc>0.692908</vAcc></extensions></trkpt>
      <trkpt lon="-123.281854" lat="44.562629"><ele>72.664520</ele><time>2020-12-04T16:35:54Z</time><extensions><speed>4.107867</speed><course>187.411469</course><hAcc>1.914121</hAcc><vAcc>0.694378</vAcc></extensions></trkpt>
      <trkpt lon="-123.281852" lat="44.562592"><ele>72.785789</ele><time>2020-12-04T16:35:55Z</time><extensions><speed>4.098187</speed><course>206.663132</course><hAcc>1.914408</hAcc><vAcc>0.695855</vAcc></extensions></trkpt>
      <trkpt lon="-123.281853" lat="44.562556"><ele>72.889595</ele><time>2020-12-04T16:35:56Z</time><extensions><speed>4.020108</speed><course>217.040924</course><hAcc>1.914595</hAcc><vAcc>0.697152</vAcc></extensions></trkpt>
      <trkpt lon="-123.281856" lat="44.562520"><ele>72.968636</ele><time>2020-12-04T16:35:57Z</time><extensions><speed>3.890595</speed><course>241.654816</course><hAcc>1.914788</hAcc><vAcc>0.698092</vAcc></extensions></trkpt>
      <trkpt lon="-123.281861" lat="44.562486"><ele>73.019455</ele><time>2020-12-04T16:35:58Z</time><extensions><speed>3.816800</speed><course>253.730072</course><hAcc>1.914921</hAcc><vAcc>0.698563</vAcc></extensions></trkpt>
      <trkpt lon="-123.281865" lat="44.562451"><ele>73.042717</ele><time>2020-12-04T16:35:59Z</time><extensions><speed>3.839003</speed><course>260.010681</course><hAcc>1.914770</hAcc><vAcc>0.698608</vAcc></extensions></trkpt>
      <trkpt lon="-123.281867" lat="44.562416"><ele>73.041641</ele><time>2020-12-04T16:36:00Z</time><extensions><speed>3.999385</speed><course>264.171082</course><hAcc>1.914374</hAcc><vAcc>0.698565</vAcc></extensions></trkpt>
      <trkpt lon="-123.281867" lat="44.562380"><ele>73.021095</ele><time>2020-12-04T16:36:01Z</time><extensions><speed>4.118545</speed><course>260.771149</course><hAcc>1.913972</hAcc><vAcc>0.699266</vAcc></extensions></trkpt>
      <trkpt lon="-123.281865" lat="44.562343"><ele>72.986580</ele><time>2020-12-04T16:36:02Z</time><extensions><speed>4.092666</speed><course>262.314087</course><hAcc>1.913546</hAcc><vAcc>0.702281</vAcc></extensions></trkpt>
      <trkpt lon="-123.281863" lat="44.562306"><ele>72.942917</ele><time>2020-12-04T16:36:03Z</time><extensions><speed>3.973950</speed><course>263.531403</course><hAcc>1.913240</hAcc><vAcc>0.710201</vAcc></extensions></trkpt>
      <trkpt lon="-123.281861" lat="44.562272"><ele>72.893402</ele><time>2020-12-04T16:36:04Z</time><extensions><speed>3.664198</speed><course>255.810883</course><hAcc>1.913303</hAcc><vAcc>0.726819</vAcc></extensions></trkpt>
      <trkpt lon="-123.281853" lat="44.562242"><ele>72.840019</ele><time>2020-12-04T16:36:05Z</time><extensions><speed>3.135439</speed><course>245.441101</course><hAcc>1.915324</hAcc><vAcc>0.757073</vAcc></extensions></trkpt>
      <trkpt lon="-123.281833" lat="44.562219"><ele>72.352539</ele><time>2020-12-04T16:36:06Z</time><extensions><speed>3.047182</speed><course>208.062424</course><hAcc>1.912914</hAcc><vAcc>0.725110</vAcc></extensions></trkpt>
      <trkpt lon="-123.281798" lat="44.562203"><ele>72.339745</ele><time>2020-12-04T16:36:07Z</time><extensions><speed>3.554561</speed><course>198.172562</course><hAcc>1.911890</hAcc><vAcc>0.707232</vAcc></extensions></trkpt>
      <trkpt lon="-123.281753" lat="44.562193"><ele>72.321671</ele><time>2020-12-04T16:36:08Z</time><extensions><speed>4.035780</speed><course>180.688370</course><hAcc>1.911905</hAcc><vAcc>0.699065</vAcc></extensions></trkpt>
      <trkpt lon="-123.281702" lat="44.562186"><ele>72.298180</ele><time>2020-12-04T16:36:09Z</time><extensions><speed>4.152418</speed><course>167.459351</course><hAcc>1.911713</hAcc><vAcc>0.696343</vAcc></extensions></trkpt>
      <trkpt lon="-123.281651" lat="44.562184"><ele>72.269028</ele><time>2020-12-04T16:36:10Z</time><extensions><speed>4.073851</speed><course>172.500809</course><hAcc>1.911258</hAcc><vAcc>0.696146</vAcc></extensions></trkpt>
      <trkpt lon="-123.281600" lat="44.562185"><ele>72.234428</ele><time>2020-12-04T16:36:11Z</time><extensions><speed>4.003275</speed><course>173.459991</course><hAcc>1.910826</hAcc><vAcc>0.696700</vAcc></extensions></trkpt>
      <trkpt lon="-123.281551" lat="44.562187"><ele>72.195343</ele><time>2020-12-04T16:36:12Z</time><extensions><speed>3.835317</speed><course>178.550629</course><hAcc>1.910672</hAcc><vAcc>0.697071</vAcc></extensions></trkpt>
      <trkpt lon="-123.281504" lat="44.562189"><ele>72.153023</ele><time>2020-12-04T16:36:13Z</time><extensions><speed>3.600232</speed><course>193.580719</course><hAcc>1.910790</hAcc><vAcc>0.696878</vAcc></extensions></trkpt>
      <trkpt lon="-123.281459" lat="44.562190"><ele>72.108215</ele><time>2020-12-04T16:36:14Z</time><extensions><speed>3.569484</speed><course>184.134811</course><hAcc>1.911112</hAcc><vAcc>0.696067</vAcc></extensions></trkpt>
      <trkpt lon="-123.281413" lat="44.562191"><ele>72.061409</ele><time>2020-12-04T16:36:15Z</time><extensions><speed>3.795545</speed><course>175.469040</course><hAcc>1.911325</hAcc><vAcc>0.694753</vAcc></extensions></trkpt>
      <trkpt lon="-123.281362" lat="44.562191"><ele>72.013443</ele><time>2020-12-04T16:36:16Z</time><extensions><speed>4.213032</speed><course>172.295166</course><hAcc>1.911370</hAcc><vAcc>0.693113</vAcc></extensions></trkpt>
      <trkpt lon="-123.281308" lat="44.562189"><ele>71.965530</ele><time>2020-12-04T16:36:17Z</time><extensions><speed>4.388766</speed><course>169.674026</course><hAcc>1.911311</hAcc><vAcc>0.691334</vAcc></extensions></trkpt>
      <trkpt lon="-123.281254" lat="44.562187"><ele>71.918655</ele><time>2020-12-04T16:36:18Z</time><extensions><speed>4.220766</speed><course>164.947525</course><hAcc>1.911007</hAcc><vAcc>0.689570</vAcc></extensions></trkpt>
      <trkpt lon="-123.281202" lat="44.562184"><ele>71.873505</ele><time>2020-12-04T16:36:19Z</time><extensions><speed>4.128561</speed><course>159.886627</course><hAcc>1.910595</hAcc><vAcc>0.687935</vAcc></extensions></trkpt>
      <trkpt lon="-123.281151" lat="44.562182"><ele>71.830536</ele><time>2020-12-04T16:36:20Z</time><extensions><speed>4.033695</speed><course>154.444504</course><hAcc>1.910535</hAcc><vAcc>0.686504</vAcc></extensions></trkpt>
      <trkpt lon="-123.281101" lat="44.562180"><ele>71.789879</ele><time>2020-12-04T16:36:21Z</time><extensions><speed>3.861644</speed><course>155.048111</course><hAcc>1.910735</hAcc><vAcc>0.685311</vAcc></extensions></trkpt>
      <trkpt lon="-123.281052" lat="44.562178"><ele>71.751717</ele><time>2020-12-04T16:36:22Z</time><extensions><speed>3.852267</speed><course>149.663803</course><hAcc>1.910776</hAcc><vAcc>0.684363</vAcc></extensions></trkpt>
      <trkpt lon="-123.281003" lat="44.562176"><ele>71.716461</ele><time>2020-12-04T16:36:23Z</time><extensions><speed>3.984656</speed><course>156.213379</course><hAcc>1.910641</hAcc><vAcc>0.683654</vAcc></extensions></trkpt>
      <trkpt lon="-123.280952" lat="44.562174"><ele>71.684303</ele><time>2020-12-04T16:36:24Z</time><extensions><speed>4.098354</speed><course>161.021759</course><hAcc>1.910421</hAcc><vAcc>0.683169</vAcc></extensions></trkpt>
      <trkpt lon="-123.280900" lat="44.562171"><ele>71.655762</ele><time>2020-12-04T16:36:25Z</time><extensions><speed>4.179402</speed><course>183.770889</course><hAcc>1.910200</hAcc><vAcc>0.682894</vAcc></extensions></trkpt>
      <trkpt lon="-123.280848" lat="44.562170"><ele>71.632179</ele><time>2020-12-04T16:36:26Z</time><extensions><speed>4.091770</speed><course>187.411469</course><hAcc>1.910019</hAcc><vAcc>0.682822</vAcc></extensions></trkpt>
      <trkpt lon="-123.280798" lat="44.562170"><ele>71.614784</ele><time>2020-12-04T16:36:27Z</time><extensions><speed>3.887659</speed><course>206.663132</course><hAcc>1.909855</hAcc><vAcc>0.682954</vAcc></extensions></trkpt>
      <trkpt lon="-123.280750" lat="44.562172"><ele>71.604164</ele><time>2020-12-04T16:36:28Z</time><extensions><speed>3.786284</speed><course>217.040924</course><hAcc>1.909698</hAcc><vAcc>0.683298</vAcc></extensions></trkpt>
      <trkpt lon="-123.280702" lat="44.562174"><ele>71.600403</ele><time>2020-12-04T16:36:29Z</time><extensions><speed>3.845383</speed><course>241.654816</course><hAcc>1.909641</hAcc><vAcc>0.683867</vAcc></extensions></trkpt>
      <trkpt lon="-123.280653" lat="44.562176"><ele>71.603195</ele><time>2020-12-04T16:36:30Z</time><extensions><speed>4.000408</speed><course>253.730072</course><hAcc>1.909606</hAcc><vAcc>0.684678</vAcc></extensions></trkpt>
      <trkpt lon="-123.280603" lat="44.562175"><ele>71.611938</ele><time>2020-12-04T16:36:31Z</time><extensions><speed>3.965383</speed><course>260.010681</course><hAcc>1.909549</hAcc><vAcc>0.685740</vAcc></extensions></trkpt>
      <trkpt lon="-123.280554" lat="44.562173"><ele>71.626099</ele><time>2020-12-04T16:36:32Z</time><extensions><speed>3.760656</speed><course>264.171082</course><hAcc>1.909597</hAcc><vAcc>0.687050</vAcc></extensions></trkpt>
      <trkpt lon="-123.280508" lat="44.562171"><ele>71.645432</ele><time>2020-12-04T16:36:33Z</time><extensions><speed>3.630606</speed><course>260.771149</course><hAcc>1.909788</hAcc><vAcc>0.688581</vAcc></extensions></trkpt>
      <trkpt lon="-123.280462" lat="44.562169"><ele>71.669945</ele><time>2020-12-04T16:36:34Z</time><extensions><speed>3.644171</speed><course>262.314087</course><hAcc>1.909960</hAcc><vAcc>0.690275</vAcc></extensions></trkpt>
      <trkpt lon="-123.280416" lat="44.562169"><ele>71.699928</ele><time>2020-12-04T16:36:35Z</time><extensions><speed>3.738355</speed><course>263.531403</course><hAcc>1.910195</hAcc><vAcc>0.692037</vAcc></extensions></trkpt>
      <trkpt lon="-123.280368" lat="44.562171"><ele>71.736092</ele><time>2020-12-04T16:36:36Z</time><extensions><speed>3.774673</speed><course>255.810883</course><hAcc>1.910609</hAcc><vAcc>0.693734</vAcc></extensions></trkpt>
      <trkpt lon="-123.280321" lat="44.562175"><ele>71.779335</ele><time>2020-12-04T16:36:37Z</time><extensions><speed>3.819607</speed><course>245.441101</course><hAcc>1.910836</hAcc><vAcc>0.695208</vAcc></extensions></trkpt>
      <trkpt lon="-123.280273" lat="44.562179"><ele>71.830391</ele><time>2020-12-04T16:36:38Z</time><extensions><speed>3.895286</speed><course>236.357239</course><hAcc>1.911036</hAcc><vAcc>0.696304</vAcc></extensions></trkpt>
      <trkpt lon="-123.280223" lat="44.562181"><ele>71.889572</ele><time>2020-12-04T16:36:39Z</time><extensions><speed>3.992402</speed><course>254.050156</course><hAcc>1.911349</hAcc><vAcc>0.696926</vAcc></extensions></trkpt>
      <trkpt lon="-123.280172" lat="44.562181"><ele>71.956711</ele><time>2020-12-04T16:36:40Z</time><extensions><speed>4.179533</speed><course>251.538101</course><hAcc>1.911408</hAcc><vAcc>0.697129</vAcc></extensions></trkpt>
      <trkpt lon="-123.280119" lat="44.562179"><ele>72.031357</ele><time>2020-12-04T16:36:41Z</time><extensions><speed>4.256927</speed><course>265.802399</course><hAcc>1.911452</hAcc><vAcc>0.697255</vAcc></extensions></trkpt>
      <trkpt lon="-123.280066" lat="44.562178"><ele>72.112724</ele><time>2020-12-04T16:36:42Z</time><extensions><speed>4.136549</speed><course>264.905975</course><hAcc>1.911800</hAcc><vAcc>0.698136</vAcc></extensions></trkpt>
      <trkpt lon="-123.280015" lat="44.562177"><ele>72.199883</ele><time>2020-12-04T16:36:43Z</time><extensions><speed>3.935638</speed><course>260.731812</course><hAcc>1.912278</hAcc><vAcc>0.701339</vAcc></extensions></trkpt>
      <trkpt lon="-123.279966" lat="44.562180"><ele>72.292145</ele><time>2020-12-04T16:36:44Z</time><extensions><speed>3.876316</speed><course>274.148407</course><hAcc>1.912623</hAcc><vAcc>0.709446</vAcc></extensions></trkpt>
      <trkpt lon="-123.279918" lat="44.562186"><ele>72.388992</ele><time>2020-12-04T16:36:45Z</time><extensions><speed>3.879247</speed><course>271.479431</course><hAcc>1.912890</hAcc><vAcc>0.726244</vAcc></extensions></trkpt>
      <trkpt lon="-123.279874" lat="44.562198"><ele>72.489166</ele><time>2020-12-04T16:36:46Z</time><extensions><speed>3.648644</speed><course>271.870911</course><hAcc>1.914984</hAcc><vAcc>0.756658</vAcc></extensions></trkpt>
      <trkpt lon="-123.279839" lat="44.562215"><ele>72.505692</ele><time>2020-12-04T16:36:47Z</time><extensions><speed>3.122282</speed><course>208.062424</course><hAcc>1.912789</hAcc><vAcc>0.724747</vAcc></extensions></trkpt>
      <trkpt lon="-123.279820" lat="44.562236"><ele>72.563789</ele><time>2020-12-04T16:36:48Z</time><extensions><speed>2.711178</speed><course>198.172562</course><hAcc>1.911906</hAcc><vAcc>0.706994</vAcc></extensions></trkpt>
      <trkpt lon="-123.279815" lat="44.562261"><ele>72.615631</ele><time>2020-12-04T16:36:49Z</time><extensions><speed>2.883557</speed><course>180.688370</course><hAcc>1.911974</hAcc><vAcc>0.698902</vAcc></extensions></trkpt>
      <trkpt lon="-123.279817" lat="44.562289"><ele>72.662071</ele><time>2020-12-04T16:36:50Z</time><extensions><speed>3.364234</speed><course>167.459351</course><hAcc>1.911769</hAcc><vAcc>0.696212</vAcc></extensions></trkpt>
      <trkpt lon="-123.279821" lat="44.562321"><ele>72.706039</ele><time>2020-12-04T16:36:51Z</time><extensions><speed>3.772100</speed><course>172.500809</course><hAcc>1.911368</hAcc><vAcc>0.696013</vAcc></extensions></trkpt>
      <trkpt lon="-123.279824" lat="44.562356"><ele>72.751068</ele><time>2020-12-04T16:36:52Z</time><extensions><speed>4.034285</speed><course>173.459991</course><hAcc>1.910946</hAcc><vAcc>0.696541</vAcc></extensions></trkpt>
      <trkpt lon="-123.279826" lat="44.562393"><ele>72.799156</ele><time>2020-12-04T16:36:53Z</time><extensions><speed>4.227310</speed><course>178.550629</course><hAcc>1.910693</hAcc><vAcc>0.696874</vAcc></extensions></trkpt>
      <trkpt lon="-123.279828" lat="44.562431"><ele>72.850159</ele><time>2020-12-04T16:36:54Z</time><extensions><speed>4.238799</speed><course>193.580719</course><hAcc>1.910642</hAcc><vAcc>0.696647</vAcc></extensions></trkpt>
      <trkpt lon="-123.279830" lat="44.562469"><ele>72.902603</ele><time>2020-12-04T16:36:55Z</time><extensions><speed>4.169102</speed><course>184.134811</course><hAcc>1.910597</hAcc><vAcc>0.695823</vAcc></extensions></trkpt>
      <trkpt lon="-123.279831" lat="44.562505"><ele>72.954483</ele><time>2020-12-04T16:36:56Z</time><extensions><speed>3.935341</speed><course>175.469040</course><hAcc>1.910337</hAcc><vAcc>0.694538</vAcc></extensions></trkpt>
      <trkpt lon="-123.279832" lat="44.562539"><ele>73.003372</ele><time>2020-12-04T16:36:57Z</time><extensions><speed>3.700368</speed><course>172.295166</course><hAcc>1.909845</hAcc><vAcc>0.693000</vAcc></extensions></trkpt>
      <trkpt lon="-123.279832" lat="44.562573"><ele>73.046585</ele><time>2020-12-04T16:36:58Z</time><extensions><speed>3.769064</speed><course>169.674026</course><hAcc>1.909415</hAcc><vAcc>0.691423</vAcc></extensions></trkpt>
      <trkpt lon="-123.279832" lat="44.562608"><ele>73.081589</ele><time>2020-12-04T16:36:59Z</time><extensions><speed>4.053064</speed><course>164.947525</course><hAcc>1.909268</hAcc><vAcc>0.689996</vAcc></extensions></trkpt>
      <trkpt lon="-123.279831" lat="44.562646"><ele>73.106285</ele><time>2020-12-04T16:37:00Z</time><extensions><speed>4.388696</speed><course>159.886627</course><hAcc>1.909318</hAcc><vAcc>0.688866</vAcc></extensions></trkpt>
      <trkpt lon="-123.279830" lat="44.562687"><ele>73.119209</ele><time>2020-12-04T16:37:01Z</time><extensions><speed>4.572950</speed><course>154.444504</course><hAcc>1.909514</hAcc><vAcc>0.688133</vAcc></extensions></trkpt>
      <trkpt lon="-123.279830" lat="44.562727"><ele>73.119858</ele><time>2020-12-04T16:37:02Z</time><extensions><speed>4.405393</speed><course>155.048111</course><hAcc>1.909747</hAcc><vAcc>0.687853</vAcc></extensions></trkpt>
      <trkpt lon="-123.279832" lat="44.562765"><ele>73.109032</ele><time>2020-12-04T16:37:03Z</time><extensions><speed>4.069928</speed><course>149.663803</course><hAcc>1.910074</hAcc><vAcc>0.688043</vAcc></extensions></trkpt>
      <trkpt lon="-123.279834" lat="44.562800"><ele>73.088593</ele><time>2020-12-04T16:37:04Z</time><extensions><speed>3.819682</speed><course>156.213379</course><hAcc>1.910391</hAcc><vAcc>0.688683</vAcc></extensions></trkpt>
      <trkpt lon="-123.279833" lat="44.562834"><ele>73.061050</ele><time>2020-12-04T16:37:05Z</time><extensions><speed>3.713725</speed><course>161.021759</course><hAcc>1.910599</hAcc><vAcc>0.689716</vAcc></extensions></trkpt>
      <trkpt lon="-123.279830" lat="44.562868"><ele>73.029480</ele><time>2020-12-04T16:37:06Z</time><extensions><speed>3.705164</speed><course>183.770889</course><hAcc>1.910834</hAcc><vAcc>0.691049</vAcc></extensions></trkpt>
      <trkpt lon="-123.279827" lat="44.562901"><ele>72.996948</ele><time>2020-12-04T16:37:07Z</time><extensions><speed>3.767343</speed><course>187.411469</course><hAcc>1.911066</hAcc><vAcc>0.692550</vAcc></extensions></trkpt>
      <trkpt lon="-123.279827" lat="44.562936"><ele>72.965828</ele><time>2020-12-04T16:37:08Z</time><extensions><speed>4.064410</speed><course>206.663132</course><hAcc>1.911147</hAcc><vAcc>0.694057</vAcc></extensions></trkpt>
      <trkpt lon="-123.279830" lat="44.562974"><ele>72.937607</ele><time>2020-12-04T16:37:09Z</time><extensions><speed>4.370581</speed><course>217.040924</course><hAcc>1.911201</hAcc><vAcc>0.695389</vAcc></extensions></trkpt>
      <trkpt lon="-123.279834" lat="44.563014"><ele>72.912895</ele><time>2020-12-04T16:37:10Z</time><extensions><speed>4.395117</speed><course>241.654816</course><hAcc>1.911311</hAcc><vAcc>0.696372</vAcc></extensions></trkpt>
      <trkpt lon="-123.279837" lat="44.563053"><ele>72.891609</ele><time>2020-12-04T16:37:11Z</time><extensions><speed>4.330159</speed><course>253.730072</course><hAcc>1.911300</hAcc><vAcc>0.696900</vAcc></extensions></trkpt>
      <trkpt lon="-123.279838" lat="44.563091"><ele>72.873322</ele><time>2020-12-04T16:37:12Z</time><extensions><speed>4.116057</speed><course>260.010681</course><hAcc>1.911125</hAcc><vAcc>0.697022</vAcc></extensions></trkpt>
      <trkpt lon="-123.279838" lat="44.563126"><ele>72.857353</ele><time>2020-12-04T16:37:13Z</time><extensions><speed>3.775470</speed><course>264.171082</course><hAcc>1.911040</hAcc><vAcc>0.697081</vAcc></extensions></trkpt>
      <trkpt lon="-123.279838" lat="44.563159"><ele>72.842743</ele><time>2020-12-04T16:37:14Z</time><extensions><speed>3.576258</speed><course>260.771149</course><hAcc>1.911068</hAcc><vAcc>0.697912</vAcc></extensions></trkpt>
      <trkpt lon="-123.279839" lat="44.563192"><ele>72.828880</ele><time>2020-12-04T16:37:15Z</time><extensions><speed>3.745507</speed><course>262.314087</course><hAcc>1.911137</hAcc><vAcc>0.701094</vAcc></extensions></trkpt>
      <trkpt lon="-123.279842" lat="44.563228"><ele>72.815338</ele><time>2020-12-04T16:37:16Z</time><extensions><speed>4.216927</speed><course>263.531403</course><hAcc>1.911193</hAcc><vAcc>0.709219</vAcc></extensions></trkpt>
      <trkpt lon="-123.279850" lat="44.563267"><ele>72.801300</ele><time>2020-12-04T16:37:17Z</time><extensions><speed>4.570970</speed><course>255.810883</course><hAcc>1.911369</hAcc><vAcc>0.726086</vAcc></extensions></trkpt>
      <trkpt lon="-123.279867" lat="44.563307"><ele>72.786125</ele><time>2020-12-04T16:37:18Z</time><extensions><speed>4.644925</speed><course>245.441101</course><hAcc>1.913732</hAcc><vAcc>0.756628</vAcc></extensions></trkpt>
      <trkpt lon="-123.279896" lat="44.563342"><ele>72.802322</ele><time>2020-12-04T16:37:19Z</time><extensions><speed>4.464354</speed><course>208.062424</course><hAcc>1.912002</hAcc><vAcc>0.724588</vAcc></extensions></trkpt>
      <trkpt lon="-123.279937" lat="44.563367"><ele>72.736084</ele><time>2020-12-04T16:37:20Z</time><extensions><speed>4.260163</speed><course>198.172562</course><hAcc>1.911572</hAcc><vAcc>0.707094</vAcc></extensions></trkpt>
      <trkpt lon="-123.279987" lat="44.563379"><ele>72.668022</ele><time>2020-12-04T16:37:21Z</time><extensions><speed>4.254899</speed><course>180.688370</course><hAcc>1.912459</hAcc><vAcc>0.699267</vAcc></extensions></trkpt>
      <trkpt lon="-123.280041" lat="44.563381"><ele>72.598274</ele><time>2020-12-04T16:37:22Z</time><extensions><speed>4.396660</speed><course>167.459351</course><hAcc>1.913429</hAcc><vAcc>0.696837</vAcc></extensions></trkpt>
      <trkpt lon="-123.280096" lat="44.563380"><ele>72.527199</ele><time>2020-12-04T16:37:23Z</time><extensions><speed>4.411418</speed><course>172.500809</course><hAcc>1.913626</hAcc><vAcc>0.696884</vAcc></extensions></trkpt>
      <trkpt lon="-123.280151" lat="44.563379"><ele>72.455345</ele><time>2020-12-04T16:37:24Z</time><extensions><speed>4.322760</speed><course>173.459991</course><hAcc>1.913348</hAcc><vAcc>0.697640</vAcc></extensions></trkpt>
      <trkpt lon="-123.280205" lat="44.563381"><ele>72.383118</ele><time>2020-12-04T16:37:25Z</time><extensions><speed>4.160314</speed><course>178.550629</course><hAcc>1.913081</hAcc><vAcc>0.698183</vAcc></extensions></trkpt>
      <trkpt lon="-123.280255" lat="44.563383"><ele>72.310822</ele><time>2020-12-04T16:37:26Z</time><extensions><speed>3.823343</speed><course>193.580719</course><hAcc>1.912945</hAcc><vAcc>0.698143</vAcc></extensions></trkpt>
      <trkpt lon="-123.280299" lat="44.563386"><ele>72.239212</ele><time>2020-12-04T16:37:27Z</time><extensions><speed>3.286394</speed><course>184.134811</course><hAcc>1.912979</hAcc><vAcc>0.697475</vAcc></extensions></trkpt>
      <trkpt lon="-123.280338" lat="44.563387"><ele>72.169762</ele><time>2020-12-04T16:37:28Z</time><extensions><speed>2.847376</speed><course>175.469040</course><hAcc>1.913312</hAcc><vAcc>0.696304</vAcc></extensions></trkpt>
      <trkpt lon="-123.280374" lat="44.563385"><ele>72.105347</ele><time>2020-12-04T16:37:29Z</time><extensions><speed>2.984752</speed><course>172.295166</course><hAcc>1.914017</hAcc><vAcc>0.694814</vAcc></extensions></trkpt>
      <trkpt lon="-123.280416" lat="44.563381"><ele>72.050209</ele><time>2020-12-04T16:37:30Z</time><extensions><speed>3.629269</speed><course>169.674026</course><hAcc>1.914723</hAcc><vAcc>0.693192</vAcc></extensions></trkpt>
      <trkpt lon="-123.280466" lat="44.563379"><ele>72.008362</ele><time>2020-12-04T16:37:31Z</time><extensions><speed>4.383564</speed><course>164.947525</course><hAcc>1.914883</hAcc><vAcc>0.691595</vAcc></extensions></trkpt>
      <trkpt lon="-123.280524" lat="44.563378"><ele>71.982109</ele><time>2020-12-04T16:37:32Z</time><extensions><speed>4.775417</speed><course>159.886627</course><hAcc>1.914871</hAcc><vAcc>0.690140</vAcc></extensions></trkpt>
      <trkpt lon="-123.280583" lat="44.563379"><ele>71.972481</ele><time>2020-12-04T16:37:33Z</time><extensions><speed>4.735144</speed><course>154.444504</course><hAcc>1.915177</hAcc><vAcc>0.688904</vAcc></extensions></trkpt>
      <trkpt lon="-123.280642" lat="44.563380"><ele>71.980392</ele><time>2020-12-04T16:37:34Z</time><extensions><speed>4.549921</speed><course>155.048111</course><hAcc>1.915805</hAcc><vAcc>0.687926</vAcc></extensions></trkpt>
      <trkpt lon="-123.280698" lat="44.563381"><ele>72.006477</ele><time>2020-12-04T16:37:35Z</time><extensions><speed>4.382465</speed><course>149.663803</course><hAcc>1.916227</hAcc><vAcc>0.687224</vAcc></extensions></trkpt>
      <trkpt lon="-123.280753" lat="44.563381"><ele>72.050713</ele><time>2020-12-04T16:37:36Z</time><extensions><speed>4.381264</speed><course>156.213379</course><hAcc>1.916224</hAcc><vAcc>0.686800</vAcc></extensions></trkpt>
      <trkpt lon="-123.280809" lat="44.563381"><ele>72.112709</ele><time>2020-12-04T16:37:37Z</time><extensions><speed>4.502738</speed><course>161.021759</course><hAcc>1.916070</hAcc><vAcc>0.686650</vAcc></extensions></trkpt>
      <trkpt lon="-123.280865" lat="44.563381"><ele>72.191994</ele><time>2020-12-04T16:37:38Z</time><extensions><speed>4.384413</speed><course>183.770889</course><hAcc>1.915824</hAcc><vAcc>0.686773</vAcc></extensions></trkpt>
      <trkpt lon="-123.280917" lat="44.563382"><ele>72.287766</ele><time>2020-12-04T16:37:39Z</time><extensions><speed>3.932094</speed><course>187.411469</course><hAcc>1.915609</hAcc><vAcc>0.687168</vAcc></extensions></trkpt>
      <trkpt lon="-123.280965" lat="44.563383"><ele>72.398430</ele><time>2020-12-04T16:37:40Z</time><extensions><speed>3.641280</speed><course>206.663132</course><hAcc>1.915800</hAcc><vAcc>0.687833</vAcc></extensions></trkpt>
      <trkpt lon="-123.281012" lat="44.563383"><ele>72.521721</ele><time>2020-12-04T16:37:41Z</time><extensions><speed>3.867975</speed><course>217.040924</course><hAcc>1.916329</hAcc><vAcc>0.688762</vAcc></extensions></trkpt>
      <trkpt lon="-123.281063" lat="44.563384"><ele>72.654114</ele><time>2020-12-04T16:37:42Z</time><extensions><speed>4.205826</speed><course>241.654816</course><hAcc>1.916376</hAcc><vAcc>0.689936</vAcc></extensions></trkpt>
      <trkpt lon="-123.281116" lat="44.563383"><ele>72.790550</ele><time>2020-12-04T16:37:43Z</time><extensions><speed>4.216178</speed><course>253.730072</course><hAcc>1.915815</hAcc><vAcc>0.691322</vAcc></extensions></trkpt>
      <trkpt lon="-123.281168" lat="44.563383"><ele>72.925331</ele><time>2020-12-04T16:37:44Z</time><extensions><speed>4.071260</speed><course>260.010681</course><hAcc>1.915269</hAcc><vAcc>0.692859</vAcc></extensions></trkpt>
      <trkpt lon="-123.281219" lat="44.563381"><ele>73.052895</ele><time>2020-12-04T16:37:45Z</time><extensions><speed>4.015717</speed><course>264.171082</course><hAcc>1.914719</hAcc><vAcc>0.694456</vAcc></extensions></trkpt>
      <trkpt lon="-123.281270" lat="44.563380"><ele>73.168213</ele><time>2020-12-04T16:37:46Z</time><extensions><speed>4.058441</speed><course>260.771149</course><hAcc>1.914054</hAcc><vAcc>0.695988</vAcc></extensions></trkpt>
      <trkpt lon="-123.281321" lat="44.563380"><ele>73.267250</ele><time>2020-12-04T16:37:47Z</time><extensions><speed>4.044647</speed><course>262.314087</course><hAcc>1.913608</hAcc><vAcc>0.697308</vAcc></extensions></trkpt>
      <trkpt lon="-123.281370" lat="44.563382"><ele>73.346893</ele><time>2020-12-04T16:37:48Z</time><extensions><speed>3.869136</speed><course>263.531403</course><hAcc>1.913537</hAcc><vAcc>0.698269</vAcc></extensions></trkpt>
      <trkpt lon="-123.281418" lat="44.563386"><ele>73.404922</ele><time>2020-12-04T16:37:49Z</time><extensions><speed>3.765931</speed><course>255.810883</course><hAcc>1.913612</hAcc><vAcc>0.698782</vAcc></extensions></trkpt>
      <trkpt lon="-123.281466" lat="44.563389"><ele>73.439903</ele><time>2020-12-04T16:37:50Z</time><extensions><speed>3.801488</speed><course>245.441101</course><hAcc>1.913735</hAcc><vAcc>0.698908</vAcc></extensions></trkpt>
      <trkpt lon="-123.281513" lat="44.563392"><ele>73.450851</ele><time>2020-12-04T16:37:51Z</time><extensions><speed>3.807780</speed><course>236.357239</course><hAcc>1.914138</hAcc><vAcc>0.698994</vAcc></extensions></trkpt>
      <trkpt lon="-123.281562" lat="44.563394"><ele>73.437485</ele><time>2020-12-04T16:37:52Z</time><extensions><speed>3.860816</speed><course>254.050156</course><hAcc>1.914987</hAcc><vAcc>0.699873</vAcc></extensions></trkpt>
      <trkpt lon="-123.281611" lat="44.563393"><ele>73.399956</ele><time>2020-12-04T16:37:53Z</time><extensions><speed>3.997172</speed><course>251.538101</course><hAcc>1.915854</hAcc><vAcc>0.703116</vAcc></extensions></trkpt>
      <trkpt lon="-123.281662" lat="44.563389"><ele>73.338997</ele><time>2020-12-04T16:37:54Z</time><extensions><speed>4.110935</speed><course>265.802399</course><hAcc>1.916341</hAcc><vAcc>0.711309</vAcc></extensions></trkpt>
      <trkpt lon="-123.281711" lat="44.563381"><ele>73.256683</ele><time>2020-12-04T16:37:55Z</time><extensions><speed>4.027313</speed><course>264.905975</course><hAcc>1.916432</hAcc><vAcc>0.728240</vAcc></extensions></trkpt>
      <trkpt lon="-123.281757" lat="44.563368"><ele>73.156776</ele><time>2020-12-04T16:37:56Z</time><extensions><speed>3.778622</speed><course>260.731812</course><hAcc>1.918354</hAcc><vAcc>0.758835</vAcc></extensions></trkpt>
      <trkpt lon="-123.281798" lat="44.563351"><ele>72.914276</ele><time>2020-12-04T16:37:57Z</time><extensions><speed>3.627496</speed><course>208.062424</course><hAcc>1.915872</hAcc><vAcc>0.726989</vAcc></extensions></trkpt>
      <trkpt lon="-123.281828" lat="44.563329"><ele>72.790749</ele><time>2020-12-04T16:37:58Z</time><extensions><speed>3.386212</speed><course>198.172562</course><hAcc>1.914688</hAcc><vAcc>0.709107</vAcc></extensions></trkpt>
      <trkpt lon="-123.281846" lat="44.563303"><ele>72.680244</ele><time>2020-12-04T16:37:59Z</time><extensions><speed>3.230914</speed><course>180.688370</course><hAcc>1.914838</hAcc><vAcc>0.700957</vAcc></extensions></trkpt>
      <trkpt lon="-123.281850" lat="44.563273"><ele>72.584084</ele><time>2020-12-04T16:38:00Z</time><extensions><speed>3.441006</speed><course>167.459351</course><hAcc>1.915060</hAcc><vAcc>0.698271</vAcc></extensions></trkpt>
      <trkpt lon="-123.281843" lat="44.563242"><ele>72.503235</ele><time>2020-12-04T16:38:01Z</time><extensions><speed>3.675931</speed><course>172.500809</course><hAcc>1.915451</hAcc><vAcc>0.698117</vAcc></extensions></trkpt>
      <trkpt lon="-123.281835" lat="44.563208"><ele>72.438354</ele><time>2020-12-04T16:38:02Z</time><extensions><speed>3.888119</speed><course>173.459991</course><hAcc>1.915839</hAcc><vAcc>0.698709</vAcc></extensions></trkpt>
      <trkpt lon="-123.281834" lat="44.563172"><ele>72.389091</ele><time>2020-12-04T16:38:03Z</time><extensions><speed>4.108684</speed><course>178.550629</course><hAcc>1.915741</hAcc><vAcc>0.699107</vAcc></extensions></trkpt>
      <trkpt lon="-123.281837" lat="44.563135"><ele>72.353394</ele><time>2020-12-04T16:38:04Z</time><extensions><speed>4.139444</speed><course>193.580719</course><hAcc>1.915230</hAcc><vAcc>0.698931</vAcc></extensions></trkpt>
      <trkpt lon="-123.281840" lat="44.563098"><ele>72.327751</ele><time>2020-12-04T16:38:05Z</time><extensions><speed>4.173441</speed><course>184.134811</course><hAcc>1.914485</hAcc><vAcc>0.698132</vAcc></extensions></trkpt>
      <trkpt lon="-123.281841" lat="44.563060"><ele>72.307785</ele><time>2020-12-04T16:38:05Z</time><extensions><speed>4.335008</speed><course>175.469040</course><hAcc>1.914237</hAcc><vAcc>0.696855</vAcc></extensions></trkpt>
      <trkpt lon="-123.281841" lat="44.563020"><ele>72.288536</ele><time>2020-12-04T16:38:06Z</time><extensions><speed>4.421606</speed><course>172.295166</course><hAcc>1.914458</hAcc><vAcc>0.695297</vAcc></extensions></trkpt>
      <trkpt lon="-123.281840" lat="44.562981"><ele>72.265968</ele><time>2020-12-04T16:38:07Z</time><extensions><speed>4.259009</speed><course>169.674026</course><hAcc>1.914496</hAcc><vAcc>0.693654</vAcc></extensions></trkpt>
      <trkpt lon="-123.281840" lat="44.562944"><ele>72.238075</ele><time>2020-12-04T16:38:08Z</time><extensions><speed>4.057346</speed><course>164.947525</course><hAcc>1.914598</hAcc><vAcc>0.692107</vAcc></extensions></trkpt>
      <trkpt lon="-123.281841" lat="44.562908"><ele>72.204865</ele><time>2020-12-04T16:38:09Z</time><extensions><speed>3.987958</speed><course>159.886627</course><hAcc>1.914688</hAcc><vAcc>0.690802</vAcc></extensions></trkpt>
      <trkpt lon="-123.281845" lat="44.562871"><ele>72.167747</ele><time>2020-12-04T16:38:10Z</time><extensions><speed>4.085476</speed><course>154.444504</course><hAcc>1.914569</hAcc><vAcc>0.689839</vAcc></extensions></trkpt>
      <trkpt lon="-123.281852" lat="44.562835"><ele>72.129272</ele><time>2020-12-04T16:38:11Z</time><extensions><speed>4.174169</speed><course>155.048111</course><hAcc>1.914337</hAcc><vAcc>0.689286</vAcc></extensions></trkpt>
      <trkpt lon="-123.281859" lat="44.562798"><ele>72.092712</ele><time>2020-12-04T16:38:12Z</time><extensions><speed>4.117044</speed><course>149.663803</course><hAcc>1.914126</hAcc><vAcc>0.689176</vAcc></extensions></trkpt>
      <trkpt lon="-123.281867" lat="44.562761"><ele>72.061203</ele><time>2020-12-04T16:38:13Z</time><extensions><speed>4.110312</speed><course>156.213379</course><hAcc>1.913990</hAcc><vAcc>0.689515</vAcc></extensions></trkpt>
      <trkpt lon="-123.281875" lat="44.562724"><ele>72.037529</ele><time>2020-12-04T16:38:14Z</time><extensions><speed>4.190017</speed><course>161.021759</course><hAcc>1.913848</hAcc><vAcc>0.690277</vAcc></extensions></trkpt>
      <trkpt lon="-123.281882" lat="44.562687"><ele>72.024162</ele><time>2020-12-04T16:38:15Z</time><extensions><speed>4.169092</speed><course>183.770889</course><hAcc>1.913677</hAcc><vAcc>0.691409</vAcc></extensions></trkpt>
      <trkpt lon="-123.281884" lat="44.562650"><ele>72.022964</ele><time>2020-12-04T16:38:16Z</time><extensions><speed>4.005325</speed><course>187.411469</course><hAcc>1.913786</hAcc><vAcc>0.692823</vAcc></extensions></trkpt>
      <trkpt lon="-123.281881" lat="44.562615"><ele>72.034370</ele><time>2020-12-04T16:38:17Z</time><extensions><speed>3.869922</speed><course>206.663132</course><hAcc>1.914237</hAcc><vAcc>0.694392</vAcc></extensions></trkpt>
      <trkpt lon="-123.281872" lat="44.562581"><ele>72.057152</ele><time>2020-12-04T16:38:18Z</time><extensions><speed>3.883465</speed><course>217.040924</course><hAcc>1.914619</hAcc><vAcc>0.695958</vAcc></extensions></trkpt>
      <trkpt lon="-123.281863" lat="44.562546"><ele>72.088699</ele><time>2020-12-04T16:38:19Z</time><extensions><speed>4.006145</speed><course>241.654816</course><hAcc>1.914811</hAcc><vAcc>0.697339</vAcc></extensions></trkpt>
      <trkpt lon="-123.281858" lat="44.562509"><ele>72.125572</ele><time>2020-12-04T16:38:20Z</time><extensions><speed>4.117381</speed><course>253.730072</course><hAcc>1.914875</hAcc><vAcc>0.698365</vAcc></extensions></trkpt>
      <trkpt lon="-123.281858" lat="44.562472"><ele>72.164467</ele><time>2020-12-04T16:38:21Z</time><extensions><speed>4.218049</speed><course>260.010681</course><hAcc>1.914985</hAcc><vAcc>0.698925</vAcc></extensions></trkpt>
      <trkpt lon="-123.281862" lat="44.562434"><ele>72.202362</ele><time>2020-12-04T16:38:22Z</time><extensions><speed>4.249836</speed><course>264.171082</course><hAcc>1.915233</hAcc><vAcc>0.699067</vAcc></extensions></trkpt>
      <trkpt lon="-123.281869" lat="44.562396"><ele>72.236397</ele><time>2020-12-04T16:38:23Z</time><extensions><speed>4.294075</speed><course>260.771149</course><hAcc>1.915434</hAcc><vAcc>0.699128</vAcc></extensions></trkpt>
      <trkpt lon="-123.281878" lat="44.562358"><ele>72.264252</ele><time>2020-12-04T16:38:24Z</time><extensions><speed>4.280102</speed><course>262.314087</course><hAcc>1.915342</hAcc><vAcc>0.699934</vAcc></extensions></trkpt>
      <trkpt lon="-123.281885" lat="44.562321"><ele>72.284348</ele><time>2020-12-04T16:38:25Z</time><extensions><speed>4.037893</speed><course>263.531403</course><hAcc>1.915375</hAcc><vAcc>0.703052</vAcc></extensions></trkpt>
      <trkpt lon="-123.281886" lat="44.562286"><ele>72.295532</ele><time>2020-12-04T16:38:26Z</time><extensions><speed>3.654738</speed><course>255.810883</course><hAcc>1.915752</hAcc><vAcc>0.711064</vAcc></extensions></trkpt>
      <trkpt lon="-123.281878" lat="44.562255"><ele>72.296684</ele><time>2020-12-04T16:38:27Z</time><extensions><speed>3.338117</speed><course>245.441101</course><hAcc>1.915965</hAcc><vAcc>0.727754</vAcc></extensions></trkpt>
      <trkpt lon="-123.281856" lat="44.562229"><ele>72.286797</ele><time>2020-12-04T16:38:28Z</time><extensions><speed>3.705653</speed><course>236.357239</course><hAcc>1.917727</hAcc><vAcc>0.758048</vAcc></extensions></trkpt>
      <trkpt lon="-123.281815" lat="44.562206"><ele>72.196037</ele><time>2020-12-04T16:38:29Z</time><extensions><speed>4.606874</speed><course>208.062424</course><hAcc>1.915083</hAcc><vAcc>0.725984</vAcc></extensions></trkpt>
      <trkpt lon="-123.281760" lat="44.562188"><ele>72.081879</ele><time>2020-12-04T16:38:30Z</time><extensions><speed>4.988548</speed><course>198.172562</course><hAcc>1.913792</hAcc><vAcc>0.707862</vAcc></extensions></trkpt>
      <trkpt lon="-123.281701" lat="44.562178"><ele>71.971413</ele><time>2020-12-04T16:38:31Z</time><extensions><speed>4.764047</speed><course>180.688370</course><hAcc>1.913060</hAcc><vAcc>0.699446</vAcc></extensions></trkpt>
      <trkpt lon="-123.281644" lat="44.562175"><ele>71.868286</ele><time>2020-12-04T16:38:32Z</time><extensions><speed>4.336381</speed><course>167.459351</course><hAcc>1.912016</hAcc><vAcc>0.696482</vAcc></extensions></trkpt>
      <trkpt lon="-123.281592" lat="44.562175"><ele>71.776459</ele><time>2020-12-04T16:38:33Z</time><extensions><speed>3.946010</speed><course>172.500809</course><hAcc>1.911127</hAcc><vAcc>0.696056</vAcc></extensions></trkpt>
      <trkpt lon="-123.281544" lat="44.562174"><ele>71.699112</ele><time>2020-12-04T16:38:34Z</time><extensions><speed>3.702605</speed><course>173.459991</course><hAcc>1.910365</hAcc><vAcc>0.696399</vAcc></extensions></trkpt>
      <trkpt lon="-123.281498" lat="44.562171"><ele>71.638161</ele><time>2020-12-04T16:38:35Z</time><extensions><speed>3.595984</speed><course>178.550629</course><hAcc>1.909784</hAcc><vAcc>0.696580</vAcc></extensions></trkpt>
      <trkpt lon="-123.281453" lat="44.562167"><ele>71.594620</ele><time>2020-12-04T16:38:37Z</time><extensions><speed>3.583150</speed><course>193.580719</course><hAcc>1.909270</hAcc><vAcc>0.696210</vAcc></extensions></trkpt>
      <trkpt lon="-123.281408" lat="44.562164"><ele>71.568893</ele><time>2020-12-04T16:38:38Z</time><extensions><speed>3.619632</speed><course>184.134811</course><hAcc>1.908815</hAcc><vAcc>0.695238</vAcc></extensions></trkpt>
      <trkpt lon="-123.281363" lat="44.562162"><ele>71.560112</ele><time>2020-12-04T16:38:39Z</time><extensions><speed>3.606518</speed><course>175.469040</course><hAcc>1.908516</hAcc><vAcc>0.693793</vAcc></extensions></trkpt>
      <trkpt lon="-123.281318" lat="44.562162"><ele>71.566414</ele><time>2020-12-04T16:38:40Z</time><extensions><speed>3.529967</speed><course>172.295166</course><hAcc>1.908270</hAcc><vAcc>0.692056</vAcc></extensions></trkpt>
      <trkpt lon="-123.281273" lat="44.562161"><ele>71.585243</ele><time>2020-12-04T16:38:41Z</time><extensions><speed>3.626055</speed><course>169.674026</course><hAcc>1.908255</hAcc><vAcc>0.690208</vAcc></extensions></trkpt>
      <trkpt lon="-123.281226" lat="44.562160"><ele>71.613472</ele><time>2020-12-04T16:38:42Z</time><extensions><speed>3.853226</speed><course>164.947525</course><hAcc>1.908586</hAcc><vAcc>0.688399</vAcc></extensions></trkpt>
      <trkpt lon="-123.281176" lat="44.562158"><ele>71.647682</ele><time>2020-12-04T16:38:43Z</time><extensions><speed>4.067378</speed><course>159.886627</course><hAcc>1.908955</hAcc><vAcc>0.686735</vAcc></extensions></trkpt>
      <trkpt lon="-123.281124" lat="44.562157"><ele>71.684425</ele><time>2020-12-04T16:38:44Z</time><extensions><speed>4.149184</speed><course>154.444504</course><hAcc>1.909101</hAcc><vAcc>0.685280</vAcc></extensions></trkpt>
      <trkpt lon="-123.281072" lat="44.562158"><ele>71.720192</ele><time>2020-12-04T16:38:45Z</time><extensions><speed>4.185024</speed><course>155.048111</course><hAcc>1.908799</hAcc><vAcc>0.684065</vAcc></extensions></trkpt>
      <trkpt lon="-123.281018" lat="44.562160"><ele>71.751877</ele><time>2020-12-04T16:38:46Z</time><extensions><speed>4.291050</speed><course>149.663803</course><hAcc>1.908139</hAcc><vAcc>0.683097</vAcc></extensions></trkpt>
      <trkpt lon="-123.280964" lat="44.562160"><ele>71.777222</ele><time>2020-12-04T16:38:47Z</time><extensions><speed>4.298519</speed><course>156.213379</course><hAcc>1.907727</hAcc><vAcc>0.682369</vAcc></extensions></trkpt>
      <trkpt lon="-123.280911" lat="44.562158"><ele>71.794914</ele><time>2020-12-04T16:38:48Z</time><extensions><speed>4.193509</speed><course>161.021759</course><hAcc>1.907666</hAcc><vAcc>0.681869</vAcc></extensions></trkpt>
      <trkpt lon="-123.280859" lat="44.562155"><ele>71.804657</ele><time>2020-12-04T16:38:49Z</time><extensions><speed>4.078911</speed><course>183.770889</course><hAcc>1.907547</hAcc><vAcc>0.681583</vAcc></extensions></trkpt>
      <trkpt lon="-123.280809" lat="44.562151"><ele>71.807083</ele><time>2020-12-04T16:38:50Z</time><extensions><speed>4.003544</speed><course>187.411469</course><hAcc>1.907286</hAcc><vAcc>0.681503</vAcc></extensions></trkpt>
      <trkpt lon="-123.280758" lat="44.562149"><ele>71.803345</ele><time>2020-12-04T16:38:51Z</time><extensions><speed>4.078091</speed><course>206.663132</course><hAcc>1.907168</hAcc><vAcc>0.681630</vAcc></extensions></trkpt>
      <trkpt lon="-123.280706" lat="44.562148"><ele>71.794296</ele><time>2020-12-04T16:38:52Z</time><extensions><speed>4.166994</speed><course>217.040924</course><hAcc>1.907220</hAcc><vAcc>0.681970</vAcc></extensions></trkpt>
      <trkpt lon="-123.280653" lat="44.562148"><ele>71.780037</ele><time>2020-12-04T16:38:53Z</time><extensions><speed>4.231721</speed><course>241.654816</course><hAcc>1.907254</hAcc><vAcc>0.682536</vAcc></extensions></trkpt>
      <trkpt lon="-123.280598" lat="44.562147"><ele>71.760201</ele><time>2020-12-04T16:38:54Z</time><extensions><speed>4.452963</speed><course>253.730072</course><hAcc>1.907176</hAcc><vAcc>0.683340</vAcc></extensions></trkpt>
      <trkpt lon="-123.280542" lat="44.562147"><ele>71.734001</ele><time>2020-12-04T16:38:55Z</time><extensions><speed>4.536925</speed><course>260.010681</course><hAcc>1.907052</hAcc><vAcc>0.684394</vAcc></extensions></trkpt>
      <trkpt lon="-123.280486" lat="44.562148"><ele>71.700455</ele><time>2020-12-04T16:38:56Z</time><extensions><speed>4.371192</speed><course>264.171082</course><hAcc>1.907139</hAcc><vAcc>0.685692</vAcc></extensions></trkpt>
      <trkpt lon="-123.280431" lat="44.562147"><ele>71.659103</ele><time>2020-12-04T16:38:57Z</time><extensions><speed>4.279830</speed><course>260.771149</course><hAcc>1.907430</hAcc><vAcc>0.687209</vAcc></extensions></trkpt>
      <trkpt lon="-123.280378" lat="44.562147"><ele>71.610245</ele><time>2020-12-04T16:38:58Z</time><extensions><speed>4.200626</speed><course>262.314087</course><hAcc>1.907823</hAcc><vAcc>0.688887</vAcc></extensions></trkpt>
      <trkpt lon="-123.280327" lat="44.562146"><ele>71.555176</ele><time>2020-12-04T16:38:59Z</time><extensions><speed>3.934861</speed><course>263.531403</course><hAcc>1.907983</hAcc><vAcc>0.690632</vAcc></extensions></trkpt>
      <trkpt lon="-123.280280" lat="44.562146"><ele>71.496483</ele><time>2020-12-04T16:39:00Z</time><extensions><speed>3.556213</speed><course>255.810883</course><hAcc>1.907848</hAcc><vAcc>0.692315</vAcc></extensions></trkpt>
      <trkpt lon="-123.280237" lat="44.562148"><ele>71.438034</ele><time>2020-12-04T16:39:01Z</time><extensions><speed>3.275316</speed><course>245.441101</course><hAcc>1.907766</hAcc><vAcc>0.693781</vAcc></extensions></trkpt>
      <trkpt lon="-123.280196" lat="44.562152"><ele>71.384598</ele><time>2020-12-04T16:39:02Z</time><extensions><speed>3.216141</speed><course>236.357239</course><hAcc>1.907876</hAcc><vAcc>0.694880</vAcc></extensions></trkpt>
      <trkpt lon="-123.280156" lat="44.562158"><ele>71.341431</ele><time>2020-12-04T16:39:03Z</time><extensions><speed>3.319275</speed><course>254.050156</course><hAcc>1.908139</hAcc><vAcc>0.695517</vAcc></extensions></trkpt>
      <trkpt lon="-123.280113" lat="44.562163"><ele>71.314018</ele><time>2020-12-04T16:39:04Z</time><extensions><speed>3.697366</speed><course>251.538101</course><hAcc>1.908482</hAcc><vAcc>0.695744</vAcc></extensions></trkpt>
      <trkpt lon="-123.280063" lat="44.562165"><ele>71.306892</ele><time>2020-12-04T16:39:05Z</time><extensions><speed>4.115695</speed><course>265.802399</course><hAcc>1.908837</hAcc><vAcc>0.695901</vAcc></extensions></trkpt>
      <trkpt lon="-123.280012" lat="44.562166"><ele>71.322205</ele><time>2020-12-04T16:39:06Z</time><extensions><speed>4.080262</speed><course>264.905975</course><hAcc>1.909383</hAcc><vAcc>0.696810</vAcc></extensions></trkpt>
      <trkpt lon="-123.279963" lat="44.562170"><ele>71.359932</ele><time>2020-12-04T16:39:07Z</time><extensions><speed>3.783400</speed><course>260.731812</course><hAcc>1.909987</hAcc><vAcc>0.700032</vAcc></extensions></trkpt>
      <trkpt lon="-123.279918" lat="44.562180"><ele>71.418915</ele><time>2020-12-04T16:39:08Z</time><extensions><speed>3.660288</speed><course>274.148407</course><hAcc>1.910453</hAcc><vAcc>0.708139</vAcc></extensions></trkpt>
      <trkpt lon="-123.279879" lat="44.562197"><ele>71.496971</ele><time>2020-12-04T16:39:09Z</time><extensions><speed>3.784913</speed><course>271.479431</course><hAcc>1.910846</hAcc><vAcc>0.724913</vAcc></extensions></trkpt>
      <trkpt lon="-123.279845" lat="44.562222"><ele>71.590515</ele><time>2020-12-04T16:39:10Z</time><extensions><speed>3.940363</speed><course>271.870911</course><hAcc>1.913006</hAcc><vAcc>0.755279</vAcc></extensions></trkpt>
      <trkpt lon="-123.279819" lat="44.562252"><ele>71.578453</ele><time>2020-12-04T16:39:11Z</time><extensions><speed>3.866738</speed><course>208.062424</course><hAcc>1.910872</hAcc><vAcc>0.723681</vAcc></extensions></trkpt>
      <trkpt lon="-123.279798" lat="44.562281"><ele>71.641457</ele><time>2020-12-04T16:39:12Z</time><extensions><speed>3.509800</speed><course>198.172562</course><hAcc>1.910022</hAcc><vAcc>0.706176</vAcc></extensions></trkpt>
      <trkpt lon="-123.279777" lat="44.562307"><ele>71.691292</ele><time>2020-12-04T16:39:13Z</time><extensions><speed>3.174094</speed><course>180.688370</course><hAcc>1.910062</hAcc><vAcc>0.698323</vAcc></extensions></trkpt>
      <trkpt lon="-123.279757" lat="44.562331"><ele>71.727814</ele><time>2020-12-04T16:39:14Z</time><extensions><speed>2.994492</speed><course>167.459351</course><hAcc>1.910130</hAcc><vAcc>0.695861</vAcc></extensions></trkpt>
      <trkpt lon="-123.279745" lat="44.562357"><ele>71.752159</ele><time>2020-12-04T16:39:15Z</time><extensions><speed>3.157156</speed><course>172.500809</course><hAcc>1.910609</hAcc><vAcc>0.695875</vAcc></extensions></trkpt>
      <trkpt lon="-123.279740" lat="44.562388"><ele>71.766495</ele><time>2020-12-04T16:39:16Z</time><extensions><speed>3.768220</speed><course>173.459991</course><hAcc>1.911319</hAcc><vAcc>0.696599</vAcc></extensions></trkpt>
      <trkpt lon="-123.279737" lat="44.562425"><ele>71.773621</ele><time>2020-12-04T16:39:17Z</time><extensions><speed>4.424737</speed><course>178.550629</course><hAcc>1.911883</hAcc><vAcc>0.697102</vAcc></extensions></trkpt>
      <trkpt lon="-123.279734" lat="44.562466"><ele>71.776772</ele><time>2020-12-04T16:39:18Z</time><extensions><speed>4.774755</speed><course>193.580719</course><hAcc>1.912335</hAcc><vAcc>0.697007</vAcc></extensions></trkpt>
      <trkpt lon="-123.279734" lat="44.562509"><ele>71.779106</ele><time>2020-12-04T16:39:19Z</time><extensions><speed>4.849614</speed><course>184.134811</course><hAcc>1.912499</hAcc><vAcc>0.696262</vAcc></extensions></trkpt>
      <trkpt lon="-123.279739" lat="44.562552"><ele>71.782173</ele><time>2020-12-04T16:39:20Z</time><extensions><speed>4.657161</speed><course>175.469040</course><hAcc>1.912206</hAcc><vAcc>0.694990</vAcc></extensions></trkpt>
      <trkpt lon="-123.279745" lat="44.562592"><ele>71.785484</ele><time>2020-12-04T16:39:21Z</time><extensions><speed>4.201523</speed><course>172.295166</course><hAcc>1.911771</hAcc><vAcc>0.693377</vAcc></extensions></trkpt>
      <trkpt lon="-123.279748" lat="44.562628"><ele>71.788086</ele><time>2020-12-04T16:39:22Z</time><extensions><speed>3.912652</speed><course>169.674026</course><hAcc>1.911521</hAcc><vAcc>0.691615</vAcc></extensions></trkpt>
      <trkpt lon="-123.279749" lat="44.562663"><ele>71.789734</ele><time>2020-12-04T16:39:23Z</time><extensions><speed>3.896892</speed><course>164.947525</course><hAcc>1.911433</hAcc><vAcc>0.689866</vAcc></extensions></trkpt>
      <trkpt lon="-123.279749" lat="44.562699"><ele>71.790512</ele><time>2020-12-04T16:39:24Z</time><extensions><speed>4.002746</speed><course>159.886627</course><hAcc>1.911317</hAcc><vAcc>0.688249</vAcc></extensions></trkpt>
      <trkpt lon="-123.279750" lat="44.562735"><ele>71.790504</ele><time>2020-12-04T16:39:25Z</time><extensions><speed>4.087921</speed><course>154.444504</course><hAcc>1.911152</hAcc><vAcc>0.686835</vAcc></extensions></trkpt>
      <trkpt lon="-123.279751" lat="44.562772"><ele>71.790016</ele><time>2020-12-04T16:39:26Z</time><extensions><speed>4.029587</speed><course>155.048111</course><hAcc>1.911166</hAcc><vAcc>0.685659</vAcc></extensions></trkpt>
      <trkpt lon="-123.279752" lat="44.562807"><ele>71.789543</ele><time>2020-12-04T16:39:27Z</time><extensions><speed>3.891725</speed><course>149.663803</course><hAcc>1.911252</hAcc><vAcc>0.684725</vAcc></extensions></trkpt>
      <trkpt lon="-123.279752" lat="44.562842"><ele>71.789642</ele><time>2020-12-04T16:39:28Z</time><extensions><speed>3.847161</speed><course>156.213379</course><hAcc>1.911216</hAcc><vAcc>0.684014</vAcc></extensions></trkpt>
      <trkpt lon="-123.279747" lat="44.562877"><ele>71.791183</ele><time>2020-12-04T16:39:29Z</time><extensions><speed>4.020377</speed><course>161.021759</course><hAcc>1.911094</hAcc><vAcc>0.683497</vAcc></extensions></trkpt>
      <trkpt lon="-123.279739" lat="44.562915"><ele>71.795143</ele><time>2020-12-04T16:39:30Z</time><extensions><speed>4.404778</speed><course>183.770889</course><hAcc>1.911070</hAcc><vAcc>0.683141</vAcc></extensions></trkpt>
      <trkpt lon="-123.279731" lat="44.562955"><ele>71.802307</ele><time>2020-12-04T16:39:31Z</time><extensions><speed>4.555262</speed><course>187.411469</course><hAcc>1.911307</hAcc><vAcc>0.682911</vAcc></extensions></trkpt>
      <trkpt lon="-123.279731" lat="44.562994"><ele>71.813309</ele><time>2020-12-04T16:39:32Z</time><extensions><speed>4.225317</speed><course>206.663132</course><hAcc>1.911621</hAcc><vAcc>0.682774</vAcc></extensions></trkpt>
      <trkpt lon="-123.279738" lat="44.563029"><ele>71.828941</ele><time>2020-12-04T16:39:33Z</time><extensions><speed>3.670957</speed><course>217.040924</course><hAcc>1.911826</hAcc><vAcc>0.682702</vAcc></extensions></trkpt>
      <trkpt lon="-123.279746" lat="44.563059"><ele>71.851250</ele><time>2020-12-04T16:39:34Z</time><extensions><speed>3.183117</speed><course>241.654816</course><hAcc>1.911734</hAcc><vAcc>0.682674</vAcc></extensions></trkpt>
      <trkpt lon="-123.279750" lat="44.563088"><ele>71.884727</ele><time>2020-12-04T16:39:35Z</time><extensions><speed>3.138146</speed><course>253.730072</course><hAcc>1.911463</hAcc><vAcc>0.682674</vAcc></extensions></trkpt>
      <trkpt lon="-123.279752" lat="44.563117"><ele>71.935097</ele><time>2020-12-04T16:39:36Z</time><extensions><speed>3.521525</speed><course>260.010681</course><hAcc>1.911223</hAcc><vAcc>0.682693</vAcc></extensions></trkpt>
      <trkpt lon="-123.279753" lat="44.563151"><ele>72.006195</ele><time>2020-12-04T16:39:37Z</time><extensions><speed>3.936428</speed><course>264.171082</course><hAcc>1.911166</hAcc><vAcc>0.682724</vAcc></extensions></trkpt>
      <trkpt lon="-123.279756" lat="44.563187"><ele>72.098564</ele><time>2020-12-04T16:39:38Z</time><extensions><speed>4.104595</speed><course>260.771149</course><hAcc>1.911364</hAcc><vAcc>0.682761</vAcc></extensions></trkpt>
      <trkpt lon="-123.279761" lat="44.563223"><ele>72.210564</ele><time>2020-12-04T16:39:39Z</time><extensions><speed>3.856936</speed><course>262.314087</course><hAcc>1.911751</hAcc><vAcc>0.682799</vAcc></extensions></trkpt>
      <trkpt lon="-123.279768" lat="44.563255"><ele>72.339638</ele><time>2020-12-04T16:39:40Z</time><extensions><speed>3.508875</speed><course>263.531403</course><hAcc>1.912183</hAcc><vAcc>0.682831</vAcc></extensions></trkpt>
      <trkpt lon="-123.279777" lat="44.563286"><ele>72.482712</ele><time>2020-12-04T16:39:41Z</time><extensions><speed>3.523511</speed><course>255.810883</course><hAcc>1.912513</hAcc><vAcc>0.682852</vAcc></extensions></trkpt>
      <trkpt lon="-123.279788" lat="44.563319"><ele>72.636253</ele><time>2020-12-04T16:39:42Z</time><extensions><speed>3.979765</speed><course>245.441101</course><hAcc>1.912705</hAcc><vAcc>0.682856</vAcc></extensions></trkpt>
      <trkpt lon="-123.279800" lat="44.563357"><ele>72.796501</ele><time>2020-12-04T16:39:43Z</time><extensions><speed>4.503902</speed><course>236.357239</course><hAcc>1.912723</hAcc><vAcc>0.682842</vAcc></extensions></trkpt>
      <trkpt lon="-123.279810" lat="44.563397"><ele>72.960548</ele><time>2020-12-04T16:39:44Z</time><extensions><speed>4.741028</speed><course>254.050156</course><hAcc>1.912469</hAcc><vAcc>0.682810</vAcc></extensions></trkpt>
      <trkpt lon="-123.279820" lat="44.563439"><ele>73.127083</ele><time>2020-12-04T16:39:45Z</time><extensions><speed>4.641371</speed><course>251.538101</course><hAcc>1.912160</hAcc><vAcc>0.682762</vAcc></extensions></trkpt>
      <trkpt lon="-123.279831" lat="44.563479"><ele>73.295624</ele><time>2020-12-04T16:39:46Z</time><extensions><speed>4.369194</speed><course>265.802399</course><hAcc>1.911981</hAcc><vAcc>0.682705</vAcc></extensions></trkpt>
      <trkpt lon="-123.279842" lat="44.563516"><ele>73.465462</ele><time>2020-12-04T16:39:47Z</time><extensions><speed>4.126920</speed><course>264.905975</course><hAcc>1.911570</hAcc><vAcc>0.682646</vAcc></extensions></trkpt>
      <trkpt lon="-123.279851" lat="44.563551"><ele>73.635849</ele><time>2020-12-04T16:39:48Z</time><extensions><speed>3.834240</speed><course>260.731812</course><hAcc>1.910736</hAcc><vAcc>0.682591</vAcc></extensions></trkpt>
      <trkpt lon="-123.279858" lat="44.563584"><ele>73.806160</ele><time>2020-12-04T16:39:49Z</time><extensions><speed>3.541043</speed><course>274.148407</course><hAcc>1.910203</hAcc><vAcc>0.682548</vAcc></extensions></trkpt>
      <trkpt lon="-123.279862" lat="44.563615"><ele>73.975266</ele><time>2020-12-04T16:39:50Z</time><extensions><speed>3.305856</speed><course>271.479431</course><hAcc>1.910481</hAcc><vAcc>0.682523</vAcc></extensions></trkpt>
      <trkpt lon="-123.279865" lat="44.563644"><ele>74.141808</ele><time>2020-12-04T16:39:51Z</time><extensions><speed>3.086424</speed><course>271.870911</course><hAcc>1.911092</hAcc><vAcc>0.682515</vAcc></extensions></trkpt>
      <trkpt lon="-123.279871" lat="44.563672"><ele>74.304146</ele><time>2020-12-04T16:39:52Z</time><extensions><speed>3.189236</speed><course>267.903992</course><hAcc>1.911418</hAcc><vAcc>0.682522</vAcc></extensions></trkpt>
      <trkpt lon="-123.279881" lat="44.563701"><ele>74.460335</ele><time>2020-12-04T16:39:53Z</time><extensions><speed>3.509924</speed><course>256.164001</course><hAcc>1.911696</hAcc><vAcc>0.682540</vAcc></extensions></trkpt>
      <trkpt lon="-123.279894" lat="44.563731"><ele>74.609161</ele><time>2020-12-04T16:39:54Z</time><extensions><speed>3.615314</speed><course>267.615112</course><hAcc>1.911647</hAcc><vAcc>0.682565</vAcc></extensions></trkpt>
      <trkpt lon="-123.279908" lat="44.563762"><ele>74.751122</ele><time>2020-12-04T16:39:55Z</time><extensions><speed>3.449440</speed><course>272.086609</course><hAcc>1.910729</hAcc><vAcc>0.682595</vAcc></extensions></trkpt>
      <trkpt lon="-123.279923" lat="44.563790"><ele>74.888771</ele><time>2020-12-04T16:39:56Z</time><extensions><speed>3.261514</speed><course>269.438873</course><hAcc>1.910186</hAcc><vAcc>0.682627</vAcc></extensions></trkpt>
      <trkpt lon="-123.279934" lat="44.563818"><ele>75.026100</ele><time>2020-12-04T16:39:57Z</time><extensions><speed>3.163783</speed><course>262.651398</course><hAcc>1.911557</hAcc><vAcc>0.682659</vAcc></extensions></trkpt>
      <trkpt lon="-123.279939" lat="44.563846"><ele>75.167458</ele><time>2020-12-04T16:39:58Z</time><extensions><speed>3.304598</speed><course>269.481293</course><hAcc>1.913546</hAcc><vAcc>0.682681</vAcc></extensions></trkpt>
      <trkpt lon="-123.279937" lat="44.563877"><ele>75.317162</ele><time>2020-12-04T16:39:59Z</time><extensions><speed>3.531026</speed><course>270.028320</course><hAcc>1.913749</hAcc><vAcc>0.682682</vAcc></extensions></trkpt>
      <trkpt lon="-123.279936" lat="44.563909"><ele>75.479202</ele><time>2020-12-04T16:40:00Z</time><extensions><speed>3.494160</speed><course>281.519562</course><hAcc>1.912598</hAcc><vAcc>0.682662</vAcc></extensions></trkpt>
      <trkpt lon="-123.279941" lat="44.563940"><ele>75.656815</ele><time>2020-12-04T16:40:01Z</time><extensions><speed>3.597453</speed><course>277.776642</course><hAcc>1.911446</hAcc><vAcc>0.682626</vAcc></extensions></trkpt>
      <trkpt lon="-123.279954" lat="44.563973"><ele>75.851662</ele><time>2020-12-04T16:40:02Z</time><extensions><speed>3.908173</speed><course>272.420654</course><hAcc>1.910826</hAcc><vAcc>0.682582</vAcc></extensions></trkpt>
      <trkpt lon="-123.279972" lat="44.564007"><ele>76.063454</ele><time>2020-12-04T16:40:03Z</time><extensions><speed>4.161362</speed><course>274.422119</course><hAcc>1.910681</hAcc><vAcc>0.682540</vAcc></extensions></trkpt>
      <trkpt lon="-123.279992" lat="44.564041"><ele>76.289833</ele><time>2020-12-04T16:40:04Z</time><extensions><speed>4.154325</speed><course>273.135345</course><hAcc>1.910676</hAcc><vAcc>0.682507</vAcc></extensions></trkpt>
      <trkpt lon="-123.280009" lat="44.564075"><ele>76.526283</ele><time>2020-12-04T16:40:05Z</time><extensions><speed>3.896671</speed><course>271.188049</course><hAcc>1.910608</hAcc><vAcc>0.682484</vAcc></extensions></trkpt>
      <trkpt lon="-123.280022" lat="44.564107"><ele>76.766502</ele><time>2020-12-04T16:40:06Z</time><extensions><speed>3.492821</speed><course>273.648224</course><hAcc>1.910621</hAcc><vAcc>0.682474</vAcc></extensions></trkpt>
      <trkpt lon="-123.280029" lat="44.564136"><ele>77.003853</ele><time>2020-12-04T16:40:07Z</time><extensions><speed>2.959608</speed><course>274.054749</course><hAcc>1.910807</hAcc><vAcc>0.682473</vAcc></extensions></trkpt>
      <trkpt lon="-123.280032" lat="44.564161"><ele>77.232071</ele><time>2020-12-04T16:40:08Z</time><extensions><speed>2.592081</speed><course>260.789337</course><hAcc>1.911139</hAcc><vAcc>0.682476</vAcc></extensions></trkpt>
      <trkpt lon="-123.280034" lat="44.564184"><ele>77.445572</ele><time>2020-12-04T16:40:09Z</time><extensions><speed>2.631025</speed><course>240.512436</course><hAcc>1.912036</hAcc><vAcc>0.682478</vAcc></extensions></trkpt>
      <trkpt lon="-123.280035" lat="44.564210"><ele>77.639862</ele><time>2020-12-04T16:40:10Z</time><extensions><speed>3.036555</speed><course>236.512207</course><hAcc>1.912716</hAcc><vAcc>0.682470</vAcc></extensions></trkpt>
      <trkpt lon="-123.280036" lat="44.564239"><ele>77.811600</ele><time>2020-12-04T16:40:11Z</time><extensions><speed>3.554348</speed><course>214.103806</course><hAcc>1.911663</hAcc><vAcc>0.682449</vAcc></extensions></trkpt>
      <trkpt lon="-123.280039" lat="44.564273"><ele>77.958099</ele><time>2020-12-04T16:40:11Z</time><extensions><speed>3.919708</speed><course>203.456390</course><hAcc>1.910602</hAcc><vAcc>0.682428</vAcc></extensions></trkpt>
      <trkpt lon="-123.280041" lat="44.564309"><ele>78.077362</ele><time>2020-12-04T16:40:12Z</time><extensions><speed>4.173346</speed><course>186.892410</course><hAcc>1.910558</hAcc><vAcc>0.682414</vAcc></extensions></trkpt>
      <trkpt lon="-123.280041" lat="44.564347"><ele>78.167999</ele><time>2020-12-04T16:40:13Z</time><extensions><speed>4.290636</speed><course>184.457901</course><hAcc>1.910663</hAcc><vAcc>0.682398</vAcc></extensions></trkpt>
      <trkpt lon="-123.280042" lat="44.564385"><ele>78.230728</ele><time>2020-12-04T16:40:14Z</time><extensions><speed>4.220528</speed><course>183.757874</course><hAcc>1.910775</hAcc><vAcc>0.682386</vAcc></extensions></trkpt>
      <trkpt lon="-123.280046" lat="44.564423"><ele>78.267807</ele><time>2020-12-04T16:40:15Z</time><extensions><speed>4.154971</speed><course>189.999435</course><hAcc>1.910835</hAcc><vAcc>0.682381</vAcc></extensions></trkpt>
      <trkpt lon="-123.280053" lat="44.564460"><ele>78.282501</ele><time>2020-12-04T16:40:16Z</time><extensions><speed>4.171818</speed><course>207.794556</course><hAcc>1.910870</hAcc><vAcc>0.682389</vAcc></extensions></trkpt>
      <trkpt lon="-123.280063" lat="44.564497"><ele>78.278694</ele><time>2020-12-04T16:40:17Z</time><extensions><speed>4.223449</speed><course>190.492325</course><hAcc>1.910977</hAcc><vAcc>0.682414</vAcc></extensions></trkpt>
      <trkpt lon="-123.280074" lat="44.564535"><ele>78.261276</ele><time>2020-12-04T16:40:18Z</time><extensions><speed>4.369076</speed><course>176.622284</course><hAcc>1.911031</hAcc><vAcc>0.682467</vAcc></extensions></trkpt>
      <trkpt lon="-123.280082" lat="44.564575"><ele>78.236839</ele><time>2020-12-04T16:40:19Z</time><extensions><speed>4.531348</speed><course>178.549866</course><hAcc>1.910930</hAcc><vAcc>0.682559</vAcc></extensions></trkpt>
      <trkpt lon="-123.280087" lat="44.564615"><ele>78.213089</ele><time>2020-12-04T16:40:20Z</time><extensions><speed>4.415205</speed><course>180.727814</course><hAcc>1.910887</hAcc><vAcc>0.682705</vAcc></extensions></trkpt>
      <trkpt lon="-123.280089" lat="44.564652"><ele>78.197189</ele><time>2020-12-04T16:40:21Z</time><extensions><speed>3.882529</speed><course>172.490845</course><hAcc>1.911058</hAcc><vAcc>0.682929</vAcc></extensions></trkpt>
      <trkpt lon="-123.280087" lat="44.564684"><ele>78.194397</ele><time>2020-12-04T16:40:22Z</time><extensions><speed>3.166029</speed><course>155.805893</course><hAcc>1.911342</hAcc><vAcc>0.683252</vAcc></extensions></trkpt>
      <trkpt lon="-123.280083" lat="44.564711"><ele>78.207779</ele><time>2020-12-04T16:40:23Z</time><extensions><speed>2.808371</speed><course>178.146744</course><hAcc>1.911712</hAcc><vAcc>0.683704</vAcc></extensions></trkpt>
      <trkpt lon="-123.280081" lat="44.564737"><ele>78.238441</ele><time>2020-12-04T16:40:24Z</time><extensions><speed>3.019657</speed><course>182.852814</course><hAcc>1.911670</hAcc><vAcc>0.684313</vAcc></extensions></trkpt>
      <trkpt lon="-123.280078" lat="44.564766"><ele>78.285439</ele><time>2020-12-04T16:40:25Z</time><extensions><speed>3.474080</speed><course>179.764221</course><hAcc>1.911224</hAcc><vAcc>0.685107</vAcc></extensions></trkpt>
      <trkpt lon="-123.280074" lat="44.564797"><ele>78.346176</ele><time>2020-12-04T16:40:26Z</time><extensions><speed>3.548264</speed><course>175.553238</course><hAcc>1.910819</hAcc><vAcc>0.686109</vAcc></extensions></trkpt>
      <trkpt lon="-123.280068" lat="44.564827"><ele>78.416817</ele><time>2020-12-04T16:40:27Z</time><extensions><speed>3.042687</speed><course>182.435043</course><hAcc>1.910707</hAcc><vAcc>0.687325</vAcc></extensions></trkpt>
      <trkpt lon="-123.280059" lat="44.564851"><ele>78.492279</ele><time>2020-12-04T16:40:28Z</time><extensions><speed>2.500782</speed><course>182.278503</course><hAcc>1.910506</hAcc><vAcc>0.688737</vAcc></extensions></trkpt>
      <trkpt lon="-123.280052" lat="44.564872"><ele>78.566727</ele><time>2020-12-04T16:40:29Z</time><extensions><speed>2.472448</speed><course>171.663361</course><hAcc>1.910002</hAcc><vAcc>0.690293</vAcc></extensions></trkpt>
      <trkpt lon="-123.280051" lat="44.564898"><ele>78.634369</ele><time>2020-12-04T16:40:30Z</time><extensions><speed>3.226767</speed><course>172.489410</course><hAcc>1.909751</hAcc><vAcc>0.691905</vAcc></extensions></trkpt>
      <trkpt lon="-123.280057" lat="44.564931"><ele>78.690453</ele><time>2020-12-04T16:40:31Z</time><extensions><speed>4.237720</speed><course>172.630814</course><hAcc>1.909842</hAcc><vAcc>0.693443</vAcc></extensions></trkpt>
      <trkpt lon="-123.280064" lat="44.564972"><ele>78.731819</ele><time>2020-12-04T16:40:32Z</time><extensions><speed>4.882358</speed><course>185.354111</course><hAcc>1.910174</hAcc><vAcc>0.694752</vAcc></extensions></trkpt>
      <trkpt lon="-123.280070" lat="44.565016"><ele>78.756371</ele><time>2020-12-04T16:40:33Z</time><extensions><speed>4.916998</speed><course>179.280411</course><hAcc>1.910486</hAcc><vAcc>0.695676</vAcc></extensions></trkpt>
      <trkpt lon="-123.280075" lat="44.565058"><ele>78.762779</ele><time>2020-12-04T16:40:34Z</time><extensions><speed>4.465063</speed><course>187.494827</course><hAcc>1.910321</hAcc><vAcc>0.696118</vAcc></extensions></trkpt>
      <trkpt lon="-123.280079" lat="44.565095"><ele>78.750771</ele><time>2020-12-04T16:40:35Z</time><extensions><speed>3.897470</speed><course>186.616653</course><hAcc>1.909725</hAcc><vAcc>0.696132</vAcc></extensions></trkpt>
      <trkpt lon="-123.280085" lat="44.565129"><ele>78.720970</ele><time>2020-12-04T16:40:36Z</time><extensions><speed>3.600640</speed><course>181.264023</course><hAcc>1.909238</hAcc><vAcc>0.696064</vAcc></extensions></trkpt>
      <trkpt lon="-123.280089" lat="44.565162"><ele>78.674049</ele><time>2020-12-04T16:40:37Z</time><extensions><speed>3.761810</speed><course>173.467712</course><hAcc>1.908842</hAcc><vAcc>0.696746</vAcc></extensions></trkpt>
      <trkpt lon="-123.280087" lat="44.565197"><ele>78.610909</ele><time>2020-12-04T16:40:38Z</time><extensions><speed>4.094422</speed><course>175.350204</course><hAcc>1.908226</hAcc><vAcc>0.699752</vAcc></extensions></trkpt>
      <trkpt lon="-123.280075" lat="44.565232"><ele>78.533241</ele><time>2020-12-04T16:40:39Z</time><extensions><speed>4.080001</speed><course>169.509598</course><hAcc>1.907948</hAcc><vAcc>0.707671</vAcc></extensions></trkpt>
      <trkpt lon="-123.280050" lat="44.565261"><ele>78.443222</ele><time>2020-12-04T16:40:40Z</time><extensions><speed>3.560954</speed><course>177.028183</course><hAcc>1.908206</hAcc><vAcc>0.724298</vAcc></extensions></trkpt>
      <trkpt lon="-123.280017" lat="44.565276"><ele>78.343590</ele><time>2020-12-04T16:40:41Z</time><extensions><speed>2.978029</speed><course>158.088623</course><hAcc>1.910569</hAcc><vAcc>0.754569</vAcc></extensions></trkpt>
      <trkpt lon="-123.279979" lat="44.565274"><ele>78.652237</ele><time>2020-12-04T16:40:42Z</time><extensions><speed>3.325003</speed><course>208.062424</course><hAcc>1.908924</hAcc><vAcc>0.723393</vAcc></extensions></trkpt>
      <trkpt lon="-123.279943" lat="44.565254"><ele>78.615829</ele><time>2020-12-04T16:40:43Z</time><extensions><speed>3.972738</speed><course>198.172562</course><hAcc>1.908729</hAcc><vAcc>0.706457</vAcc></extensions></trkpt>
      <trkpt lon="-123.279914" lat="44.565223"><ele>78.589073</ele><time>2020-12-04T16:40:44Z</time><extensions><speed>4.305073</speed><course>180.688370</course><hAcc>1.909444</hAcc><vAcc>0.699356</vAcc></extensions></trkpt>
      <trkpt lon="-123.279891" lat="44.565188"><ele>78.570412</ele><time>2020-12-04T16:40:45Z</time><extensions><speed>4.320827</speed><course>167.459351</course><hAcc>1.910209</hAcc><vAcc>0.697836</vAcc></extensions></trkpt>
      <trkpt lon="-123.279877" lat="44.565152"><ele>78.557068</ele><time>2020-12-04T16:40:47Z</time><extensions><speed>4.102167</speed><course>172.500809</course><hAcc>1.910903</hAcc><vAcc>0.698982</vAcc></extensions></trkpt>
      <trkpt lon="-123.279872" lat="44.565116"><ele>78.544724</ele><time>2020-12-04T16:40:48Z</time><extensions><speed>3.883295</speed><course>173.459991</course><hAcc>1.911817</hAcc><vAcc>0.701032</vAcc></extensions></trkpt>
      <trkpt lon="-123.279874" lat="44.565082"><ele>78.527924</ele><time>2020-12-04T16:40:49Z</time><extensions><speed>3.722830</speed><course>178.550629</course><hAcc>1.913004</hAcc><vAcc>0.703068</vAcc></extensions></trkpt>
      <trkpt lon="-123.279877" lat="44.565049"><ele>78.501396</ele><time>2020-12-04T16:40:50Z</time><extensions><speed>3.633728</speed><course>193.580719</course><hAcc>1.913029</hAcc><vAcc>0.704689</vAcc></extensions></trkpt>
      <trkpt lon="-123.279878" lat="44.565016"><ele>78.460945</ele><time>2020-12-04T16:40:51Z</time><extensions><speed>3.654977</speed><course>184.134811</course><hAcc>1.912419</hAcc><vAcc>0.705791</vAcc></extensions></trkpt>
      <trkpt lon="-123.279876" lat="44.564983"><ele>78.404266</ele><time>2020-12-04T16:40:52Z</time><extensions><speed>3.720235</speed><course>175.469040</course><hAcc>1.912750</hAcc><vAcc>0.706404</vAcc></extensions></trkpt>
      <trkpt lon="-123.279872" lat="44.564950"><ele>78.331779</ele><time>2020-12-04T16:40:53Z</time><extensions><speed>3.702470</speed><course>172.295166</course><hAcc>1.913896</hAcc><vAcc>0.706580</vAcc></extensions></trkpt>
      <trkpt lon="-123.279866" lat="44.564918"><ele>78.246223</ele><time>2020-12-04T16:40:54Z</time><extensions><speed>3.450722</speed><course>169.674026</course><hAcc>1.914847</hAcc><vAcc>0.706343</vAcc></extensions></trkpt>
      <trkpt lon="-123.279860" lat="44.564888"><ele>78.152130</ele><time>2020-12-04T16:40:55Z</time><extensions><speed>3.206552</speed><course>164.947525</course><hAcc>1.915745</hAcc><vAcc>0.705689</vAcc></extensions></trkpt>
      <trkpt lon="-123.279855" lat="44.564859"><ele>78.055305</ele><time>2020-12-04T16:40:56Z</time><extensions><speed>3.287596</speed><course>159.886627</course><hAcc>1.916304</hAcc><vAcc>0.704630</vAcc></extensions></trkpt>
      <trkpt lon="-123.279855" lat="44.564828"><ele>77.960747</ele><time>2020-12-04T16:40:57Z</time><extensions><speed>3.706676</speed><course>154.444504</course><hAcc>1.915424</hAcc><vAcc>0.703285</vAcc></extensions></trkpt>
      <trkpt lon="-123.279859" lat="44.564793"><ele>77.870811</ele><time>2020-12-04T16:40:58Z</time><extensions><speed>4.130214</speed><course>155.048111</course><hAcc>1.914036</hAcc><vAcc>0.702033</vAcc></extensions></trkpt>
      <trkpt lon="-123.279862" lat="44.564755"><ele>77.785431</ele><time>2020-12-04T16:40:59Z</time><extensions><speed>4.326044</speed><course>149.663803</course><hAcc>1.913752</hAcc><vAcc>0.701712</vAcc></extensions></trkpt>
      <trkpt lon="-123.279859" lat="44.564716"><ele>77.704178</ele><time>2020-12-04T16:41:00Z</time><extensions><speed>4.292699</speed><course>156.213379</course><hAcc>1.914402</hAcc><vAcc>0.703882</vAcc></extensions></trkpt>
      <trkpt lon="-123.279849" lat="44.564680"><ele>77.627182</ele><time>2020-12-04T16:41:01Z</time><extensions><speed>3.868857</speed><course>161.021759</course><hAcc>1.914709</hAcc><vAcc>0.711100</vAcc></extensions></trkpt>
      <trkpt lon="-123.279828" lat="44.564652"><ele>77.554184</ele><time>2020-12-04T16:41:02Z</time><extensions><speed>3.330470</speed><course>183.770889</course><hAcc>1.914625</hAcc><vAcc>0.727133</vAcc></extensions></trkpt>
      <trkpt lon="-123.279795" lat="44.564635"><ele>77.484703</ele><time>2020-12-04T16:41:03Z</time><extensions><speed>3.243312</speed><course>187.411469</course><hAcc>1.916203</hAcc><vAcc>0.756895</vAcc></extensions></trkpt>
      <trkpt lon="-123.279754" lat="44.564629"><ele>77.559097</ele><time>2020-12-04T16:41:04Z</time><extensions><speed>3.559282</speed><course>208.062424</course><hAcc>1.912847</hAcc><vAcc>0.724650</vAcc></extensions></trkpt>
      <trkpt lon="-123.279706" lat="44.564629"><ele>77.479248</ele><time>2020-12-04T16:41:05Z</time><extensions><speed>4.066994</speed><course>198.172562</course><hAcc>1.910486</hAcc><vAcc>0.706574</vAcc></extensions></trkpt>
      <trkpt lon="-123.279652" lat="44.564631"><ele>77.407486</ele><time>2020-12-04T16:41:06Z</time><extensions><speed>4.444066</speed><course>180.688370</course><hAcc>1.909841</hAcc><vAcc>0.698258</vAcc></extensions></trkpt>
      <trkpt lon="-123.279595" lat="44.564636"><ele>77.343498</ele><time>2020-12-04T16:41:07Z</time><extensions><speed>4.697787</speed><course>167.459351</course><hAcc>1.909306</hAcc><vAcc>0.695478</vAcc></extensions></trkpt>
      <trkpt lon="-123.279537" lat="44.564641"><ele>77.286896</ele><time>2020-12-04T16:41:08Z</time><extensions><speed>4.702257</speed><course>172.500809</course><hAcc>1.908035</hAcc><vAcc>0.695353</vAcc></extensions></trkpt>
      <trkpt lon="-123.279480" lat="44.564645"><ele>77.237762</ele><time>2020-12-04T16:41:09Z</time><extensions><speed>4.311738</speed><course>173.459991</course><hAcc>1.906038</hAcc><vAcc>0.696149</vAcc></extensions></trkpt>
      <trkpt lon="-123.279428" lat="44.564649"><ele>77.196266</ele><time>2020-12-04T16:41:10Z</time><extensions><speed>3.937519</speed><course>178.550629</course><hAcc>1.904455</hAcc><vAcc>0.696978</vAcc></extensions></trkpt>
      <trkpt lon="-123.279379" lat="44.564652"><ele>77.162308</ele><time>2020-12-04T16:41:11Z</time><extensions><speed>3.885963</speed><course>193.580719</course><hAcc>1.904608</hAcc><vAcc>0.697493</vAcc></extensions></trkpt>
      <trkpt lon="-123.279329" lat="44.564653"><ele>77.135674</ele><time>2020-12-04T16:41:12Z</time><extensions><speed>4.128881</speed><course>184.134811</course><hAcc>1.905815</hAcc><vAcc>0.697664</vAcc></extensions></trkpt>
      <trkpt lon="-123.279276" lat="44.564653"><ele>77.116470</ele><time>2020-12-04T16:41:13Z</time><extensions><speed>4.285939</speed><course>175.469040</course><hAcc>1.906166</hAcc><vAcc>0.697602</vAcc></extensions></trkpt>
      <trkpt lon="-123.279223" lat="44.564653"><ele>77.105087</ele><time>2020-12-04T16:41:14Z</time><extensions><speed>4.186726</speed><course>172.295166</course><hAcc>1.905796</hAcc><vAcc>0.697463</vAcc></extensions></trkpt>
      <trkpt lon="-123.279171" lat="44.564651"><ele>77.102089</ele><time>2020-12-04T16:41:15Z</time><extensions><speed>4.089594</speed><course>169.674026</course><hAcc>1.906070</hAcc><vAcc>0.697372</vAcc></extensions></trkpt>
      <trkpt lon="-123.279119" lat="44.564647"><ele>77.107948</ele><time>2020-12-04T16:41:16Z</time><extensions><speed>4.125222</speed><course>164.947525</course><hAcc>1.907045</hAcc><vAcc>0.697386</vAcc></extensions></trkpt>
      <trkpt lon="-123.279067" lat="44.564644"><ele>77.122765</ele><time>2020-12-04T16:41:17Z</time><extensions><speed>4.268649</speed><course>159.886627</course><hAcc>1.907118</hAcc><vAcc>0.697478</vAcc></extensions></trkpt>
      <trkpt lon="-123.279012" lat="44.564640"><ele>77.146385</ele><time>2020-12-04T16:41:18Z</time><extensions><speed>4.402784</speed><course>154.444504</course><hAcc>1.906669</hAcc><vAcc>0.697557</vAcc></extensions></trkpt>
      <trkpt lon="-123.278957" lat="44.564637"><ele>77.178558</ele><time>2020-12-04T16:41:19Z</time><extensions><speed>4.410412</speed><course>155.048111</course><hAcc>1.906821</hAcc><vAcc>0.697498</vAcc></extensions></trkpt>
      <trkpt lon="-123.278903" lat="44.564634"><ele>77.218834</ele><time>2020-12-04T16:41:20Z</time><extensions><speed>4.228417</speed><course>149.663803</course><hAcc>1.907406</hAcc><vAcc>0.697204</vAcc></extensions></trkpt>
      <trkpt lon="-123.278851" lat="44.564633"><ele>77.266045</ele><time>2020-12-04T16:41:21Z</time><extensions><speed>3.960551</speed><course>156.213379</course><hAcc>1.907655</hAcc><vAcc>0.696706</vAcc></extensions></trkpt>
      <trkpt lon="-123.278803" lat="44.564631"><ele>77.318382</ele><time>2020-12-04T16:41:22Z</time><extensions><speed>3.790997</speed><course>161.021759</course><hAcc>1.907708</hAcc><vAcc>0.696315</vAcc></extensions></trkpt>
      <trkpt lon="-123.278755" lat="44.564629"><ele>77.373802</ele><time>2020-12-04T16:41:23Z</time><extensions><speed>3.743909</speed><course>183.770889</course><hAcc>1.908126</hAcc><vAcc>0.696822</vAcc></extensions></trkpt>
      <trkpt lon="-123.278711" lat="44.564626"><ele>77.430527</ele><time>2020-12-04T16:41:24Z</time><extensions><speed>3.310270</speed><course>187.411469</course><hAcc>1.908582</hAcc><vAcc>0.699757</vAcc></extensions></trkpt>
      <trkpt lon="-123.278677" lat="44.564623"><ele>77.487366</ele><time>2020-12-04T16:41:25Z</time><extensions><speed>2.137233</speed><course>206.663132</course><hAcc>1.908757</hAcc><vAcc>0.707664</vAcc></extensions></trkpt>
      <trkpt lon="-123.278660" lat="44.564620"><ele>77.543480</ele><time>2020-12-04T16:41:26Z</time><extensions><speed>0.631969</speed><course>217.040924</course><hAcc>1.909005</hAcc><vAcc>0.724301</vAcc></extensions></trkpt>
      <trkpt lon="-123.278661" lat="44.564619"><ele>77.598213</ele><time>2020-12-04T16:41:27Z</time><extensions><speed>0.635221</speed><course>241.654816</course><hAcc>1.911656</hAcc><vAcc>0.754571</vAcc></extensions></trkpt>
      <trkpt lon="-123.278672" lat="44.564620"><ele>77.651306</ele><time>2020-12-04T16:41:28Z</time><extensions><speed>1.171413</speed><course>253.730072</course><hAcc>1.923302</hAcc><vAcc>0.804012</vAcc></extensions></trkpt>
      <trkpt lon="-123.278686" lat="44.564624"><ele>77.702881</ele><time>2020-12-04T16:41:29Z</time><extensions><speed>1.242470</speed><course>260.010681</course><hAcc>1.947578</hAcc><vAcc>0.877843</vAcc></extensions></trkpt>
      <trkpt lon="-123.278700" lat="44.564628"><ele>77.753319</ele><time>2020-12-04T16:41:30Z</time><extensions><speed>1.196565</speed><course>264.171082</course><hAcc>1.957740</hAcc><vAcc>0.979920</vAcc></extensions></trkpt>
      <trkpt lon="-123.278713" lat="44.564634"><ele>77.803070</ele><time>2020-12-04T16:41:31Z</time><extensions><speed>1.198061</speed><course>260.771149</course><hAcc>2.017109</hAcc><vAcc>1.112101</vAcc></extensions></trkpt>
      <trkpt lon="-123.278724" lat="44.564641"><ele>77.852516</ele><time>2020-12-04T16:41:32Z</time><extensions><speed>1.220967</speed><course>262.314087</course><hAcc>2.926914</hAcc><vAcc>1.274157</vAcc></extensions></trkpt>
    </trkseg>
  </trk>
</gpx>