<?xml version="1.0" encoding="UTF-8"?>
<gpx version="1.1" creator="Apple Health Export" xmlns="http://www.topografix.com/GPX/1/1" xmlns:xsi="http://www.w3.org/2001/XMLSchema-instance" xsi:schemaLocation="http://www.topografix.com/GPX/1/1 http://www.topografix.com/GPX/1/1/gpx.xsd">
  <metadata>
    <time>2021-02-21T19:24:47Z</time>
  </metadata>
  <trk>
    <name>Route 2020-10-06 3:09pm</name>
    <trkseg>
      <trkpt lon="-123.283388" lat="44.575548"><ele>73.077583</ele><time>2020-10-06T22:03:17Z</time><extensions><speed>5.440000</speed><course>179.648438</course><hAcc>10.000000</hAcc><vAcc>12.000000</vAcc></extensions></trkpt>
      <trkpt lon="-123.283388" lat="44.575548"><ele>73.077583</ele><time>2020-10-06T22:03:19Z</time><extensions><speed>5.440000</speed><course>179.648438</course><hAcc>10.000000</hAcc><vAcc>12.000000</vAcc></extensions></trkpt>
      <trkpt lon="-123.283338" lat="44.575398"><ele>71.179024</ele><time>2020-10-06T22:03:19Z</time><extensions><speed>4.800000</speed><course>182.812500</course><hAcc>5.000000</hAcc><vAcc>6.000000</vAcc></extensions></trkpt>
      <trkpt lon="-123.283371" lat="44.575326"><ele>75.838814</ele><time>2020-10-06T22:03:21Z</time><extensions><speed>5.010000</speed><course>182.460938</course><hAcc>5.000000</hAcc><vAcc>4.000000</vAcc></extensions></trkpt>
      <trkpt lon="-123.283363" lat="44.575259"><ele>75.281258</ele><time>2020-10-06T22:03:23Z</time><extensions><speed>5.010000</speed><course>182.460938</course><hAcc>5.000000</hAcc><vAcc>6.000000</vAcc></extensions></trkpt>
      <trkpt lon="-123.283340" lat="44.575150"><ele>78.033760</ele><time>2020-10-06T22:03:25Z</time><extensions><speed>5.110000</speed><course>177.187500</course><hAcc>5.000000</hAcc><vAcc>6.000000</vAcc></extensions></trkpt>
      <trkpt lon="-123.283302" lat="44.575014"><ele>71.434639</ele><time>2020-10-06T22:03:27Z</time><extensions><speed>5.380000</speed><course>184.570312</course><hAcc>5.000000</hAcc><vAcc>8.000000</vAcc></extensions></trkpt>
      <trkpt lon="-123.283357" lat="44.574979"><ele>71.447884</ele><time>2020-10-06T22:03:29Z</time><extensions><speed>5.950000</speed><course>181.406250</course><hAcc>5.000000</hAcc><vAcc>12.000000</vAcc></extensions></trkpt>
      <trkpt lon="-123.283314" lat="44.574776"><ele>73.290718</ele><time>2020-10-06T22:03:31Z</time><extensions><speed>5.950000</speed><course>170.859375</course><hAcc>5.000000</hAcc><vAcc>8.000000</vAcc></extensions></trkpt>
      <trkpt lon="-123.283337" lat="44.574594"><ele>78.920052</ele><time>2020-10-06T22:03:35Z</time><extensions><speed>5.980000</speed><course>185.976562</course><hAcc>30.000000</hAcc><vAcc>24.000000</vAcc></extensions></trkpt>
      <trkpt lon="-123.283442" lat="44.574507"><ele>76.091560</ele><time>2020-10-06T22:03:36Z</time><extensions><speed>5.980000</speed><course>191.250000</course><hAcc>5.000000</hAcc><vAcc>3.000000</vAcc></extensions></trkpt>
      <trkpt lon="-123.283399" lat="44.574487"><ele>76.421211</ele><time>2020-10-06T22:03:37Z</time><extensions><speed>5.980000</speed><course>189.140625</course><hAcc>5.000000</hAcc><vAcc>3.000000</vAcc></extensions></trkpt>
      <trkpt lon="-123.283387" lat="44.574431"><ele>76.500191</ele><time>2020-10-06T22:03:38Z</time><extensions><speed>5.980000</speed><course>184.570312</course><hAcc>5.000000</hAcc><vAcc>3.000000</vAcc></extensions></trkpt>
      <trkpt lon="-123.283409" lat="44.574377"><ele>76.499580</ele><time>2020-10-06T22:03:39Z</time><extensions><speed>5.850000</speed><course>184.921875</course><hAcc>5.000000</hAcc><vAcc>3.000000</vAcc></extensions></trkpt>
      <trkpt lon="-123.283393" lat="44.574330"><ele>76.358833</ele><time>2020-10-06T22:03:40Z</time><extensions><speed>5.920000</speed><course>182.460938</course><hAcc>5.000000</hAcc><vAcc>3.000000</vAcc></extensions></trkpt>
      <trkpt lon="-123.283379" lat="44.574273"><ele>76.131416</ele><time>2020-10-06T22:03:41Z</time><extensions><speed>6.010000</speed><course>180.351562</course><hAcc>5.000000</hAcc><vAcc>3.000000</vAcc></extensions></trkpt>
      <trkpt lon="-123.283383" lat="44.574215"><ele>76.200081</ele><time>2020-10-06T22:03:42Z</time><extensions><speed>5.920000</speed><course>179.648438</course><hAcc>5.000000</hAcc><vAcc>3.000000</vAcc></extensions></trkpt>
      <trkpt lon="-123.283376" lat="44.574158"><ele>76.435005</ele><time>2020-10-06T22:03:43Z</time><extensions><speed>5.890000</speed><course>181.406250</course><hAcc>5.000000</hAcc><vAcc>3.000000</vAcc></extensions></trkpt>
      <trkpt lon="-123.283377" lat="44.574102"><ele>76.168892</ele><time>2020-10-06T22:03:44Z</time><extensions><speed>5.800000</speed><course>181.406250</course><hAcc>5.000000</hAcc><vAcc>3.000000</vAcc></extensions></trkpt>
      <trkpt lon="-123.283388" lat="44.574040"><ele>75.363350</ele><time>2020-10-06T22:03:45Z</time><extensions><speed>5.970000</speed><course>183.515625</course><hAcc>5.000000</hAcc><vAcc>3.000000</vAcc></extensions></trkpt>
      <trkpt lon="-123.283387" lat="44.573980"><ele>75.178230</ele><time>2020-10-06T22:03:46Z</time><extensions><speed>6.010000</speed><course>183.515625</course><hAcc>5.000000</hAcc><vAcc>3.000000</vAcc></extensions></trkpt>
      <trkpt lon="-123.283397" lat="44.573923"><ele>75.259468</ele><time>2020-10-06T22:03:47Z</time><extensions><speed>6.010000</speed><course>181.757812</course><hAcc>5.000000</hAcc><vAcc>3.000000</vAcc></extensions></trkpt>
      <trkpt lon="-123.283402" lat="44.573860"><ele>74.796638</ele><time>2020-10-06T22:03:48Z</time><extensions><speed>6.040000</speed><course>181.757812</course><hAcc>5.000000</hAcc><vAcc>3.000000</vAcc></extensions></trkpt>
      <trkpt lon="-123.283403" lat="44.573799"><ele>74.537300</ele><time>2020-10-06T22:03:49Z</time><extensions><speed>6.120000</speed><course>180.351562</course><hAcc>5.000000</hAcc><vAcc>3.000000</vAcc></extensions></trkpt>
      <trkpt lon="-123.283413" lat="44.573746"><ele>74.711189</ele><time>2020-10-06T22:03:50Z</time><extensions><speed>6.280000</speed><course>186.328125</course><hAcc>5.000000</hAcc><vAcc>3.000000</vAcc></extensions></trkpt>
      <trkpt lon="-123.283419" lat="44.573689"><ele>74.806953</ele><time>2020-10-06T22:03:51Z</time><extensions><speed>6.320000</speed><course>185.625000</course><hAcc>5.000000</hAcc><vAcc>3.000000</vAcc></extensions></trkpt>
      <trkpt lon="-123.283424" lat="44.573633"><ele>75.045052</ele><time>2020-10-06T22:03:52Z</time><extensions><speed>6.280000</speed><course>182.460938</course><hAcc>5.000000</hAcc><vAcc>3.000000</vAcc></extensions></trkpt>
      <trkpt lon="-123.283427" lat="44.573576"><ele>75.138557</ele><time>2020-10-06T22:03:53Z</time><extensions><speed>6.320000</speed><course>182.460938</course><hAcc>5.000000</hAcc><vAcc>3.000000</vAcc></extensions></trkpt>
      <trkpt lon="-123.283424" lat="44.573514"><ele>75.099129</ele><time>2020-10-06T22:03:54Z</time><extensions><speed>6.440000</speed><course>185.625000</course><hAcc>5.000000</hAcc><vAcc>3.000000</vAcc></extensions></trkpt>
      <trkpt lon="-123.283423" lat="44.573452"><ele>74.972786</ele><time>2020-10-06T22:03:55Z</time><extensions><speed>6.610000</speed><course>181.054688</course><hAcc>5.000000</hAcc><vAcc>3.000000</vAcc></extensions></trkpt>
      <trkpt lon="-123.283450" lat="44.573389"><ele>76.662727</ele><time>2020-10-06T22:03:56Z</time><extensions><speed>6.590000</speed><course>178.945312</course><hAcc>5.000000</hAcc><vAcc>3.000000</vAcc></extensions></trkpt>
      <trkpt lon="-123.283445" lat="44.573340"><ele>75.770149</ele><time>2020-10-06T22:03:57Z</time><extensions><speed>6.590000</speed><course>182.460938</course><hAcc>5.000000</hAcc><vAcc>3.000000</vAcc></extensions></trkpt>
      <trkpt lon="-123.283460" lat="44.573286"><ele>75.192085</ele><time>2020-10-06T22:03:58Z</time><extensions><speed>6.300000</speed><course>185.625000</course><hAcc>5.000000</hAcc><vAcc>3.000000</vAcc></extensions></trkpt>
      <trkpt lon="-123.283461" lat="44.573224"><ele>74.842842</ele><time>2020-10-06T22:03:59Z</time><extensions><speed>6.610000</speed><course>185.273438</course><hAcc>5.000000</hAcc><vAcc>3.000000</vAcc></extensions></trkpt>
      <trkpt lon="-123.283451" lat="44.573172"><ele>74.443977</ele><time>2020-10-06T22:04:00Z</time><extensions><speed>6.300000</speed><course>181.406250</course><hAcc>5.000000</hAcc><vAcc>3.000000</vAcc></extensions></trkpt>
      <trkpt lon="-123.283452" lat="44.573117"><ele>74.769234</ele><time>2020-10-06T22:04:01Z</time><extensions><speed>6.100000</speed><course>181.406250</course><hAcc>5.000000</hAcc><vAcc>3.000000</vAcc></extensions></trkpt>
      <trkpt lon="-123.283449" lat="44.573051"><ele>74.442207</ele><time>2020-10-06T22:04:02Z</time><extensions><speed>7.120000</speed><course>181.757812</course><hAcc>5.000000</hAcc><vAcc>3.000000</vAcc></extensions></trkpt>
      <trkpt lon="-123.283449" lat="44.572989"><ele>73.921700</ele><time>2020-10-06T22:04:03Z</time><extensions><speed>7.120000</speed><course>182.812500</course><hAcc>5.000000</hAcc><vAcc>3.000000</vAcc></extensions></trkpt>
      <trkpt lon="-123.283446" lat="44.572940"><ele>72.824898</ele><time>2020-10-06T22:04:04Z</time><extensions><speed>5.900000</speed><course>183.867188</course><hAcc>5.000000</hAcc><vAcc>3.000000</vAcc></extensions></trkpt>
      <trkpt lon="-123.283447" lat="44.572885"><ele>72.052803</ele><time>2020-10-06T22:04:05Z</time><extensions><speed>5.900000</speed><course>183.164062</course><hAcc>5.000000</hAcc><vAcc>3.000000</vAcc></extensions></trkpt>
      <trkpt lon="-123.283454" lat="44.572831"><ele>72.198982</ele><time>2020-10-06T22:04:06Z</time><extensions><speed>5.870000</speed><course>184.218750</course><hAcc>5.000000</hAcc><vAcc>3.000000</vAcc></extensions></trkpt>
      <trkpt lon="-123.283441" lat="44.572787"><ele>72.172554</ele><time>2020-10-06T22:04:07Z</time><extensions><speed>5.090000</speed><course>181.054688</course><hAcc>5.000000</hAcc><vAcc>3.000000</vAcc></extensions></trkpt>
      <trkpt lon="-123.283439" lat="44.572744"><ele>71.955635</ele><time>2020-10-06T22:04:08Z</time><extensions><speed>5.090000</speed><course>181.054688</course><hAcc>5.000000</hAcc><vAcc>3.000000</vAcc></extensions></trkpt>
      <trkpt lon="-123.283444" lat="44.572691"><ele>72.014168</ele><time>2020-10-06T22:04:09Z</time><extensions><speed>5.090000</speed><course>183.515625</course><hAcc>5.000000</hAcc><vAcc>3.000000</vAcc></extensions></trkpt>
      <trkpt lon="-123.283455" lat="44.572644"><ele>72.292671</ele><time>2020-10-06T22:04:10Z</time><extensions><speed>5.370000</speed><course>182.109375</course><hAcc>5.000000</hAcc><vAcc>3.000000</vAcc></extensions></trkpt>
      <trkpt lon="-123.283454" lat="44.572599"><ele>71.588387</ele><time>2020-10-06T22:04:11Z</time><extensions><speed>5.400000</speed><course>182.460938</course><hAcc>5.000000</hAcc><vAcc>3.000000</vAcc></extensions></trkpt>
      <trkpt lon="-123.283457" lat="44.572546"><ele>71.722237</ele><time>2020-10-06T22:04:12Z</time><extensions><speed>5.750000</speed><course>176.132812</course><hAcc>5.000000</hAcc><vAcc>3.000000</vAcc></extensions></trkpt>
      <trkpt lon="-123.283459" lat="44.572509"><ele>71.165352</ele><time>2020-10-06T22:04:13Z</time><extensions><speed>5.400000</speed><course>181.054688</course><hAcc>5.000000</hAcc><vAcc>3.000000</vAcc></extensions></trkpt>
      <trkpt lon="-123.283464" lat="44.572466"><ele>71.865791</ele><time>2020-10-06T22:04:14Z</time><extensions><speed>4.920000</speed><course>180.351562</course><hAcc>5.000000</hAcc><vAcc>3.000000</vAcc></extensions></trkpt>
      <trkpt lon="-123.283466" lat="44.572419"><ele>72.113228</ele><time>2020-10-06T22:04:15Z</time><extensions><speed>4.690000</speed><course>178.242188</course><hAcc>5.000000</hAcc><vAcc>3.000000</vAcc></extensions></trkpt>
      <trkpt lon="-123.283470" lat="44.572392"><ele>72.058601</ele><time>2020-10-06T22:04:16Z</time><extensions><speed>3.660000</speed><course>185.625000</course><hAcc>5.000000</hAcc><vAcc>3.000000</vAcc></extensions></trkpt>
      <trkpt lon="-123.283470" lat="44.572343"><ele>72.516304</ele><time>2020-10-06T22:04:17Z</time><extensions><speed>5.250000</speed><course>183.867188</course><hAcc>5.000000</hAcc><vAcc>3.000000</vAcc></extensions></trkpt>
      <trkpt lon="-123.283468" lat="44.572290"><ele>72.554268</ele><time>2020-10-06T22:04:18Z</time><extensions><speed>5.250000</speed><course>180.000000</course><hAcc>5.000000</hAcc><vAcc>3.000000</vAcc></extensions></trkpt>
      <trkpt lon="-123.283466" lat="44.572236"><ele>73.272163</ele><time>2020-10-06T22:04:19Z</time><extensions><speed>5.360000</speed><course>182.109375</course><hAcc>5.000000</hAcc><vAcc>3.000000</vAcc></extensions></trkpt>
      <trkpt lon="-123.283465" lat="44.572187"><ele>73.807076</ele><time>2020-10-06T22:04:20Z</time><extensions><speed>5.360000</speed><course>180.703125</course><hAcc>5.000000</hAcc><vAcc>3.000000</vAcc></extensions></trkpt>
      <trkpt lon="-123.283468" lat="44.572140"><ele>74.009102</ele><time>2020-10-06T22:04:21Z</time><extensions><speed>4.940000</speed><course>179.296875</course><hAcc>5.000000</hAcc><vAcc>3.000000</vAcc></extensions></trkpt>
      <trkpt lon="-123.283466" lat="44.572100"><ele>74.299385</ele><time>2020-10-06T22:04:22Z</time><extensions><speed>4.940000</speed><course>178.945312</course><hAcc>5.000000</hAcc><vAcc>3.000000</vAcc></extensions></trkpt>
      <trkpt lon="-123.283472" lat="44.572052"><ele>74.267525</ele><time>2020-10-06T22:04:23Z</time><extensions><speed>4.550000</speed><course>181.054688</course><hAcc>5.000000</hAcc><vAcc>3.000000</vAcc></extensions></trkpt>
      <trkpt lon="-123.283478" lat="44.572019"><ele>73.824043</ele><time>2020-10-06T22:04:24Z</time><extensions><speed>4.310000</speed><course>181.054688</course><hAcc>5.000000</hAcc><vAcc>3.000000</vAcc></extensions></trkpt>
      <trkpt lon="-123.283480" lat="44.571982"><ele>73.984505</ele><time>2020-10-06T22:04:25Z</time><extensions><speed>4.310000</speed><course>181.757812</course><hAcc>5.000000</hAcc><vAcc>3.000000</vAcc></extensions></trkpt>
      <trkpt lon="-123.283491" lat="44.571960"><ele>74.212227</ele><time>2020-10-06T22:04:26Z</time><extensions><speed>3.650000</speed><course>184.218750</course><hAcc>5.000000</hAcc><vAcc>3.000000</vAcc></extensions></trkpt>
      <trkpt lon="-123.283496" lat="44.571932"><ele>74.086372</ele><time>2020-10-06T22:04:27Z</time><extensions><speed>3.650000</speed><course>184.921875</course><hAcc>5.000000</hAcc><vAcc>3.000000</vAcc></extensions></trkpt>
      <trkpt lon="-123.283505" lat="44.571911"><ele>74.183113</ele><time>2020-10-06T22:04:28Z</time><extensions><speed>3.180000</speed><course>189.492188</course><hAcc>5.000000</hAcc><vAcc>3.000000</vAcc></extensions></trkpt>
      <trkpt lon="-123.283512" lat="44.571895"><ele>74.689949</ele><time>2020-10-06T22:04:29Z</time><extensions><speed>2.600000</speed><course>180.351562</course><hAcc>5.000000</hAcc><vAcc>3.000000</vAcc></extensions></trkpt>
      <trkpt lon="-123.283513" lat="44.571882"><ele>74.971504</ele><time>2020-10-06T22:04:30Z</time><extensions><speed>1.640000</speed><course>185.976562</course><hAcc>5.000000</hAcc><vAcc>3.000000</vAcc></extensions></trkpt>
      <trkpt lon="-123.283516" lat="44.571870"><ele>75.247505</ele><time>2020-10-06T22:04:31Z</time><extensions><speed>1.120000</speed><course>182.460938</course><hAcc>5.000000</hAcc><vAcc>3.000000</vAcc></extensions></trkpt>
      <trkpt lon="-123.283519" lat="44.571867"><ele>74.970406</ele><time>2020-10-06T22:04:32Z</time><extensions><speed>1.120000</speed><course>186.328125</course><hAcc>5.000000</hAcc><vAcc>3.000000</vAcc></extensions></trkpt>
      <trkpt lon="-123.283521" lat="44.571865"><ele>75.220528</ele><time>2020-10-06T22:04:33Z</time><extensions><speed>0.490000</speed><course>197.226562</course><hAcc>5.000000</hAcc><vAcc>3.000000</vAcc></extensions></trkpt>
      <trkpt lon="-123.283523" lat="44.571860"><ele>74.758308</ele><time>2020-10-06T22:04:34Z</time><extensions><speed>0.490000</speed><course>188.085938</course><hAcc>5.000000</hAcc><vAcc>3.000000</vAcc></extensions></trkpt>
      <trkpt lon="-123.283521" lat="44.571850"><ele>75.064705</ele><time>2020-10-06T22:04:35Z</time><extensions><speed>1.200000</speed><course>184.218750</course><hAcc>5.000000</hAcc><vAcc>3.000000</vAcc></extensions></trkpt>
      <trkpt lon="-123.283509" lat="44.571822"><ele>75.391975</ele><time>2020-10-06T22:04:36Z</time><extensions><speed>3.030000</speed><course>172.968750</course><hAcc>5.000000</hAcc><vAcc>3.000000</vAcc></extensions></trkpt>
      <trkpt lon="-123.283498" lat="44.571789"><ele>75.409935</ele><time>2020-10-06T22:04:37Z</time><extensions><speed>3.030000</speed><course>164.179688</course><hAcc>5.000000</hAcc><vAcc>3.000000</vAcc></extensions></trkpt>
      <trkpt lon="-123.283471" lat="44.571755"><ele>75.556946</ele><time>2020-10-06T22:04:38Z</time><extensions><speed>3.630000</speed><course>144.140625</course><hAcc>5.000000</hAcc><vAcc>3.000000</vAcc></extensions></trkpt>
      <trkpt lon="-123.283430" lat="44.571721"><ele>75.747765</ele><time>2020-10-06T22:04:39Z</time><extensions><speed>4.940000</speed><course>135.351562</course><hAcc>5.000000</hAcc><vAcc>3.000000</vAcc></extensions></trkpt>
      <trkpt lon="-123.283364" lat="44.571680"><ele>75.770668</ele><time>2020-10-06T22:04:40Z</time><extensions><speed>5.060000</speed><course>130.078125</course><hAcc>5.000000</hAcc><vAcc>3.000000</vAcc></extensions></trkpt>
      <trkpt lon="-123.283320" lat="44.571649"><ele>75.917564</ele><time>2020-10-06T22:04:41Z</time><extensions><speed>4.940000</speed><course>132.187500</course><hAcc>5.000000</hAcc><vAcc>3.000000</vAcc></extensions></trkpt>
      <trkpt lon="-123.283254" lat="44.571618"><ele>75.984055</ele><time>2020-10-06T22:04:42Z</time><extensions><speed>5.060000</speed><course>128.320312</course><hAcc>5.000000</hAcc><vAcc>3.000000</vAcc></extensions></trkpt>
      <trkpt lon="-123.283203" lat="44.571581"><ele>75.855164</ele><time>2020-10-06T22:04:43Z</time><extensions><speed>5.140000</speed><course>130.781250</course><hAcc>5.000000</hAcc><vAcc>3.000000</vAcc></extensions></trkpt>
      <trkpt lon="-123.283143" lat="44.571554"><ele>75.728096</ele><time>2020-10-06T22:04:44Z</time><extensions><speed>5.620000</speed><course>130.078125</course><hAcc>5.000000</hAcc><vAcc>3.000000</vAcc></extensions></trkpt>
      <trkpt lon="-123.283101" lat="44.571499"><ele>75.957420</ele><time>2020-10-06T22:04:45Z</time><extensions><speed>5.940000</speed><course>138.515625</course><hAcc>5.000000</hAcc><vAcc>3.000000</vAcc></extensions></trkpt>
      <trkpt lon="-123.283045" lat="44.571437"><ele>76.157532</ele><time>2020-10-06T22:04:46Z</time><extensions><speed>5.940000</speed><course>142.031250</course><hAcc>5.000000</hAcc><vAcc>3.000000</vAcc></extensions></trkpt>
      <trkpt lon="-123.282991" lat="44.571387"><ele>76.238548</ele><time>2020-10-06T22:04:47Z</time><extensions><speed>6.680000</speed><course>142.734375</course><hAcc>5.000000</hAcc><vAcc>3.000000</vAcc></extensions></trkpt>
      <trkpt lon="-123.282941" lat="44.571324"><ele>76.354736</ele><time>2020-10-06T22:04:48Z</time><extensions><speed>8.000000</speed><course>149.414062</course><hAcc>5.000000</hAcc><vAcc>3.000000</vAcc></extensions></trkpt>
      <trkpt lon="-123.282906" lat="44.571280"><ele>76.523048</ele><time>2020-10-06T22:04:49Z</time><extensions><speed>8.000000</speed><course>144.843750</course><hAcc>5.000000</hAcc><vAcc>3.000000</vAcc></extensions></trkpt>
      <trkpt lon="-123.282844" lat="44.571256"><ele>76.241898</ele><time>2020-10-06T22:04:50Z</time><extensions><speed>6.450000</speed><course>135.703125</course><hAcc>5.000000</hAcc><vAcc>3.000000</vAcc></extensions></trkpt>
      <trkpt lon="-123.282779" lat="44.571208"><ele>75.788048</ele><time>2020-10-06T22:04:51Z</time><extensions><speed>6.450000</speed><course>136.054688</course><hAcc>5.000000</hAcc><vAcc>3.000000</vAcc></extensions></trkpt>
      <trkpt lon="-123.282714" lat="44.571191"><ele>75.735268</ele><time>2020-10-06T22:04:52Z</time><extensions><speed>6.280000</speed><course>135.351562</course><hAcc>5.000000</hAcc><vAcc>3.000000</vAcc></extensions></trkpt>
      <trkpt lon="-123.282653" lat="44.571147"><ele>75.029327</ele><time>2020-10-06T22:04:53Z</time><extensions><speed>6.560000</speed><course>142.031250</course><hAcc>5.000000</hAcc><vAcc>3.000000</vAcc></extensions></trkpt>
      <trkpt lon="-123.282605" lat="44.571103"><ele>75.049484</ele><time>2020-10-06T22:04:54Z</time><extensions><speed>6.560000</speed><course>139.218750</course><hAcc>5.000000</hAcc><vAcc>3.000000</vAcc></extensions></trkpt>
      <trkpt lon="-123.282562" lat="44.571053"><ele>75.051971</ele><time>2020-10-06T22:04:55Z</time><extensions><speed>5.220000</speed><course>142.382812</course><hAcc>5.000000</hAcc><vAcc>3.000000</vAcc></extensions></trkpt>
      <trkpt lon="-123.282511" lat="44.571016"><ele>77.388206</ele><time>2020-10-06T22:04:56Z</time><extensions><speed>5.850000</speed><course>140.625000</course><hAcc>5.000000</hAcc><vAcc>3.000000</vAcc></extensions></trkpt>
      <trkpt lon="-123.282469" lat="44.570985"><ele>76.462250</ele><time>2020-10-06T22:04:57Z</time><extensions><speed>5.580000</speed><course>139.218750</course><hAcc>5.000000</hAcc><vAcc>3.000000</vAcc></extensions></trkpt>
      <trkpt lon="-123.282463" lat="44.570945"><ele>76.816185</ele><time>2020-10-06T22:04:58Z</time><extensions><speed>5.580000</speed><course>157.148438</course><hAcc>5.000000</hAcc><vAcc>3.000000</vAcc></extensions></trkpt>
      <trkpt lon="-123.282468" lat="44.570909"><ele>76.733742</ele><time>2020-10-06T22:04:59Z</time><extensions><speed>3.930000</speed><course>164.531250</course><hAcc>5.000000</hAcc><vAcc>3.000000</vAcc></extensions></trkpt>
      <trkpt lon="-123.282387" lat="44.570873"><ele>76.590477</ele><time>2020-10-06T22:05:00Z</time><extensions><speed>3.930000</speed><course>138.515625</course><hAcc>5.000000</hAcc><vAcc>3.000000</vAcc></extensions></trkpt>
      <trkpt lon="-123.282339" lat="44.570842"><ele>76.635559</ele><time>2020-10-06T22:05:01Z</time><extensions><speed>4.860000</speed><course>141.328125</course><hAcc>5.000000</hAcc><vAcc>3.000000</vAcc></extensions></trkpt>
      <trkpt lon="-123.282300" lat="44.570807"><ele>76.933525</ele><time>2020-10-06T22:05:02Z</time><extensions><speed>4.950000</speed><course>140.273438</course><hAcc>5.000000</hAcc><vAcc>3.000000</vAcc></extensions></trkpt>
      <trkpt lon="-123.282255" lat="44.570769"><ele>76.962227</ele><time>2020-10-06T22:05:03Z</time><extensions><speed>5.290000</speed><course>139.570312</course><hAcc>5.000000</hAcc><vAcc>3.000000</vAcc></extensions></trkpt>
      <trkpt lon="-123.282222" lat="44.570733"><ele>77.112190</ele><time>2020-10-06T22:05:04Z</time><extensions><speed>4.950000</speed><course>138.515625</course><hAcc>5.000000</hAcc><vAcc>3.000000</vAcc></extensions></trkpt>
      <trkpt lon="-123.282186" lat="44.570692"><ele>77.432701</ele><time>2020-10-06T22:05:05Z</time><extensions><speed>4.740000</speed><course>143.085938</course><hAcc>5.000000</hAcc><vAcc>3.000000</vAcc></extensions></trkpt>
      <trkpt lon="-123.282135" lat="44.570658"><ele>76.898590</ele><time>2020-10-06T22:05:06Z</time><extensions><speed>4.530000</speed><course>140.976562</course><hAcc>5.000000</hAcc><vAcc>3.000000</vAcc></extensions></trkpt>
      <trkpt lon="-123.282102" lat="44.570617"><ele>76.097374</ele><time>2020-10-06T22:05:07Z</time><extensions><speed>4.890000</speed><course>146.250000</course><hAcc>5.000000</hAcc><vAcc>3.000000</vAcc></extensions></trkpt>
      <trkpt lon="-123.282056" lat="44.570579"><ele>76.656151</ele><time>2020-10-06T22:05:08Z</time><extensions><speed>5.030000</speed><course>139.218750</course><hAcc>5.000000</hAcc><vAcc>3.000000</vAcc></extensions></trkpt>
      <trkpt lon="-123.282017" lat="44.570544"><ele>76.469742</ele><time>2020-10-06T22:05:09Z</time><extensions><speed>5.030000</speed><course>137.460938</course><hAcc>5.000000</hAcc><vAcc>3.000000</vAcc></extensions></trkpt>
      <trkpt lon="-123.281979" lat="44.570509"><ele>76.513672</ele><time>2020-10-06T22:05:10Z</time><extensions><speed>5.030000</speed><course>138.867188</course><hAcc>5.000000</hAcc><vAcc>3.000000</vAcc></extensions></trkpt>
      <trkpt lon="-123.281946" lat="44.570471"><ele>76.458633</ele><time>2020-10-06T22:05:11Z</time><extensions><speed>4.740000</speed><course>142.734375</course><hAcc>5.000000</hAcc><vAcc>3.000000</vAcc></extensions></trkpt>
      <trkpt lon="-123.281907" lat="44.570437"><ele>76.258896</ele><time>2020-10-06T22:05:12Z</time><extensions><speed>4.830000</speed><course>140.976562</course><hAcc>5.000000</hAcc><vAcc>3.000000</vAcc></extensions></trkpt>
      <trkpt lon="-123.281876" lat="44.570401"><ele>76.319481</ele><time>2020-10-06T22:05:13Z</time><extensions><speed>4.740000</speed><course>148.710938</course><hAcc>5.000000</hAcc><vAcc>3.000000</vAcc></extensions></trkpt>
      <trkpt lon="-123.281852" lat="44.570362"><ele>76.523643</ele><time>2020-10-06T22:05:14Z</time><extensions><speed>4.680000</speed><course>153.632812</course><hAcc>5.000000</hAcc><vAcc>3.000000</vAcc></extensions></trkpt>
      <trkpt lon="-123.281802" lat="44.570329"><ele>76.551132</ele><time>2020-10-06T22:05:15Z</time><extensions><speed>4.680000</speed><course>140.273438</course><hAcc>5.000000</hAcc><vAcc>3.000000</vAcc></extensions></trkpt>
      <trkpt lon="-123.281764" lat="44.570291"><ele>76.729500</ele><time>2020-10-06T22:05:16Z</time><extensions><speed>4.560000</speed><course>147.304688</course><hAcc>5.000000</hAcc><vAcc>3.000000</vAcc></extensions></trkpt>
      <trkpt lon="-123.281723" lat="44.570259"><ele>76.841736</ele><time>2020-10-06T22:05:17Z</time><extensions><speed>4.580000</speed><course>140.625000</course><hAcc>5.000000</hAcc><vAcc>3.000000</vAcc></extensions></trkpt>
      <trkpt lon="-123.281692" lat="44.570216"><ele>76.930176</ele><time>2020-10-06T22:05:18Z</time><extensions><speed>4.580000</speed><course>149.062500</course><hAcc>5.000000</hAcc><vAcc>3.000000</vAcc></extensions></trkpt>
      <trkpt lon="-123.281659" lat="44.570181"><ele>77.047043</ele><time>2020-10-06T22:05:19Z</time><extensions><speed>4.700000</speed><course>147.656250</course><hAcc>5.000000</hAcc><vAcc>3.000000</vAcc></extensions></trkpt>
      <trkpt lon="-123.281626" lat="44.570155"><ele>77.078667</ele><time>2020-10-06T22:05:20Z</time><extensions><speed>4.100000</speed><course>136.757812</course><hAcc>5.000000</hAcc><vAcc>3.000000</vAcc></extensions></trkpt>
      <trkpt lon="-123.281602" lat="44.570119"><ele>77.422424</ele><time>2020-10-06T22:05:21Z</time><extensions><speed>4.830000</speed><course>157.851562</course><hAcc>5.000000</hAcc><vAcc>3.000000</vAcc></extensions></trkpt>
      <trkpt lon="-123.281586" lat="44.570069"><ele>77.346321</ele><time>2020-10-06T22:05:22Z</time><extensions><speed>4.830000</speed><course>162.070312</course><hAcc>5.000000</hAcc><vAcc>3.000000</vAcc></extensions></trkpt>
      <trkpt lon="-123.281552" lat="44.570029"><ele>77.285919</ele><time>2020-10-06T22:05:23Z</time><extensions><speed>4.980000</speed><course>154.335938</course><hAcc>5.000000</hAcc><vAcc>3.000000</vAcc></extensions></trkpt>
      <trkpt lon="-123.281464" lat="44.570011"><ele>77.542999</ele><time>2020-10-06T22:05:24Z</time><extensions><speed>4.790000</speed><course>139.921875</course><hAcc>5.000000</hAcc><vAcc>3.000000</vAcc></extensions></trkpt>
      <trkpt lon="-123.281424" lat="44.569976"><ele>77.658264</ele><time>2020-10-06T22:05:25Z</time><extensions><speed>4.790000</speed><course>142.031250</course><hAcc>5.000000</hAcc><vAcc>3.000000</vAcc></extensions></trkpt>
      <trkpt lon="-123.281383" lat="44.569943"><ele>77.535530</ele><time>2020-10-06T22:05:26Z</time><extensions><speed>4.660000</speed><course>141.328125</course><hAcc>5.000000</hAcc><vAcc>3.000000</vAcc></extensions></trkpt>
      <trkpt lon="-123.281344" lat="44.569911"><ele>77.644211</ele><time>2020-10-06T22:05:27Z</time><extensions><speed>4.660000</speed><course>143.085938</course><hAcc>5.000000</hAcc><vAcc>3.000000</vAcc></extensions></trkpt>
      <trkpt lon="-123.281281" lat="44.569889"><ele>77.509102</ele><time>2020-10-06T22:05:28Z</time><extensions><speed>4.660000</speed><course>142.031250</course><hAcc>5.000000</hAcc><vAcc>3.000000</vAcc></extensions></trkpt>
      <trkpt lon="-123.281216" lat="44.569868"><ele>77.484283</ele><time>2020-10-06T22:05:29Z</time><extensions><speed>5.000000</speed><course>137.109375</course><hAcc>5.000000</hAcc><vAcc>3.000000</vAcc></extensions></trkpt>
      <trkpt lon="-123.281160" lat="44.569836"><ele>77.450562</ele><time>2020-10-06T22:05:30Z</time><extensions><speed>5.310000</speed><course>139.218750</course><hAcc>5.000000</hAcc><vAcc>3.000000</vAcc></extensions></trkpt>
      <trkpt lon="-123.281093" lat="44.569805"><ele>77.343185</ele><time>2020-10-06T22:05:31Z</time><extensions><speed>5.280000</speed><course>139.218750</course><hAcc>5.000000</hAcc><vAcc>3.000000</vAcc></extensions></trkpt>
      <trkpt lon="-123.281066" lat="44.569769"><ele>77.327354</ele><time>2020-10-06T22:05:32Z</time><extensions><speed>5.280000</speed><course>139.218750</course><hAcc>5.000000</hAcc><vAcc>3.000000</vAcc></extensions></trkpt>
      <trkpt lon="-123.281023" lat="44.569731"><ele>77.154594</ele><time>2020-10-06T22:05:33Z</time><extensions><speed>5.330000</speed><course>139.218750</course><hAcc>5.000000</hAcc><vAcc>3.000000</vAcc></extensions></trkpt>
      <trkpt lon="-123.280975" lat="44.569694"><ele>77.070686</ele><time>2020-10-06T22:05:34Z</time><extensions><speed>5.480000</speed><course>137.109375</course><hAcc>5.000000</hAcc><vAcc>3.000000</vAcc></extensions></trkpt>
      <trkpt lon="-123.280927" lat="44.569653"><ele>77.141258</ele><time>2020-10-06T22:05:35Z</time><extensions><speed>5.480000</speed><course>137.812500</course><hAcc>5.000000</hAcc><vAcc>3.000000</vAcc></extensions></trkpt>
      <trkpt lon="-123.280878" lat="44.569615"><ele>77.089851</ele><time>2020-10-06T22:05:36Z</time><extensions><speed>5.730000</speed><course>135.000000</course><hAcc>5.000000</hAcc><vAcc>3.000000</vAcc></extensions></trkpt>
      <trkpt lon="-123.280845" lat="44.569580"><ele>77.065086</ele><time>2020-10-06T22:05:37Z</time><extensions><speed>5.730000</speed><course>138.515625</course><hAcc>5.000000</hAcc><vAcc>3.000000</vAcc></extensions></trkpt>
      <trkpt lon="-123.280816" lat="44.569535"><ele>77.279335</ele><time>2020-10-06T22:05:38Z</time><extensions><speed>5.140000</speed><course>148.710938</course><hAcc>5.000000</hAcc><vAcc>3.000000</vAcc></extensions></trkpt>
      <trkpt lon="-123.280762" lat="44.569492"><ele>77.107613</ele><time>2020-10-06T22:05:39Z</time><extensions><speed>5.890000</speed><course>144.492188</course><hAcc>5.000000</hAcc><vAcc>3.000000</vAcc></extensions></trkpt>
      <trkpt lon="-123.280688" lat="44.569452"><ele>77.125343</ele><time>2020-10-06T22:05:40Z</time><extensions><speed>5.890000</speed><course>143.437500</course><hAcc>5.000000</hAcc><vAcc>3.000000</vAcc></extensions></trkpt>
      <trkpt lon="-123.280630" lat="44.569409"><ele>77.223900</ele><time>2020-10-06T22:05:41Z</time><extensions><speed>5.940000</speed><course>137.812500</course><hAcc>5.000000</hAcc><vAcc>3.000000</vAcc></extensions></trkpt>
      <trkpt lon="-123.280615" lat="44.569387"><ele>76.790291</ele><time>2020-10-06T22:05:42Z</time><extensions><speed>4.410000</speed><course>146.250000</course><hAcc>5.000000</hAcc><vAcc>3.000000</vAcc></extensions></trkpt>
      <trkpt lon="-123.280562" lat="44.569354"><ele>77.015434</ele><time>2020-10-06T22:05:43Z</time><extensions><speed>5.250000</speed><course>144.140625</course><hAcc>5.000000</hAcc><vAcc>3.000000</vAcc></extensions></trkpt>
      <trkpt lon="-123.280542" lat="44.569321"><ele>77.175644</ele><time>2020-10-06T22:05:44Z</time><extensions><speed>5.250000</speed><course>145.195312</course><hAcc>5.000000</hAcc><vAcc>3.000000</vAcc></extensions></trkpt>
      <trkpt lon="-123.280482" lat="44.569294"><ele>77.007172</ele><time>2020-10-06T22:05:45Z</time><extensions><speed>5.250000</speed><course>139.570312</course><hAcc>5.000000</hAcc><vAcc>3.000000</vAcc></extensions></trkpt>
      <trkpt lon="-123.280436" lat="44.569267"><ele>76.282722</ele><time>2020-10-06T22:05:46Z</time><extensions><speed>4.910000</speed><course>143.789062</course><hAcc>5.000000</hAcc><vAcc>3.000000</vAcc></extensions></trkpt>
      <trkpt lon="-123.280400" lat="44.569225"><ele>77.165314</ele><time>2020-10-06T22:05:47Z</time><extensions><speed>5.140000</speed><course>145.898438</course><hAcc>5.000000</hAcc><vAcc>3.000000</vAcc></extensions></trkpt>
      <trkpt lon="-123.280374" lat="44.569191"><ele>77.090881</ele><time>2020-10-06T22:05:48Z</time><extensions><speed>5.140000</speed><course>150.820312</course><hAcc>5.000000</hAcc><vAcc>3.000000</vAcc></extensions></trkpt>
      <trkpt lon="-123.280327" lat="44.569149"><ele>77.008232</ele><time>2020-10-06T22:05:49Z</time><extensions><speed>5.140000</speed><course>143.437500</course><hAcc>5.000000</hAcc><vAcc>3.000000</vAcc></extensions></trkpt>
      <trkpt lon="-123.280273" lat="44.569109"><ele>76.933006</ele><time>2020-10-06T22:05:50Z</time><extensions><speed>5.210000</speed><course>135.351562</course><hAcc>5.000000</hAcc><vAcc>3.000000</vAcc></extensions></trkpt>
      <trkpt lon="-123.280225" lat="44.569063"><ele>76.858040</ele><time>2020-10-06T22:05:51Z</time><extensions><speed>5.510000</speed><course>139.570312</course><hAcc>5.000000</hAcc><vAcc>3.000000</vAcc></extensions></trkpt>
      <trkpt lon="-123.280161" lat="44.569023"><ele>76.670807</ele><time>2020-10-06T22:05:52Z</time><extensions><speed>5.610000</speed><course>134.648438</course><hAcc>5.000000</hAcc><vAcc>3.000000</vAcc></extensions></trkpt>
      <trkpt lon="-123.280131" lat="44.568963"><ele>76.478065</ele><time>2020-10-06T22:05:53Z</time><extensions><speed>5.570000</speed><course>157.148438</course><hAcc>5.000000</hAcc><vAcc>3.000000</vAcc></extensions></trkpt>
      <trkpt lon="-123.280109" lat="44.568917"><ele>76.933540</ele><time>2020-10-06T22:05:54Z</time><extensions><speed>5.570000</speed><course>161.718750</course><hAcc>5.000000</hAcc><vAcc>3.000000</vAcc></extensions></trkpt>
      <trkpt lon="-123.280100" lat="44.568862"><ele>76.398361</ele><time>2020-10-06T22:05:55Z</time><extensions><speed>5.530000</speed><course>169.101562</course><hAcc>5.000000</hAcc><vAcc>3.000000</vAcc></extensions></trkpt>
      <trkpt lon="-123.280071" lat="44.568817"><ele>76.971825</ele><time>2020-10-06T22:05:56Z</time><extensions><speed>5.530000</speed><course>165.234375</course><hAcc>5.000000</hAcc><vAcc>3.000000</vAcc></extensions></trkpt>
      <trkpt lon="-123.280072" lat="44.568758"><ele>76.916206</ele><time>2020-10-06T22:05:57Z</time><extensions><speed>5.530000</speed><course>175.078125</course><hAcc>5.000000</hAcc><vAcc>3.000000</vAcc></extensions></trkpt>
      <trkpt lon="-123.280043" lat="44.568711"><ele>77.097420</ele><time>2020-10-06T22:05:58Z</time><extensions><speed>5.410000</speed><course>169.804688</course><hAcc>5.000000</hAcc><vAcc>3.000000</vAcc></extensions></trkpt>
      <trkpt lon="-123.280026" lat="44.568667"><ele>76.540283</ele><time>2020-10-06T22:05:59Z</time><extensions><speed>5.420000</speed><course>174.726562</course><hAcc>5.000000</hAcc><vAcc>3.000000</vAcc></extensions></trkpt>
      <trkpt lon="-123.280028" lat="44.568615"><ele>76.820137</ele><time>2020-10-06T22:06:00Z</time><extensions><speed>5.260000</speed><course>183.164062</course><hAcc>5.000000</hAcc><vAcc>3.000000</vAcc></extensions></trkpt>
      <trkpt lon="-123.280018" lat="44.568565"><ele>77.433418</ele><time>2020-10-06T22:06:01Z</time><extensions><speed>5.680000</speed><course>181.757812</course><hAcc>5.000000</hAcc><vAcc>3.000000</vAcc></extensions></trkpt>
      <trkpt lon="-123.280013" lat="44.568513"><ele>77.418053</ele><time>2020-10-06T22:06:02Z</time><extensions><speed>5.480000</speed><course>182.109375</course><hAcc>5.000000</hAcc><vAcc>3.000000</vAcc></extensions></trkpt>
      <trkpt lon="-123.280008" lat="44.568477"><ele>77.433617</ele><time>2020-10-06T22:06:03Z</time><extensions><speed>5.480000</speed><course>183.164062</course><hAcc>5.000000</hAcc><vAcc>3.000000</vAcc></extensions></trkpt>
      <trkpt lon="-123.280004" lat="44.568430"><ele>77.603569</ele><time>2020-10-06T22:06:04Z</time><extensions><speed>5.010000</speed><course>178.242188</course><hAcc>5.000000</hAcc><vAcc>3.000000</vAcc></extensions></trkpt>
      <trkpt lon="-123.279986" lat="44.568380"><ele>77.304367</ele><time>2020-10-06T22:06:05Z</time><extensions><speed>5.310000</speed><course>173.671875</course><hAcc>5.000000</hAcc><vAcc>3.000000</vAcc></extensions></trkpt>
      <trkpt lon="-123.279971" lat="44.568336"><ele>77.108673</ele><time>2020-10-06T22:06:06Z</time><extensions><speed>5.240000</speed><course>176.132812</course><hAcc>5.000000</hAcc><vAcc>3.000000</vAcc></extensions></trkpt>
      <trkpt lon="-123.279959" lat="44.568289"><ele>77.154297</ele><time>2020-10-06T22:06:07Z</time><extensions><speed>5.310000</speed><course>177.890625</course><hAcc>5.000000</hAcc><vAcc>3.000000</vAcc></extensions></trkpt>
      <trkpt lon="-123.279961" lat="44.568237"><ele>77.072464</ele><time>2020-10-06T22:06:08Z</time><extensions><speed>5.550000</speed><course>177.187500</course><hAcc>5.000000</hAcc><vAcc>3.000000</vAcc></extensions></trkpt>
      <trkpt lon="-123.279958" lat="44.568182"><ele>77.224731</ele><time>2020-10-06T22:06:09Z</time><extensions><speed>5.840000</speed><course>177.890625</course><hAcc>5.000000</hAcc><vAcc>3.000000</vAcc></extensions></trkpt>
      <trkpt lon="-123.279964" lat="44.568123"><ele>78.098457</ele><time>2020-10-06T22:06:10Z</time><extensions><speed>6.240000</speed><course>181.054688</course><hAcc>5.000000</hAcc><vAcc>3.000000</vAcc></extensions></trkpt>
      <trkpt lon="-123.279981" lat="44.568071"><ele>77.980492</ele><time>2020-10-06T22:06:11Z</time><extensions><speed>6.050000</speed><course>188.789062</course><hAcc>5.000000</hAcc><vAcc>3.000000</vAcc></extensions></trkpt>
      <trkpt lon="-123.279991" lat="44.568015"><ele>77.971703</ele><time>2020-10-06T22:06:12Z</time><extensions><speed>6.050000</speed><course>186.328125</course><hAcc>5.000000</hAcc><vAcc>3.000000</vAcc></extensions></trkpt>
      <trkpt lon="-123.279992" lat="44.567963"><ele>77.529556</ele><time>2020-10-06T22:06:13Z</time><extensions><speed>5.960000</speed><course>183.164062</course><hAcc>5.000000</hAcc><vAcc>3.000000</vAcc></extensions></trkpt>
      <trkpt lon="-123.279986" lat="44.567908"><ele>77.513611</ele><time>2020-10-06T22:06:14Z</time><extensions><speed>6.000000</speed><course>181.406250</course><hAcc>5.000000</hAcc><vAcc>3.000000</vAcc></extensions></trkpt>
      <trkpt lon="-123.279971" lat="44.567847"><ele>77.720276</ele><time>2020-10-06T22:06:15Z</time><extensions><speed>6.080000</speed><course>175.429688</course><hAcc>5.000000</hAcc><vAcc>3.000000</vAcc></extensions></trkpt>
      <trkpt lon="-123.279977" lat="44.567794"><ele>77.572525</ele><time>2020-10-06T22:06:16Z</time><extensions><speed>6.000000</speed><course>178.945312</course><hAcc>5.000000</hAcc><vAcc>3.000000</vAcc></extensions></trkpt>
      <trkpt lon="-123.279974" lat="44.567743"><ele>77.538712</ele><time>2020-10-06T22:06:17Z</time><extensions><speed>5.920000</speed><course>177.539062</course><hAcc>5.000000</hAcc><vAcc>3.000000</vAcc></extensions></trkpt>
      <trkpt lon="-123.279966" lat="44.567690"><ele>77.427956</ele><time>2020-10-06T22:06:18Z</time><extensions><speed>5.490000</speed><course>175.781250</course><hAcc>5.000000</hAcc><vAcc>3.000000</vAcc></extensions></trkpt>
      <trkpt lon="-123.279967" lat="44.567643"><ele>77.282280</ele><time>2020-10-06T22:06:19Z</time><extensions><speed>5.650000</speed><course>178.945312</course><hAcc>5.000000</hAcc><vAcc>3.000000</vAcc></extensions></trkpt>
      <trkpt lon="-123.279969" lat="44.567588"><ele>77.648972</ele><time>2020-10-06T22:06:20Z</time><extensions><speed>5.650000</speed><course>181.054688</course><hAcc>5.000000</hAcc><vAcc>3.000000</vAcc></extensions></trkpt>
      <trkpt lon="-123.279968" lat="44.567539"><ele>77.842804</ele><time>2020-10-06T22:06:21Z</time><extensions><speed>5.650000</speed><course>182.109375</course><hAcc>5.000000</hAcc><vAcc>3.000000</vAcc></extensions></trkpt>
      <trkpt lon="-123.279962" lat="44.567490"><ele>77.551659</ele><time>2020-10-06T22:06:22Z</time><extensions><speed>5.500000</speed><course>175.429688</course><hAcc>5.000000</hAcc><vAcc>3.000000</vAcc></extensions></trkpt>
      <trkpt lon="-123.279948" lat="44.567438"><ele>77.108879</ele><time>2020-10-06T22:06:23Z</time><extensions><speed>5.770000</speed><course>169.804688</course><hAcc>5.000000</hAcc><vAcc>3.000000</vAcc></extensions></trkpt>
      <trkpt lon="-123.279936" lat="44.567396"><ele>77.531158</ele><time>2020-10-06T22:06:24Z</time><extensions><speed>5.770000</speed><course>165.585938</course><hAcc>5.000000</hAcc><vAcc>3.000000</vAcc></extensions></trkpt>
      <trkpt lon="-123.279927" lat="44.567344"><ele>77.634781</ele><time>2020-10-06T22:06:25Z</time><extensions><speed>5.570000</speed><course>169.804688</course><hAcc>5.000000</hAcc><vAcc>3.000000</vAcc></extensions></trkpt>
      <trkpt lon="-123.279945" lat="44.567304"><ele>77.487511</ele><time>2020-10-06T22:06:26Z</time><extensions><speed>4.790000</speed><course>185.273438</course><hAcc>5.000000</hAcc><vAcc>3.000000</vAcc></extensions></trkpt>
      <trkpt lon="-123.279964" lat="44.567283"><ele>77.458229</ele><time>2020-10-06T22:06:27Z</time><extensions><speed>3.380000</speed><course>202.851562</course><hAcc>5.000000</hAcc><vAcc>3.000000</vAcc></extensions></trkpt>
      <trkpt lon="-123.279966" lat="44.567234"><ele>77.599815</ele><time>2020-10-06T22:06:28Z</time><extensions><speed>4.810000</speed><course>194.062500</course><hAcc>5.000000</hAcc><vAcc>3.000000</vAcc></extensions></trkpt>
      <trkpt lon="-123.279995" lat="44.567199"><ele>77.272514</ele><time>2020-10-06T22:06:29Z</time><extensions><speed>4.740000</speed><course>202.148438</course><hAcc>5.000000</hAcc><vAcc>3.000000</vAcc></extensions></trkpt>
      <trkpt lon="-123.280002" lat="44.567143"><ele>77.168694</ele><time>2020-10-06T22:06:30Z</time><extensions><speed>4.810000</speed><course>189.492188</course><hAcc>5.000000</hAcc><vAcc>3.000000</vAcc></extensions></trkpt>
      <trkpt lon="-123.279991" lat="44.567097"><ele>76.956116</ele><time>2020-10-06T22:06:31Z</time><extensions><speed>5.250000</speed><course>179.296875</course><hAcc>5.000000</hAcc><vAcc>3.000000</vAcc></extensions></trkpt>
      <trkpt lon="-123.279990" lat="44.567047"><ele>76.526291</ele><time>2020-10-06T22:06:32Z</time><extensions><speed>5.240000</speed><course>177.890625</course><hAcc>5.000000</hAcc><vAcc>3.000000</vAcc></extensions></trkpt>
      <trkpt lon="-123.279987" lat="44.566995"><ele>76.565575</ele><time>2020-10-06T22:06:33Z</time><extensions><speed>5.240000</speed><course>177.539062</course><hAcc>5.000000</hAcc><vAcc>3.000000</vAcc></extensions></trkpt>
      <trkpt lon="-123.279984" lat="44.566935"><ele>76.665726</ele><time>2020-10-06T22:06:34Z</time><extensions><speed>5.240000</speed><course>178.242188</course><hAcc>5.000000</hAcc><vAcc>3.000000</vAcc></extensions></trkpt>
      <trkpt lon="-123.279968" lat="44.566873"><ele>76.390450</ele><time>2020-10-06T22:06:35Z</time><extensions><speed>5.660000</speed><course>174.375000</course><hAcc>5.000000</hAcc><vAcc>3.000000</vAcc></extensions></trkpt>
      <trkpt lon="-123.279969" lat="44.566824"><ele>76.245140</ele><time>2020-10-06T22:06:36Z</time><extensions><speed>5.660000</speed><course>178.242188</course><hAcc>5.000000</hAcc><vAcc>3.000000</vAcc></extensions></trkpt>
      <trkpt lon="-123.279983" lat="44.566765"><ele>76.430611</ele><time>2020-10-06T22:06:37Z</time><extensions><speed>5.980000</speed><course>183.867188</course><hAcc>5.000000</hAcc><vAcc>3.000000</vAcc></extensions></trkpt>
      <trkpt lon="-123.279978" lat="44.566723"><ele>76.607071</ele><time>2020-10-06T22:06:38Z</time><extensions><speed>5.980000</speed><course>185.625000</course><hAcc>5.000000</hAcc><vAcc>3.000000</vAcc></extensions></trkpt>
      <trkpt lon="-123.279969" lat="44.566671"><ele>76.669571</ele><time>2020-10-06T22:06:39Z</time><extensions><speed>5.570000</speed><course>180.351562</course><hAcc>5.000000</hAcc><vAcc>3.000000</vAcc></extensions></trkpt>
      <trkpt lon="-123.279996" lat="44.566600"><ele>76.799553</ele><time>2020-10-06T22:06:40Z</time><extensions><speed>5.570000</speed><course>196.171875</course><hAcc>5.000000</hAcc><vAcc>3.000000</vAcc></extensions></trkpt>
      <trkpt lon="-123.280031" lat="44.566535"><ele>76.784012</ele><time>2020-10-06T22:06:41Z</time><extensions><speed>6.700000</speed><course>200.742188</course><hAcc>5.000000</hAcc><vAcc>3.000000</vAcc></extensions></trkpt>
      <trkpt lon="-123.280073" lat="44.566480"><ele>76.489792</ele><time>2020-10-06T22:06:42Z</time><extensions><speed>6.670000</speed><course>203.203125</course><hAcc>5.000000</hAcc><vAcc>3.000000</vAcc></extensions></trkpt>
      <trkpt lon="-123.280071" lat="44.566426"><ele>76.344048</ele><time>2020-10-06T22:06:43Z</time><extensions><speed>6.670000</speed><course>193.359375</course><hAcc>5.000000</hAcc><vAcc>3.000000</vAcc></extensions></trkpt>
      <trkpt lon="-123.280054" lat="44.566348"><ele>76.449608</ele><time>2020-10-06T22:06:44Z</time><extensions><speed>6.670000</speed><course>185.273438</course><hAcc>5.000000</hAcc><vAcc>3.000000</vAcc></extensions></trkpt>
      <trkpt lon="-123.280029" lat="44.566295"><ele>76.385162</ele><time>2020-10-06T22:06:45Z</time><extensions><speed>6.180000</speed><course>182.109375</course><hAcc>5.000000</hAcc><vAcc>3.000000</vAcc></extensions></trkpt>
      <trkpt lon="-123.280020" lat="44.566240"><ele>76.015549</ele><time>2020-10-06T22:06:46Z</time><extensions><speed>6.230000</speed><course>177.187500</course><hAcc>5.000000</hAcc><vAcc>3.000000</vAcc></extensions></trkpt>
      <trkpt lon="-123.279998" lat="44.566190"><ele>76.171242</ele><time>2020-10-06T22:06:47Z</time><extensions><speed>6.230000</speed><course>177.539062</course><hAcc>5.000000</hAcc><vAcc>3.000000</vAcc></extensions></trkpt>
      <trkpt lon="-123.280012" lat="44.566123"><ele>75.954674</ele><time>2020-10-06T22:06:48Z</time><extensions><speed>5.860000</speed><course>180.000000</course><hAcc>5.000000</hAcc><vAcc>3.000000</vAcc></extensions></trkpt>
      <trkpt lon="-123.280011" lat="44.566067"><ele>75.872330</ele><time>2020-10-06T22:06:49Z</time><extensions><speed>5.860000</speed><course>180.703125</course><hAcc>5.000000</hAcc><vAcc>3.000000</vAcc></extensions></trkpt>
      <trkpt lon="-123.279977" lat="44.566019"><ele>75.691795</ele><time>2020-10-06T22:06:50Z</time><extensions><speed>5.700000</speed><course>174.726562</course><hAcc>5.000000</hAcc><vAcc>3.000000</vAcc></extensions></trkpt>
      <trkpt lon="-123.280001" lat="44.566016"><ele>75.843094</ele><time>2020-10-06T22:06:51Z</time><extensions><speed>5.700000</speed><course>190.195312</course><hAcc>5.000000</hAcc><vAcc>3.000000</vAcc></extensions></trkpt>
      <trkpt lon="-123.280006" lat="44.565962"><ele>75.783379</ele><time>2020-10-06T22:06:52Z</time><extensions><speed>4.610000</speed><course>183.515625</course><hAcc>5.000000</hAcc><vAcc>3.000000</vAcc></extensions></trkpt>
      <trkpt lon="-123.280009" lat="44.565912"><ele>75.565628</ele><time>2020-10-06T22:06:53Z</time><extensions><speed>4.610000</speed><course>185.273438</course><hAcc>5.000000</hAcc><vAcc>3.000000</vAcc></extensions></trkpt>
      <trkpt lon="-123.280017" lat="44.565852"><ele>75.705238</ele><time>2020-10-06T22:06:54Z</time><extensions><speed>5.190000</speed><course>185.625000</course><hAcc>5.000000</hAcc><vAcc>3.000000</vAcc></extensions></trkpt>
      <trkpt lon="-123.280029" lat="44.565786"><ele>75.766144</ele><time>2020-10-06T22:06:55Z</time><extensions><speed>6.140000</speed><course>187.734375</course><hAcc>5.000000</hAcc><vAcc>3.000000</vAcc></extensions></trkpt>
      <trkpt lon="-123.280029" lat="44.565731"><ele>75.496681</ele><time>2020-10-06T22:06:56Z</time><extensions><speed>6.140000</speed><course>185.976562</course><hAcc>5.000000</hAcc><vAcc>3.000000</vAcc></extensions></trkpt>
      <trkpt lon="-123.280017" lat="44.565676"><ele>75.459480</ele><time>2020-10-06T22:06:57Z</time><extensions><speed>5.900000</speed><course>177.890625</course><hAcc>5.000000</hAcc><vAcc>3.000000</vAcc></extensions></trkpt>
      <trkpt lon="-123.280013" lat="44.565618"><ele>75.453873</ele><time>2020-10-06T22:06:58Z</time><extensions><speed>5.790000</speed><course>180.000000</course><hAcc>5.000000</hAcc><vAcc>3.000000</vAcc></extensions></trkpt>
      <trkpt lon="-123.280008" lat="44.565560"><ele>75.315170</ele><time>2020-10-06T22:06:59Z</time><extensions><speed>6.260000</speed><course>180.351562</course><hAcc>5.000000</hAcc><vAcc>3.000000</vAcc></extensions></trkpt>
      <trkpt lon="-123.279999" lat="44.565493"><ele>75.443253</ele><time>2020-10-06T22:07:00Z</time><extensions><speed>6.370000</speed><course>177.187500</course><hAcc>5.000000</hAcc><vAcc>3.000000</vAcc></extensions></trkpt>
      <trkpt lon="-123.279987" lat="44.565438"><ele>75.387688</ele><time>2020-10-06T22:07:01Z</time><extensions><speed>6.260000</speed><course>170.859375</course><hAcc>5.000000</hAcc><vAcc>3.000000</vAcc></extensions></trkpt>
      <trkpt lon="-123.279988" lat="44.565376"><ele>75.338821</ele><time>2020-10-06T22:07:02Z</time><extensions><speed>6.330000</speed><course>178.242188</course><hAcc>5.000000</hAcc><vAcc>3.000000</vAcc></extensions></trkpt>
      <trkpt lon="-123.279990" lat="44.565316"><ele>75.207924</ele><time>2020-10-06T22:07:03Z</time><extensions><speed>6.230000</speed><course>180.000000</course><hAcc>5.000000</hAcc><vAcc>3.000000</vAcc></extensions></trkpt>
      <trkpt lon="-123.279997" lat="44.565259"><ele>75.159904</ele><time>2020-10-06T22:07:04Z</time><extensions><speed>6.000000</speed><course>183.164062</course><hAcc>5.000000</hAcc><vAcc>3.000000</vAcc></extensions></trkpt>
      <trkpt lon="-123.279999" lat="44.565203"><ele>75.314644</ele><time>2020-10-06T22:07:05Z</time><extensions><speed>6.080000</speed><course>181.757812</course><hAcc>5.000000</hAcc><vAcc>3.000000</vAcc></extensions></trkpt>
      <trkpt lon="-123.280013" lat="44.565152"><ele>75.278290</ele><time>2020-10-06T22:07:06Z</time><extensions><speed>6.050000</speed><course>186.328125</course><hAcc>5.000000</hAcc><vAcc>3.000000</vAcc></extensions></trkpt>
      <trkpt lon="-123.280014" lat="44.565103"><ele>75.221519</ele><time>2020-10-06T22:07:07Z</time><extensions><speed>6.050000</speed><course>184.218750</course><hAcc>5.000000</hAcc><vAcc>3.000000</vAcc></extensions></trkpt>
      <trkpt lon="-123.280021" lat="44.565038"><ele>75.074211</ele><time>2020-10-06T22:07:08Z</time><extensions><speed>6.050000</speed><course>182.460938</course><hAcc>5.000000</hAcc><vAcc>3.000000</vAcc></extensions></trkpt>
      <trkpt lon="-123.280013" lat="44.564972"><ele>74.947845</ele><time>2020-10-06T22:07:09Z</time><extensions><speed>7.210000</speed><course>177.539062</course><hAcc>5.000000</hAcc><vAcc>3.000000</vAcc></extensions></trkpt>
      <trkpt lon="-123.279998" lat="44.564939"><ele>74.934891</ele><time>2020-10-06T22:07:10Z</time><extensions><speed>7.210000</speed><course>175.078125</course><hAcc>5.000000</hAcc><vAcc>3.000000</vAcc></extensions></trkpt>
      <trkpt lon="-123.279984" lat="44.564909"><ele>74.815323</ele><time>2020-10-06T22:07:11Z</time><extensions><speed>5.400000</speed><course>169.804688</course><hAcc>5.000000</hAcc><vAcc>3.000000</vAcc></extensions></trkpt>
      <trkpt lon="-123.279995" lat="44.564847"><ele>74.941986</ele><time>2020-10-06T22:07:12Z</time><extensions><speed>5.400000</speed><course>183.515625</course><hAcc>5.000000</hAcc><vAcc>3.000000</vAcc></extensions></trkpt>
      <trkpt lon="-123.279998" lat="44.564785"><ele>74.980316</ele><time>2020-10-06T22:07:13Z</time><extensions><speed>6.120000</speed><course>179.296875</course><hAcc>5.000000</hAcc><vAcc>3.000000</vAcc></extensions></trkpt>
      <trkpt lon="-123.279989" lat="44.564736"><ele>74.754074</ele><time>2020-10-06T22:07:14Z</time><extensions><speed>5.580000</speed><course>175.078125</course><hAcc>5.000000</hAcc><vAcc>3.000000</vAcc></extensions></trkpt>
      <trkpt lon="-123.279998" lat="44.564686"><ele>74.819267</ele><time>2020-10-06T22:07:15Z</time><extensions><speed>5.880000</speed><course>183.867188</course><hAcc>5.000000</hAcc><vAcc>3.000000</vAcc></extensions></trkpt>
      <trkpt lon="-123.280003" lat="44.564634"><ele>74.861633</ele><time>2020-10-06T22:07:16Z</time><extensions><speed>5.880000</speed><course>185.625000</course><hAcc>5.000000</hAcc><vAcc>3.000000</vAcc></extensions></trkpt>
      <trkpt lon="-123.279999" lat="44.564576"><ele>74.901733</ele><time>2020-10-06T22:07:17Z</time><extensions><speed>5.880000</speed><course>177.187500</course><hAcc>5.000000</hAcc><vAcc>3.000000</vAcc></extensions></trkpt>
      <trkpt lon="-123.280004" lat="44.564523"><ele>75.350304</ele><time>2020-10-06T22:07:18Z</time><extensions><speed>5.950000</speed><course>181.054688</course><hAcc>5.000000</hAcc><vAcc>3.000000</vAcc></extensions></trkpt>
      <trkpt lon="-123.280009" lat="44.564469"><ele>75.593246</ele><time>2020-10-06T22:07:19Z</time><extensions><speed>5.950000</speed><course>182.460938</course><hAcc>5.000000</hAcc><vAcc>3.000000</vAcc></extensions></trkpt>
      <trkpt lon="-123.280014" lat="44.564420"><ele>75.625717</ele><time>2020-10-06T22:07:20Z</time><extensions><speed>5.840000</speed><course>180.351562</course><hAcc>5.000000</hAcc><vAcc>3.000000</vAcc></extensions></trkpt>
      <trkpt lon="-123.280016" lat="44.564366"><ele>75.414001</ele><time>2020-10-06T22:07:21Z</time><extensions><speed>5.840000</speed><course>181.757812</course><hAcc>5.000000</hAcc><vAcc>3.000000</vAcc></extensions></trkpt>
      <trkpt lon="-123.280027" lat="44.564311"><ele>75.074570</ele><time>2020-10-06T22:07:22Z</time><extensions><speed>6.200000</speed><course>184.218750</course><hAcc>5.000000</hAcc><vAcc>3.000000</vAcc></extensions></trkpt>
      <trkpt lon="-123.280024" lat="44.564256"><ele>74.952553</ele><time>2020-10-06T22:07:23Z</time><extensions><speed>6.200000</speed><course>184.570312</course><hAcc>5.000000</hAcc><vAcc>3.000000</vAcc></extensions></trkpt>
      <trkpt lon="-123.280025" lat="44.564201"><ele>74.683350</ele><time>2020-10-06T22:07:24Z</time><extensions><speed>6.030000</speed><course>183.164062</course><hAcc>5.000000</hAcc><vAcc>3.000000</vAcc></extensions></trkpt>
      <trkpt lon="-123.280019" lat="44.564144"><ele>74.418816</ele><time>2020-10-06T22:07:25Z</time><extensions><speed>6.030000</speed><course>177.890625</course><hAcc>5.000000</hAcc><vAcc>3.000000</vAcc></extensions></trkpt>
      <trkpt lon="-123.279998" lat="44.564089"><ele>74.322937</ele><time>2020-10-06T22:07:26Z</time><extensions><speed>6.380000</speed><course>170.156250</course><hAcc>5.000000</hAcc><vAcc>3.000000</vAcc></extensions></trkpt>
      <trkpt lon="-123.279967" lat="44.564035"><ele>74.232460</ele><time>2020-10-06T22:07:27Z</time><extensions><speed>6.460000</speed><course>164.531250</course><hAcc>5.000000</hAcc><vAcc>3.000000</vAcc></extensions></trkpt>
      <trkpt lon="-123.279944" lat="44.563983"><ele>73.986298</ele><time>2020-10-06T22:07:28Z</time><extensions><speed>6.490000</speed><course>164.882812</course><hAcc>5.000000</hAcc><vAcc>3.000000</vAcc></extensions></trkpt>
      <trkpt lon="-123.279934" lat="44.563918"><ele>73.839470</ele><time>2020-10-06T22:07:29Z</time><extensions><speed>6.490000</speed><course>173.320312</course><hAcc>5.000000</hAcc><vAcc>3.000000</vAcc></extensions></trkpt>
      <trkpt lon="-123.279911" lat="44.563859"><ele>73.638092</ele><time>2020-10-06T22:07:30Z</time><extensions><speed>6.840000</speed><course>167.343750</course><hAcc>5.000000</hAcc><vAcc>3.000000</vAcc></extensions></trkpt>
      <trkpt lon="-123.279882" lat="44.563795"><ele>72.999557</ele><time>2020-10-06T22:07:31Z</time><extensions><speed>7.060000</speed><course>160.312500</course><hAcc>5.000000</hAcc><vAcc>3.000000</vAcc></extensions></trkpt>
      <trkpt lon="-123.279842" lat="44.563733"><ele>72.738808</ele><time>2020-10-06T22:07:32Z</time><extensions><speed>7.440000</speed><course>155.742188</course><hAcc>5.000000</hAcc><vAcc>3.000000</vAcc></extensions></trkpt>
      <trkpt lon="-123.279804" lat="44.563671"><ele>72.574013</ele><time>2020-10-06T22:07:33Z</time><extensions><speed>7.700000</speed><course>156.093750</course><hAcc>5.000000</hAcc><vAcc>3.000000</vAcc></extensions></trkpt>
      <trkpt lon="-123.279766" lat="44.563604"><ele>71.902443</ele><time>2020-10-06T22:07:34Z</time><extensions><speed>8.150000</speed><course>158.203125</course><hAcc>5.000000</hAcc><vAcc>3.000000</vAcc></extensions></trkpt>
      <trkpt lon="-123.279739" lat="44.563539"><ele>71.904137</ele><time>2020-10-06T22:07:35Z</time><extensions><speed>7.840000</speed><course>158.554688</course><hAcc>5.000000</hAcc><vAcc>3.000000</vAcc></extensions></trkpt>
      <trkpt lon="-123.279712" lat="44.563486"><ele>71.613708</ele><time>2020-10-06T22:07:36Z</time><extensions><speed>7.900000</speed><course>168.046875</course><hAcc>5.000000</hAcc><vAcc>3.000000</vAcc></extensions></trkpt>
      <trkpt lon="-123.279693" lat="44.563430"><ele>71.510559</ele><time>2020-10-06T22:07:37Z</time><extensions><speed>7.800000</speed><course>174.023438</course><hAcc>5.000000</hAcc><vAcc>3.000000</vAcc></extensions></trkpt>
      <trkpt lon="-123.279669" lat="44.563374"><ele>71.478241</ele><time>2020-10-06T22:07:38Z</time><extensions><speed>7.370000</speed><course>159.609375</course><hAcc>5.000000</hAcc><vAcc>3.000000</vAcc></extensions></trkpt>
      <trkpt lon="-123.279632" lat="44.563319"><ele>71.205276</ele><time>2020-10-06T22:07:39Z</time><extensions><speed>6.690000</speed><course>151.875000</course><hAcc>5.000000</hAcc><vAcc>3.000000</vAcc></extensions></trkpt>
      <trkpt lon="-123.279566" lat="44.563290"><ele>70.781143</ele><time>2020-10-06T22:07:40Z</time><extensions><speed>5.820000</speed><course>133.593750</course><hAcc>5.000000</hAcc><vAcc>3.000000</vAcc></extensions></trkpt>
      <trkpt lon="-123.279503" lat="44.563271"><ele>70.656876</ele><time>2020-10-06T22:07:41Z</time><extensions><speed>5.330000</speed><course>105.117188</course><hAcc>5.000000</hAcc><vAcc>3.000000</vAcc></extensions></trkpt>
      <trkpt lon="-123.279450" lat="44.563281"><ele>70.544441</ele><time>2020-10-06T22:07:42Z</time><extensions><speed>4.600000</speed><course>73.476562</course><hAcc>5.000000</hAcc><vAcc>3.000000</vAcc></extensions></trkpt>
      <trkpt lon="-123.279417" lat="44.563303"><ele>70.690277</ele><time>2020-10-06T22:07:43Z</time><extensions><speed>3.900000</speed><course>50.273438</course><hAcc>5.000000</hAcc><vAcc>3.000000</vAcc></extensions></trkpt>
      <trkpt lon="-123.279397" lat="44.563333"><ele>70.608582</ele><time>2020-10-06T22:07:44Z</time><extensions><speed>3.690000</speed><course>27.773438</course><hAcc>5.000000</hAcc><vAcc>3.000000</vAcc></extensions></trkpt>
      <trkpt lon="-123.279384" lat="44.563357"><ele>70.547798</ele><time>2020-10-06T22:07:45Z</time><extensions><speed>3.690000</speed><course>19.687500</course><hAcc>5.000000</hAcc><vAcc>3.000000</vAcc></extensions></trkpt>
      <trkpt lon="-123.279399" lat="44.563354"><ele>70.465279</ele><time>2020-10-06T22:07:46Z</time><extensions><speed>3.210000</speed><course>329.062500</course><hAcc>5.000000</hAcc><vAcc>3.000000</vAcc></extensions></trkpt>
      <trkpt lon="-123.279404" lat="44.563352"><ele>70.382668</ele><time>2020-10-06T22:07:47Z</time><extensions><speed>0.810000</speed><course>329.062500</course><hAcc>5.000000</hAcc><vAcc>3.000000</vAcc></extensions></trkpt>
      <trkpt lon="-123.279404" lat="44.563352"><ele>70.383072</ele><time>2020-10-06T22:07:48Z</time><extensions><speed>0.000000</speed><course>329.062500</course><hAcc>5.000000</hAcc><vAcc>3.000000</vAcc></extensions></trkpt>
      <trkpt lon="-123.279404" lat="44.563352"><ele>70.338440</ele><time>2020-10-06T22:07:49Z</time><extensions><speed>0.000000</speed><course>329.062500</course><hAcc>5.000000</hAcc><vAcc>3.000000</vAcc></extensions></trkpt>
      <trkpt lon="-123.279404" lat="44.563352"><ele>70.230034</ele><time>2020-10-06T22:07:50Z</time><extensions><speed>0.000000</speed><course>329.062500</course><hAcc>5.000000</hAcc><vAcc>3.000000</vAcc></extensions></trkpt>
      <trkpt lon="-123.279404" lat="44.563352"><ele>70.393494</ele><time>2020-10-06T22:07:51Z</time><extensions><speed>0.000000</speed><course>329.062500</course><hAcc>5.000000</hAcc><vAcc>3.000000</vAcc></extensions></trkpt>
      <trkpt lon="-123.279404" lat="44.563352"><ele>70.324272</ele><time>2020-10-06T22:07:52Z</time><extensions><speed>0.000000</speed><course>329.062500</course><hAcc>5.000000</hAcc><vAcc>3.000000</vAcc></extensions></trkpt>
      <trkpt lon="-123.279404" lat="44.563352"><ele>70.331650</ele><time>2020-10-06T22:07:53Z</time><extensions><speed>0.000000</speed><course>329.062500</course><hAcc>5.000000</hAcc><vAcc>3.000000</vAcc></extensions></trkpt>
      <trkpt lon="-123.279404" lat="44.563352"><ele>70.322098</ele><time>2020-10-06T22:07:54Z</time><extensions><speed>0.000000</speed><course>329.414062</course><hAcc>5.000000</hAcc><vAcc>3.000000</vAcc></extensions></trkpt>
      <trkpt lon="-123.279404" lat="44.563352"><ele>70.289009</ele><time>2020-10-06T22:07:55Z</time><extensions><speed>0.000000</speed><course>329.414062</course><hAcc>5.000000</hAcc><vAcc>3.000000</vAcc></extensions></trkpt>
      <trkpt lon="-123.279392" lat="44.563359"><ele>70.347801</ele><time>2020-10-06T22:07:56Z</time><extensions><speed>0.230000</speed><course>329.414062</course><hAcc>5.000000</hAcc><vAcc>3.000000</vAcc></extensions></trkpt>
      <trkpt lon="-123.279392" lat="44.563359"><ele>70.302795</ele><time>2020-10-06T22:07:57Z</time><extensions><speed>0.000000</speed><course>329.414062</course><hAcc>5.000000</hAcc><vAcc>3.000000</vAcc></extensions></trkpt>
      <trkpt lon="-123.279392" lat="44.563359"><ele>70.266159</ele><time>2020-10-06T22:07:58Z</time><extensions><speed>0.000000</speed><course>329.414062</course><hAcc>5.000000</hAcc><vAcc>3.000000</vAcc></extensions></trkpt>
      <trkpt lon="-123.279392" lat="44.563359"><ele>70.343582</ele><time>2020-10-06T22:07:59Z</time><extensions><speed>0.000000</speed><course>329.414062</course><hAcc>5.000000</hAcc><vAcc>3.000000</vAcc></extensions></trkpt>
      <trkpt lon="-123.279392" lat="44.563359"><ele>70.351883</ele><time>2020-10-06T22:08:00Z</time><extensions><speed>0.000000</speed><course>329.414062</course><hAcc>5.000000</hAcc><vAcc>3.000000</vAcc></extensions></trkpt>
      <trkpt lon="-123.279392" lat="44.563359"><ele>70.407326</ele><time>2020-10-06T22:08:01Z</time><extensions><speed>0.000000</speed><course>329.414062</course><hAcc>5.000000</hAcc><vAcc>3.000000</vAcc></extensions></trkpt>
      <trkpt lon="-123.279383" lat="44.563348"><ele>70.278893</ele><time>2020-10-06T22:08:02Z</time><extensions><speed>0.590000</speed><course>329.414062</course><hAcc>5.000000</hAcc><vAcc>3.000000</vAcc></extensions></trkpt>
      <trkpt lon="-123.279383" lat="44.563348"><ele>70.246536</ele><time>2020-10-06T22:08:03Z</time><extensions><speed>0.000000</speed><course>329.414062</course><hAcc>5.000000</hAcc><vAcc>3.000000</vAcc></extensions></trkpt>
      <trkpt lon="-123.279383" lat="44.563348"><ele>70.203934</ele><time>2020-10-06T22:08:04Z</time><extensions><speed>0.000000</speed><course>329.414062</course><hAcc>5.000000</hAcc><vAcc>3.000000</vAcc></extensions></trkpt>
      <trkpt lon="-123.279383" lat="44.563348"><ele>70.083702</ele><time>2020-10-06T22:08:05Z</time><extensions><speed>0.000000</speed><course>329.414062</course><hAcc>5.000000</hAcc><vAcc>3.000000</vAcc></extensions></trkpt>
      <trkpt lon="-123.279383" lat="44.563348"><ele>70.108154</ele><time>2020-10-06T22:08:06Z</time><extensions><speed>0.000000</speed><course>329.414062</course><hAcc>5.000000</hAcc><vAcc>4.000000</vAcc></extensions></trkpt>
      <trkpt lon="-123.279383" lat="44.563348"><ele>70.136818</ele><time>2020-10-06T22:08:07Z</time><extensions><speed>0.000000</speed><course>329.414062</course><hAcc>5.000000</hAcc><vAcc>4.000000</vAcc></extensions></trkpt>
      <trkpt lon="-123.279383" lat="44.563348"><ele>69.926491</ele><time>2020-10-06T22:08:08Z</time><extensions><speed>0.000000</speed><course>344.531250</course><hAcc>5.000000</hAcc><vAcc>4.000000</vAcc></extensions></trkpt>
      <trkpt lon="-123.279389" lat="44.563341"><ele>70.024452</ele><time>2020-10-06T22:08:09Z</time><extensions><speed>1.180000</speed><course>328.359375</course><hAcc>5.000000</hAcc><vAcc>4.000000</vAcc></extensions></trkpt>
      <trkpt lon="-123.279389" lat="44.563342"><ele>70.078575</ele><time>2020-10-06T22:08:10Z</time><extensions><speed>1.350000</speed><course>331.171875</course><hAcc>5.000000</hAcc><vAcc>3.000000</vAcc></extensions></trkpt>
      <trkpt lon="-123.279396" lat="44.563333"><ele>69.899178</ele><time>2020-10-06T22:08:11Z</time><extensions><speed>0.890000</speed><course>340.664062</course><hAcc>5.000000</hAcc><vAcc>4.000000</vAcc></extensions></trkpt>
      <trkpt lon="-123.279401" lat="44.563329"><ele>69.958519</ele><time>2020-10-06T22:08:12Z</time><extensions><speed>0.890000</speed><course>225.000000</course><hAcc>5.000000</hAcc><vAcc>4.000000</vAcc></extensions></trkpt>
      <trkpt lon="-123.279406" lat="44.563319"><ele>69.878487</ele><time>2020-10-06T22:08:13Z</time><extensions><speed>0.890000</speed><course>198.281250</course><hAcc>5.000000</hAcc><vAcc>3.000000</vAcc></extensions></trkpt>
      <trkpt lon="-123.279409" lat="44.563305"><ele>69.795570</ele><time>2020-10-06T22:08:14Z</time><extensions><speed>0.890000</speed><course>191.250000</course><hAcc>5.000000</hAcc><vAcc>3.000000</vAcc></extensions></trkpt>
      <trkpt lon="-123.279413" lat="44.563290"><ele>69.957558</ele><time>2020-10-06T22:08:15Z</time><extensions><speed>1.240000</speed><course>191.250000</course><hAcc>5.000000</hAcc><vAcc>3.000000</vAcc></extensions></trkpt>
      <trkpt lon="-123.279415" lat="44.563271"><ele>69.919090</ele><time>2020-10-06T22:08:16Z</time><extensions><speed>1.770000</speed><course>188.085938</course><hAcc>5.000000</hAcc><vAcc>3.000000</vAcc></extensions></trkpt>
      <trkpt lon="-123.279415" lat="44.563254"><ele>70.117722</ele><time>2020-10-06T22:08:17Z</time><extensions><speed>1.770000</speed><course>178.593750</course><hAcc>5.000000</hAcc><vAcc>3.000000</vAcc></extensions></trkpt>
      <trkpt lon="-123.279411" lat="44.563238"><ele>69.965958</ele><time>2020-10-06T22:08:18Z</time><extensions><speed>1.430000</speed><course>168.750000</course><hAcc>5.000000</hAcc><vAcc>3.000000</vAcc></extensions></trkpt>
      <trkpt lon="-123.279402" lat="44.563225"><ele>70.127121</ele><time>2020-10-06T22:08:19Z</time><extensions><speed>1.430000</speed><course>148.710938</course><hAcc>5.000000</hAcc><vAcc>3.000000</vAcc></extensions></trkpt>
      <trkpt lon="-123.279389" lat="44.563216"><ele>70.177650</ele><time>2020-10-06T22:08:20Z</time><extensions><speed>1.380000</speed><course>128.671875</course><hAcc>5.000000</hAcc><vAcc>3.000000</vAcc></extensions></trkpt>
      <trkpt lon="-123.279375" lat="44.563209"><ele>69.829239</ele><time>2020-10-06T22:08:21Z</time><extensions><speed>1.260000</speed><course>107.929688</course><hAcc>5.000000</hAcc><vAcc>3.000000</vAcc></extensions></trkpt>
      <trkpt lon="-123.279358" lat="44.563206"><ele>70.019592</ele><time>2020-10-06T22:08:22Z</time><extensions><speed>1.330000</speed><course>99.492188</course><hAcc>5.000000</hAcc><vAcc>3.000000</vAcc></extensions></trkpt>
      <trkpt lon="-123.279339" lat="44.563205"><ele>69.993568</ele><time>2020-10-06T22:08:23Z</time><extensions><speed>1.330000</speed><course>91.406250</course><hAcc>5.000000</hAcc><vAcc>3.000000</vAcc></extensions></trkpt>
      <trkpt lon="-123.279319" lat="44.563205"><ele>69.942001</ele><time>2020-10-06T22:08:24Z</time><extensions><speed>1.530000</speed><course>89.648438</course><hAcc>5.000000</hAcc><vAcc>3.000000</vAcc></extensions></trkpt>
      <trkpt lon="-123.279298" lat="44.563205"><ele>70.041962</ele><time>2020-10-06T22:08:25Z</time><extensions><speed>1.540000</speed><course>102.656250</course><hAcc>5.000000</hAcc><vAcc>3.000000</vAcc></extensions></trkpt>
      <trkpt lon="-123.279279" lat="44.563204"><ele>69.872833</ele><time>2020-10-06T22:08:26Z</time><extensions><speed>1.540000</speed><course>94.921875</course><hAcc>5.000000</hAcc><vAcc>3.000000</vAcc></extensions></trkpt>
      <trkpt lon="-123.279261" lat="44.563204"><ele>70.125984</ele><time>2020-10-06T22:08:27Z</time><extensions><speed>1.410000</speed><course>90.351562</course><hAcc>5.000000</hAcc><vAcc>3.000000</vAcc></extensions></trkpt>
      <trkpt lon="-123.279243" lat="44.563203"><ele>70.168983</ele><time>2020-10-06T22:08:28Z</time><extensions><speed>1.410000</speed><course>91.757812</course><hAcc>5.000000</hAcc><vAcc>3.000000</vAcc></extensions></trkpt>
      <trkpt lon="-123.279224" lat="44.563203"><ele>70.063889</ele><time>2020-10-06T22:08:29Z</time><extensions><speed>1.490000</speed><course>90.000000</course><hAcc>5.000000</hAcc><vAcc>3.000000</vAcc></extensions></trkpt>
      <trkpt lon="-123.279205" lat="44.563203"><ele>70.331329</ele><time>2020-10-06T22:08:30Z</time><extensions><speed>1.570000</speed><course>92.460938</course><hAcc>5.000000</hAcc><vAcc>3.000000</vAcc></extensions></trkpt>
      <trkpt lon="-123.279186" lat="44.563202"><ele>70.121353</ele><time>2020-10-06T22:08:31Z</time><extensions><speed>1.490000</speed><course>89.296875</course><hAcc>5.000000</hAcc><vAcc>3.000000</vAcc></extensions></trkpt>
      <trkpt lon="-123.279170" lat="44.563202"><ele>70.329926</ele><time>2020-10-06T22:08:32Z</time><extensions><speed>1.360000</speed><course>93.164062</course><hAcc>5.000000</hAcc><vAcc>3.000000</vAcc></extensions></trkpt>
      <trkpt lon="-123.279157" lat="44.563201"><ele>70.385025</ele><time>2020-10-06T22:08:33Z</time><extensions><speed>0.850000</speed><course>76.640625</course><hAcc>5.000000</hAcc><vAcc>3.000000</vAcc></extensions></trkpt>
      <trkpt lon="-123.279145" lat="44.563201"><ele>70.590599</ele><time>2020-10-06T22:08:34Z</time><extensions><speed>1.230000</speed><course>90.000000</course><hAcc>5.000000</hAcc><vAcc>3.000000</vAcc></extensions></trkpt>
      <trkpt lon="-123.279129" lat="44.563201"><ele>70.616180</ele><time>2020-10-06T22:08:35Z</time><extensions><speed>1.230000</speed><course>81.562500</course><hAcc>5.000000</hAcc><vAcc>3.000000</vAcc></extensions></trkpt>
      <trkpt lon="-123.279108" lat="44.563205"><ele>70.786385</ele><time>2020-10-06T22:08:36Z</time><extensions><speed>1.410000</speed><course>62.578125</course><hAcc>5.000000</hAcc><vAcc>3.000000</vAcc></extensions></trkpt>
      <trkpt lon="-123.279083" lat="44.563211"><ele>70.792397</ele><time>2020-10-06T22:08:37Z</time><extensions><speed>2.160000</speed><course>70.664062</course><hAcc>5.000000</hAcc><vAcc>3.000000</vAcc></extensions></trkpt>
      <trkpt lon="-123.279065" lat="44.563216"><ele>70.650833</ele><time>2020-10-06T22:08:38Z</time><extensions><speed>2.160000</speed><course>70.664062</course><hAcc>5.000000</hAcc><vAcc>3.000000</vAcc></extensions></trkpt>
      <trkpt lon="-123.279037" lat="44.563221"><ele>70.781845</ele><time>2020-10-06T22:08:39Z</time><extensions><speed>2.160000</speed><course>78.750000</course><hAcc>5.000000</hAcc><vAcc>3.000000</vAcc></extensions></trkpt>
      <trkpt lon="-123.279001" lat="44.563225"><ele>70.756630</ele><time>2020-10-06T22:08:40Z</time><extensions><speed>2.690000</speed><course>84.023438</course><hAcc>5.000000</hAcc><vAcc>3.000000</vAcc></extensions></trkpt>
      <trkpt lon="-123.278968" lat="44.563230"><ele>70.647949</ele><time>2020-10-06T22:08:41Z</time><extensions><speed>2.690000</speed><course>79.453125</course><hAcc>5.000000</hAcc><vAcc>3.000000</vAcc></extensions></trkpt>
      <trkpt lon="-123.278948" lat="44.563237"><ele>70.565559</ele><time>2020-10-06T22:08:42Z</time><extensions><speed>1.490000</speed><course>71.367188</course><hAcc>5.000000</hAcc><vAcc>3.000000</vAcc></extensions></trkpt>
      <trkpt lon="-123.278937" lat="44.563243"><ele>70.428413</ele><time>2020-10-06T22:08:43Z</time><extensions><speed>1.490000</speed><course>61.523438</course><hAcc>5.000000</hAcc><vAcc>3.000000</vAcc></extensions></trkpt>
      <trkpt lon="-123.278934" lat="44.563249"><ele>70.462471</ele><time>2020-10-06T22:08:44Z</time><extensions><speed>1.180000</speed><course>26.367188</course><hAcc>5.000000</hAcc><vAcc>3.000000</vAcc></extensions></trkpt>
      <trkpt lon="-123.278934" lat="44.563253"><ele>70.536163</ele><time>2020-10-06T22:08:45Z</time><extensions><speed>0.780000</speed><course>78.046875</course><hAcc>10.000000</hAcc><vAcc>3.000000</vAcc></extensions></trkpt>
      <trkpt lon="-123.278933" lat="44.563258"><ele>70.496574</ele><time>2020-10-06T22:08:46Z</time><extensions><speed>0.780000</speed><course>48.164062</course><hAcc>10.000000</hAcc><vAcc>3.000000</vAcc></extensions></trkpt>
      <trkpt lon="-123.278929" lat="44.563263"><ele>70.463303</ele><time>2020-10-06T22:08:47Z</time><extensions><speed>0.780000</speed><course>55.546875</course><hAcc>10.000000</hAcc><vAcc>3.000000</vAcc></extensions></trkpt>
      <trkpt lon="-123.278927" lat="44.563265"><ele>70.371101</ele><time>2020-10-06T22:08:48Z</time><extensions><speed>0.780000</speed><course>71.367188</course><hAcc>10.000000</hAcc><vAcc>3.000000</vAcc></extensions></trkpt>
      <trkpt lon="-123.278926" lat="44.563266"><ele>70.441132</ele><time>2020-10-06T22:08:49Z</time><extensions><speed>0.400000</speed><course>58.710938</course><hAcc>10.000000</hAcc><vAcc>3.000000</vAcc></extensions></trkpt>
      <trkpt lon="-123.278926" lat="44.563266"><ele>70.430717</ele><time>2020-10-06T22:08:50Z</time><extensions><speed>0.000000</speed><course>70.312500</course><hAcc>30.000000</hAcc><vAcc>3.000000</vAcc></extensions></trkpt>
      <trkpt lon="-123.278926" lat="44.563266"><ele>70.408318</ele><time>2020-10-06T22:08:51Z</time><extensions><speed>0.000000</speed><course>56.601562</course><hAcc>30.000000</hAcc><vAcc>3.000000</vAcc></extensions></trkpt>
      <trkpt lon="-123.278926" lat="44.563266"><ele>70.379028</ele><time>2020-10-06T22:08:52Z</time><extensions><speed>0.000000</speed><course>56.601562</course><hAcc>30.000000</hAcc><vAcc>3.000000</vAcc></extensions></trkpt>
      <trkpt lon="-123.278926" lat="44.563266"><ele>70.413322</ele><time>2020-10-06T22:08:53Z</time><extensions><speed>0.000000</speed><course>114.960938</course><hAcc>30.000000</hAcc><vAcc>4.000000</vAcc></extensions></trkpt>
      <trkpt lon="-123.278926" lat="44.563266"><ele>70.369804</ele><time>2020-10-06T22:08:54Z</time><extensions><speed>0.000000</speed><course>289.335938</course><hAcc>30.000000</hAcc><vAcc>3.000000</vAcc></extensions></trkpt>
      <trkpt lon="-123.278952" lat="44.563270"><ele>70.353241</ele><time>2020-10-06T22:08:55Z</time><extensions><speed>1.060000</speed><course>267.187500</course><hAcc>30.000000</hAcc><vAcc>3.000000</vAcc></extensions></trkpt>
      <trkpt lon="-123.278966" lat="44.563259"><ele>70.351501</ele><time>2020-10-06T22:08:56Z</time><extensions><speed>1.170000</speed><course>252.773438</course><hAcc>30.000000</hAcc><vAcc>3.000000</vAcc></extensions></trkpt>
      <trkpt lon="-123.278981" lat="44.563251"><ele>70.448029</ele><time>2020-10-06T22:08:57Z</time><extensions><speed>1.240000</speed><course>238.007812</course><hAcc>30.000000</hAcc><vAcc>3.000000</vAcc></extensions></trkpt>
      <trkpt lon="-123.278981" lat="44.563251"><ele>70.330879</ele><time>2020-10-06T22:08:58Z</time><extensions><speed>0.000000</speed><course>338.554688</course><hAcc>30.000000</hAcc><vAcc>3.000000</vAcc></extensions></trkpt>
      <trkpt lon="-123.278956" lat="44.563262"><ele>70.474937</ele><time>2020-10-06T22:08:59Z</time><extensions><speed>0.740000</speed><course>249.257812</course><hAcc>30.000000</hAcc><vAcc>3.000000</vAcc></extensions></trkpt>
      <trkpt lon="-123.278953" lat="44.563255"><ele>70.380470</ele><time>2020-10-06T22:09:00Z</time><extensions><speed>1.100000</speed><course>232.382812</course><hAcc>30.000000</hAcc><vAcc>3.000000</vAcc></extensions></trkpt>
      <trkpt lon="-123.278949" lat="44.563247"><ele>70.417175</ele><time>2020-10-06T22:09:01Z</time><extensions><speed>1.100000</speed><course>231.679688</course><hAcc>30.000000</hAcc><vAcc>3.000000</vAcc></extensions></trkpt>
      <trkpt lon="-123.278952" lat="44.563229"><ele>70.502144</ele><time>2020-10-06T22:09:02Z</time><extensions><speed>1.100000</speed><course>212.343750</course><hAcc>30.000000</hAcc><vAcc>3.000000</vAcc></extensions></trkpt>
      <trkpt lon="-123.278958" lat="44.563208"><ele>70.308311</ele><time>2020-10-06T22:09:03Z</time><extensions><speed>1.300000</speed><course>213.750000</course><hAcc>30.000000</hAcc><vAcc>3.000000</vAcc></extensions></trkpt>
    </trkseg>
  </trk>
</gpx>