<?xml version="1.0" encoding="UTF-8"?>
<gpx version="1.1" creator="Apple Health Export" xmlns="http://www.topografix.com/GPX/1/1" xmlns:xsi="http://www.w3.org/2001/XMLSchema-instance" xsi:schemaLocation="http://www.topografix.com/GPX/1/1 http://www.topografix.com/GPX/1/1/gpx.xsd">
  <metadata>
    <time>2021-02-21T19:24:47Z</time>
  </metadata>
  <trk>
    <name>Route 2020-09-26 12:53pm</name>
    <trkseg>
      <trkpt lon="-123.283452" lat="44.573481"><ele>67.320198</ele><time>2020-09-26T19:47:57Z</time><extensions><speed>6.540000</speed><course>184.218750</course><hAcc>10.000000</hAcc><vAcc>24.000000</vAcc></extensions></trkpt>
      <trkpt lon="-123.283519" lat="44.573419"><ele>72.065865</ele><time>2020-09-26T19:47:58Z</time><extensions><speed>6.540000</speed><course>184.218750</course><hAcc>10.000000</hAcc><vAcc>4.000000</vAcc></extensions></trkpt>
      <trkpt lon="-123.283555" lat="44.573363"><ele>72.574532</ele><time>2020-09-26T19:47:59Z</time><extensions><speed>6.240000</speed><course>182.109375</course><hAcc>10.000000</hAcc><vAcc>4.000000</vAcc></extensions></trkpt>
      <trkpt lon="-123.283575" lat="44.573311"><ele>72.724434</ele><time>2020-09-26T19:48:00Z</time><extensions><speed>6.240000</speed><course>183.164062</course><hAcc>10.000000</hAcc><vAcc>4.000000</vAcc></extensions></trkpt>
      <trkpt lon="-123.283525" lat="44.573278"><ele>73.688606</ele><time>2020-09-26T19:48:01Z</time><extensions><speed>6.310000</speed><course>180.351562</course><hAcc>10.000000</hAcc><vAcc>4.000000</vAcc></extensions></trkpt>
      <trkpt lon="-123.283541" lat="44.573218"><ele>73.142952</ele><time>2020-09-26T19:48:02Z</time><extensions><speed>6.580000</speed><course>184.218750</course><hAcc>5.000000</hAcc><vAcc>4.000000</vAcc></extensions></trkpt>
      <trkpt lon="-123.283548" lat="44.573142"><ele>72.919075</ele><time>2020-09-26T19:48:03Z</time><extensions><speed>6.610000</speed><course>184.218750</course><hAcc>5.000000</hAcc><vAcc>4.000000</vAcc></extensions></trkpt>
      <trkpt lon="-123.283509" lat="44.573089"><ele>72.960823</ele><time>2020-09-26T19:48:04Z</time><extensions><speed>6.580000</speed><course>179.296875</course><hAcc>5.000000</hAcc><vAcc>4.000000</vAcc></extensions></trkpt>
      <trkpt lon="-123.283480" lat="44.573039"><ele>73.570869</ele><time>2020-09-26T19:48:05Z</time><extensions><speed>6.410000</speed><course>175.429688</course><hAcc>10.000000</hAcc><vAcc>4.000000</vAcc></extensions></trkpt>
      <trkpt lon="-123.283484" lat="44.572981"><ele>73.922737</ele><time>2020-09-26T19:48:06Z</time><extensions><speed>6.410000</speed><course>185.273438</course><hAcc>10.000000</hAcc><vAcc>4.000000</vAcc></extensions></trkpt>
      <trkpt lon="-123.283486" lat="44.572928"><ele>74.381966</ele><time>2020-09-26T19:48:07Z</time><extensions><speed>6.760000</speed><course>186.679688</course><hAcc>10.000000</hAcc><vAcc>4.000000</vAcc></extensions></trkpt>
      <trkpt lon="-123.283476" lat="44.572877"><ele>74.541817</ele><time>2020-09-26T19:48:08Z</time><extensions><speed>6.760000</speed><course>181.054688</course><hAcc>10.000000</hAcc><vAcc>4.000000</vAcc></extensions></trkpt>
      <trkpt lon="-123.283484" lat="44.572818"><ele>74.534798</ele><time>2020-09-26T19:48:09Z</time><extensions><speed>6.380000</speed><course>182.460938</course><hAcc>10.000000</hAcc><vAcc>4.000000</vAcc></extensions></trkpt>
      <trkpt lon="-123.283490" lat="44.572762"><ele>74.614449</ele><time>2020-09-26T19:48:10Z</time><extensions><speed>5.980000</speed><course>181.757812</course><hAcc>10.000000</hAcc><vAcc>4.000000</vAcc></extensions></trkpt>
      <trkpt lon="-123.283475" lat="44.572716"><ele>74.714241</ele><time>2020-09-26T19:48:11Z</time><extensions><speed>6.200000</speed><course>177.539062</course><hAcc>10.000000</hAcc><vAcc>4.000000</vAcc></extensions></trkpt>
      <trkpt lon="-123.283459" lat="44.572674"><ele>75.041878</ele><time>2020-09-26T19:48:12Z</time><extensions><speed>6.200000</speed><course>180.351562</course><hAcc>10.000000</hAcc><vAcc>4.000000</vAcc></extensions></trkpt>
      <trkpt lon="-123.283425" lat="44.572633"><ele>74.825813</ele><time>2020-09-26T19:48:13Z</time><extensions><speed>5.810000</speed><course>172.968750</course><hAcc>10.000000</hAcc><vAcc>4.000000</vAcc></extensions></trkpt>
      <trkpt lon="-123.283462" lat="44.572582"><ele>74.960640</ele><time>2020-09-26T19:48:14Z</time><extensions><speed>5.810000</speed><course>184.218750</course><hAcc>10.000000</hAcc><vAcc>4.000000</vAcc></extensions></trkpt>
      <trkpt lon="-123.283482" lat="44.572534"><ele>75.313484</ele><time>2020-09-26T19:48:15Z</time><extensions><speed>5.510000</speed><course>184.921875</course><hAcc>5.000000</hAcc><vAcc>4.000000</vAcc></extensions></trkpt>
      <trkpt lon="-123.283520" lat="44.572497"><ele>75.690804</ele><time>2020-09-26T19:48:16Z</time><extensions><speed>5.270000</speed><course>187.031250</course><hAcc>5.000000</hAcc><vAcc>4.000000</vAcc></extensions></trkpt>
      <trkpt lon="-123.283523" lat="44.572459"><ele>75.874641</ele><time>2020-09-26T19:48:17Z</time><extensions><speed>5.270000</speed><course>184.570312</course><hAcc>5.000000</hAcc><vAcc>4.000000</vAcc></extensions></trkpt>
      <trkpt lon="-123.283544" lat="44.572424"><ele>76.186958</ele><time>2020-09-26T19:48:18Z</time><extensions><speed>4.870000</speed><course>190.546875</course><hAcc>10.000000</hAcc><vAcc>4.000000</vAcc></extensions></trkpt>
      <trkpt lon="-123.283537" lat="44.572350"><ele>76.232185</ele><time>2020-09-26T19:48:19Z</time><extensions><speed>4.870000</speed><course>183.867188</course><hAcc>5.000000</hAcc><vAcc>4.000000</vAcc></extensions></trkpt>
      <trkpt lon="-123.283522" lat="44.572276"><ele>75.545174</ele><time>2020-09-26T19:48:20Z</time><extensions><speed>5.890000</speed><course>178.593750</course><hAcc>5.000000</hAcc><vAcc>4.000000</vAcc></extensions></trkpt>
      <trkpt lon="-123.283526" lat="44.572224"><ele>76.178535</ele><time>2020-09-26T19:48:21Z</time><extensions><speed>5.660000</speed><course>183.164062</course><hAcc>5.000000</hAcc><vAcc>4.000000</vAcc></extensions></trkpt>
      <trkpt lon="-123.283519" lat="44.572171"><ele>76.532478</ele><time>2020-09-26T19:48:22Z</time><extensions><speed>5.660000</speed><course>182.109375</course><hAcc>5.000000</hAcc><vAcc>4.000000</vAcc></extensions></trkpt>
      <trkpt lon="-123.283519" lat="44.572114"><ele>76.461372</ele><time>2020-09-26T19:48:23Z</time><extensions><speed>5.380000</speed><course>180.703125</course><hAcc>5.000000</hAcc><vAcc>4.000000</vAcc></extensions></trkpt>
      <trkpt lon="-123.283521" lat="44.572079"><ele>76.376839</ele><time>2020-09-26T19:48:24Z</time><extensions><speed>5.190000</speed><course>182.109375</course><hAcc>5.000000</hAcc><vAcc>4.000000</vAcc></extensions></trkpt>
      <trkpt lon="-123.283503" lat="44.572034"><ele>76.363411</ele><time>2020-09-26T19:48:25Z</time><extensions><speed>5.050000</speed><course>182.109375</course><hAcc>5.000000</hAcc><vAcc>4.000000</vAcc></extensions></trkpt>
      <trkpt lon="-123.283488" lat="44.571990"><ele>76.466011</ele><time>2020-09-26T19:48:26Z</time><extensions><speed>4.840000</speed><course>181.054688</course><hAcc>5.000000</hAcc><vAcc>4.000000</vAcc></extensions></trkpt>
      <trkpt lon="-123.283497" lat="44.571962"><ele>76.719307</ele><time>2020-09-26T19:48:27Z</time><extensions><speed>4.840000</speed><course>183.867188</course><hAcc>5.000000</hAcc><vAcc>4.000000</vAcc></extensions></trkpt>
      <trkpt lon="-123.283488" lat="44.571923"><ele>76.847420</ele><time>2020-09-26T19:48:28Z</time><extensions><speed>4.510000</speed><course>179.296875</course><hAcc>5.000000</hAcc><vAcc>4.000000</vAcc></extensions></trkpt>
      <trkpt lon="-123.283503" lat="44.571914"><ele>76.945686</ele><time>2020-09-26T19:48:29Z</time><extensions><speed>4.310000</speed><course>193.007812</course><hAcc>5.000000</hAcc><vAcc>4.000000</vAcc></extensions></trkpt>
      <trkpt lon="-123.283505" lat="44.571882"><ele>76.645821</ele><time>2020-09-26T19:48:30Z</time><extensions><speed>2.480000</speed><course>186.679688</course><hAcc>5.000000</hAcc><vAcc>4.000000</vAcc></extensions></trkpt>
      <trkpt lon="-123.283504" lat="44.571863"><ele>75.957100</ele><time>2020-09-26T19:48:31Z</time><extensions><speed>2.480000</speed><course>170.507812</course><hAcc>5.000000</hAcc><vAcc>4.000000</vAcc></extensions></trkpt>
      <trkpt lon="-123.283499" lat="44.571847"><ele>75.411995</ele><time>2020-09-26T19:48:32Z</time><extensions><speed>1.770000</speed><course>185.976562</course><hAcc>5.000000</hAcc><vAcc>4.000000</vAcc></extensions></trkpt>
      <trkpt lon="-123.283491" lat="44.571837"><ele>75.083199</ele><time>2020-09-26T19:48:33Z</time><extensions><speed>1.170000</speed><course>199.687500</course><hAcc>5.000000</hAcc><vAcc>4.000000</vAcc></extensions></trkpt>
      <trkpt lon="-123.283489" lat="44.571831"><ele>75.225960</ele><time>2020-09-26T19:48:34Z</time><extensions><speed>0.640000</speed><course>194.765625</course><hAcc>5.000000</hAcc><vAcc>4.000000</vAcc></extensions></trkpt>
      <trkpt lon="-123.283472" lat="44.571824"><ele>75.550911</ele><time>2020-09-26T19:48:35Z</time><extensions><speed>0.620000</speed><course>200.039062</course><hAcc>5.000000</hAcc><vAcc>4.000000</vAcc></extensions></trkpt>
      <trkpt lon="-123.283472" lat="44.571824"><ele>75.753670</ele><time>2020-09-26T19:48:36Z</time><extensions><speed>0.000000</speed><course>203.906250</course><hAcc>5.000000</hAcc><vAcc>4.000000</vAcc></extensions></trkpt>
      <trkpt lon="-123.283472" lat="44.571824"><ele>75.572578</ele><time>2020-09-26T19:48:37Z</time><extensions><speed>0.000000</speed><course>203.906250</course><hAcc>5.000000</hAcc><vAcc>4.000000</vAcc></extensions></trkpt>
      <trkpt lon="-123.283472" lat="44.571824"><ele>74.890999</ele><time>2020-09-26T19:48:38Z</time><extensions><speed>0.000000</speed><course>184.921875</course><hAcc>5.000000</hAcc><vAcc>4.000000</vAcc></extensions></trkpt>
      <trkpt lon="-123.283488" lat="44.571811"><ele>74.501717</ele><time>2020-09-26T19:48:39Z</time><extensions><speed>1.320000</speed><course>170.507812</course><hAcc>5.000000</hAcc><vAcc>4.000000</vAcc></extensions></trkpt>
      <trkpt lon="-123.283475" lat="44.571789"><ele>73.980537</ele><time>2020-09-26T19:48:40Z</time><extensions><speed>2.730000</speed><course>155.742188</course><hAcc>5.000000</hAcc><vAcc>3.000000</vAcc></extensions></trkpt>
      <trkpt lon="-123.283452" lat="44.571766"><ele>74.240608</ele><time>2020-09-26T19:48:41Z</time><extensions><speed>3.380000</speed><course>132.890625</course><hAcc>5.000000</hAcc><vAcc>3.000000</vAcc></extensions></trkpt>
      <trkpt lon="-123.283421" lat="44.571740"><ele>74.318733</ele><time>2020-09-26T19:48:42Z</time><extensions><speed>3.380000</speed><course>140.625000</course><hAcc>5.000000</hAcc><vAcc>3.000000</vAcc></extensions></trkpt>
      <trkpt lon="-123.283388" lat="44.571705"><ele>74.281319</ele><time>2020-09-26T19:48:43Z</time><extensions><speed>3.780000</speed><course>142.734375</course><hAcc>5.000000</hAcc><vAcc>3.000000</vAcc></extensions></trkpt>
      <trkpt lon="-123.283355" lat="44.571669"><ele>73.974678</ele><time>2020-09-26T19:48:44Z</time><extensions><speed>4.960000</speed><course>155.742188</course><hAcc>5.000000</hAcc><vAcc>3.000000</vAcc></extensions></trkpt>
      <trkpt lon="-123.283300" lat="44.571637"><ele>73.826851</ele><time>2020-09-26T19:48:45Z</time><extensions><speed>5.190000</speed><course>139.218750</course><hAcc>5.000000</hAcc><vAcc>3.000000</vAcc></extensions></trkpt>
      <trkpt lon="-123.283256" lat="44.571598"><ele>74.046394</ele><time>2020-09-26T19:48:46Z</time><extensions><speed>5.190000</speed><course>136.757812</course><hAcc>5.000000</hAcc><vAcc>3.000000</vAcc></extensions></trkpt>
      <trkpt lon="-123.283225" lat="44.571576"><ele>74.185982</ele><time>2020-09-26T19:48:47Z</time><extensions><speed>5.190000</speed><course>132.187500</course><hAcc>5.000000</hAcc><vAcc>3.000000</vAcc></extensions></trkpt>
      <trkpt lon="-123.283201" lat="44.571546"><ele>74.625984</ele><time>2020-09-26T19:48:48Z</time><extensions><speed>4.270000</speed><course>134.648438</course><hAcc>5.000000</hAcc><vAcc>3.000000</vAcc></extensions></trkpt>
      <trkpt lon="-123.283148" lat="44.571516"><ele>74.769661</ele><time>2020-09-26T19:48:49Z</time><extensions><speed>4.640000</speed><course>135.351562</course><hAcc>5.000000</hAcc><vAcc>3.000000</vAcc></extensions></trkpt>
      <trkpt lon="-123.283099" lat="44.571476"><ele>73.911934</ele><time>2020-09-26T19:48:50Z</time><extensions><speed>4.640000</speed><course>135.000000</course><hAcc>5.000000</hAcc><vAcc>3.000000</vAcc></extensions></trkpt>
      <trkpt lon="-123.283009" lat="44.571448"><ele>73.776253</ele><time>2020-09-26T19:48:51Z</time><extensions><speed>5.040000</speed><course>129.726562</course><hAcc>5.000000</hAcc><vAcc>3.000000</vAcc></extensions></trkpt>
      <trkpt lon="-123.282962" lat="44.571391"><ele>73.572701</ele><time>2020-09-26T19:48:52Z</time><extensions><speed>5.860000</speed><course>137.812500</course><hAcc>5.000000</hAcc><vAcc>3.000000</vAcc></extensions></trkpt>
      <trkpt lon="-123.282921" lat="44.571354"><ele>73.688484</ele><time>2020-09-26T19:48:53Z</time><extensions><speed>5.860000</speed><course>137.460938</course><hAcc>5.000000</hAcc><vAcc>3.000000</vAcc></extensions></trkpt>
      <trkpt lon="-123.282853" lat="44.571316"><ele>74.733467</ele><time>2020-09-26T19:48:54Z</time><extensions><speed>5.490000</speed><course>141.328125</course><hAcc>5.000000</hAcc><vAcc>3.000000</vAcc></extensions></trkpt>
      <trkpt lon="-123.282790" lat="44.571285"><ele>75.278755</ele><time>2020-09-26T19:48:55Z</time><extensions><speed>5.490000</speed><course>132.890625</course><hAcc>5.000000</hAcc><vAcc>3.000000</vAcc></extensions></trkpt>
      <trkpt lon="-123.282749" lat="44.571250"><ele>75.701363</ele><time>2020-09-26T19:48:56Z</time><extensions><speed>5.790000</speed><course>141.328125</course><hAcc>5.000000</hAcc><vAcc>3.000000</vAcc></extensions></trkpt>
      <trkpt lon="-123.282718" lat="44.571210"><ele>75.855598</ele><time>2020-09-26T19:48:57Z</time><extensions><speed>5.790000</speed><course>140.625000</course><hAcc>5.000000</hAcc><vAcc>3.000000</vAcc></extensions></trkpt>
      <trkpt lon="-123.282694" lat="44.571162"><ele>75.616768</ele><time>2020-09-26T19:48:58Z</time><extensions><speed>5.350000</speed><course>151.523438</course><hAcc>5.000000</hAcc><vAcc>3.000000</vAcc></extensions></trkpt>
      <trkpt lon="-123.282668" lat="44.571119"><ele>75.597115</ele><time>2020-09-26T19:48:59Z</time><extensions><speed>4.910000</speed><course>156.796875</course><hAcc>5.000000</hAcc><vAcc>3.000000</vAcc></extensions></trkpt>
      <trkpt lon="-123.282631" lat="44.571068"><ele>75.714546</ele><time>2020-09-26T19:49:00Z</time><extensions><speed>4.910000</speed><course>153.281250</course><hAcc>5.000000</hAcc><vAcc>3.000000</vAcc></extensions></trkpt>
      <trkpt lon="-123.282544" lat="44.571035"><ele>75.962532</ele><time>2020-09-26T19:49:01Z</time><extensions><speed>5.110000</speed><course>136.757812</course><hAcc>5.000000</hAcc><vAcc>3.000000</vAcc></extensions></trkpt>
      <trkpt lon="-123.282503" lat="44.571002"><ele>75.653023</ele><time>2020-09-26T19:49:02Z</time><extensions><speed>5.110000</speed><course>133.593750</course><hAcc>5.000000</hAcc><vAcc>3.000000</vAcc></extensions></trkpt>
      <trkpt lon="-123.282482" lat="44.570977"><ele>74.773628</ele><time>2020-09-26T19:49:03Z</time><extensions><speed>5.020000</speed><course>130.781250</course><hAcc>5.000000</hAcc><vAcc>3.000000</vAcc></extensions></trkpt>
      <trkpt lon="-123.282425" lat="44.570957"><ele>74.559090</ele><time>2020-09-26T19:49:04Z</time><extensions><speed>4.590000</speed><course>116.718750</course><hAcc>5.000000</hAcc><vAcc>3.000000</vAcc></extensions></trkpt>
      <trkpt lon="-123.282383" lat="44.570908"><ele>73.737068</ele><time>2020-09-26T19:49:05Z</time><extensions><speed>5.240000</speed><course>136.757812</course><hAcc>5.000000</hAcc><vAcc>3.000000</vAcc></extensions></trkpt>
      <trkpt lon="-123.282338" lat="44.570867"><ele>74.386848</ele><time>2020-09-26T19:49:06Z</time><extensions><speed>5.240000</speed><course>140.273438</course><hAcc>5.000000</hAcc><vAcc>3.000000</vAcc></extensions></trkpt>
      <trkpt lon="-123.282298" lat="44.570844"><ele>74.418221</ele><time>2020-09-26T19:49:07Z</time><extensions><speed>5.010000</speed><course>136.406250</course><hAcc>5.000000</hAcc><vAcc>3.000000</vAcc></extensions></trkpt>
      <trkpt lon="-123.282273" lat="44.570809"><ele>73.374275</ele><time>2020-09-26T19:49:08Z</time><extensions><speed>4.890000</speed><course>143.789062</course><hAcc>5.000000</hAcc><vAcc>3.000000</vAcc></extensions></trkpt>
      <trkpt lon="-123.282233" lat="44.570769"><ele>73.702705</ele><time>2020-09-26T19:49:09Z</time><extensions><speed>4.960000</speed><course>146.953125</course><hAcc>5.000000</hAcc><vAcc>3.000000</vAcc></extensions></trkpt>
      <trkpt lon="-123.282188" lat="44.570726"><ele>73.555298</ele><time>2020-09-26T19:49:10Z</time><extensions><speed>5.340000</speed><course>144.843750</course><hAcc>5.000000</hAcc><vAcc>3.000000</vAcc></extensions></trkpt>
      <trkpt lon="-123.282157" lat="44.570691"><ele>73.856163</ele><time>2020-09-26T19:49:11Z</time><extensions><speed>5.340000</speed><course>146.601562</course><hAcc>5.000000</hAcc><vAcc>3.000000</vAcc></extensions></trkpt>
      <trkpt lon="-123.282116" lat="44.570657"><ele>73.773849</ele><time>2020-09-26T19:49:12Z</time><extensions><speed>5.340000</speed><course>138.164062</course><hAcc>5.000000</hAcc><vAcc>3.000000</vAcc></extensions></trkpt>
      <trkpt lon="-123.282078" lat="44.570618"><ele>73.887665</ele><time>2020-09-26T19:49:13Z</time><extensions><speed>5.130000</speed><course>157.851562</course><hAcc>5.000000</hAcc><vAcc>3.000000</vAcc></extensions></trkpt>
      <trkpt lon="-123.282041" lat="44.570581"><ele>74.528465</ele><time>2020-09-26T19:49:14Z</time><extensions><speed>4.380000</speed><course>159.257812</course><hAcc>5.000000</hAcc><vAcc>3.000000</vAcc></extensions></trkpt>
      <trkpt lon="-123.282002" lat="44.570549"><ele>74.243309</ele><time>2020-09-26T19:49:15Z</time><extensions><speed>4.380000</speed><course>121.640625</course><hAcc>5.000000</hAcc><vAcc>3.000000</vAcc></extensions></trkpt>
      <trkpt lon="-123.281971" lat="44.570519"><ele>74.485359</ele><time>2020-09-26T19:49:16Z</time><extensions><speed>4.160000</speed><course>143.085938</course><hAcc>5.000000</hAcc><vAcc>3.000000</vAcc></extensions></trkpt>
      <trkpt lon="-123.281938" lat="44.570470"><ele>75.328636</ele><time>2020-09-26T19:49:17Z</time><extensions><speed>4.160000</speed><course>147.304688</course><hAcc>5.000000</hAcc><vAcc>3.000000</vAcc></extensions></trkpt>
      <trkpt lon="-123.281893" lat="44.570433"><ele>74.250420</ele><time>2020-09-26T19:49:18Z</time><extensions><speed>5.200000</speed><course>141.328125</course><hAcc>5.000000</hAcc><vAcc>3.000000</vAcc></extensions></trkpt>
      <trkpt lon="-123.281857" lat="44.570406"><ele>74.161819</ele><time>2020-09-26T19:49:19Z</time><extensions><speed>4.410000</speed><course>140.976562</course><hAcc>5.000000</hAcc><vAcc>4.000000</vAcc></extensions></trkpt>
      <trkpt lon="-123.281821" lat="44.570372"><ele>75.819275</ele><time>2020-09-26T19:49:20Z</time><extensions><speed>4.430000</speed><course>143.437500</course><hAcc>5.000000</hAcc><vAcc>4.000000</vAcc></extensions></trkpt>
      <trkpt lon="-123.281801" lat="44.570350"><ele>76.037720</ele><time>2020-09-26T19:49:21Z</time><extensions><speed>4.410000</speed><course>138.164062</course><hAcc>5.000000</hAcc><vAcc>4.000000</vAcc></extensions></trkpt>
      <trkpt lon="-123.281749" lat="44.570315"><ele>75.943359</ele><time>2020-09-26T19:49:22Z</time><extensions><speed>4.430000</speed><course>137.812500</course><hAcc>5.000000</hAcc><vAcc>4.000000</vAcc></extensions></trkpt>
      <trkpt lon="-123.281694" lat="44.570277"><ele>75.675262</ele><time>2020-09-26T19:49:23Z</time><extensions><speed>4.970000</speed><course>137.460938</course><hAcc>5.000000</hAcc><vAcc>4.000000</vAcc></extensions></trkpt>
      <trkpt lon="-123.281672" lat="44.570253"><ele>75.722641</ele><time>2020-09-26T19:49:24Z</time><extensions><speed>4.970000</speed><course>142.031250</course><hAcc>5.000000</hAcc><vAcc>4.000000</vAcc></extensions></trkpt>
      <trkpt lon="-123.281626" lat="44.570212"><ele>75.585823</ele><time>2020-09-26T19:49:25Z</time><extensions><speed>4.970000</speed><course>141.679688</course><hAcc>5.000000</hAcc><vAcc>4.000000</vAcc></extensions></trkpt>
      <trkpt lon="-123.281573" lat="44.570186"><ele>75.985924</ele><time>2020-09-26T19:49:26Z</time><extensions><speed>4.580000</speed><course>138.515625</course><hAcc>5.000000</hAcc><vAcc>4.000000</vAcc></extensions></trkpt>
      <trkpt lon="-123.281532" lat="44.570144"><ele>75.601532</ele><time>2020-09-26T19:49:27Z</time><extensions><speed>4.980000</speed><course>136.757812</course><hAcc>5.000000</hAcc><vAcc>4.000000</vAcc></extensions></trkpt>
      <trkpt lon="-123.281479" lat="44.570122"><ele>75.973915</ele><time>2020-09-26T19:49:28Z</time><extensions><speed>4.780000</speed><course>131.835938</course><hAcc>5.000000</hAcc><vAcc>4.000000</vAcc></extensions></trkpt>
      <trkpt lon="-123.281458" lat="44.570078"><ele>75.979691</ele><time>2020-09-26T19:49:29Z</time><extensions><speed>4.780000</speed><course>147.304688</course><hAcc>5.000000</hAcc><vAcc>4.000000</vAcc></extensions></trkpt>
      <trkpt lon="-123.281408" lat="44.570043"><ele>75.576012</ele><time>2020-09-26T19:49:30Z</time><extensions><speed>4.780000</speed><course>142.031250</course><hAcc>5.000000</hAcc><vAcc>4.000000</vAcc></extensions></trkpt>
      <trkpt lon="-123.281362" lat="44.570007"><ele>76.050171</ele><time>2020-09-26T19:49:31Z</time><extensions><speed>4.970000</speed><course>142.382812</course><hAcc>5.000000</hAcc><vAcc>4.000000</vAcc></extensions></trkpt>
      <trkpt lon="-123.281319" lat="44.569969"><ele>76.129189</ele><time>2020-09-26T19:49:32Z</time><extensions><speed>4.900000</speed><course>138.867188</course><hAcc>5.000000</hAcc><vAcc>4.000000</vAcc></extensions></trkpt>
      <trkpt lon="-123.281290" lat="44.569932"><ele>75.998253</ele><time>2020-09-26T19:49:33Z</time><extensions><speed>4.900000</speed><course>140.976562</course><hAcc>5.000000</hAcc><vAcc>4.000000</vAcc></extensions></trkpt>
      <trkpt lon="-123.281238" lat="44.569907"><ele>75.726593</ele><time>2020-09-26T19:49:34Z</time><extensions><speed>4.640000</speed><course>136.757812</course><hAcc>5.000000</hAcc><vAcc>4.000000</vAcc></extensions></trkpt>
      <trkpt lon="-123.281192" lat="44.569885"><ele>75.805115</ele><time>2020-09-26T19:49:35Z</time><extensions><speed>4.640000</speed><course>136.757812</course><hAcc>5.000000</hAcc><vAcc>4.000000</vAcc></extensions></trkpt>
      <trkpt lon="-123.281151" lat="44.569852"><ele>75.989563</ele><time>2020-09-26T19:49:36Z</time><extensions><speed>4.800000</speed><course>143.085938</course><hAcc>5.000000</hAcc><vAcc>4.000000</vAcc></extensions></trkpt>
      <trkpt lon="-123.281099" lat="44.569809"><ele>76.336113</ele><time>2020-09-26T19:49:37Z</time><extensions><speed>5.360000</speed><course>145.195312</course><hAcc>5.000000</hAcc><vAcc>4.000000</vAcc></extensions></trkpt>
      <trkpt lon="-123.281057" lat="44.569776"><ele>76.428703</ele><time>2020-09-26T19:49:38Z</time><extensions><speed>5.420000</speed><course>139.218750</course><hAcc>5.000000</hAcc><vAcc>4.000000</vAcc></extensions></trkpt>
      <trkpt lon="-123.281003" lat="44.569733"><ele>76.466927</ele><time>2020-09-26T19:49:39Z</time><extensions><speed>5.420000</speed><course>137.460938</course><hAcc>5.000000</hAcc><vAcc>4.000000</vAcc></extensions></trkpt>
      <trkpt lon="-123.280939" lat="44.569687"><ele>76.602394</ele><time>2020-09-26T19:49:40Z</time><extensions><speed>5.700000</speed><course>135.351562</course><hAcc>5.000000</hAcc><vAcc>4.000000</vAcc></extensions></trkpt>
      <trkpt lon="-123.280899" lat="44.569642"><ele>75.992111</ele><time>2020-09-26T19:49:41Z</time><extensions><speed>5.700000</speed><course>141.679688</course><hAcc>5.000000</hAcc><vAcc>4.000000</vAcc></extensions></trkpt>
      <trkpt lon="-123.280849" lat="44.569606"><ele>76.085030</ele><time>2020-09-26T19:49:42Z</time><extensions><speed>4.780000</speed><course>138.867188</course><hAcc>5.000000</hAcc><vAcc>4.000000</vAcc></extensions></trkpt>
      <trkpt lon="-123.280800" lat="44.569578"><ele>75.978455</ele><time>2020-09-26T19:49:43Z</time><extensions><speed>6.140000</speed><course>142.031250</course><hAcc>5.000000</hAcc><vAcc>4.000000</vAcc></extensions></trkpt>
      <trkpt lon="-123.280745" lat="44.569548"><ele>75.775208</ele><time>2020-09-26T19:49:44Z</time><extensions><speed>5.850000</speed><course>136.054688</course><hAcc>5.000000</hAcc><vAcc>4.000000</vAcc></extensions></trkpt>
      <trkpt lon="-123.280686" lat="44.569502"><ele>75.684563</ele><time>2020-09-26T19:49:45Z</time><extensions><speed>5.850000</speed><course>139.921875</course><hAcc>5.000000</hAcc><vAcc>4.000000</vAcc></extensions></trkpt>
      <trkpt lon="-123.280638" lat="44.569466"><ele>75.648224</ele><time>2020-09-26T19:49:46Z</time><extensions><speed>5.680000</speed><course>136.406250</course><hAcc>5.000000</hAcc><vAcc>4.000000</vAcc></extensions></trkpt>
      <trkpt lon="-123.280575" lat="44.569416"><ele>75.691971</ele><time>2020-09-26T19:49:47Z</time><extensions><speed>6.020000</speed><course>136.054688</course><hAcc>5.000000</hAcc><vAcc>4.000000</vAcc></extensions></trkpt>
      <trkpt lon="-123.280495" lat="44.569374"><ele>75.703239</ele><time>2020-09-26T19:49:48Z</time><extensions><speed>6.130000</speed><course>133.242188</course><hAcc>5.000000</hAcc><vAcc>4.000000</vAcc></extensions></trkpt>
      <trkpt lon="-123.280398" lat="44.569330"><ele>75.817772</ele><time>2020-09-26T19:49:49Z</time><extensions><speed>6.130000</speed><course>126.562500</course><hAcc>5.000000</hAcc><vAcc>4.000000</vAcc></extensions></trkpt>
      <trkpt lon="-123.280364" lat="44.569300"><ele>75.643051</ele><time>2020-09-26T19:49:50Z</time><extensions><speed>6.130000</speed><course>129.023438</course><hAcc>5.000000</hAcc><vAcc>4.000000</vAcc></extensions></trkpt>
      <trkpt lon="-123.280332" lat="44.569251"><ele>75.619919</ele><time>2020-09-26T19:49:51Z</time><extensions><speed>5.740000</speed><course>138.867188</course><hAcc>5.000000</hAcc><vAcc>4.000000</vAcc></extensions></trkpt>
      <trkpt lon="-123.280270" lat="44.569215"><ele>75.577652</ele><time>2020-09-26T19:49:52Z</time><extensions><speed>5.580000</speed><course>132.539062</course><hAcc>5.000000</hAcc><vAcc>4.000000</vAcc></extensions></trkpt>
      <trkpt lon="-123.280220" lat="44.569174"><ele>75.412964</ele><time>2020-09-26T19:49:53Z</time><extensions><speed>5.640000</speed><course>136.054688</course><hAcc>5.000000</hAcc><vAcc>4.000000</vAcc></extensions></trkpt>
      <trkpt lon="-123.280203" lat="44.569164"><ele>75.605072</ele><time>2020-09-26T19:49:54Z</time><extensions><speed>5.580000</speed><course>130.078125</course><hAcc>5.000000</hAcc><vAcc>4.000000</vAcc></extensions></trkpt>
      <trkpt lon="-123.280171" lat="44.569141"><ele>75.613205</ele><time>2020-09-26T19:49:55Z</time><extensions><speed>3.850000</speed><course>123.750000</course><hAcc>5.000000</hAcc><vAcc>4.000000</vAcc></extensions></trkpt>
      <trkpt lon="-123.280112" lat="44.569081"><ele>75.406311</ele><time>2020-09-26T19:49:56Z</time><extensions><speed>3.850000</speed><course>136.757812</course><hAcc>5.000000</hAcc><vAcc>4.000000</vAcc></extensions></trkpt>
      <trkpt lon="-123.280071" lat="44.569023"><ele>75.548691</ele><time>2020-09-26T19:49:57Z</time><extensions><speed>5.810000</speed><course>164.531250</course><hAcc>5.000000</hAcc><vAcc>4.000000</vAcc></extensions></trkpt>
      <trkpt lon="-123.280063" lat="44.568947"><ele>75.974960</ele><time>2020-09-26T19:49:58Z</time><extensions><speed>5.960000</speed><course>170.507812</course><hAcc>5.000000</hAcc><vAcc>4.000000</vAcc></extensions></trkpt>
      <trkpt lon="-123.280054" lat="44.568883"><ele>75.719269</ele><time>2020-09-26T19:49:59Z</time><extensions><speed>5.960000</speed><course>170.507812</course><hAcc>5.000000</hAcc><vAcc>4.000000</vAcc></extensions></trkpt>
      <trkpt lon="-123.280048" lat="44.568828"><ele>75.663765</ele><time>2020-09-26T19:50:00Z</time><extensions><speed>5.980000</speed><course>171.562500</course><hAcc>5.000000</hAcc><vAcc>4.000000</vAcc></extensions></trkpt>
      <trkpt lon="-123.280043" lat="44.568768"><ele>75.420418</ele><time>2020-09-26T19:50:01Z</time><extensions><speed>6.390000</speed><course>172.617188</course><hAcc>5.000000</hAcc><vAcc>3.000000</vAcc></extensions></trkpt>
      <trkpt lon="-123.280053" lat="44.568707"><ele>75.303268</ele><time>2020-09-26T19:50:02Z</time><extensions><speed>6.390000</speed><course>176.132812</course><hAcc>5.000000</hAcc><vAcc>3.000000</vAcc></extensions></trkpt>
      <trkpt lon="-123.280043" lat="44.568652"><ele>75.515541</ele><time>2020-09-26T19:50:03Z</time><extensions><speed>6.260000</speed><course>176.835938</course><hAcc>5.000000</hAcc><vAcc>3.000000</vAcc></extensions></trkpt>
      <trkpt lon="-123.280049" lat="44.568589"><ele>75.576645</ele><time>2020-09-26T19:50:04Z</time><extensions><speed>6.160000</speed><course>178.945312</course><hAcc>5.000000</hAcc><vAcc>3.000000</vAcc></extensions></trkpt>
      <trkpt lon="-123.280054" lat="44.568536"><ele>75.497826</ele><time>2020-09-26T19:50:05Z</time><extensions><speed>6.310000</speed><course>176.132812</course><hAcc>5.000000</hAcc><vAcc>3.000000</vAcc></extensions></trkpt>
      <trkpt lon="-123.280038" lat="44.568479"><ele>75.553024</ele><time>2020-09-26T19:50:06Z</time><extensions><speed>6.310000</speed><course>176.132812</course><hAcc>5.000000</hAcc><vAcc>3.000000</vAcc></extensions></trkpt>
      <trkpt lon="-123.280036" lat="44.568409"><ele>75.842247</ele><time>2020-09-26T19:50:07Z</time><extensions><speed>6.310000</speed><course>176.484375</course><hAcc>5.000000</hAcc><vAcc>3.000000</vAcc></extensions></trkpt>
      <trkpt lon="-123.280043" lat="44.568350"><ele>75.961082</ele><time>2020-09-26T19:50:08Z</time><extensions><speed>6.390000</speed><course>179.296875</course><hAcc>5.000000</hAcc><vAcc>3.000000</vAcc></extensions></trkpt>
      <trkpt lon="-123.280038" lat="44.568284"><ele>75.918716</ele><time>2020-09-26T19:50:09Z</time><extensions><speed>6.540000</speed><course>182.460938</course><hAcc>5.000000</hAcc><vAcc>4.000000</vAcc></extensions></trkpt>
      <trkpt lon="-123.280029" lat="44.568209"><ele>75.769646</ele><time>2020-09-26T19:50:10Z</time><extensions><speed>6.800000</speed><course>181.054688</course><hAcc>5.000000</hAcc><vAcc>4.000000</vAcc></extensions></trkpt>
      <trkpt lon="-123.280019" lat="44.568151"><ele>75.805443</ele><time>2020-09-26T19:50:11Z</time><extensions><speed>6.800000</speed><course>177.539062</course><hAcc>5.000000</hAcc><vAcc>4.000000</vAcc></extensions></trkpt>
      <trkpt lon="-123.280001" lat="44.568079"><ele>75.949417</ele><time>2020-09-26T19:50:12Z</time><extensions><speed>6.730000</speed><course>176.132812</course><hAcc>5.000000</hAcc><vAcc>4.000000</vAcc></extensions></trkpt>
      <trkpt lon="-123.280011" lat="44.568009"><ele>75.997253</ele><time>2020-09-26T19:50:13Z</time><extensions><speed>6.730000</speed><course>180.000000</course><hAcc>5.000000</hAcc><vAcc>4.000000</vAcc></extensions></trkpt>
      <trkpt lon="-123.280005" lat="44.567960"><ele>75.961777</ele><time>2020-09-26T19:50:14Z</time><extensions><speed>6.810000</speed><course>174.726562</course><hAcc>5.000000</hAcc><vAcc>4.000000</vAcc></extensions></trkpt>
      <trkpt lon="-123.279991" lat="44.567903"><ele>75.921074</ele><time>2020-09-26T19:50:15Z</time><extensions><speed>6.810000</speed><course>172.265625</course><hAcc>5.000000</hAcc><vAcc>3.000000</vAcc></extensions></trkpt>
      <trkpt lon="-123.279986" lat="44.567860"><ele>76.086555</ele><time>2020-09-26T19:50:16Z</time><extensions><speed>6.500000</speed><course>171.562500</course><hAcc>5.000000</hAcc><vAcc>3.000000</vAcc></extensions></trkpt>
      <trkpt lon="-123.279970" lat="44.567800"><ele>76.134422</ele><time>2020-09-26T19:50:17Z</time><extensions><speed>6.210000</speed><course>170.859375</course><hAcc>5.000000</hAcc><vAcc>3.000000</vAcc></extensions></trkpt>
      <trkpt lon="-123.279943" lat="44.567741"><ele>75.997055</ele><time>2020-09-26T19:50:18Z</time><extensions><speed>6.210000</speed><course>172.968750</course><hAcc>5.000000</hAcc><vAcc>3.000000</vAcc></extensions></trkpt>
      <trkpt lon="-123.279947" lat="44.567687"><ele>75.580505</ele><time>2020-09-26T19:50:19Z</time><extensions><speed>6.480000</speed><course>178.242188</course><hAcc>5.000000</hAcc><vAcc>4.000000</vAcc></extensions></trkpt>
      <trkpt lon="-123.279945" lat="44.567626"><ele>75.979698</ele><time>2020-09-26T19:50:20Z</time><extensions><speed>6.480000</speed><course>178.242188</course><hAcc>5.000000</hAcc><vAcc>3.000000</vAcc></extensions></trkpt>
      <trkpt lon="-123.279941" lat="44.567571"><ele>75.960625</ele><time>2020-09-26T19:50:21Z</time><extensions><speed>6.250000</speed><course>179.296875</course><hAcc>5.000000</hAcc><vAcc>3.000000</vAcc></extensions></trkpt>
      <trkpt lon="-123.279940" lat="44.567529"><ele>76.384956</ele><time>2020-09-26T19:50:22Z</time><extensions><speed>6.190000</speed><course>174.375000</course><hAcc>5.000000</hAcc><vAcc>3.000000</vAcc></extensions></trkpt>
      <trkpt lon="-123.279933" lat="44.567476"><ele>75.921112</ele><time>2020-09-26T19:50:23Z</time><extensions><speed>5.620000</speed><course>175.781250</course><hAcc>5.000000</hAcc><vAcc>3.000000</vAcc></extensions></trkpt>
      <trkpt lon="-123.279926" lat="44.567417"><ele>76.183273</ele><time>2020-09-26T19:50:24Z</time><extensions><speed>5.790000</speed><course>176.835938</course><hAcc>5.000000</hAcc><vAcc>3.000000</vAcc></extensions></trkpt>
      <trkpt lon="-123.279930" lat="44.567361"><ele>76.147842</ele><time>2020-09-26T19:50:25Z</time><extensions><speed>5.910000</speed><course>180.703125</course><hAcc>5.000000</hAcc><vAcc>4.000000</vAcc></extensions></trkpt>
      <trkpt lon="-123.279916" lat="44.567310"><ele>76.124733</ele><time>2020-09-26T19:50:26Z</time><extensions><speed>5.910000</speed><course>176.835938</course><hAcc>5.000000</hAcc><vAcc>4.000000</vAcc></extensions></trkpt>
      <trkpt lon="-123.279913" lat="44.567254"><ele>76.117271</ele><time>2020-09-26T19:50:27Z</time><extensions><speed>6.050000</speed><course>178.242188</course><hAcc>5.000000</hAcc><vAcc>4.000000</vAcc></extensions></trkpt>
      <trkpt lon="-123.279922" lat="44.567202"><ele>76.038521</ele><time>2020-09-26T19:50:28Z</time><extensions><speed>6.050000</speed><course>181.054688</course><hAcc>5.000000</hAcc><vAcc>4.000000</vAcc></extensions></trkpt>
      <trkpt lon="-123.279924" lat="44.567153"><ele>76.019577</ele><time>2020-09-26T19:50:29Z</time><extensions><speed>5.930000</speed><course>182.460938</course><hAcc>5.000000</hAcc><vAcc>4.000000</vAcc></extensions></trkpt>
      <trkpt lon="-123.279960" lat="44.567098"><ele>75.977844</ele><time>2020-09-26T19:50:30Z</time><extensions><speed>6.070000</speed><course>186.679688</course><hAcc>5.000000</hAcc><vAcc>4.000000</vAcc></extensions></trkpt>
      <trkpt lon="-123.279945" lat="44.567044"><ele>75.995163</ele><time>2020-09-26T19:50:31Z</time><extensions><speed>6.040000</speed><course>181.757812</course><hAcc>10.000000</hAcc><vAcc>4.000000</vAcc></extensions></trkpt>
      <trkpt lon="-123.279932" lat="44.567005"><ele>75.869530</ele><time>2020-09-26T19:50:32Z</time><extensions><speed>6.040000</speed><course>177.187500</course><hAcc>10.000000</hAcc><vAcc>4.000000</vAcc></extensions></trkpt>
      <trkpt lon="-123.279959" lat="44.566945"><ele>75.436218</ele><time>2020-09-26T19:50:33Z</time><extensions><speed>5.250000</speed><course>187.382812</course><hAcc>10.000000</hAcc><vAcc>4.000000</vAcc></extensions></trkpt>
      <trkpt lon="-123.279950" lat="44.566897"><ele>75.553574</ele><time>2020-09-26T19:50:34Z</time><extensions><speed>5.900000</speed><course>178.945312</course><hAcc>5.000000</hAcc><vAcc>4.000000</vAcc></extensions></trkpt>
      <trkpt lon="-123.279972" lat="44.566846"><ele>75.827560</ele><time>2020-09-26T19:50:35Z</time><extensions><speed>6.390000</speed><course>180.000000</course><hAcc>5.000000</hAcc><vAcc>4.000000</vAcc></extensions></trkpt>
      <trkpt lon="-123.279987" lat="44.566791"><ele>76.009315</ele><time>2020-09-26T19:50:36Z</time><extensions><speed>5.900000</speed><course>182.812500</course><hAcc>5.000000</hAcc><vAcc>4.000000</vAcc></extensions></trkpt>
      <trkpt lon="-123.279990" lat="44.566749"><ele>75.556282</ele><time>2020-09-26T19:50:37Z</time><extensions><speed>5.900000</speed><course>189.843750</course><hAcc>5.000000</hAcc><vAcc>4.000000</vAcc></extensions></trkpt>
      <trkpt lon="-123.280005" lat="44.566700"><ele>75.280457</ele><time>2020-09-26T19:50:38Z</time><extensions><speed>5.810000</speed><course>191.953125</course><hAcc>5.000000</hAcc><vAcc>4.000000</vAcc></extensions></trkpt>
      <trkpt lon="-123.279990" lat="44.566645"><ele>75.525177</ele><time>2020-09-26T19:50:39Z</time><extensions><speed>5.850000</speed><course>188.437500</course><hAcc>5.000000</hAcc><vAcc>4.000000</vAcc></extensions></trkpt>
      <trkpt lon="-123.279994" lat="44.566581"><ele>74.977859</ele><time>2020-09-26T19:50:40Z</time><extensions><speed>5.850000</speed><course>185.273438</course><hAcc>5.000000</hAcc><vAcc>4.000000</vAcc></extensions></trkpt>
      <trkpt lon="-123.279979" lat="44.566514"><ele>75.351463</ele><time>2020-09-26T19:50:41Z</time><extensions><speed>6.040000</speed><course>179.648438</course><hAcc>5.000000</hAcc><vAcc>4.000000</vAcc></extensions></trkpt>
      <trkpt lon="-123.279974" lat="44.566459"><ele>74.943855</ele><time>2020-09-26T19:50:42Z</time><extensions><speed>6.330000</speed><course>178.242188</course><hAcc>5.000000</hAcc><vAcc>4.000000</vAcc></extensions></trkpt>
      <trkpt lon="-123.279936" lat="44.566417"><ele>75.504082</ele><time>2020-09-26T19:50:43Z</time><extensions><speed>6.330000</speed><course>170.859375</course><hAcc>5.000000</hAcc><vAcc>4.000000</vAcc></extensions></trkpt>
      <trkpt lon="-123.279907" lat="44.566375"><ele>75.602768</ele><time>2020-09-26T19:50:44Z</time><extensions><speed>5.560000</speed><course>174.023438</course><hAcc>5.000000</hAcc><vAcc>4.000000</vAcc></extensions></trkpt>
      <trkpt lon="-123.279933" lat="44.566311"><ele>75.305626</ele><time>2020-09-26T19:50:45Z</time><extensions><speed>5.560000</speed><course>189.843750</course><hAcc>5.000000</hAcc><vAcc>4.000000</vAcc></extensions></trkpt>
      <trkpt lon="-123.279954" lat="44.566259"><ele>75.511093</ele><time>2020-09-26T19:50:46Z</time><extensions><speed>5.720000</speed><course>187.382812</course><hAcc>5.000000</hAcc><vAcc>4.000000</vAcc></extensions></trkpt>
      <trkpt lon="-123.279970" lat="44.566207"><ele>75.527397</ele><time>2020-09-26T19:50:47Z</time><extensions><speed>6.280000</speed><course>185.976562</course><hAcc>5.000000</hAcc><vAcc>4.000000</vAcc></extensions></trkpt>
      <trkpt lon="-123.279978" lat="44.566159"><ele>75.527534</ele><time>2020-09-26T19:50:48Z</time><extensions><speed>6.280000</speed><course>188.437500</course><hAcc>10.000000</hAcc><vAcc>4.000000</vAcc></extensions></trkpt>
      <trkpt lon="-123.279972" lat="44.566101"><ele>75.106911</ele><time>2020-09-26T19:50:49Z</time><extensions><speed>5.850000</speed><course>183.515625</course><hAcc>10.000000</hAcc><vAcc>4.000000</vAcc></extensions></trkpt>
      <trkpt lon="-123.279985" lat="44.566053"><ele>75.342331</ele><time>2020-09-26T19:50:50Z</time><extensions><speed>5.820000</speed><course>187.382812</course><hAcc>10.000000</hAcc><vAcc>4.000000</vAcc></extensions></trkpt>
      <trkpt lon="-123.279970" lat="44.566000"><ele>75.394829</ele><time>2020-09-26T19:50:51Z</time><extensions><speed>5.850000</speed><course>176.835938</course><hAcc>10.000000</hAcc><vAcc>4.000000</vAcc></extensions></trkpt>
      <trkpt lon="-123.279969" lat="44.565945"><ele>75.673058</ele><time>2020-09-26T19:50:52Z</time><extensions><speed>5.720000</speed><course>180.351562</course><hAcc>10.000000</hAcc><vAcc>4.000000</vAcc></extensions></trkpt>
      <trkpt lon="-123.279958" lat="44.565875"><ele>75.343597</ele><time>2020-09-26T19:50:53Z</time><extensions><speed>6.130000</speed><course>180.000000</course><hAcc>10.000000</hAcc><vAcc>4.000000</vAcc></extensions></trkpt>
      <trkpt lon="-123.279970" lat="44.565806"><ele>75.431328</ele><time>2020-09-26T19:50:54Z</time><extensions><speed>6.130000</speed><course>183.164062</course><hAcc>10.000000</hAcc><vAcc>4.000000</vAcc></extensions></trkpt>
      <trkpt lon="-123.279992" lat="44.565727"><ele>75.552681</ele><time>2020-09-26T19:50:55Z</time><extensions><speed>6.420000</speed><course>184.570312</course><hAcc>10.000000</hAcc><vAcc>4.000000</vAcc></extensions></trkpt>
      <trkpt lon="-123.280004" lat="44.565663"><ele>75.161301</ele><time>2020-09-26T19:50:56Z</time><extensions><speed>6.730000</speed><course>187.031250</course><hAcc>10.000000</hAcc><vAcc>4.000000</vAcc></extensions></trkpt>
      <trkpt lon="-123.280000" lat="44.565629"><ele>75.014648</ele><time>2020-09-26T19:50:57Z</time><extensions><speed>5.940000</speed><course>182.812500</course><hAcc>10.000000</hAcc><vAcc>4.000000</vAcc></extensions></trkpt>
      <trkpt lon="-123.280004" lat="44.565567"><ele>74.765862</ele><time>2020-09-26T19:50:58Z</time><extensions><speed>6.180000</speed><course>181.757812</course><hAcc>10.000000</hAcc><vAcc>4.000000</vAcc></extensions></trkpt>
      <trkpt lon="-123.280021" lat="44.565513"><ele>74.997421</ele><time>2020-09-26T19:50:59Z</time><extensions><speed>6.180000</speed><course>184.218750</course><hAcc>10.000000</hAcc><vAcc>4.000000</vAcc></extensions></trkpt>
      <trkpt lon="-123.280001" lat="44.565472"><ele>74.942253</ele><time>2020-09-26T19:51:00Z</time><extensions><speed>6.180000</speed><course>175.781250</course><hAcc>10.000000</hAcc><vAcc>4.000000</vAcc></extensions></trkpt>
      <trkpt lon="-123.280001" lat="44.565412"><ele>75.214104</ele><time>2020-09-26T19:51:01Z</time><extensions><speed>6.190000</speed><course>174.375000</course><hAcc>10.000000</hAcc><vAcc>4.000000</vAcc></extensions></trkpt>
      <trkpt lon="-123.279993" lat="44.565373"><ele>74.930710</ele><time>2020-09-26T19:51:02Z</time><extensions><speed>5.550000</speed><course>171.562500</course><hAcc>5.000000</hAcc><vAcc>4.000000</vAcc></extensions></trkpt>
      <trkpt lon="-123.279995" lat="44.565319"><ele>74.993492</ele><time>2020-09-26T19:51:03Z</time><extensions><speed>6.120000</speed><course>177.187500</course><hAcc>5.000000</hAcc><vAcc>4.000000</vAcc></extensions></trkpt>
      <trkpt lon="-123.280018" lat="44.565229"><ele>74.807510</ele><time>2020-09-26T19:51:04Z</time><extensions><speed>5.800000</speed><course>187.031250</course><hAcc>5.000000</hAcc><vAcc>4.000000</vAcc></extensions></trkpt>
      <trkpt lon="-123.279988" lat="44.565157"><ele>75.623962</ele><time>2020-09-26T19:51:05Z</time><extensions><speed>6.120000</speed><course>181.054688</course><hAcc>5.000000</hAcc><vAcc>4.000000</vAcc></extensions></trkpt>
      <trkpt lon="-123.279989" lat="44.565088"><ele>75.250427</ele><time>2020-09-26T19:51:06Z</time><extensions><speed>6.140000</speed><course>180.000000</course><hAcc>5.000000</hAcc><vAcc>4.000000</vAcc></extensions></trkpt>
      <trkpt lon="-123.279937" lat="44.565037"><ele>75.244186</ele><time>2020-09-26T19:51:07Z</time><extensions><speed>6.090000</speed><course>173.671875</course><hAcc>5.000000</hAcc><vAcc>4.000000</vAcc></extensions></trkpt>
      <trkpt lon="-123.279854" lat="44.564994"><ele>74.546227</ele><time>2020-09-26T19:51:08Z</time><extensions><speed>6.090000</speed><course>167.343750</course><hAcc>5.000000</hAcc><vAcc>4.000000</vAcc></extensions></trkpt>
      <trkpt lon="-123.279821" lat="44.564954"><ele>74.439896</ele><time>2020-09-26T19:51:09Z</time><extensions><speed>5.930000</speed><course>168.750000</course><hAcc>10.000000</hAcc><vAcc>4.000000</vAcc></extensions></trkpt>
      <trkpt lon="-123.279804" lat="44.564904"><ele>74.194908</ele><time>2020-09-26T19:51:10Z</time><extensions><speed>5.510000</speed><course>168.398438</course><hAcc>10.000000</hAcc><vAcc>4.000000</vAcc></extensions></trkpt>
      <trkpt lon="-123.279865" lat="44.564838"><ele>74.321350</ele><time>2020-09-26T19:51:11Z</time><extensions><speed>6.090000</speed><course>187.382812</course><hAcc>5.000000</hAcc><vAcc>4.000000</vAcc></extensions></trkpt>
      <trkpt lon="-123.279880" lat="44.564781"><ele>74.317535</ele><time>2020-09-26T19:51:12Z</time><extensions><speed>6.090000</speed><course>188.789062</course><hAcc>5.000000</hAcc><vAcc>4.000000</vAcc></extensions></trkpt>
      <trkpt lon="-123.279890" lat="44.564730"><ele>74.280739</ele><time>2020-09-26T19:51:13Z</time><extensions><speed>6.090000</speed><course>183.515625</course><hAcc>5.000000</hAcc><vAcc>4.000000</vAcc></extensions></trkpt>
      <trkpt lon="-123.279890" lat="44.564668"><ele>74.297989</ele><time>2020-09-26T19:51:14Z</time><extensions><speed>6.020000</speed><course>183.164062</course><hAcc>5.000000</hAcc><vAcc>4.000000</vAcc></extensions></trkpt>
      <trkpt lon="-123.279912" lat="44.564606"><ele>74.354645</ele><time>2020-09-26T19:51:15Z</time><extensions><speed>6.030000</speed><course>181.406250</course><hAcc>5.000000</hAcc><vAcc>4.000000</vAcc></extensions></trkpt>
      <trkpt lon="-123.279919" lat="44.564545"><ele>74.567696</ele><time>2020-09-26T19:51:16Z</time><extensions><speed>6.100000</speed><course>180.703125</course><hAcc>5.000000</hAcc><vAcc>4.000000</vAcc></extensions></trkpt>
      <trkpt lon="-123.279928" lat="44.564487"><ele>74.857330</ele><time>2020-09-26T19:51:17Z</time><extensions><speed>6.100000</speed><course>179.296875</course><hAcc>10.000000</hAcc><vAcc>4.000000</vAcc></extensions></trkpt>
      <trkpt lon="-123.279938" lat="44.564426"><ele>74.872154</ele><time>2020-09-26T19:51:18Z</time><extensions><speed>6.130000</speed><course>180.000000</course><hAcc>10.000000</hAcc><vAcc>4.000000</vAcc></extensions></trkpt>
      <trkpt lon="-123.279940" lat="44.564375"><ele>74.625969</ele><time>2020-09-26T19:51:19Z</time><extensions><speed>6.130000</speed><course>177.890625</course><hAcc>10.000000</hAcc><vAcc>4.000000</vAcc></extensions></trkpt>
      <trkpt lon="-123.279960" lat="44.564330"><ele>73.607483</ele><time>2020-09-26T19:51:20Z</time><extensions><speed>5.460000</speed><course>180.703125</course><hAcc>10.000000</hAcc><vAcc>4.000000</vAcc></extensions></trkpt>
      <trkpt lon="-123.279961" lat="44.564271"><ele>72.309631</ele><time>2020-09-26T19:51:21Z</time><extensions><speed>5.830000</speed><course>180.351562</course><hAcc>10.000000</hAcc><vAcc>4.000000</vAcc></extensions></trkpt>
      <trkpt lon="-123.279955" lat="44.564221"><ele>74.316704</ele><time>2020-09-26T19:51:22Z</time><extensions><speed>5.830000</speed><course>183.164062</course><hAcc>10.000000</hAcc><vAcc>3.000000</vAcc></extensions></trkpt>
      <trkpt lon="-123.279954" lat="44.564161"><ele>74.183983</ele><time>2020-09-26T19:51:23Z</time><extensions><speed>6.150000</speed><course>176.484375</course><hAcc>5.000000</hAcc><vAcc>3.000000</vAcc></extensions></trkpt>
      <trkpt lon="-123.279935" lat="44.564095"><ele>73.938133</ele><time>2020-09-26T19:51:24Z</time><extensions><speed>6.230000</speed><course>167.695312</course><hAcc>5.000000</hAcc><vAcc>3.000000</vAcc></extensions></trkpt>
      <trkpt lon="-123.279916" lat="44.564029"><ele>73.654068</ele><time>2020-09-26T19:51:25Z</time><extensions><speed>6.640000</speed><course>166.289062</course><hAcc>5.000000</hAcc><vAcc>3.000000</vAcc></extensions></trkpt>
      <trkpt lon="-123.279886" lat="44.563957"><ele>73.426292</ele><time>2020-09-26T19:51:26Z</time><extensions><speed>7.060000</speed><course>164.531250</course><hAcc>5.000000</hAcc><vAcc>3.000000</vAcc></extensions></trkpt>
      <trkpt lon="-123.279884" lat="44.563887"><ele>73.503975</ele><time>2020-09-26T19:51:27Z</time><extensions><speed>7.060000</speed><course>176.132812</course><hAcc>5.000000</hAcc><vAcc>3.000000</vAcc></extensions></trkpt>
      <trkpt lon="-123.279875" lat="44.563820"><ele>73.223579</ele><time>2020-09-26T19:51:28Z</time><extensions><speed>7.290000</speed><course>175.429688</course><hAcc>5.000000</hAcc><vAcc>3.000000</vAcc></extensions></trkpt>
      <trkpt lon="-123.279860" lat="44.563757"><ele>73.082237</ele><time>2020-09-26T19:51:29Z</time><extensions><speed>7.290000</speed><course>171.914062</course><hAcc>5.000000</hAcc><vAcc>3.000000</vAcc></extensions></trkpt>
      <trkpt lon="-123.279794" lat="44.563697"><ele>72.897316</ele><time>2020-09-26T19:51:30Z</time><extensions><speed>7.720000</speed><course>153.281250</course><hAcc>5.000000</hAcc><vAcc>3.000000</vAcc></extensions></trkpt>
      <trkpt lon="-123.279750" lat="44.563638"><ele>72.104752</ele><time>2020-09-26T19:51:31Z</time><extensions><speed>7.730000</speed><course>154.687500</course><hAcc>5.000000</hAcc><vAcc>3.000000</vAcc></extensions></trkpt>
      <trkpt lon="-123.279725" lat="44.563575"><ele>71.691574</ele><time>2020-09-26T19:51:32Z</time><extensions><speed>7.620000</speed><course>161.367188</course><hAcc>5.000000</hAcc><vAcc>3.000000</vAcc></extensions></trkpt>
      <trkpt lon="-123.279657" lat="44.563498"><ele>71.045822</ele><time>2020-09-26T19:51:33Z</time><extensions><speed>8.370000</speed><course>152.929688</course><hAcc>5.000000</hAcc><vAcc>3.000000</vAcc></extensions></trkpt>
      <trkpt lon="-123.279610" lat="44.563446"><ele>70.643646</ele><time>2020-09-26T19:51:34Z</time><extensions><speed>7.530000</speed><course>150.820312</course><hAcc>5.000000</hAcc><vAcc>3.000000</vAcc></extensions></trkpt>
      <trkpt lon="-123.279580" lat="44.563387"><ele>70.026711</ele><time>2020-09-26T19:51:35Z</time><extensions><speed>6.760000</speed><course>158.906250</course><hAcc>5.000000</hAcc><vAcc>3.000000</vAcc></extensions></trkpt>
      <trkpt lon="-123.279565" lat="44.563322"><ele>69.854271</ele><time>2020-09-26T19:51:36Z</time><extensions><speed>7.080000</speed><course>166.640625</course><hAcc>5.000000</hAcc><vAcc>3.000000</vAcc></extensions></trkpt>
      <trkpt lon="-123.279525" lat="44.563289"><ele>69.522293</ele><time>2020-09-26T19:51:37Z</time><extensions><speed>5.040000</speed><course>143.085938</course><hAcc>5.000000</hAcc><vAcc>3.000000</vAcc></extensions></trkpt>
      <trkpt lon="-123.279480" lat="44.563272"><ele>69.470497</ele><time>2020-09-26T19:51:38Z</time><extensions><speed>3.890000</speed><course>117.421875</course><hAcc>5.000000</hAcc><vAcc>3.000000</vAcc></extensions></trkpt>
      <trkpt lon="-123.279435" lat="44.563288"><ele>69.396797</ele><time>2020-09-26T19:51:39Z</time><extensions><speed>3.760000</speed><course>71.718750</course><hAcc>5.000000</hAcc><vAcc>3.000000</vAcc></extensions></trkpt>
      <trkpt lon="-123.279401" lat="44.563307"><ele>69.495361</ele><time>2020-09-26T19:51:40Z</time><extensions><speed>3.150000</speed><course>53.437500</course><hAcc>5.000000</hAcc><vAcc>3.000000</vAcc></extensions></trkpt>
      <trkpt lon="-123.279366" lat="44.563333"><ele>69.283844</ele><time>2020-09-26T19:51:41Z</time><extensions><speed>3.510000</speed><course>42.890625</course><hAcc>5.000000</hAcc><vAcc>3.000000</vAcc></extensions></trkpt>
      <trkpt lon="-123.279365" lat="44.563340"><ele>69.236801</ele><time>2020-09-26T19:51:42Z</time><extensions><speed>3.150000</speed><course>31.289062</course><hAcc>5.000000</hAcc><vAcc>3.000000</vAcc></extensions></trkpt>
      <trkpt lon="-123.279360" lat="44.563339"><ele>69.122940</ele><time>2020-09-26T19:51:43Z</time><extensions><speed>1.690000</speed><course>71.015625</course><hAcc>5.000000</hAcc><vAcc>3.000000</vAcc></extensions></trkpt>
      <trkpt lon="-123.279354" lat="44.563342"><ele>69.080757</ele><time>2020-09-26T19:51:44Z</time><extensions><speed>0.530000</speed><course>71.015625</course><hAcc>5.000000</hAcc><vAcc>3.000000</vAcc></extensions></trkpt>
      <trkpt lon="-123.279354" lat="44.563342"><ele>69.147842</ele><time>2020-09-26T19:51:45Z</time><extensions><speed>0.000000</speed><course>71.015625</course><hAcc>5.000000</hAcc><vAcc>3.000000</vAcc></extensions></trkpt>
      <trkpt lon="-123.279350" lat="44.563340"><ele>69.058098</ele><time>2020-09-26T19:51:46Z</time><extensions><speed>0.530000</speed><course>71.015625</course><hAcc>5.000000</hAcc><vAcc>3.000000</vAcc></extensions></trkpt>
      <trkpt lon="-123.279366" lat="44.563333"><ele>69.489288</ele><time>2020-09-26T19:51:47Z</time><extensions><speed>0.460000</speed><course>71.367188</course><hAcc>5.000000</hAcc><vAcc>3.000000</vAcc></extensions></trkpt>
      <trkpt lon="-123.279362" lat="44.563335"><ele>68.992035</ele><time>2020-09-26T19:51:48Z</time><extensions><speed>0.500000</speed><course>71.718750</course><hAcc>5.000000</hAcc><vAcc>3.000000</vAcc></extensions></trkpt>
      <trkpt lon="-123.279362" lat="44.563335"><ele>69.279320</ele><time>2020-09-26T19:51:49Z</time><extensions><speed>0.000000</speed><course>71.718750</course><hAcc>5.000000</hAcc><vAcc>3.000000</vAcc></extensions></trkpt>
      <trkpt lon="-123.279362" lat="44.563335"><ele>68.980492</ele><time>2020-09-26T19:51:50Z</time><extensions><speed>0.000000</speed><course>71.718750</course><hAcc>5.000000</hAcc><vAcc>3.000000</vAcc></extensions></trkpt>
      <trkpt lon="-123.279362" lat="44.563335"><ele>69.055840</ele><time>2020-09-26T19:51:51Z</time><extensions><speed>0.000000</speed><course>71.718750</course><hAcc>5.000000</hAcc><vAcc>3.000000</vAcc></extensions></trkpt>
      <trkpt lon="-123.279362" lat="44.563335"><ele>69.077187</ele><time>2020-09-26T19:51:52Z</time><extensions><speed>0.000000</speed><course>71.367188</course><hAcc>5.000000</hAcc><vAcc>3.000000</vAcc></extensions></trkpt>
      <trkpt lon="-123.279356" lat="44.563337"><ele>69.065018</ele><time>2020-09-26T19:51:53Z</time><extensions><speed>0.810000</speed><course>113.554688</course><hAcc>5.000000</hAcc><vAcc>3.000000</vAcc></extensions></trkpt>
      <trkpt lon="-123.279344" lat="44.563333"><ele>69.078552</ele><time>2020-09-26T19:51:54Z</time><extensions><speed>0.910000</speed><course>127.617188</course><hAcc>5.000000</hAcc><vAcc>3.000000</vAcc></extensions></trkpt>
      <trkpt lon="-123.279342" lat="44.563329"><ele>69.068031</ele><time>2020-09-26T19:51:55Z</time><extensions><speed>0.210000</speed><course>71.367188</course><hAcc>5.000000</hAcc><vAcc>3.000000</vAcc></extensions></trkpt>
      <trkpt lon="-123.279346" lat="44.563329"><ele>69.070061</ele><time>2020-09-26T19:51:56Z</time><extensions><speed>0.360000</speed><course>103.007812</course><hAcc>5.000000</hAcc><vAcc>3.000000</vAcc></extensions></trkpt>
      <trkpt lon="-123.279346" lat="44.563329"><ele>69.093475</ele><time>2020-09-26T19:51:57Z</time><extensions><speed>0.000000</speed><course>311.484375</course><hAcc>5.000000</hAcc><vAcc>3.000000</vAcc></extensions></trkpt>
      <trkpt lon="-123.279346" lat="44.563329"><ele>69.082390</ele><time>2020-09-26T19:51:58Z</time><extensions><speed>0.000000</speed><course>311.484375</course><hAcc>5.000000</hAcc><vAcc>3.000000</vAcc></extensions></trkpt>
      <trkpt lon="-123.279346" lat="44.563329"><ele>69.082535</ele><time>2020-09-26T19:51:59Z</time><extensions><speed>0.000000</speed><course>311.484375</course><hAcc>5.000000</hAcc><vAcc>3.000000</vAcc></extensions></trkpt>
      <trkpt lon="-123.279346" lat="44.563329"><ele>69.085007</ele><time>2020-09-26T19:52:00Z</time><extensions><speed>0.000000</speed><course>337.500000</course><hAcc>5.000000</hAcc><vAcc>3.000000</vAcc></extensions></trkpt>
      <trkpt lon="-123.279391" lat="44.563340"><ele>69.088249</ele><time>2020-09-26T19:52:01Z</time><extensions><speed>0.390000</speed><course>8.085938</course><hAcc>5.000000</hAcc><vAcc>3.000000</vAcc></extensions></trkpt>
      <trkpt lon="-123.279392" lat="44.563344"><ele>69.059418</ele><time>2020-09-26T19:52:02Z</time><extensions><speed>0.380000</speed><course>13.359375</course><hAcc>5.000000</hAcc><vAcc>3.000000</vAcc></extensions></trkpt>
      <trkpt lon="-123.279392" lat="44.563345"><ele>69.140739</ele><time>2020-09-26T19:52:03Z</time><extensions><speed>0.520000</speed><course>3.164062</course><hAcc>5.000000</hAcc><vAcc>3.000000</vAcc></extensions></trkpt>
      <trkpt lon="-123.279392" lat="44.563340"><ele>69.111343</ele><time>2020-09-26T19:52:04Z</time><extensions><speed>0.520000</speed><course>191.953125</course><hAcc>5.000000</hAcc><vAcc>3.000000</vAcc></extensions></trkpt>
      <trkpt lon="-123.279397" lat="44.563329"><ele>68.960228</ele><time>2020-09-26T19:52:05Z</time><extensions><speed>0.730000</speed><course>196.875000</course><hAcc>5.000000</hAcc><vAcc>3.000000</vAcc></extensions></trkpt>
      <trkpt lon="-123.279403" lat="44.563319"><ele>68.982796</ele><time>2020-09-26T19:52:06Z</time><extensions><speed>0.880000</speed><course>195.117188</course><hAcc>5.000000</hAcc><vAcc>3.000000</vAcc></extensions></trkpt>
      <trkpt lon="-123.279412" lat="44.563306"><ele>68.994545</ele><time>2020-09-26T19:52:07Z</time><extensions><speed>1.620000</speed><course>201.445312</course><hAcc>5.000000</hAcc><vAcc>3.000000</vAcc></extensions></trkpt>
      <trkpt lon="-123.279419" lat="44.563294"><ele>68.936996</ele><time>2020-09-26T19:52:08Z</time><extensions><speed>1.620000</speed><course>205.664062</course><hAcc>5.000000</hAcc><vAcc>3.000000</vAcc></extensions></trkpt>
      <trkpt lon="-123.279425" lat="44.563284"><ele>69.038734</ele><time>2020-09-26T19:52:09Z</time><extensions><speed>1.450000</speed><course>209.882812</course><hAcc>5.000000</hAcc><vAcc>3.000000</vAcc></extensions></trkpt>
      <trkpt lon="-123.279431" lat="44.563274"><ele>68.999458</ele><time>2020-09-26T19:52:10Z</time><extensions><speed>1.360000</speed><course>210.234375</course><hAcc>5.000000</hAcc><vAcc>3.000000</vAcc></extensions></trkpt>
      <trkpt lon="-123.279438" lat="44.563264"><ele>68.896820</ele><time>2020-09-26T19:52:11Z</time><extensions><speed>1.410000</speed><course>212.695312</course><hAcc>5.000000</hAcc><vAcc>3.000000</vAcc></extensions></trkpt>
      <trkpt lon="-123.279446" lat="44.563254"><ele>69.148369</ele><time>2020-09-26T19:52:12Z</time><extensions><speed>1.380000</speed><course>212.695312</course><hAcc>5.000000</hAcc><vAcc>3.000000</vAcc></extensions></trkpt>
      <trkpt lon="-123.279455" lat="44.563243"><ele>68.853462</ele><time>2020-09-26T19:52:13Z</time><extensions><speed>1.490000</speed><course>212.695312</course><hAcc>5.000000</hAcc><vAcc>3.000000</vAcc></extensions></trkpt>
      <trkpt lon="-123.279463" lat="44.563232"><ele>68.965828</ele><time>2020-09-26T19:52:14Z</time><extensions><speed>1.380000</speed><course>212.695312</course><hAcc>5.000000</hAcc><vAcc>3.000000</vAcc></extensions></trkpt>
      <trkpt lon="-123.279471" lat="44.563221"><ele>68.858536</ele><time>2020-09-26T19:52:15Z</time><extensions><speed>1.430000</speed><course>213.046875</course><hAcc>5.000000</hAcc><vAcc>3.000000</vAcc></extensions></trkpt>
      <trkpt lon="-123.279480" lat="44.563208"><ele>68.864273</ele><time>2020-09-26T19:52:16Z</time><extensions><speed>1.430000</speed><course>192.656250</course><hAcc>5.000000</hAcc><vAcc>3.000000</vAcc></extensions></trkpt>
      <trkpt lon="-123.279486" lat="44.563194"><ele>68.766037</ele><time>2020-09-26T19:52:17Z</time><extensions><speed>1.650000</speed><course>181.054688</course><hAcc>5.000000</hAcc><vAcc>3.000000</vAcc></extensions></trkpt>
      <trkpt lon="-123.279489" lat="44.563180"><ele>68.819054</ele><time>2020-09-26T19:52:18Z</time><extensions><speed>1.650000</speed><course>176.132812</course><hAcc>5.000000</hAcc><vAcc>3.000000</vAcc></extensions></trkpt>
      <trkpt lon="-123.279489" lat="44.563165"><ele>68.612823</ele><time>2020-09-26T19:52:19Z</time><extensions><speed>1.650000</speed><course>177.539062</course><hAcc>5.000000</hAcc><vAcc>3.000000</vAcc></extensions></trkpt>
      <trkpt lon="-123.279488" lat="44.563152"><ele>68.780922</ele><time>2020-09-26T19:52:20Z</time><extensions><speed>1.330000</speed><course>174.375000</course><hAcc>5.000000</hAcc><vAcc>3.000000</vAcc></extensions></trkpt>
      <trkpt lon="-123.279487" lat="44.563141"><ele>68.837318</ele><time>2020-09-26T19:52:21Z</time><extensions><speed>1.260000</speed><course>171.562500</course><hAcc>5.000000</hAcc><vAcc>3.000000</vAcc></extensions></trkpt>
      <trkpt lon="-123.279485" lat="44.563131"><ele>68.745155</ele><time>2020-09-26T19:52:22Z</time><extensions><speed>0.980000</speed><course>157.500000</course><hAcc>5.000000</hAcc><vAcc>3.000000</vAcc></extensions></trkpt>
      <trkpt lon="-123.279483" lat="44.563122"><ele>68.699066</ele><time>2020-09-26T19:52:23Z</time><extensions><speed>1.290000</speed><course>169.804688</course><hAcc>5.000000</hAcc><vAcc>3.000000</vAcc></extensions></trkpt>
      <trkpt lon="-123.279482" lat="44.563111"><ele>68.736351</ele><time>2020-09-26T19:52:24Z</time><extensions><speed>1.210000</speed><course>174.375000</course><hAcc>5.000000</hAcc><vAcc>3.000000</vAcc></extensions></trkpt>
      <trkpt lon="-123.279483" lat="44.563103"><ele>68.731392</ele><time>2020-09-26T19:52:25Z</time><extensions><speed>1.210000</speed><course>185.625000</course><hAcc>5.000000</hAcc><vAcc>3.000000</vAcc></extensions></trkpt>
      <trkpt lon="-123.279486" lat="44.563101"><ele>68.714760</ele><time>2020-09-26T19:52:26Z</time><extensions><speed>0.200000</speed><course>326.601562</course><hAcc>5.000000</hAcc><vAcc>3.000000</vAcc></extensions></trkpt>
      <trkpt lon="-123.279492" lat="44.563109"><ele>68.668503</ele><time>2020-09-26T19:52:27Z</time><extensions><speed>1.300000</speed><course>350.859375</course><hAcc>5.000000</hAcc><vAcc>3.000000</vAcc></extensions></trkpt>
      <trkpt lon="-123.279492" lat="44.563123"><ele>69.466354</ele><time>2020-09-26T19:52:28Z</time><extensions><speed>1.300000</speed><course>21.093750</course><hAcc>5.000000</hAcc><vAcc>3.000000</vAcc></extensions></trkpt>
      <trkpt lon="-123.279485" lat="44.563131"><ele>69.945549</ele><time>2020-09-26T19:52:29Z</time><extensions><speed>1.300000</speed><course>74.882812</course><hAcc>5.000000</hAcc><vAcc>3.000000</vAcc></extensions></trkpt>
      <trkpt lon="-123.279478" lat="44.563133"><ele>70.817230</ele><time>2020-09-26T19:52:30Z</time><extensions><speed>0.710000</speed><course>182.460938</course><hAcc>5.000000</hAcc><vAcc>3.000000</vAcc></extensions></trkpt>
      <trkpt lon="-123.279470" lat="44.563128"><ele>71.209030</ele><time>2020-09-26T19:52:31Z</time><extensions><speed>0.850000</speed><course>200.742188</course><hAcc>5.000000</hAcc><vAcc>3.000000</vAcc></extensions></trkpt>
      <trkpt lon="-123.279470" lat="44.563114"><ele>70.976051</ele><time>2020-09-26T19:52:32Z</time><extensions><speed>1.460000</speed><course>187.734375</course><hAcc>5.000000</hAcc><vAcc>3.000000</vAcc></extensions></trkpt>
      <trkpt lon="-123.279475" lat="44.563098"><ele>71.054909</ele><time>2020-09-26T19:52:33Z</time><extensions><speed>1.460000</speed><course>202.148438</course><hAcc>5.000000</hAcc><vAcc>3.000000</vAcc></extensions></trkpt>
      <trkpt lon="-123.279480" lat="44.563082"><ele>71.100250</ele><time>2020-09-26T19:52:34Z</time><extensions><speed>1.590000</speed><course>190.546875</course><hAcc>5.000000</hAcc><vAcc>3.000000</vAcc></extensions></trkpt>
      <trkpt lon="-123.279482" lat="44.563067"><ele>71.404022</ele><time>2020-09-26T19:52:35Z</time><extensions><speed>1.590000</speed><course>183.515625</course><hAcc>5.000000</hAcc><vAcc>3.000000</vAcc></extensions></trkpt>
      <trkpt lon="-123.279483" lat="44.563056"><ele>71.386543</ele><time>2020-09-26T19:52:36Z</time><extensions><speed>0.800000</speed><course>183.867188</course><hAcc>5.000000</hAcc><vAcc>3.000000</vAcc></extensions></trkpt>
      <trkpt lon="-123.279484" lat="44.563050"><ele>71.418472</ele><time>2020-09-26T19:52:37Z</time><extensions><speed>0.800000</speed><course>235.546875</course><hAcc>5.000000</hAcc><vAcc>3.000000</vAcc></extensions></trkpt>
      <trkpt lon="-123.279488" lat="44.563049"><ele>71.558281</ele><time>2020-09-26T19:52:38Z</time><extensions><speed>0.750000</speed><course>326.250000</course><hAcc>5.000000</hAcc><vAcc>3.000000</vAcc></extensions></trkpt>
      <trkpt lon="-123.279492" lat="44.563050"><ele>71.516769</ele><time>2020-09-26T19:52:39Z</time><extensions><speed>0.200000</speed><course>316.054688</course><hAcc>5.000000</hAcc><vAcc>3.000000</vAcc></extensions></trkpt>
      <trkpt lon="-123.279492" lat="44.563050"><ele>71.575821</ele><time>2020-09-26T19:52:40Z</time><extensions><speed>0.000000</speed><course>167.343750</course><hAcc>5.000000</hAcc><vAcc>3.000000</vAcc></extensions></trkpt>
      <trkpt lon="-123.279492" lat="44.563050"><ele>71.663956</ele><time>2020-09-26T19:52:41Z</time><extensions><speed>0.000000</speed><course>207.773438</course><hAcc>5.000000</hAcc><vAcc>3.000000</vAcc></extensions></trkpt>
      <trkpt lon="-123.279492" lat="44.563050"><ele>71.686188</ele><time>2020-09-26T19:52:42Z</time><extensions><speed>0.000000</speed><course>187.031250</course><hAcc>5.000000</hAcc><vAcc>3.000000</vAcc></extensions></trkpt>
      <trkpt lon="-123.279492" lat="44.563050"><ele>71.814995</ele><time>2020-09-26T19:52:43Z</time><extensions><speed>0.000000</speed><course>155.039062</course><hAcc>5.000000</hAcc><vAcc>3.000000</vAcc></extensions></trkpt>
      <trkpt lon="-123.279492" lat="44.563050"><ele>71.829269</ele><time>2020-09-26T19:52:44Z</time><extensions><speed>0.000000</speed><course>155.039062</course><hAcc>5.000000</hAcc><vAcc>3.000000</vAcc></extensions></trkpt>
      <trkpt lon="-123.279492" lat="44.563050"><ele>71.990334</ele><time>2020-09-26T19:52:45Z</time><extensions><speed>0.000000</speed><course>209.531250</course><hAcc>5.000000</hAcc><vAcc>3.000000</vAcc></extensions></trkpt>
      <trkpt lon="-123.279492" lat="44.563050"><ele>71.998116</ele><time>2020-09-26T19:52:46Z</time><extensions><speed>0.390000</speed><course>175.078125</course><hAcc>5.000000</hAcc><vAcc>3.000000</vAcc></extensions></trkpt>
      <trkpt lon="-123.279492" lat="44.563050"><ele>72.070435</ele><time>2020-09-26T19:52:47Z</time><extensions><speed>0.000000</speed><course>313.593750</course><hAcc>5.000000</hAcc><vAcc>3.000000</vAcc></extensions></trkpt>
      <trkpt lon="-123.279492" lat="44.563050"><ele>72.124260</ele><time>2020-09-26T19:52:48Z</time><extensions><speed>0.000000</speed><course>343.476562</course><hAcc>5.000000</hAcc><vAcc>3.000000</vAcc></extensions></trkpt>
      <trkpt lon="-123.279492" lat="44.563050"><ele>72.185059</ele><time>2020-09-26T19:52:49Z</time><extensions><speed>0.000000</speed><course>354.023438</course><hAcc>5.000000</hAcc><vAcc>3.000000</vAcc></extensions></trkpt>
      <trkpt lon="-123.279492" lat="44.563050"><ele>72.170357</ele><time>2020-09-26T19:52:50Z</time><extensions><speed>0.000000</speed><course>204.960938</course><hAcc>5.000000</hAcc><vAcc>3.000000</vAcc></extensions></trkpt>
      <trkpt lon="-123.279492" lat="44.563050"><ele>72.129875</ele><time>2020-09-26T19:52:51Z</time><extensions><speed>0.000000</speed><course>204.960938</course><hAcc>5.000000</hAcc><vAcc>3.000000</vAcc></extensions></trkpt>
      <trkpt lon="-123.279492" lat="44.563050"><ele>72.238289</ele><time>2020-09-26T19:52:52Z</time><extensions><speed>0.000000</speed><course>65.039062</course><hAcc>5.000000</hAcc><vAcc>3.000000</vAcc></extensions></trkpt>
      <trkpt lon="-123.279492" lat="44.563050"><ele>72.251480</ele><time>2020-09-26T19:52:53Z</time><extensions><speed>0.000000</speed><course>65.039062</course><hAcc>5.000000</hAcc><vAcc>3.000000</vAcc></extensions></trkpt>
      <trkpt lon="-123.279492" lat="44.563050"><ele>72.341362</ele><time>2020-09-26T19:52:54Z</time><extensions><speed>0.000000</speed><course>65.039062</course><hAcc>5.000000</hAcc><vAcc>3.000000</vAcc></extensions></trkpt>
      <trkpt lon="-123.279492" lat="44.563050"><ele>72.397720</ele><time>2020-09-26T19:52:55Z</time><extensions><speed>0.000000</speed><course>172.265625</course><hAcc>5.000000</hAcc><vAcc>3.000000</vAcc></extensions></trkpt>
      <trkpt lon="-123.279492" lat="44.563050"><ele>72.373238</ele><time>2020-09-26T19:52:56Z</time><extensions><speed>0.000000</speed><course>266.484375</course><hAcc>5.000000</hAcc><vAcc>3.000000</vAcc></extensions></trkpt>
      <trkpt lon="-123.279492" lat="44.563050"><ele>72.367462</ele><time>2020-09-26T19:52:57Z</time><extensions><speed>0.000000</speed><course>24.257812</course><hAcc>5.000000</hAcc><vAcc>3.000000</vAcc></extensions></trkpt>
      <trkpt lon="-123.279514" lat="44.563027"><ele>72.269035</ele><time>2020-09-26T19:52:58Z</time><extensions><speed>0.690000</speed><course>150.820312</course><hAcc>5.000000</hAcc><vAcc>3.000000</vAcc></extensions></trkpt>
      <trkpt lon="-123.279505" lat="44.563024"><ele>72.513786</ele><time>2020-09-26T19:52:59Z</time><extensions><speed>0.720000</speed><course>83.671875</course><hAcc>5.000000</hAcc><vAcc>3.000000</vAcc></extensions></trkpt>
      <trkpt lon="-123.279496" lat="44.563025"><ele>72.573387</ele><time>2020-09-26T19:53:00Z</time><extensions><speed>0.690000</speed><course>38.320312</course><hAcc>5.000000</hAcc><vAcc>3.000000</vAcc></extensions></trkpt>
      <trkpt lon="-123.279487" lat="44.563032"><ele>72.689018</ele><time>2020-09-26T19:53:01Z</time><extensions><speed>0.720000</speed><course>13.359375</course><hAcc>5.000000</hAcc><vAcc>3.000000</vAcc></extensions></trkpt>
      <trkpt lon="-123.279481" lat="44.563043"><ele>72.626305</ele><time>2020-09-26T19:53:02Z</time><extensions><speed>1.020000</speed><course>359.296875</course><hAcc>5.000000</hAcc><vAcc>3.000000</vAcc></extensions></trkpt>
      <trkpt lon="-123.279479" lat="44.563054"><ele>73.042847</ele><time>2020-09-26T19:53:03Z</time><extensions><speed>1.050000</speed><course>5.625000</course><hAcc>5.000000</hAcc><vAcc>3.000000</vAcc></extensions></trkpt>
      <trkpt lon="-123.279474" lat="44.563065"><ele>72.376854</ele><time>2020-09-26T19:53:04Z</time><extensions><speed>1.060000</speed><course>27.773438</course><hAcc>5.000000</hAcc><vAcc>3.000000</vAcc></extensions></trkpt>
      <trkpt lon="-123.279469" lat="44.563075"><ele>73.462395</ele><time>2020-09-26T19:53:05Z</time><extensions><speed>1.050000</speed><course>4.921875</course><hAcc>5.000000</hAcc><vAcc>3.000000</vAcc></extensions></trkpt>
      <trkpt lon="-123.279463" lat="44.563090"><ele>73.122932</ele><time>2020-09-26T19:53:06Z</time><extensions><speed>1.060000</speed><course>11.601562</course><hAcc>5.000000</hAcc><vAcc>3.000000</vAcc></extensions></trkpt>
      <trkpt lon="-123.279456" lat="44.563106"><ele>73.148880</ele><time>2020-09-26T19:53:07Z</time><extensions><speed>1.220000</speed><course>9.492188</course><hAcc>5.000000</hAcc><vAcc>3.000000</vAcc></extensions></trkpt>
      <trkpt lon="-123.279450" lat="44.563119"><ele>72.813622</ele><time>2020-09-26T19:53:08Z</time><extensions><speed>1.220000</speed><course>28.828125</course><hAcc>5.000000</hAcc><vAcc>3.000000</vAcc></extensions></trkpt>
      <trkpt lon="-123.279444" lat="44.563135"><ele>72.750374</ele><time>2020-09-26T19:53:09Z</time><extensions><speed>1.220000</speed><course>358.593750</course><hAcc>5.000000</hAcc><vAcc>3.000000</vAcc></extensions></trkpt>
      <trkpt lon="-123.279436" lat="44.563150"><ele>72.792778</ele><time>2020-09-26T19:53:10Z</time><extensions><speed>1.420000</speed><course>17.226562</course><hAcc>5.000000</hAcc><vAcc>3.000000</vAcc></extensions></trkpt>
      <trkpt lon="-123.279428" lat="44.563162"><ele>72.748810</ele><time>2020-09-26T19:53:11Z</time><extensions><speed>1.420000</speed><course>33.750000</course><hAcc>5.000000</hAcc><vAcc>3.000000</vAcc></extensions></trkpt>
      <trkpt lon="-123.279413" lat="44.563174"><ele>72.726585</ele><time>2020-09-26T19:53:12Z</time><extensions><speed>1.790000</speed><course>54.492188</course><hAcc>5.000000</hAcc><vAcc>3.000000</vAcc></extensions></trkpt>
      <trkpt lon="-123.279392" lat="44.563183"><ele>72.484383</ele><time>2020-09-26T19:53:13Z</time><extensions><speed>1.790000</speed><course>52.734375</course><hAcc>5.000000</hAcc><vAcc>3.000000</vAcc></extensions></trkpt>
      <trkpt lon="-123.279368" lat="44.563188"><ele>72.532433</ele><time>2020-09-26T19:53:14Z</time><extensions><speed>1.680000</speed><course>63.281250</course><hAcc>5.000000</hAcc><vAcc>3.000000</vAcc></extensions></trkpt>
      <trkpt lon="-123.279346" lat="44.563189"><ele>72.510406</ele><time>2020-09-26T19:53:15Z</time><extensions><speed>1.650000</speed><course>74.531250</course><hAcc>5.000000</hAcc><vAcc>3.000000</vAcc></extensions></trkpt>
      <trkpt lon="-123.279326" lat="44.563185"><ele>72.188644</ele><time>2020-09-26T19:53:16Z</time><extensions><speed>1.400000</speed><course>89.648438</course><hAcc>5.000000</hAcc><vAcc>3.000000</vAcc></extensions></trkpt>
      <trkpt lon="-123.279304" lat="44.563180"><ele>72.323120</ele><time>2020-09-26T19:53:17Z</time><extensions><speed>1.530000</speed><course>100.546875</course><hAcc>5.000000</hAcc><vAcc>3.000000</vAcc></extensions></trkpt>
      <trkpt lon="-123.279282" lat="44.563174"><ele>72.308441</ele><time>2020-09-26T19:53:18Z</time><extensions><speed>1.590000</speed><course>101.250000</course><hAcc>5.000000</hAcc><vAcc>3.000000</vAcc></extensions></trkpt>
      <trkpt lon="-123.279260" lat="44.563170"><ele>72.197899</ele><time>2020-09-26T19:53:19Z</time><extensions><speed>1.560000</speed><course>95.625000</course><hAcc>5.000000</hAcc><vAcc>3.000000</vAcc></extensions></trkpt>
      <trkpt lon="-123.279241" lat="44.563165"><ele>72.188972</ele><time>2020-09-26T19:53:20Z</time><extensions><speed>1.560000</speed><course>101.250000</course><hAcc>5.000000</hAcc><vAcc>3.000000</vAcc></extensions></trkpt>
      <trkpt lon="-123.279222" lat="44.563159"><ele>72.159744</ele><time>2020-09-26T19:53:21Z</time><extensions><speed>1.430000</speed><course>105.820312</course><hAcc>5.000000</hAcc><vAcc>3.000000</vAcc></extensions></trkpt>
      <trkpt lon="-123.279204" lat="44.563154"><ele>72.184860</ele><time>2020-09-26T19:53:22Z</time><extensions><speed>1.350000</speed><course>108.281250</course><hAcc>5.000000</hAcc><vAcc>3.000000</vAcc></extensions></trkpt>
      <trkpt lon="-123.279186" lat="44.563152"><ele>72.355553</ele><time>2020-09-26T19:53:23Z</time><extensions><speed>1.350000</speed><course>98.789062</course><hAcc>5.000000</hAcc><vAcc>3.000000</vAcc></extensions></trkpt>
    </trkseg>
  </trk>
</gpx>