<?xml version="1.0" encoding="UTF-8"?>
<gpx version="1.1" creator="Apple Health Export" xmlns="http://www.topografix.com/GPX/1/1" xmlns:xsi="http://www.w3.org/2001/XMLSchema-instance" xsi:schemaLocation="http://www.topografix.com/GPX/1/1 http://www.topografix.com/GPX/1/1/gpx.xsd">
  <metadata>
    <time>2021-02-21T19:24:47Z</time>
  </metadata>
  <trk>
    <name>Route 2020-10-12 6:03pm</name>
    <trkseg>
      <trkpt lon="-123.283291" lat="44.575061"><ele>74.449844</ele><time>2020-10-13T00:58:04Z</time><extensions><speed>5.914363</speed><course>178.068878</course><hAcc>47.997478</hAcc><vAcc>109.636871</vAcc></extensions></trkpt>
      <trkpt lon="-123.283315" lat="44.574987"><ele>74.553902</ele><time>2020-10-13T00:58:05Z</time><extensions><speed>5.967811</speed><course>182.156754</course><hAcc>47.997478</hAcc><vAcc>72.570679</vAcc></extensions></trkpt>
      <trkpt lon="-123.283396" lat="44.574855"><ele>74.652588</ele><time>2020-10-13T00:58:06Z</time><extensions><speed>6.032023</speed><course>182.213257</course><hAcc>11.999370</hAcc><vAcc>22.581835</vAcc></extensions></trkpt>
      <trkpt lon="-123.283401" lat="44.574795"><ele>74.877678</ele><time>2020-10-13T00:58:07Z</time><extensions><speed>6.258771</speed><course>183.085526</course><hAcc>7.999580</hAcc><vAcc>13.102916</vAcc></extensions></trkpt>
      <trkpt lon="-123.283398" lat="44.574756"><ele>75.096062</ele><time>2020-10-13T00:58:08Z</time><extensions><speed>6.258771</speed><course>183.335983</course><hAcc>11.999370</hAcc><vAcc>24.148445</vAcc></extensions></trkpt>
      <trkpt lon="-123.283469" lat="44.573391"><ele>91.520393</ele><time>2020-10-13T00:58:32Z</time><extensions><speed>6.820000</speed><course>185.273438</course><hAcc>10.000000</hAcc><vAcc>8.000000</vAcc></extensions></trkpt>
      <trkpt lon="-123.283393" lat="44.573244"><ele>76.104134</ele><time>2020-10-13T00:58:33Z</time><extensions><speed>6.820000</speed><course>176.835938</course><hAcc>10.000000</hAcc><vAcc>3.000000</vAcc></extensions></trkpt>
      <trkpt lon="-123.283458" lat="44.573196"><ele>76.006294</ele><time>2020-10-13T00:58:34Z</time><extensions><speed>6.820000</speed><course>180.703125</course><hAcc>5.000000</hAcc><vAcc>3.000000</vAcc></extensions></trkpt>
      <trkpt lon="-123.283461" lat="44.573142"><ele>75.264778</ele><time>2020-10-13T00:58:35Z</time><extensions><speed>6.850000</speed><course>182.109375</course><hAcc>5.000000</hAcc><vAcc>3.000000</vAcc></extensions></trkpt>
      <trkpt lon="-123.283465" lat="44.573088"><ele>75.024544</ele><time>2020-10-13T00:58:36Z</time><extensions><speed>7.000000</speed><course>184.921875</course><hAcc>5.000000</hAcc><vAcc>3.000000</vAcc></extensions></trkpt>
      <trkpt lon="-123.283459" lat="44.573010"><ele>74.952950</ele><time>2020-10-13T00:58:37Z</time><extensions><speed>7.310000</speed><course>185.976562</course><hAcc>5.000000</hAcc><vAcc>3.000000</vAcc></extensions></trkpt>
      <trkpt lon="-123.283464" lat="44.572945"><ele>75.022835</ele><time>2020-10-13T00:58:38Z</time><extensions><speed>7.310000</speed><course>184.570312</course><hAcc>5.000000</hAcc><vAcc>3.000000</vAcc></extensions></trkpt>
      <trkpt lon="-123.283465" lat="44.572882"><ele>74.929634</ele><time>2020-10-13T00:58:39Z</time><extensions><speed>6.610000</speed><course>180.703125</course><hAcc>5.000000</hAcc><vAcc>3.000000</vAcc></extensions></trkpt>
      <trkpt lon="-123.283468" lat="44.572826"><ele>74.944527</ele><time>2020-10-13T00:58:40Z</time><extensions><speed>6.670000</speed><course>183.164062</course><hAcc>5.000000</hAcc><vAcc>3.000000</vAcc></extensions></trkpt>
      <trkpt lon="-123.283478" lat="44.572764"><ele>75.718391</ele><time>2020-10-13T00:58:41Z</time><extensions><speed>7.280000</speed><course>183.164062</course><hAcc>5.000000</hAcc><vAcc>3.000000</vAcc></extensions></trkpt>
      <trkpt lon="-123.283476" lat="44.572705"><ele>75.646004</ele><time>2020-10-13T00:58:42Z</time><extensions><speed>6.840000</speed><course>177.890625</course><hAcc>5.000000</hAcc><vAcc>3.000000</vAcc></extensions></trkpt>
      <trkpt lon="-123.283476" lat="44.572653"><ele>75.502266</ele><time>2020-10-13T00:58:43Z</time><extensions><speed>6.040000</speed><course>181.406250</course><hAcc>5.000000</hAcc><vAcc>3.000000</vAcc></extensions></trkpt>
      <trkpt lon="-123.283478" lat="44.572608"><ele>75.513741</ele><time>2020-10-13T00:58:44Z</time><extensions><speed>5.100000</speed><course>179.648438</course><hAcc>5.000000</hAcc><vAcc>3.000000</vAcc></extensions></trkpt>
      <trkpt lon="-123.283487" lat="44.572559"><ele>76.137520</ele><time>2020-10-13T00:58:45Z</time><extensions><speed>6.300000</speed><course>179.648438</course><hAcc>5.000000</hAcc><vAcc>3.000000</vAcc></extensions></trkpt>
      <trkpt lon="-123.283514" lat="44.572527"><ele>78.383125</ele><time>2020-10-13T00:58:46Z</time><extensions><speed>4.920000</speed><course>180.351562</course><hAcc>5.000000</hAcc><vAcc>3.000000</vAcc></extensions></trkpt>
      <trkpt lon="-123.283514" lat="44.572474"><ele>79.599739</ele><time>2020-10-13T00:58:47Z</time><extensions><speed>4.920000</speed><course>174.375000</course><hAcc>5.000000</hAcc><vAcc>3.000000</vAcc></extensions></trkpt>
      <trkpt lon="-123.283525" lat="44.572429"><ele>80.346565</ele><time>2020-10-13T00:58:48Z</time><extensions><speed>4.850000</speed><course>178.593750</course><hAcc>5.000000</hAcc><vAcc>4.000000</vAcc></extensions></trkpt>
      <trkpt lon="-123.283514" lat="44.572382"><ele>80.101875</ele><time>2020-10-13T00:58:49Z</time><extensions><speed>4.720000</speed><course>180.351562</course><hAcc>5.000000</hAcc><vAcc>4.000000</vAcc></extensions></trkpt>
      <trkpt lon="-123.283506" lat="44.572364"><ele>80.380318</ele><time>2020-10-13T00:58:50Z</time><extensions><speed>3.310000</speed><course>177.890625</course><hAcc>5.000000</hAcc><vAcc>4.000000</vAcc></extensions></trkpt>
      <trkpt lon="-123.283498" lat="44.572317"><ele>80.375191</ele><time>2020-10-13T00:58:51Z</time><extensions><speed>4.420000</speed><course>180.000000</course><hAcc>5.000000</hAcc><vAcc>4.000000</vAcc></extensions></trkpt>
      <trkpt lon="-123.283504" lat="44.572282"><ele>80.485298</ele><time>2020-10-13T00:58:52Z</time><extensions><speed>4.170000</speed><course>182.460938</course><hAcc>5.000000</hAcc><vAcc>4.000000</vAcc></extensions></trkpt>
      <trkpt lon="-123.283512" lat="44.572241"><ele>80.946663</ele><time>2020-10-13T00:58:53Z</time><extensions><speed>4.420000</speed><course>182.812500</course><hAcc>5.000000</hAcc><vAcc>4.000000</vAcc></extensions></trkpt>
      <trkpt lon="-123.283518" lat="44.572203"><ele>80.906685</ele><time>2020-10-13T00:58:54Z</time><extensions><speed>4.700000</speed><course>184.218750</course><hAcc>5.000000</hAcc><vAcc>4.000000</vAcc></extensions></trkpt>
      <trkpt lon="-123.283516" lat="44.572160"><ele>81.229134</ele><time>2020-10-13T00:58:55Z</time><extensions><speed>4.860000</speed><course>182.109375</course><hAcc>5.000000</hAcc><vAcc>3.000000</vAcc></extensions></trkpt>
      <trkpt lon="-123.283517" lat="44.572124"><ele>81.518379</ele><time>2020-10-13T00:58:56Z</time><extensions><speed>4.700000</speed><course>186.679688</course><hAcc>5.000000</hAcc><vAcc>3.000000</vAcc></extensions></trkpt>
      <trkpt lon="-123.283516" lat="44.572084"><ele>81.297981</ele><time>2020-10-13T00:58:57Z</time><extensions><speed>4.350000</speed><course>183.515625</course><hAcc>5.000000</hAcc><vAcc>3.000000</vAcc></extensions></trkpt>
      <trkpt lon="-123.283514" lat="44.572046"><ele>81.042976</ele><time>2020-10-13T00:58:58Z</time><extensions><speed>4.250000</speed><course>177.890625</course><hAcc>5.000000</hAcc><vAcc>3.000000</vAcc></extensions></trkpt>
      <trkpt lon="-123.283526" lat="44.572036"><ele>81.369942</ele><time>2020-10-13T00:58:59Z</time><extensions><speed>2.060000</speed><course>184.218750</course><hAcc>5.000000</hAcc><vAcc>3.000000</vAcc></extensions></trkpt>
      <trkpt lon="-123.283528" lat="44.572008"><ele>81.179878</ele><time>2020-10-13T00:59:00Z</time><extensions><speed>2.480000</speed><course>183.164062</course><hAcc>5.000000</hAcc><vAcc>4.000000</vAcc></extensions></trkpt>
      <trkpt lon="-123.283532" lat="44.571997"><ele>80.927498</ele><time>2020-10-13T00:59:01Z</time><extensions><speed>2.060000</speed><course>183.867188</course><hAcc>5.000000</hAcc><vAcc>4.000000</vAcc></extensions></trkpt>
      <trkpt lon="-123.283524" lat="44.571984"><ele>80.359444</ele><time>2020-10-13T00:59:02Z</time><extensions><speed>1.970000</speed><course>183.515625</course><hAcc>5.000000</hAcc><vAcc>4.000000</vAcc></extensions></trkpt>
      <trkpt lon="-123.283528" lat="44.571976"><ele>80.555000</ele><time>2020-10-13T00:59:03Z</time><extensions><speed>1.910000</speed><course>183.867188</course><hAcc>5.000000</hAcc><vAcc>4.000000</vAcc></extensions></trkpt>
      <trkpt lon="-123.283527" lat="44.571972"><ele>80.506721</ele><time>2020-10-13T00:59:04Z</time><extensions><speed>0.570000</speed><course>183.867188</course><hAcc>5.000000</hAcc><vAcc>4.000000</vAcc></extensions></trkpt>
      <trkpt lon="-123.283527" lat="44.571972"><ele>80.592537</ele><time>2020-10-13T00:59:05Z</time><extensions><speed>0.000000</speed><course>183.867188</course><hAcc>5.000000</hAcc><vAcc>4.000000</vAcc></extensions></trkpt>
      <trkpt lon="-123.283527" lat="44.571972"><ele>80.208931</ele><time>2020-10-13T00:59:06Z</time><extensions><speed>0.000000</speed><course>183.515625</course><hAcc>5.000000</hAcc><vAcc>4.000000</vAcc></extensions></trkpt>
      <trkpt lon="-123.283527" lat="44.571972"><ele>79.750069</ele><time>2020-10-13T00:59:07Z</time><extensions><speed>0.000000</speed><course>183.515625</course><hAcc>5.000000</hAcc><vAcc>4.000000</vAcc></extensions></trkpt>
      <trkpt lon="-123.283527" lat="44.571972"><ele>79.901863</ele><time>2020-10-13T00:59:08Z</time><extensions><speed>0.000000</speed><course>183.515625</course><hAcc>5.000000</hAcc><vAcc>4.000000</vAcc></extensions></trkpt>
      <trkpt lon="-123.283517" lat="44.571919"><ele>80.022835</ele><time>2020-10-13T00:59:09Z</time><extensions><speed>0.000000</speed><course>183.515625</course><hAcc>5.000000</hAcc><vAcc>4.000000</vAcc></extensions></trkpt>
      <trkpt lon="-123.283517" lat="44.571919"><ele>79.877937</ele><time>2020-10-13T00:59:10Z</time><extensions><speed>0.000000</speed><course>183.515625</course><hAcc>5.000000</hAcc><vAcc>3.000000</vAcc></extensions></trkpt>
      <trkpt lon="-123.283517" lat="44.571919"><ele>79.578865</ele><time>2020-10-13T00:59:11Z</time><extensions><speed>0.000000</speed><course>183.515625</course><hAcc>5.000000</hAcc><vAcc>4.000000</vAcc></extensions></trkpt>
      <trkpt lon="-123.283517" lat="44.571919"><ele>79.245186</ele><time>2020-10-13T00:59:12Z</time><extensions><speed>0.000000</speed><course>183.515625</course><hAcc>5.000000</hAcc><vAcc>3.000000</vAcc></extensions></trkpt>
      <trkpt lon="-123.283517" lat="44.571919"><ele>79.199715</ele><time>2020-10-13T00:59:13Z</time><extensions><speed>0.000000</speed><course>183.515625</course><hAcc>5.000000</hAcc><vAcc>3.000000</vAcc></extensions></trkpt>
      <trkpt lon="-123.283517" lat="44.571919"><ele>79.145882</ele><time>2020-10-13T00:59:14Z</time><extensions><speed>0.000000</speed><course>183.515625</course><hAcc>5.000000</hAcc><vAcc>3.000000</vAcc></extensions></trkpt>
      <trkpt lon="-123.283517" lat="44.571919"><ele>79.234261</ele><time>2020-10-13T00:59:15Z</time><extensions><speed>0.000000</speed><course>183.515625</course><hAcc>5.000000</hAcc><vAcc>3.000000</vAcc></extensions></trkpt>
      <trkpt lon="-123.283517" lat="44.571919"><ele>78.967293</ele><time>2020-10-13T00:59:16Z</time><extensions><speed>0.000000</speed><course>183.515625</course><hAcc>5.000000</hAcc><vAcc>3.000000</vAcc></extensions></trkpt>
      <trkpt lon="-123.283517" lat="44.571919"><ele>78.851631</ele><time>2020-10-13T00:59:17Z</time><extensions><speed>0.000000</speed><course>187.031250</course><hAcc>5.000000</hAcc><vAcc>3.000000</vAcc></extensions></trkpt>
      <trkpt lon="-123.283517" lat="44.571919"><ele>78.918526</ele><time>2020-10-13T00:59:18Z</time><extensions><speed>0.000000</speed><course>185.976562</course><hAcc>5.000000</hAcc><vAcc>3.000000</vAcc></extensions></trkpt>
      <trkpt lon="-123.283517" lat="44.571919"><ele>78.857307</ele><time>2020-10-13T00:59:19Z</time><extensions><speed>0.000000</speed><course>185.976562</course><hAcc>5.000000</hAcc><vAcc>3.000000</vAcc></extensions></trkpt>
      <trkpt lon="-123.283515" lat="44.571869"><ele>78.708931</ele><time>2020-10-13T00:59:20Z</time><extensions><speed>0.600000</speed><course>180.000000</course><hAcc>5.000000</hAcc><vAcc>3.000000</vAcc></extensions></trkpt>
      <trkpt lon="-123.283514" lat="44.571852"><ele>79.132881</ele><time>2020-10-13T00:59:21Z</time><extensions><speed>1.700000</speed><course>158.554688</course><hAcc>5.000000</hAcc><vAcc>3.000000</vAcc></extensions></trkpt>
      <trkpt lon="-123.283509" lat="44.571831"><ele>78.754402</ele><time>2020-10-13T00:59:22Z</time><extensions><speed>2.250000</speed><course>158.906250</course><hAcc>5.000000</hAcc><vAcc>3.000000</vAcc></extensions></trkpt>
      <trkpt lon="-123.283492" lat="44.571802"><ele>78.933846</ele><time>2020-10-13T00:59:23Z</time><extensions><speed>2.250000</speed><course>156.796875</course><hAcc>5.000000</hAcc><vAcc>3.000000</vAcc></extensions></trkpt>
      <trkpt lon="-123.283465" lat="44.571767"><ele>78.891060</ele><time>2020-10-13T00:59:24Z</time><extensions><speed>3.680000</speed><course>153.281250</course><hAcc>5.000000</hAcc><vAcc>4.000000</vAcc></extensions></trkpt>
      <trkpt lon="-123.283427" lat="44.571732"><ele>78.322395</ele><time>2020-10-13T00:59:25Z</time><extensions><speed>4.290000</speed><course>142.734375</course><hAcc>5.000000</hAcc><vAcc>4.000000</vAcc></extensions></trkpt>
      <trkpt lon="-123.283347" lat="44.571678"><ele>78.524483</ele><time>2020-10-13T00:59:26Z</time><extensions><speed>5.160000</speed><course>138.867188</course><hAcc>5.000000</hAcc><vAcc>3.000000</vAcc></extensions></trkpt>
      <trkpt lon="-123.283339" lat="44.571646"><ele>79.173470</ele><time>2020-10-13T00:59:27Z</time><extensions><speed>4.830000</speed><course>149.062500</course><hAcc>5.000000</hAcc><vAcc>3.000000</vAcc></extensions></trkpt>
      <trkpt lon="-123.283311" lat="44.571596"><ele>78.872932</ele><time>2020-10-13T00:59:28Z</time><extensions><speed>5.160000</speed><course>150.820312</course><hAcc>5.000000</hAcc><vAcc>3.000000</vAcc></extensions></trkpt>
      <trkpt lon="-123.283275" lat="44.571557"><ele>78.686226</ele><time>2020-10-13T00:59:29Z</time><extensions><speed>4.830000</speed><course>146.601562</course><hAcc>5.000000</hAcc><vAcc>3.000000</vAcc></extensions></trkpt>
      <trkpt lon="-123.283219" lat="44.571509"><ele>78.410469</ele><time>2020-10-13T00:59:30Z</time><extensions><speed>5.150000</speed><course>144.843750</course><hAcc>5.000000</hAcc><vAcc>3.000000</vAcc></extensions></trkpt>
      <trkpt lon="-123.283157" lat="44.571451"><ele>78.198433</ele><time>2020-10-13T00:59:31Z</time><extensions><speed>5.550000</speed><course>138.515625</course><hAcc>5.000000</hAcc><vAcc>4.000000</vAcc></extensions></trkpt>
      <trkpt lon="-123.283125" lat="44.571405"><ele>78.507698</ele><time>2020-10-13T00:59:32Z</time><extensions><speed>5.550000</speed><course>143.085938</course><hAcc>5.000000</hAcc><vAcc>4.000000</vAcc></extensions></trkpt>
      <trkpt lon="-123.283056" lat="44.571376"><ele>78.752754</ele><time>2020-10-13T00:59:33Z</time><extensions><speed>5.550000</speed><course>134.648438</course><hAcc>5.000000</hAcc><vAcc>4.000000</vAcc></extensions></trkpt>
      <trkpt lon="-123.283008" lat="44.571331"><ele>79.143745</ele><time>2020-10-13T00:59:34Z</time><extensions><speed>5.340000</speed><course>140.976562</course><hAcc>5.000000</hAcc><vAcc>4.000000</vAcc></extensions></trkpt>
      <trkpt lon="-123.282944" lat="44.571308"><ele>79.719368</ele><time>2020-10-13T00:59:35Z</time><extensions><speed>5.340000</speed><course>137.460938</course><hAcc>5.000000</hAcc><vAcc>4.000000</vAcc></extensions></trkpt>
      <trkpt lon="-123.282891" lat="44.571266"><ele>79.289986</ele><time>2020-10-13T00:59:36Z</time><extensions><speed>5.080000</speed><course>136.406250</course><hAcc>5.000000</hAcc><vAcc>4.000000</vAcc></extensions></trkpt>
      <trkpt lon="-123.282825" lat="44.571221"><ele>79.889839</ele><time>2020-10-13T00:59:37Z</time><extensions><speed>5.080000</speed><course>135.703125</course><hAcc>5.000000</hAcc><vAcc>4.000000</vAcc></extensions></trkpt>
      <trkpt lon="-123.282750" lat="44.571171"><ele>80.073677</ele><time>2020-10-13T00:59:38Z</time><extensions><speed>5.830000</speed><course>140.976562</course><hAcc>5.000000</hAcc><vAcc>4.000000</vAcc></extensions></trkpt>
      <trkpt lon="-123.282697" lat="44.571121"><ele>80.345284</ele><time>2020-10-13T00:59:39Z</time><extensions><speed>6.290000</speed><course>142.382812</course><hAcc>5.000000</hAcc><vAcc>4.000000</vAcc></extensions></trkpt>
      <trkpt lon="-123.282658" lat="44.571068"><ele>80.486702</ele><time>2020-10-13T00:59:40Z</time><extensions><speed>6.290000</speed><course>145.195312</course><hAcc>5.000000</hAcc><vAcc>4.000000</vAcc></extensions></trkpt>
      <trkpt lon="-123.282610" lat="44.571008"><ele>80.415596</ele><time>2020-10-13T00:59:41Z</time><extensions><speed>5.900000</speed><course>143.789062</course><hAcc>5.000000</hAcc><vAcc>4.000000</vAcc></extensions></trkpt>
      <trkpt lon="-123.282592" lat="44.570972"><ele>80.498543</ele><time>2020-10-13T00:59:42Z</time><extensions><speed>5.870000</speed><course>150.468750</course><hAcc>5.000000</hAcc><vAcc>4.000000</vAcc></extensions></trkpt>
      <trkpt lon="-123.282540" lat="44.570949"><ele>80.870735</ele><time>2020-10-13T00:59:43Z</time><extensions><speed>4.460000</speed><course>136.054688</course><hAcc>5.000000</hAcc><vAcc>4.000000</vAcc></extensions></trkpt>
      <trkpt lon="-123.282482" lat="44.570895"><ele>79.727791</ele><time>2020-10-13T00:59:44Z</time><extensions><speed>5.310000</speed><course>139.570312</course><hAcc>5.000000</hAcc><vAcc>4.000000</vAcc></extensions></trkpt>
      <trkpt lon="-123.282438" lat="44.570842"><ele>79.793221</ele><time>2020-10-13T00:59:45Z</time><extensions><speed>5.810000</speed><course>147.656250</course><hAcc>5.000000</hAcc><vAcc>4.000000</vAcc></extensions></trkpt>
      <trkpt lon="-123.282393" lat="44.570799"><ele>79.554756</ele><time>2020-10-13T00:59:46Z</time><extensions><speed>5.810000</speed><course>149.765625</course><hAcc>5.000000</hAcc><vAcc>4.000000</vAcc></extensions></trkpt>
      <trkpt lon="-123.282331" lat="44.570758"><ele>79.388069</ele><time>2020-10-13T00:59:47Z</time><extensions><speed>5.930000</speed><course>139.218750</course><hAcc>5.000000</hAcc><vAcc>4.000000</vAcc></extensions></trkpt>
      <trkpt lon="-123.282282" lat="44.570708"><ele>79.678535</ele><time>2020-10-13T00:59:48Z</time><extensions><speed>6.020000</speed><course>140.976562</course><hAcc>5.000000</hAcc><vAcc>4.000000</vAcc></extensions></trkpt>
      <trkpt lon="-123.282228" lat="44.570674"><ele>79.699348</ele><time>2020-10-13T00:59:49Z</time><extensions><speed>5.700000</speed><course>139.570312</course><hAcc>5.000000</hAcc><vAcc>4.000000</vAcc></extensions></trkpt>
      <trkpt lon="-123.282172" lat="44.570634"><ele>79.818489</ele><time>2020-10-13T00:59:50Z</time><extensions><speed>6.150000</speed><course>137.109375</course><hAcc>5.000000</hAcc><vAcc>4.000000</vAcc></extensions></trkpt>
      <trkpt lon="-123.282123" lat="44.570595"><ele>80.341866</ele><time>2020-10-13T00:59:51Z</time><extensions><speed>5.850000</speed><course>142.734375</course><hAcc>5.000000</hAcc><vAcc>4.000000</vAcc></extensions></trkpt>
      <trkpt lon="-123.282069" lat="44.570551"><ele>80.307014</ele><time>2020-10-13T00:59:52Z</time><extensions><speed>5.980000</speed><course>140.976562</course><hAcc>5.000000</hAcc><vAcc>4.000000</vAcc></extensions></trkpt>
      <trkpt lon="-123.282021" lat="44.570512"><ele>80.265205</ele><time>2020-10-13T00:59:53Z</time><extensions><speed>5.850000</speed><course>142.734375</course><hAcc>5.000000</hAcc><vAcc>4.000000</vAcc></extensions></trkpt>
      <trkpt lon="-123.281964" lat="44.570479"><ele>80.157784</ele><time>2020-10-13T00:59:54Z</time><extensions><speed>5.870000</speed><course>135.000000</course><hAcc>5.000000</hAcc><vAcc>4.000000</vAcc></extensions></trkpt>
      <trkpt lon="-123.281905" lat="44.570445"><ele>79.992195</ele><time>2020-10-13T00:59:55Z</time><extensions><speed>5.870000</speed><course>134.296875</course><hAcc>5.000000</hAcc><vAcc>4.000000</vAcc></extensions></trkpt>
      <trkpt lon="-123.281848" lat="44.570403"><ele>80.000740</ele><time>2020-10-13T00:59:56Z</time><extensions><speed>5.870000</speed><course>137.460938</course><hAcc>5.000000</hAcc><vAcc>4.000000</vAcc></extensions></trkpt>
      <trkpt lon="-123.281806" lat="44.570372"><ele>80.110420</ele><time>2020-10-13T00:59:57Z</time><extensions><speed>5.750000</speed><course>135.351562</course><hAcc>5.000000</hAcc><vAcc>4.000000</vAcc></extensions></trkpt>
      <trkpt lon="-123.281741" lat="44.570342"><ele>80.349434</ele><time>2020-10-13T00:59:58Z</time><extensions><speed>5.270000</speed><course>141.679688</course><hAcc>5.000000</hAcc><vAcc>4.000000</vAcc></extensions></trkpt>
      <trkpt lon="-123.281736" lat="44.570289"><ele>79.413338</ele><time>2020-10-13T00:59:59Z</time><extensions><speed>5.270000</speed><course>159.960938</course><hAcc>5.000000</hAcc><vAcc>4.000000</vAcc></extensions></trkpt>
      <trkpt lon="-123.281703" lat="44.570252"><ele>79.679024</ele><time>2020-10-13T01:00:00Z</time><extensions><speed>4.910000</speed><course>151.523438</course><hAcc>5.000000</hAcc><vAcc>4.000000</vAcc></extensions></trkpt>
      <trkpt lon="-123.281691" lat="44.570216"><ele>79.737312</ele><time>2020-10-13T01:00:01Z</time><extensions><speed>4.330000</speed><course>150.468750</course><hAcc>5.000000</hAcc><vAcc>4.000000</vAcc></extensions></trkpt>
      <trkpt lon="-123.281627" lat="44.570182"><ele>79.495064</ele><time>2020-10-13T01:00:02Z</time><extensions><speed>4.910000</speed><course>140.976562</course><hAcc>5.000000</hAcc><vAcc>4.000000</vAcc></extensions></trkpt>
      <trkpt lon="-123.281566" lat="44.570134"><ele>79.711555</ele><time>2020-10-13T01:00:03Z</time><extensions><speed>5.280000</speed><course>138.867188</course><hAcc>5.000000</hAcc><vAcc>4.000000</vAcc></extensions></trkpt>
      <trkpt lon="-123.281505" lat="44.570103"><ele>79.606941</ele><time>2020-10-13T01:00:04Z</time><extensions><speed>5.280000</speed><course>139.921875</course><hAcc>5.000000</hAcc><vAcc>4.000000</vAcc></extensions></trkpt>
      <trkpt lon="-123.281460" lat="44.570058"><ele>79.513496</ele><time>2020-10-13T01:00:05Z</time><extensions><speed>5.280000</speed><course>137.812500</course><hAcc>5.000000</hAcc><vAcc>4.000000</vAcc></extensions></trkpt>
      <trkpt lon="-123.281404" lat="44.570020"><ele>79.438667</ele><time>2020-10-13T01:00:06Z</time><extensions><speed>5.700000</speed><course>136.406250</course><hAcc>5.000000</hAcc><vAcc>4.000000</vAcc></extensions></trkpt>
      <trkpt lon="-123.281356" lat="44.569971"><ele>79.163460</ele><time>2020-10-13T01:00:07Z</time><extensions><speed>6.010000</speed><course>144.492188</course><hAcc>5.000000</hAcc><vAcc>4.000000</vAcc></extensions></trkpt>
      <trkpt lon="-123.281318" lat="44.569922"><ele>78.878548</ele><time>2020-10-13T01:00:08Z</time><extensions><speed>6.010000</speed><course>149.062500</course><hAcc>5.000000</hAcc><vAcc>4.000000</vAcc></extensions></trkpt>
      <trkpt lon="-123.281293" lat="44.569871"><ele>78.727119</ele><time>2020-10-13T01:00:09Z</time><extensions><speed>5.580000</speed><course>159.609375</course><hAcc>5.000000</hAcc><vAcc>4.000000</vAcc></extensions></trkpt>
      <trkpt lon="-123.281237" lat="44.569828"><ele>78.656746</ele><time>2020-10-13T01:00:10Z</time><extensions><speed>5.390000</speed><course>145.898438</course><hAcc>5.000000</hAcc><vAcc>4.000000</vAcc></extensions></trkpt>
      <trkpt lon="-123.281196" lat="44.569781"><ele>78.726143</ele><time>2020-10-13T01:00:11Z</time><extensions><speed>6.070000</speed><course>140.976562</course><hAcc>5.000000</hAcc><vAcc>4.000000</vAcc></extensions></trkpt>
      <trkpt lon="-123.281122" lat="44.569748"><ele>78.526070</ele><time>2020-10-13T01:00:12Z</time><extensions><speed>6.150000</speed><course>136.406250</course><hAcc>5.000000</hAcc><vAcc>4.000000</vAcc></extensions></trkpt>
      <trkpt lon="-123.281062" lat="44.569706"><ele>78.935738</ele><time>2020-10-13T01:00:13Z</time><extensions><speed>6.070000</speed><course>132.539062</course><hAcc>5.000000</hAcc><vAcc>4.000000</vAcc></extensions></trkpt>
      <trkpt lon="-123.280997" lat="44.569661"><ele>78.910164</ele><time>2020-10-13T01:00:14Z</time><extensions><speed>6.150000</speed><course>134.296875</course><hAcc>5.000000</hAcc><vAcc>4.000000</vAcc></extensions></trkpt>
      <trkpt lon="-123.280950" lat="44.569610"><ele>79.000984</ele><time>2020-10-13T01:00:15Z</time><extensions><speed>6.360000</speed><course>137.460938</course><hAcc>5.000000</hAcc><vAcc>4.000000</vAcc></extensions></trkpt>
      <trkpt lon="-123.280882" lat="44.569563"><ele>79.103828</ele><time>2020-10-13T01:00:16Z</time><extensions><speed>6.530000</speed><course>138.164062</course><hAcc>5.000000</hAcc><vAcc>4.000000</vAcc></extensions></trkpt>
      <trkpt lon="-123.280821" lat="44.569515"><ele>78.718513</ele><time>2020-10-13T01:00:17Z</time><extensions><speed>6.750000</speed><course>137.460938</course><hAcc>5.000000</hAcc><vAcc>3.000000</vAcc></extensions></trkpt>
      <trkpt lon="-123.280769" lat="44.569457"><ele>78.818855</ele><time>2020-10-13T01:00:18Z</time><extensions><speed>6.750000</speed><course>142.382812</course><hAcc>5.000000</hAcc><vAcc>3.000000</vAcc></extensions></trkpt>
      <trkpt lon="-123.280705" lat="44.569419"><ele>78.838387</ele><time>2020-10-13T01:00:19Z</time><extensions><speed>6.750000</speed><course>135.351562</course><hAcc>5.000000</hAcc><vAcc>3.000000</vAcc></extensions></trkpt>
      <trkpt lon="-123.280653" lat="44.569378"><ele>78.837837</ele><time>2020-10-13T01:00:20Z</time><extensions><speed>6.110000</speed><course>136.054688</course><hAcc>5.000000</hAcc><vAcc>3.000000</vAcc></extensions></trkpt>
      <trkpt lon="-123.280597" lat="44.569340"><ele>78.959419</ele><time>2020-10-13T01:00:21Z</time><extensions><speed>6.110000</speed><course>133.242188</course><hAcc>5.000000</hAcc><vAcc>3.000000</vAcc></extensions></trkpt>
      <trkpt lon="-123.280555" lat="44.569289"><ele>78.719673</ele><time>2020-10-13T01:00:22Z</time><extensions><speed>6.110000</speed><course>145.546875</course><hAcc>5.000000</hAcc><vAcc>3.000000</vAcc></extensions></trkpt>
      <trkpt lon="-123.280517" lat="44.569237"><ele>78.853706</ele><time>2020-10-13T01:00:23Z</time><extensions><speed>6.250000</speed><course>147.304688</course><hAcc>5.000000</hAcc><vAcc>4.000000</vAcc></extensions></trkpt>
      <trkpt lon="-123.280496" lat="44.569187"><ele>78.211433</ele><time>2020-10-13T01:00:24Z</time><extensions><speed>6.250000</speed><course>153.632812</course><hAcc>5.000000</hAcc><vAcc>4.000000</vAcc></extensions></trkpt>
      <trkpt lon="-123.280452" lat="44.569149"><ele>78.502083</ele><time>2020-10-13T01:00:25Z</time><extensions><speed>5.520000</speed><course>151.875000</course><hAcc>5.000000</hAcc><vAcc>4.000000</vAcc></extensions></trkpt>
      <trkpt lon="-123.280376" lat="44.569109"><ele>78.572884</ele><time>2020-10-13T01:00:26Z</time><extensions><speed>5.850000</speed><course>139.921875</course><hAcc>5.000000</hAcc><vAcc>4.000000</vAcc></extensions></trkpt>
      <trkpt lon="-123.280318" lat="44.569073"><ele>78.919746</ele><time>2020-10-13T01:00:27Z</time><extensions><speed>5.850000</speed><course>135.000000</course><hAcc>5.000000</hAcc><vAcc>4.000000</vAcc></extensions></trkpt>
      <trkpt lon="-123.280254" lat="44.569032"><ele>78.933784</ele><time>2020-10-13T01:00:28Z</time><extensions><speed>5.850000</speed><course>138.867188</course><hAcc>5.000000</hAcc><vAcc>4.000000</vAcc></extensions></trkpt>
      <trkpt lon="-123.280215" lat="44.569005"><ele>78.574104</ele><time>2020-10-13T01:00:29Z</time><extensions><speed>4.650000</speed><course>145.898438</course><hAcc>5.000000</hAcc><vAcc>4.000000</vAcc></extensions></trkpt>
      <trkpt lon="-123.280185" lat="44.568960"><ele>78.871284</ele><time>2020-10-13T01:00:30Z</time><extensions><speed>4.700000</speed><course>155.039062</course><hAcc>5.000000</hAcc><vAcc>4.000000</vAcc></extensions></trkpt>
      <trkpt lon="-123.280177" lat="44.568884"><ele>78.841805</ele><time>2020-10-13T01:00:31Z</time><extensions><speed>4.700000</speed><course>173.320312</course><hAcc>5.000000</hAcc><vAcc>4.000000</vAcc></extensions></trkpt>
      <trkpt lon="-123.280172" lat="44.568823"><ele>79.068977</ele><time>2020-10-13T01:00:32Z</time><extensions><speed>6.620000</speed><course>177.187500</course><hAcc>5.000000</hAcc><vAcc>4.000000</vAcc></extensions></trkpt>
      <trkpt lon="-123.280176" lat="44.568771"><ele>79.701118</ele><time>2020-10-13T01:00:33Z</time><extensions><speed>6.620000</speed><course>180.703125</course><hAcc>5.000000</hAcc><vAcc>3.000000</vAcc></extensions></trkpt>
      <trkpt lon="-123.280178" lat="44.568699"><ele>80.286812</ele><time>2020-10-13T01:00:34Z</time><extensions><speed>7.370000</speed><course>181.406250</course><hAcc>5.000000</hAcc><vAcc>3.000000</vAcc></extensions></trkpt>
      <trkpt lon="-123.280175" lat="44.568616"><ele>80.236702</ele><time>2020-10-13T01:00:35Z</time><extensions><speed>7.440000</speed><course>179.648438</course><hAcc>5.000000</hAcc><vAcc>3.000000</vAcc></extensions></trkpt>
      <trkpt lon="-123.280155" lat="44.568556"><ele>80.664009</ele><time>2020-10-13T01:00:36Z</time><extensions><speed>7.370000</speed><course>177.539062</course><hAcc>5.000000</hAcc><vAcc>3.000000</vAcc></extensions></trkpt>
      <trkpt lon="-123.280142" lat="44.568504"><ele>80.570076</ele><time>2020-10-13T01:00:37Z</time><extensions><speed>7.310000</speed><course>178.242188</course><hAcc>5.000000</hAcc><vAcc>3.000000</vAcc></extensions></trkpt>
      <trkpt lon="-123.280137" lat="44.568459"><ele>80.844673</ele><time>2020-10-13T01:00:38Z</time><extensions><speed>6.950000</speed><course>180.351562</course><hAcc>5.000000</hAcc><vAcc>3.000000</vAcc></extensions></trkpt>
      <trkpt lon="-123.280124" lat="44.568398"><ele>81.934456</ele><time>2020-10-13T01:00:39Z</time><extensions><speed>5.120000</speed><course>178.945312</course><hAcc>5.000000</hAcc><vAcc>3.000000</vAcc></extensions></trkpt>
      <trkpt lon="-123.280112" lat="44.568311"><ele>82.070259</ele><time>2020-10-13T01:00:40Z</time><extensions><speed>6.480000</speed><course>176.484375</course><hAcc>5.000000</hAcc><vAcc>3.000000</vAcc></extensions></trkpt>
      <trkpt lon="-123.280110" lat="44.568232"><ele>82.052315</ele><time>2020-10-13T01:00:41Z</time><extensions><speed>6.480000</speed><course>178.242188</course><hAcc>5.000000</hAcc><vAcc>3.000000</vAcc></extensions></trkpt>
      <trkpt lon="-123.280104" lat="44.568164"><ele>81.917854</ele><time>2020-10-13T01:00:42Z</time><extensions><speed>6.110000</speed><course>181.054688</course><hAcc>5.000000</hAcc><vAcc>3.000000</vAcc></extensions></trkpt>
      <trkpt lon="-123.280100" lat="44.568105"><ele>82.619453</ele><time>2020-10-13T01:00:43Z</time><extensions><speed>6.250000</speed><course>178.242188</course><hAcc>5.000000</hAcc><vAcc>3.000000</vAcc></extensions></trkpt>
      <trkpt lon="-123.280090" lat="44.568053"><ele>82.764473</ele><time>2020-10-13T01:00:44Z</time><extensions><speed>6.180000</speed><course>175.429688</course><hAcc>5.000000</hAcc><vAcc>3.000000</vAcc></extensions></trkpt>
      <trkpt lon="-123.280092" lat="44.568013"><ele>83.117500</ele><time>2020-10-13T01:00:45Z</time><extensions><speed>5.790000</speed><course>182.460938</course><hAcc>5.000000</hAcc><vAcc>3.000000</vAcc></extensions></trkpt>
      <trkpt lon="-123.280101" lat="44.567959"><ele>83.532234</ele><time>2020-10-13T01:00:46Z</time><extensions><speed>6.540000</speed><course>185.273438</course><hAcc>5.000000</hAcc><vAcc>3.000000</vAcc></extensions></trkpt>
      <trkpt lon="-123.280109" lat="44.567917"><ele>83.932808</ele><time>2020-10-13T01:00:47Z</time><extensions><speed>5.830000</speed><course>185.273438</course><hAcc>5.000000</hAcc><vAcc>3.000000</vAcc></extensions></trkpt>
      <trkpt lon="-123.280115" lat="44.567864"><ele>83.572334</ele><time>2020-10-13T01:00:48Z</time><extensions><speed>5.830000</speed><course>185.273438</course><hAcc>5.000000</hAcc><vAcc>3.000000</vAcc></extensions></trkpt>
      <trkpt lon="-123.280073" lat="44.567851"><ele>85.177437</ele><time>2020-10-13T01:00:49Z</time><extensions><speed>4.850000</speed><course>174.375000</course><hAcc>5.000000</hAcc><vAcc>3.000000</vAcc></extensions></trkpt>
      <trkpt lon="-123.280066" lat="44.567807"><ele>84.760567</ele><time>2020-10-13T01:00:50Z</time><extensions><speed>4.860000</speed><course>174.375000</course><hAcc>5.000000</hAcc><vAcc>3.000000</vAcc></extensions></trkpt>
      <trkpt lon="-123.280078" lat="44.567750"><ele>84.884956</ele><time>2020-10-13T01:00:51Z</time><extensions><speed>4.860000</speed><course>182.812500</course><hAcc>5.000000</hAcc><vAcc>3.000000</vAcc></extensions></trkpt>
      <trkpt lon="-123.280082" lat="44.567685"><ele>85.690804</ele><time>2020-10-13T01:00:52Z</time><extensions><speed>5.300000</speed><course>180.351562</course><hAcc>5.000000</hAcc><vAcc>3.000000</vAcc></extensions></trkpt>
      <trkpt lon="-123.280085" lat="44.567627"><ele>86.453682</ele><time>2020-10-13T01:00:53Z</time><extensions><speed>5.740000</speed><course>178.945312</course><hAcc>5.000000</hAcc><vAcc>3.000000</vAcc></extensions></trkpt>
      <trkpt lon="-123.280082" lat="44.567571"><ele>87.165352</ele><time>2020-10-13T01:00:54Z</time><extensions><speed>6.040000</speed><course>177.890625</course><hAcc>5.000000</hAcc><vAcc>3.000000</vAcc></extensions></trkpt>
      <trkpt lon="-123.280072" lat="44.567510"><ele>87.095284</ele><time>2020-10-13T01:00:55Z</time><extensions><speed>6.280000</speed><course>176.484375</course><hAcc>5.000000</hAcc><vAcc>3.000000</vAcc></extensions></trkpt>
      <trkpt lon="-123.280072" lat="44.567469"><ele>86.901497</ele><time>2020-10-13T01:00:56Z</time><extensions><speed>6.040000</speed><course>176.484375</course><hAcc>5.000000</hAcc><vAcc>3.000000</vAcc></extensions></trkpt>
      <trkpt lon="-123.280061" lat="44.567408"><ele>87.758858</ele><time>2020-10-13T01:00:57Z</time><extensions><speed>6.050000</speed><course>178.242188</course><hAcc>5.000000</hAcc><vAcc>3.000000</vAcc></extensions></trkpt>
      <trkpt lon="-123.280049" lat="44.567358"><ele>87.105476</ele><time>2020-10-13T01:00:58Z</time><extensions><speed>6.210000</speed><course>175.781250</course><hAcc>5.000000</hAcc><vAcc>3.000000</vAcc></extensions></trkpt>
      <trkpt lon="-123.280052" lat="44.567307"><ele>86.650154</ele><time>2020-10-13T01:00:59Z</time><extensions><speed>6.500000</speed><course>176.132812</course><hAcc>5.000000</hAcc><vAcc>3.000000</vAcc></extensions></trkpt>
      <trkpt lon="-123.280051" lat="44.567244"><ele>85.195869</ele><time>2020-10-13T01:01:00Z</time><extensions><speed>6.210000</speed><course>177.187500</course><hAcc>5.000000</hAcc><vAcc>3.000000</vAcc></extensions></trkpt>
      <trkpt lon="-123.280051" lat="44.567169"><ele>83.852058</ele><time>2020-10-13T01:01:01Z</time><extensions><speed>6.500000</speed><course>182.460938</course><hAcc>5.000000</hAcc><vAcc>4.000000</vAcc></extensions></trkpt>
      <trkpt lon="-123.280055" lat="44.567111"><ele>83.588142</ele><time>2020-10-13T01:01:02Z</time><extensions><speed>6.490000</speed><course>182.460938</course><hAcc>5.000000</hAcc><vAcc>4.000000</vAcc></extensions></trkpt>
      <trkpt lon="-123.280060" lat="44.567095"><ele>83.067329</ele><time>2020-10-13T01:01:03Z</time><extensions><speed>6.490000</speed><course>188.789062</course><hAcc>5.000000</hAcc><vAcc>4.000000</vAcc></extensions></trkpt>
      <trkpt lon="-123.280071" lat="44.567058"><ele>82.927071</ele><time>2020-10-13T01:01:04Z</time><extensions><speed>5.270000</speed><course>189.843750</course><hAcc>5.000000</hAcc><vAcc>4.000000</vAcc></extensions></trkpt>
      <trkpt lon="-123.280072" lat="44.567020"><ele>83.007942</ele><time>2020-10-13T01:01:05Z</time><extensions><speed>3.630000</speed><course>180.703125</course><hAcc>5.000000</hAcc><vAcc>4.000000</vAcc></extensions></trkpt>
      <trkpt lon="-123.280085" lat="44.566996"><ele>83.317757</ele><time>2020-10-13T01:01:06Z</time><extensions><speed>1.700000</speed><course>189.492188</course><hAcc>5.000000</hAcc><vAcc>4.000000</vAcc></extensions></trkpt>
      <trkpt lon="-123.280101" lat="44.566935"><ele>84.053047</ele><time>2020-10-13T01:01:07Z</time><extensions><speed>4.960000</speed><course>184.921875</course><hAcc>5.000000</hAcc><vAcc>4.000000</vAcc></extensions></trkpt>
      <trkpt lon="-123.280107" lat="44.566886"><ele>84.317513</ele><time>2020-10-13T01:01:08Z</time><extensions><speed>4.830000</speed><course>179.296875</course><hAcc>5.000000</hAcc><vAcc>4.000000</vAcc></extensions></trkpt>
      <trkpt lon="-123.280056" lat="44.566780"><ele>83.213081</ele><time>2020-10-13T01:01:09Z</time><extensions><speed>4.960000</speed><course>178.945312</course><hAcc>5.000000</hAcc><vAcc>4.000000</vAcc></extensions></trkpt>
      <trkpt lon="-123.280044" lat="44.566688"><ele>82.610725</ele><time>2020-10-13T01:01:10Z</time><extensions><speed>5.460000</speed><course>175.781250</course><hAcc>5.000000</hAcc><vAcc>4.000000</vAcc></extensions></trkpt>
      <trkpt lon="-123.280038" lat="44.566632"><ele>82.672493</ele><time>2020-10-13T01:01:11Z</time><extensions><speed>6.200000</speed><course>175.429688</course><hAcc>10.000000</hAcc><vAcc>4.000000</vAcc></extensions></trkpt>
      <trkpt lon="-123.280058" lat="44.566581"><ele>82.629585</ele><time>2020-10-13T01:01:12Z</time><extensions><speed>6.200000</speed><course>185.273438</course><hAcc>10.000000</hAcc><vAcc>4.000000</vAcc></extensions></trkpt>
      <trkpt lon="-123.280058" lat="44.566536"><ele>82.811287</ele><time>2020-10-13T01:01:13Z</time><extensions><speed>6.000000</speed><course>176.835938</course><hAcc>10.000000</hAcc><vAcc>4.000000</vAcc></extensions></trkpt>
      <trkpt lon="-123.280053" lat="44.566502"><ele>83.063423</ele><time>2020-10-13T01:01:14Z</time><extensions><speed>5.970000</speed><course>176.835938</course><hAcc>10.000000</hAcc><vAcc>4.000000</vAcc></extensions></trkpt>
      <trkpt lon="-123.280048" lat="44.566449"><ele>82.782234</ele><time>2020-10-13T01:01:15Z</time><extensions><speed>5.210000</speed><course>176.835938</course><hAcc>10.000000</hAcc><vAcc>4.000000</vAcc></extensions></trkpt>
      <trkpt lon="-123.280013" lat="44.566369"><ele>82.774666</ele><time>2020-10-13T01:01:16Z</time><extensions><speed>5.330000</speed><course>165.585938</course><hAcc>10.000000</hAcc><vAcc>4.000000</vAcc></extensions></trkpt>
      <trkpt lon="-123.279994" lat="44.566329"><ele>82.521980</ele><time>2020-10-13T01:01:17Z</time><extensions><speed>5.210000</speed><course>164.531250</course><hAcc>10.000000</hAcc><vAcc>4.000000</vAcc></extensions></trkpt>
      <trkpt lon="-123.280004" lat="44.566285"><ele>82.818245</ele><time>2020-10-13T01:01:18Z</time><extensions><speed>5.210000</speed><course>178.593750</course><hAcc>10.000000</hAcc><vAcc>4.000000</vAcc></extensions></trkpt>
      <trkpt lon="-123.279998" lat="44.566260"><ele>83.259224</ele><time>2020-10-13T01:01:19Z</time><extensions><speed>3.590000</speed><course>178.593750</course><hAcc>10.000000</hAcc><vAcc>4.000000</vAcc></extensions></trkpt>
      <trkpt lon="-123.280011" lat="44.566186"><ele>82.719246</ele><time>2020-10-13T01:01:20Z</time><extensions><speed>3.860000</speed><course>189.843750</course><hAcc>10.000000</hAcc><vAcc>4.000000</vAcc></extensions></trkpt>
      <trkpt lon="-123.280019" lat="44.566152"><ele>82.429512</ele><time>2020-10-13T01:01:21Z</time><extensions><speed>3.860000</speed><course>189.843750</course><hAcc>10.000000</hAcc><vAcc>4.000000</vAcc></extensions></trkpt>
      <trkpt lon="-123.280006" lat="44.566021"><ele>82.129707</ele><time>2020-10-13T01:01:22Z</time><extensions><speed>3.860000</speed><course>180.351562</course><hAcc>10.000000</hAcc><vAcc>4.000000</vAcc></extensions></trkpt>
      <trkpt lon="-123.280013" lat="44.565954"><ele>81.961372</ele><time>2020-10-13T01:01:23Z</time><extensions><speed>5.520000</speed><course>181.054688</course><hAcc>10.000000</hAcc><vAcc>4.000000</vAcc></extensions></trkpt>
      <trkpt lon="-123.280021" lat="44.565858"><ele>81.837288</ele><time>2020-10-13T01:01:24Z</time><extensions><speed>7.030000</speed><course>182.460938</course><hAcc>10.000000</hAcc><vAcc>4.000000</vAcc></extensions></trkpt>
      <trkpt lon="-123.280012" lat="44.565776"><ele>81.852608</ele><time>2020-10-13T01:01:25Z</time><extensions><speed>7.030000</speed><course>178.242188</course><hAcc>10.000000</hAcc><vAcc>4.000000</vAcc></extensions></trkpt>
      <trkpt lon="-123.279992" lat="44.565710"><ele>82.431343</ele><time>2020-10-13T01:01:26Z</time><extensions><speed>6.830000</speed><course>177.890625</course><hAcc>5.000000</hAcc><vAcc>4.000000</vAcc></extensions></trkpt>
      <trkpt lon="-123.279992" lat="44.565631"><ele>82.646309</ele><time>2020-10-13T01:01:27Z</time><extensions><speed>6.830000</speed><course>179.296875</course><hAcc>5.000000</hAcc><vAcc>4.000000</vAcc></extensions></trkpt>
      <trkpt lon="-123.280019" lat="44.565589"><ele>82.733467</ele><time>2020-10-13T01:01:28Z</time><extensions><speed>6.830000</speed><course>188.789062</course><hAcc>5.000000</hAcc><vAcc>4.000000</vAcc></extensions></trkpt>
      <trkpt lon="-123.280018" lat="44.565522"><ele>82.673103</ele><time>2020-10-13T01:01:29Z</time><extensions><speed>7.160000</speed><course>181.757812</course><hAcc>5.000000</hAcc><vAcc>4.000000</vAcc></extensions></trkpt>
      <trkpt lon="-123.280036" lat="44.565455"><ele>83.229683</ele><time>2020-10-13T01:01:30Z</time><extensions><speed>7.160000</speed><course>181.406250</course><hAcc>5.000000</hAcc><vAcc>4.000000</vAcc></extensions></trkpt>
      <trkpt lon="-123.280048" lat="44.565387"><ele>83.288521</ele><time>2020-10-13T01:01:31Z</time><extensions><speed>7.160000</speed><course>181.406250</course><hAcc>5.000000</hAcc><vAcc>4.000000</vAcc></extensions></trkpt>
      <trkpt lon="-123.280058" lat="44.565322"><ele>83.068123</ele><time>2020-10-13T01:01:32Z</time><extensions><speed>7.250000</speed><course>180.000000</course><hAcc>10.000000</hAcc><vAcc>4.000000</vAcc></extensions></trkpt>
      <trkpt lon="-123.280049" lat="44.565241"><ele>83.110664</ele><time>2020-10-13T01:01:33Z</time><extensions><speed>7.090000</speed><course>178.945312</course><hAcc>5.000000</hAcc><vAcc>4.000000</vAcc></extensions></trkpt>
      <trkpt lon="-123.280050" lat="44.565163"><ele>83.235725</ele><time>2020-10-13T01:01:34Z</time><extensions><speed>7.140000</speed><course>181.406250</course><hAcc>5.000000</hAcc><vAcc>4.000000</vAcc></extensions></trkpt>
      <trkpt lon="-123.280053" lat="44.565101"><ele>83.236946</ele><time>2020-10-13T01:01:35Z</time><extensions><speed>6.960000</speed><course>182.460938</course><hAcc>10.000000</hAcc><vAcc>4.000000</vAcc></extensions></trkpt>
      <trkpt lon="-123.280060" lat="44.565073"><ele>83.374825</ele><time>2020-10-13T01:01:36Z</time><extensions><speed>4.760000</speed><course>184.218750</course><hAcc>5.000000</hAcc><vAcc>4.000000</vAcc></extensions></trkpt>
      <trkpt lon="-123.280049" lat="44.565006"><ele>82.892036</ele><time>2020-10-13T01:01:37Z</time><extensions><speed>5.110000</speed><course>177.187500</course><hAcc>5.000000</hAcc><vAcc>4.000000</vAcc></extensions></trkpt>
      <trkpt lon="-123.280054" lat="44.564964"><ele>83.413094</ele><time>2020-10-13T01:01:38Z</time><extensions><speed>4.550000</speed><course>191.250000</course><hAcc>5.000000</hAcc><vAcc>4.000000</vAcc></extensions></trkpt>
      <trkpt lon="-123.280047" lat="44.564913"><ele>83.356575</ele><time>2020-10-13T01:01:39Z</time><extensions><speed>4.820000</speed><course>183.515625</course><hAcc>5.000000</hAcc><vAcc>4.000000</vAcc></extensions></trkpt>
      <trkpt lon="-123.280043" lat="44.564858"><ele>83.052437</ele><time>2020-10-13T01:01:40Z</time><extensions><speed>4.820000</speed><course>180.000000</course><hAcc>10.000000</hAcc><vAcc>4.000000</vAcc></extensions></trkpt>
      <trkpt lon="-123.279999" lat="44.564780"><ele>82.465340</ele><time>2020-10-13T01:01:41Z</time><extensions><speed>5.190000</speed><course>159.609375</course><hAcc>5.000000</hAcc><vAcc>4.000000</vAcc></extensions></trkpt>
      <trkpt lon="-123.280003" lat="44.564680"><ele>80.677681</ele><time>2020-10-13T01:01:42Z</time><extensions><speed>6.550000</speed><course>166.289062</course><hAcc>5.000000</hAcc><vAcc>4.000000</vAcc></extensions></trkpt>
      <trkpt lon="-123.279983" lat="44.564623"><ele>80.382576</ele><time>2020-10-13T01:01:43Z</time><extensions><speed>6.550000</speed><course>166.289062</course><hAcc>5.000000</hAcc><vAcc>4.000000</vAcc></extensions></trkpt>
      <trkpt lon="-123.279983" lat="44.564556"><ele>80.376045</ele><time>2020-10-13T01:01:44Z</time><extensions><speed>6.550000</speed><course>172.265625</course><hAcc>5.000000</hAcc><vAcc>4.000000</vAcc></extensions></trkpt>
      <trkpt lon="-123.280002" lat="44.564493"><ele>80.289314</ele><time>2020-10-13T01:01:45Z</time><extensions><speed>7.040000</speed><course>180.703125</course><hAcc>5.000000</hAcc><vAcc>4.000000</vAcc></extensions></trkpt>
      <trkpt lon="-123.280006" lat="44.564436"><ele>79.587471</ele><time>2020-10-13T01:01:46Z</time><extensions><speed>7.120000</speed><course>192.656250</course><hAcc>5.000000</hAcc><vAcc>4.000000</vAcc></extensions></trkpt>
      <trkpt lon="-123.280043" lat="44.564380"><ele>79.165169</ele><time>2020-10-13T01:01:47Z</time><extensions><speed>6.810000</speed><course>195.468750</course><hAcc>5.000000</hAcc><vAcc>4.000000</vAcc></extensions></trkpt>
      <trkpt lon="-123.280064" lat="44.564327"><ele>79.332283</ele><time>2020-10-13T01:01:48Z</time><extensions><speed>6.950000</speed><course>194.062500</course><hAcc>5.000000</hAcc><vAcc>4.000000</vAcc></extensions></trkpt>
      <trkpt lon="-123.280044" lat="44.564256"><ele>79.375008</ele><time>2020-10-13T01:01:49Z</time><extensions><speed>6.950000</speed><course>178.593750</course><hAcc>10.000000</hAcc><vAcc>4.000000</vAcc></extensions></trkpt>
      <trkpt lon="-123.280035" lat="44.564194"><ele>79.595650</ele><time>2020-10-13T01:01:50Z</time><extensions><speed>6.980000</speed><course>174.726562</course><hAcc>10.000000</hAcc><vAcc>4.000000</vAcc></extensions></trkpt>
      <trkpt lon="-123.280027" lat="44.564132"><ele>79.428352</ele><time>2020-10-13T01:01:51Z</time><extensions><speed>7.020000</speed><course>179.296875</course><hAcc>10.000000</hAcc><vAcc>4.000000</vAcc></extensions></trkpt>
      <trkpt lon="-123.280003" lat="44.564061"><ele>79.334114</ele><time>2020-10-13T01:01:52Z</time><extensions><speed>7.260000</speed><course>168.750000</course><hAcc>10.000000</hAcc><vAcc>4.000000</vAcc></extensions></trkpt>
      <trkpt lon="-123.279979" lat="44.564002"><ele>78.900398</ele><time>2020-10-13T01:01:53Z</time><extensions><speed>7.000000</speed><course>166.640625</course><hAcc>10.000000</hAcc><vAcc>4.000000</vAcc></extensions></trkpt>
      <trkpt lon="-123.279967" lat="44.563944"><ele>78.449226</ele><time>2020-10-13T01:01:54Z</time><extensions><speed>6.780000</speed><course>171.562500</course><hAcc>10.000000</hAcc><vAcc>4.000000</vAcc></extensions></trkpt>
      <trkpt lon="-123.279957" lat="44.563880"><ele>78.342476</ele><time>2020-10-13T01:01:55Z</time><extensions><speed>7.040000</speed><course>174.023438</course><hAcc>10.000000</hAcc><vAcc>4.000000</vAcc></extensions></trkpt>
      <trkpt lon="-123.279934" lat="44.563803"><ele>78.171883</ele><time>2020-10-13T01:01:56Z</time><extensions><speed>7.740000</speed><course>168.750000</course><hAcc>10.000000</hAcc><vAcc>4.000000</vAcc></extensions></trkpt>
      <trkpt lon="-123.279896" lat="44.563730"><ele>77.848091</ele><time>2020-10-13T01:01:57Z</time><extensions><speed>8.310000</speed><course>162.421875</course><hAcc>5.000000</hAcc><vAcc>4.000000</vAcc></extensions></trkpt>
      <trkpt lon="-123.279890" lat="44.563646"><ele>77.968208</ele><time>2020-10-13T01:01:58Z</time><extensions><speed>8.700000</speed><course>172.265625</course><hAcc>5.000000</hAcc><vAcc>4.000000</vAcc></extensions></trkpt>
      <trkpt lon="-123.279879" lat="44.563560"><ele>77.571968</ele><time>2020-10-13T01:01:59Z</time><extensions><speed>8.520000</speed><course>174.726562</course><hAcc>5.000000</hAcc><vAcc>4.000000</vAcc></extensions></trkpt>
      <trkpt lon="-123.279825" lat="44.563481"><ele>77.185921</ele><time>2020-10-13T01:02:00Z</time><extensions><speed>8.540000</speed><course>166.640625</course><hAcc>5.000000</hAcc><vAcc>4.000000</vAcc></extensions></trkpt>
      <trkpt lon="-123.279774" lat="44.563407"><ele>76.904060</ele><time>2020-10-13T01:02:01Z</time><extensions><speed>7.880000</speed><course>162.773438</course><hAcc>5.000000</hAcc><vAcc>4.000000</vAcc></extensions></trkpt>
      <trkpt lon="-123.279764" lat="44.563339"><ele>76.798653</ele><time>2020-10-13T01:02:02Z</time><extensions><speed>7.320000</speed><course>166.992188</course><hAcc>5.000000</hAcc><vAcc>4.000000</vAcc></extensions></trkpt>
      <trkpt lon="-123.279710" lat="44.563297"><ele>76.545967</ele><time>2020-10-13T01:02:03Z</time><extensions><speed>6.650000</speed><course>158.554688</course><hAcc>5.000000</hAcc><vAcc>3.000000</vAcc></extensions></trkpt>
      <trkpt lon="-123.279647" lat="44.563263"><ele>76.678169</ele><time>2020-10-13T01:02:04Z</time><extensions><speed>6.070000</speed><course>139.921875</course><hAcc>5.000000</hAcc><vAcc>3.000000</vAcc></extensions></trkpt>
      <trkpt lon="-123.279595" lat="44.563241"><ele>76.739204</ele><time>2020-10-13T01:02:05Z</time><extensions><speed>5.250000</speed><course>125.859375</course><hAcc>5.000000</hAcc><vAcc>3.000000</vAcc></extensions></trkpt>
      <trkpt lon="-123.279533" lat="44.563236"><ele>76.720650</ele><time>2020-10-13T01:02:06Z</time><extensions><speed>4.640000</speed><course>88.945312</course><hAcc>5.000000</hAcc><vAcc>3.000000</vAcc></extensions></trkpt>
      <trkpt lon="-123.279499" lat="44.563251"><ele>76.858162</ele><time>2020-10-13T01:02:07Z</time><extensions><speed>3.120000</speed><course>67.500000</course><hAcc>5.000000</hAcc><vAcc>3.000000</vAcc></extensions></trkpt>
      <trkpt lon="-123.279481" lat="44.563265"><ele>76.478462</ele><time>2020-10-13T01:02:08Z</time><extensions><speed>1.750000</speed><course>36.210938</course><hAcc>5.000000</hAcc><vAcc>3.000000</vAcc></extensions></trkpt>
      <trkpt lon="-123.279465" lat="44.563276"><ele>75.442696</ele><time>2020-10-13T01:02:09Z</time><extensions><speed>1.750000</speed><course>355.429688</course><hAcc>5.000000</hAcc><vAcc>3.000000</vAcc></extensions></trkpt>
      <trkpt lon="-123.279455" lat="44.563292"><ele>74.926582</ele><time>2020-10-13T01:02:10Z</time><extensions><speed>0.750000</speed><course>355.781250</course><hAcc>5.000000</hAcc><vAcc>3.000000</vAcc></extensions></trkpt>
      <trkpt lon="-123.279455" lat="44.563292"><ele>75.009712</ele><time>2020-10-13T01:02:11Z</time><extensions><speed>0.000000</speed><course>355.781250</course><hAcc>5.000000</hAcc><vAcc>3.000000</vAcc></extensions></trkpt>
      <trkpt lon="-123.279454" lat="44.563303"><ele>74.967171</ele><time>2020-10-13T01:02:12Z</time><extensions><speed>0.170000</speed><course>355.781250</course><hAcc>5.000000</hAcc><vAcc>3.000000</vAcc></extensions></trkpt>
      <trkpt lon="-123.279454" lat="44.563303"><ele>76.165474</ele><time>2020-10-13T01:02:13Z</time><extensions><speed>0.000000</speed><course>355.781250</course><hAcc>5.000000</hAcc><vAcc>3.000000</vAcc></extensions></trkpt>
      <trkpt lon="-123.279454" lat="44.563303"><ele>75.898323</ele><time>2020-10-13T01:02:14Z</time><extensions><speed>0.000000</speed><course>355.781250</course><hAcc>5.000000</hAcc><vAcc>3.000000</vAcc></extensions></trkpt>
      <trkpt lon="-123.279454" lat="44.563303"><ele>76.054756</ele><time>2020-10-13T01:02:15Z</time><extensions><speed>0.000000</speed><course>355.781250</course><hAcc>5.000000</hAcc><vAcc>3.000000</vAcc></extensions></trkpt>
      <trkpt lon="-123.279454" lat="44.563303"><ele>76.100410</ele><time>2020-10-13T01:02:16Z</time><extensions><speed>0.000000</speed><course>355.781250</course><hAcc>5.000000</hAcc><vAcc>3.000000</vAcc></extensions></trkpt>
      <trkpt lon="-123.279454" lat="44.563303"><ele>76.101753</ele><time>2020-10-13T01:02:17Z</time><extensions><speed>0.000000</speed><course>355.781250</course><hAcc>5.000000</hAcc><vAcc>3.000000</vAcc></extensions></trkpt>
      <trkpt lon="-123.279454" lat="44.563303"><ele>75.567696</ele><time>2020-10-13T01:02:18Z</time><extensions><speed>0.000000</speed><course>355.781250</course><hAcc>5.000000</hAcc><vAcc>3.000000</vAcc></extensions></trkpt>
      <trkpt lon="-123.279454" lat="44.563303"><ele>75.021370</ele><time>2020-10-13T01:02:19Z</time><extensions><speed>0.000000</speed><course>355.781250</course><hAcc>5.000000</hAcc><vAcc>3.000000</vAcc></extensions></trkpt>
      <trkpt lon="-123.279454" lat="44.563303"><ele>75.021309</ele><time>2020-10-13T01:02:20Z</time><extensions><speed>0.000000</speed><course>355.781250</course><hAcc>5.000000</hAcc><vAcc>3.000000</vAcc></extensions></trkpt>
      <trkpt lon="-123.279454" lat="44.563303"><ele>74.705696</ele><time>2020-10-13T01:02:21Z</time><extensions><speed>0.000000</speed><course>355.781250</course><hAcc>5.000000</hAcc><vAcc>3.000000</vAcc></extensions></trkpt>
      <trkpt lon="-123.279454" lat="44.563303"><ele>74.616402</ele><time>2020-10-13T01:02:22Z</time><extensions><speed>0.000000</speed><course>355.781250</course><hAcc>5.000000</hAcc><vAcc>3.000000</vAcc></extensions></trkpt>
      <trkpt lon="-123.279454" lat="44.563303"><ele>74.364693</ele><time>2020-10-13T01:02:23Z</time><extensions><speed>0.000000</speed><course>355.781250</course><hAcc>5.000000</hAcc><vAcc>3.000000</vAcc></extensions></trkpt>
      <trkpt lon="-123.279454" lat="44.563303"><ele>74.363411</ele><time>2020-10-13T01:02:24Z</time><extensions><speed>0.000000</speed><course>355.781250</course><hAcc>5.000000</hAcc><vAcc>3.000000</vAcc></extensions></trkpt>
      <trkpt lon="-123.279454" lat="44.563303"><ele>74.299507</ele><time>2020-10-13T01:02:25Z</time><extensions><speed>0.000000</speed><course>355.781250</course><hAcc>5.000000</hAcc><vAcc>3.000000</vAcc></extensions></trkpt>
      <trkpt lon="-123.279454" lat="44.563303"><ele>74.254791</ele><time>2020-10-13T01:02:26Z</time><extensions><speed>0.000000</speed><course>355.781250</course><hAcc>5.000000</hAcc><vAcc>3.000000</vAcc></extensions></trkpt>
      <trkpt lon="-123.279454" lat="44.563303"><ele>74.272400</ele><time>2020-10-13T01:02:27Z</time><extensions><speed>0.000000</speed><course>355.781250</course><hAcc>5.000000</hAcc><vAcc>3.000000</vAcc></extensions></trkpt>
      <trkpt lon="-123.279454" lat="44.563303"><ele>74.185829</ele><time>2020-10-13T01:02:28Z</time><extensions><speed>0.000000</speed><course>355.781250</course><hAcc>5.000000</hAcc><vAcc>3.000000</vAcc></extensions></trkpt>
      <trkpt lon="-123.279457" lat="44.563316"><ele>74.188408</ele><time>2020-10-13T01:02:29Z</time><extensions><speed>0.420000</speed><course>355.781250</course><hAcc>5.000000</hAcc><vAcc>3.000000</vAcc></extensions></trkpt>
      <trkpt lon="-123.279457" lat="44.563316"><ele>74.201042</ele><time>2020-10-13T01:02:30Z</time><extensions><speed>0.000000</speed><course>355.781250</course><hAcc>5.000000</hAcc><vAcc>3.000000</vAcc></extensions></trkpt>
      <trkpt lon="-123.279454" lat="44.563318"><ele>74.184433</ele><time>2020-10-13T01:02:31Z</time><extensions><speed>0.230000</speed><course>355.781250</course><hAcc>5.000000</hAcc><vAcc>3.000000</vAcc></extensions></trkpt>
      <trkpt lon="-123.279454" lat="44.563318"><ele>74.163292</ele><time>2020-10-13T01:02:32Z</time><extensions><speed>0.000000</speed><course>272.460938</course><hAcc>5.000000</hAcc><vAcc>3.000000</vAcc></extensions></trkpt>
      <trkpt lon="-123.279458" lat="44.563313"><ele>74.196281</ele><time>2020-10-13T01:02:33Z</time><extensions><speed>0.230000</speed><course>175.078125</course><hAcc>5.000000</hAcc><vAcc>3.000000</vAcc></extensions></trkpt>
      <trkpt lon="-123.279452" lat="44.563307"><ele>74.192131</ele><time>2020-10-13T01:02:34Z</time><extensions><speed>0.390000</speed><course>128.320312</course><hAcc>5.000000</hAcc><vAcc>3.000000</vAcc></extensions></trkpt>
      <trkpt lon="-123.279446" lat="44.563303"><ele>74.274345</ele><time>2020-10-13T01:02:35Z</time><extensions><speed>0.420000</speed><course>107.929688</course><hAcc>5.000000</hAcc><vAcc>3.000000</vAcc></extensions></trkpt>
      <trkpt lon="-123.279446" lat="44.563303"><ele>74.186066</ele><time>2020-10-13T01:02:36Z</time><extensions><speed>0.000000</speed><course>16.523438</course><hAcc>5.000000</hAcc><vAcc>3.000000</vAcc></extensions></trkpt>
      <trkpt lon="-123.279433" lat="44.563305"><ele>74.238617</ele><time>2020-10-13T01:02:37Z</time><extensions><speed>0.450000</speed><course>53.789062</course><hAcc>5.000000</hAcc><vAcc>4.000000</vAcc></extensions></trkpt>
      <trkpt lon="-123.279426" lat="44.563307"><ele>74.179680</ele><time>2020-10-13T01:02:38Z</time><extensions><speed>0.180000</speed><course>319.218750</course><hAcc>5.000000</hAcc><vAcc>4.000000</vAcc></extensions></trkpt>
      <trkpt lon="-123.279431" lat="44.563307"><ele>74.218536</ele><time>2020-10-13T01:02:39Z</time><extensions><speed>0.450000</speed><course>218.320312</course><hAcc>5.000000</hAcc><vAcc>4.000000</vAcc></extensions></trkpt>
      <trkpt lon="-123.279435" lat="44.563304"><ele>74.236984</ele><time>2020-10-13T01:02:40Z</time><extensions><speed>0.480000</speed><course>214.453125</course><hAcc>5.000000</hAcc><vAcc>3.000000</vAcc></extensions></trkpt>
      <trkpt lon="-123.279440" lat="44.563301"><ele>74.237823</ele><time>2020-10-13T01:02:41Z</time><extensions><speed>0.450000</speed><course>223.593750</course><hAcc>5.000000</hAcc><vAcc>3.000000</vAcc></extensions></trkpt>
      <trkpt lon="-123.279441" lat="44.563296"><ele>74.153831</ele><time>2020-10-13T01:02:42Z</time><extensions><speed>0.860000</speed><course>204.257812</course><hAcc>5.000000</hAcc><vAcc>3.000000</vAcc></extensions></trkpt>
      <trkpt lon="-123.279442" lat="44.563287"><ele>74.201782</ele><time>2020-10-13T01:02:43Z</time><extensions><speed>0.860000</speed><course>191.250000</course><hAcc>5.000000</hAcc><vAcc>3.000000</vAcc></extensions></trkpt>
      <trkpt lon="-123.279442" lat="44.563276"><ele>73.996353</ele><time>2020-10-13T01:02:44Z</time><extensions><speed>1.290000</speed><course>180.351562</course><hAcc>5.000000</hAcc><vAcc>3.000000</vAcc></extensions></trkpt>
      <trkpt lon="-123.279440" lat="44.563264"><ele>74.033340</ele><time>2020-10-13T01:02:45Z</time><extensions><speed>1.330000</speed><course>174.726562</course><hAcc>5.000000</hAcc><vAcc>3.000000</vAcc></extensions></trkpt>
      <trkpt lon="-123.279434" lat="44.563251"><ele>73.982857</ele><time>2020-10-13T01:02:46Z</time><extensions><speed>1.430000</speed><course>164.882812</course><hAcc>5.000000</hAcc><vAcc>3.000000</vAcc></extensions></trkpt>
      <trkpt lon="-123.279426" lat="44.563243"><ele>74.165367</ele><time>2020-10-13T01:02:47Z</time><extensions><speed>1.330000</speed><course>156.093750</course><hAcc>5.000000</hAcc><vAcc>3.000000</vAcc></extensions></trkpt>
      <trkpt lon="-123.279413" lat="44.563238"><ele>74.222046</ele><time>2020-10-13T01:02:48Z</time><extensions><speed>1.370000</speed><course>95.976562</course><hAcc>5.000000</hAcc><vAcc>3.000000</vAcc></extensions></trkpt>
      <trkpt lon="-123.279398" lat="44.563233"><ele>74.270554</ele><time>2020-10-13T01:02:49Z</time><extensions><speed>1.080000</speed><course>116.015625</course><hAcc>5.000000</hAcc><vAcc>3.000000</vAcc></extensions></trkpt>
      <trkpt lon="-123.279378" lat="44.563230"><ele>73.748711</ele><time>2020-10-13T01:02:50Z</time><extensions><speed>1.610000</speed><course>105.117188</course><hAcc>5.000000</hAcc><vAcc>3.000000</vAcc></extensions></trkpt>
      <trkpt lon="-123.279358" lat="44.563227"><ele>73.955147</ele><time>2020-10-13T01:02:51Z</time><extensions><speed>1.410000</speed><course>101.601562</course><hAcc>5.000000</hAcc><vAcc>3.000000</vAcc></extensions></trkpt>
      <trkpt lon="-123.279339" lat="44.563223"><ele>73.703773</ele><time>2020-10-13T01:02:52Z</time><extensions><speed>1.410000</speed><course>101.601562</course><hAcc>5.000000</hAcc><vAcc>3.000000</vAcc></extensions></trkpt>
      <trkpt lon="-123.279322" lat="44.563220"><ele>73.717461</ele><time>2020-10-13T01:02:53Z</time><extensions><speed>1.410000</speed><course>98.789062</course><hAcc>5.000000</hAcc><vAcc>3.000000</vAcc></extensions></trkpt>
      <trkpt lon="-123.279304" lat="44.563218"><ele>73.582283</ele><time>2020-10-13T01:02:54Z</time><extensions><speed>1.400000</speed><course>87.890625</course><hAcc>5.000000</hAcc><vAcc>3.000000</vAcc></extensions></trkpt>
      <trkpt lon="-123.279287" lat="44.563216"><ele>73.722496</ele><time>2020-10-13T01:02:55Z</time><extensions><speed>1.400000</speed><course>100.195312</course><hAcc>5.000000</hAcc><vAcc>3.000000</vAcc></extensions></trkpt>
      <trkpt lon="-123.279269" lat="44.563214"><ele>73.636192</ele><time>2020-10-13T01:02:56Z</time><extensions><speed>1.400000</speed><course>96.328125</course><hAcc>5.000000</hAcc><vAcc>3.000000</vAcc></extensions></trkpt>
      <trkpt lon="-123.279250" lat="44.563212"><ele>73.510002</ele><time>2020-10-13T01:02:57Z</time><extensions><speed>1.430000</speed><course>87.187500</course><hAcc>5.000000</hAcc><vAcc>3.000000</vAcc></extensions></trkpt>
      <trkpt lon="-123.279233" lat="44.563210"><ele>73.441086</ele><time>2020-10-13T01:02:58Z</time><extensions><speed>1.320000</speed><course>94.570312</course><hAcc>5.000000</hAcc><vAcc>3.000000</vAcc></extensions></trkpt>
      <trkpt lon="-123.279215" lat="44.563209"><ele>73.403969</ele><time>2020-10-13T01:02:59Z</time><extensions><speed>1.430000</speed><course>97.382812</course><hAcc>5.000000</hAcc><vAcc>3.000000</vAcc></extensions></trkpt>
      <trkpt lon="-123.279198" lat="44.563207"><ele>72.681282</ele><time>2020-10-13T01:03:00Z</time><extensions><speed>1.430000</speed><course>88.242188</course><hAcc>5.000000</hAcc><vAcc>3.000000</vAcc></extensions></trkpt>
      <trkpt lon="-123.279182" lat="44.563206"><ele>72.220505</ele><time>2020-10-13T01:03:01Z</time><extensions><speed>1.430000</speed><course>80.507812</course><hAcc>5.000000</hAcc><vAcc>3.000000</vAcc></extensions></trkpt>
      <trkpt lon="-123.279167" lat="44.563206"><ele>71.705177</ele><time>2020-10-13T01:03:02Z</time><extensions><speed>1.250000</speed><course>95.625000</course><hAcc>5.000000</hAcc><vAcc>3.000000</vAcc></extensions></trkpt>
      <trkpt lon="-123.279151" lat="44.563206"><ele>71.580650</ele><time>2020-10-13T01:03:03Z</time><extensions><speed>1.400000</speed><course>80.156250</course><hAcc>5.000000</hAcc><vAcc>3.000000</vAcc></extensions></trkpt>
      <trkpt lon="-123.279134" lat="44.563206"><ele>71.180885</ele><time>2020-10-13T01:03:04Z</time><extensions><speed>1.400000</speed><course>87.890625</course><hAcc>5.000000</hAcc><vAcc>3.000000</vAcc></extensions></trkpt>
      <trkpt lon="-123.279119" lat="44.563206"><ele>71.277641</ele><time>2020-10-13T01:03:05Z</time><extensions><speed>1.360000</speed><course>85.078125</course><hAcc>5.000000</hAcc><vAcc>3.000000</vAcc></extensions></trkpt>
      <trkpt lon="-123.279109" lat="44.563208"><ele>71.005836</ele><time>2020-10-13T01:03:06Z</time><extensions><speed>1.230000</speed><course>51.679688</course><hAcc>5.000000</hAcc><vAcc>3.000000</vAcc></extensions></trkpt>
    </trkseg>
  </trk>
</gpx>