<?xml version="1.0" encoding="UTF-8"?>
<gpx version="1.1" creator="Apple Health Export" xmlns="http://www.topografix.com/GPX/1/1" xmlns:xsi="http://www.w3.org/2001/XMLSchema-instance" xsi:schemaLocation="http://www.topografix.com/GPX/1/1 http://www.topografix.com/GPX/1/1/gpx.xsd">
  <metadata>
    <time>2021-02-21T19:24:47Z</time>
  </metadata>
  <trk>
    <name>Route 2020-10-02 12:22pm</name>
    <trkseg>
      <trkpt lon="-123.280179" lat="44.565163"><ele>86.276375</ele><time>2020-10-02T19:21:19Z</time><extensions><speed>5.750000</speed><course>181.054688</course><hAcc>10.000000</hAcc><vAcc>12.000000</vAcc></extensions></trkpt>
      <trkpt lon="-123.280094" lat="44.565149"><ele>90.282539</ele><time>2020-10-02T19:21:20Z</time><extensions><speed>7.570000</speed><course>184.570312</course><hAcc>5.000000</hAcc><vAcc>12.000000</vAcc></extensions></trkpt>
      <trkpt lon="-123.280047" lat="44.565180"><ele>79.100227</ele><time>2020-10-02T19:21:21Z</time><extensions><speed>5.230000</speed><course>172.265625</course><hAcc>10.000000</hAcc><vAcc>3.000000</vAcc></extensions></trkpt>
      <trkpt lon="-123.279933" lat="44.565151"><ele>78.951118</ele><time>2020-10-02T19:21:22Z</time><extensions><speed>7.570000</speed><course>172.968750</course><hAcc>10.000000</hAcc><vAcc>4.000000</vAcc></extensions></trkpt>
      <trkpt lon="-123.279921" lat="44.565081"><ele>78.712471</ele><time>2020-10-02T19:21:23Z</time><extensions><speed>6.000000</speed><course>172.265625</course><hAcc>10.000000</hAcc><vAcc>4.000000</vAcc></extensions></trkpt>
      <trkpt lon="-123.279958" lat="44.565001"><ele>78.696724</ele><time>2020-10-02T19:21:24Z</time><extensions><speed>5.780000</speed><course>181.406250</course><hAcc>10.000000</hAcc><vAcc>4.000000</vAcc></extensions></trkpt>
      <trkpt lon="-123.279949" lat="44.564922"><ele>78.663399</ele><time>2020-10-02T19:21:25Z</time><extensions><speed>5.850000</speed><course>179.296875</course><hAcc>10.000000</hAcc><vAcc>4.000000</vAcc></extensions></trkpt>
      <trkpt lon="-123.279942" lat="44.564834"><ele>77.066963</ele><time>2020-10-02T19:21:26Z</time><extensions><speed>5.850000</speed><course>182.109375</course><hAcc>5.000000</hAcc><vAcc>4.000000</vAcc></extensions></trkpt>
      <trkpt lon="-123.279956" lat="44.564771"><ele>76.343025</ele><time>2020-10-02T19:21:27Z</time><extensions><speed>5.850000</speed><course>182.109375</course><hAcc>5.000000</hAcc><vAcc>4.000000</vAcc></extensions></trkpt>
      <trkpt lon="-123.279957" lat="44.564723"><ele>76.110054</ele><time>2020-10-02T19:21:28Z</time><extensions><speed>5.680000</speed><course>180.351562</course><hAcc>5.000000</hAcc><vAcc>4.000000</vAcc></extensions></trkpt>
      <trkpt lon="-123.279938" lat="44.564677"><ele>75.684883</ele><time>2020-10-02T19:21:29Z</time><extensions><speed>5.680000</speed><course>179.648438</course><hAcc>5.000000</hAcc><vAcc>4.000000</vAcc></extensions></trkpt>
      <trkpt lon="-123.279945" lat="44.564630"><ele>75.499092</ele><time>2020-10-02T19:21:30Z</time><extensions><speed>5.330000</speed><course>181.054688</course><hAcc>5.000000</hAcc><vAcc>4.000000</vAcc></extensions></trkpt>
      <trkpt lon="-123.279947" lat="44.564580"><ele>75.353706</ele><time>2020-10-02T19:21:31Z</time><extensions><speed>5.510000</speed><course>176.484375</course><hAcc>5.000000</hAcc><vAcc>4.000000</vAcc></extensions></trkpt>
      <trkpt lon="-123.279927" lat="44.564501"><ele>73.194099</ele><time>2020-10-02T19:21:32Z</time><extensions><speed>5.510000</speed><course>179.648438</course><hAcc>5.000000</hAcc><vAcc>3.000000</vAcc></extensions></trkpt>
      <trkpt lon="-123.279930" lat="44.564448"><ele>72.264717</ele><time>2020-10-02T19:21:33Z</time><extensions><speed>5.510000</speed><course>184.218750</course><hAcc>5.000000</hAcc><vAcc>3.000000</vAcc></extensions></trkpt>
      <trkpt lon="-123.279937" lat="44.564398"><ele>72.259712</ele><time>2020-10-02T19:21:34Z</time><extensions><speed>5.550000</speed><course>182.812500</course><hAcc>5.000000</hAcc><vAcc>3.000000</vAcc></extensions></trkpt>
      <trkpt lon="-123.279967" lat="44.564345"><ele>72.732185</ele><time>2020-10-02T19:21:35Z</time><extensions><speed>5.750000</speed><course>186.328125</course><hAcc>5.000000</hAcc><vAcc>3.000000</vAcc></extensions></trkpt>
      <trkpt lon="-123.279959" lat="44.564305"><ele>71.682259</ele><time>2020-10-02T19:21:36Z</time><extensions><speed>5.750000</speed><course>191.953125</course><hAcc>5.000000</hAcc><vAcc>3.000000</vAcc></extensions></trkpt>
      <trkpt lon="-123.279963" lat="44.564254"><ele>71.078072</ele><time>2020-10-02T19:21:37Z</time><extensions><speed>5.750000</speed><course>181.054688</course><hAcc>5.000000</hAcc><vAcc>3.000000</vAcc></extensions></trkpt>
      <trkpt lon="-123.279956" lat="44.564191"><ele>70.852852</ele><time>2020-10-02T19:21:38Z</time><extensions><speed>5.880000</speed><course>178.945312</course><hAcc>5.000000</hAcc><vAcc>3.000000</vAcc></extensions></trkpt>
      <trkpt lon="-123.279954" lat="44.564134"><ele>71.104073</ele><time>2020-10-02T19:21:39Z</time><extensions><speed>5.900000</speed><course>171.210938</course><hAcc>5.000000</hAcc><vAcc>3.000000</vAcc></extensions></trkpt>
      <trkpt lon="-123.279947" lat="44.564064"><ele>70.588509</ele><time>2020-10-02T19:21:40Z</time><extensions><speed>6.770000</speed><course>175.781250</course><hAcc>5.000000</hAcc><vAcc>3.000000</vAcc></extensions></trkpt>
      <trkpt lon="-123.279912" lat="44.563998"><ele>69.971565</ele><time>2020-10-02T19:21:41Z</time><extensions><speed>6.770000</speed><course>165.937500</course><hAcc>5.000000</hAcc><vAcc>3.000000</vAcc></extensions></trkpt>
      <trkpt lon="-123.279894" lat="44.563936"><ele>70.340584</ele><time>2020-10-02T19:21:42Z</time><extensions><speed>6.770000</speed><course>167.343750</course><hAcc>5.000000</hAcc><vAcc>3.000000</vAcc></extensions></trkpt>
      <trkpt lon="-123.279872" lat="44.563881"><ele>69.653206</ele><time>2020-10-02T19:21:43Z</time><extensions><speed>6.730000</speed><course>171.914062</course><hAcc>5.000000</hAcc><vAcc>3.000000</vAcc></extensions></trkpt>
      <trkpt lon="-123.279859" lat="44.563820"><ele>69.307747</ele><time>2020-10-02T19:21:44Z</time><extensions><speed>6.810000</speed><course>170.156250</course><hAcc>5.000000</hAcc><vAcc>3.000000</vAcc></extensions></trkpt>
      <trkpt lon="-123.279832" lat="44.563763"><ele>70.208321</ele><time>2020-10-02T19:21:45Z</time><extensions><speed>7.300000</speed><course>164.179688</course><hAcc>5.000000</hAcc><vAcc>3.000000</vAcc></extensions></trkpt>
      <trkpt lon="-123.279806" lat="44.563697"><ele>69.739876</ele><time>2020-10-02T19:21:46Z</time><extensions><speed>7.500000</speed><course>161.015625</course><hAcc>5.000000</hAcc><vAcc>3.000000</vAcc></extensions></trkpt>
      <trkpt lon="-123.279757" lat="44.563640"><ele>69.223763</ele><time>2020-10-02T19:21:47Z</time><extensions><speed>7.330000</speed><course>154.687500</course><hAcc>5.000000</hAcc><vAcc>3.000000</vAcc></extensions></trkpt>
      <trkpt lon="-123.279736" lat="44.563571"><ele>69.642471</ele><time>2020-10-02T19:21:48Z</time><extensions><speed>7.340000</speed><course>160.664062</course><hAcc>5.000000</hAcc><vAcc>3.000000</vAcc></extensions></trkpt>
      <trkpt lon="-123.279697" lat="44.563513"><ele>68.577728</ele><time>2020-10-02T19:21:49Z</time><extensions><speed>7.600000</speed><course>163.125000</course><hAcc>5.000000</hAcc><vAcc>3.000000</vAcc></extensions></trkpt>
      <trkpt lon="-123.279672" lat="44.563442"><ele>68.302406</ele><time>2020-10-02T19:21:50Z</time><extensions><speed>8.170000</speed><course>163.828125</course><hAcc>5.000000</hAcc><vAcc>3.000000</vAcc></extensions></trkpt>
      <trkpt lon="-123.279647" lat="44.563381"><ele>67.967987</ele><time>2020-10-02T19:21:51Z</time><extensions><speed>6.440000</speed><course>159.609375</course><hAcc>5.000000</hAcc><vAcc>3.000000</vAcc></extensions></trkpt>
      <trkpt lon="-123.279621" lat="44.563328"><ele>67.857841</ele><time>2020-10-02T19:21:52Z</time><extensions><speed>5.790000</speed><course>155.039062</course><hAcc>5.000000</hAcc><vAcc>3.000000</vAcc></extensions></trkpt>
      <trkpt lon="-123.279547" lat="44.563291"><ele>68.195610</ele><time>2020-10-02T19:21:53Z</time><extensions><speed>5.500000</speed><course>131.484375</course><hAcc>5.000000</hAcc><vAcc>3.000000</vAcc></extensions></trkpt>
      <trkpt lon="-123.279493" lat="44.563269"><ele>67.878098</ele><time>2020-10-02T19:21:54Z</time><extensions><speed>4.930000</speed><course>105.117188</course><hAcc>5.000000</hAcc><vAcc>3.000000</vAcc></extensions></trkpt>
      <trkpt lon="-123.279451" lat="44.563265"><ele>67.602798</ele><time>2020-10-02T19:21:55Z</time><extensions><speed>4.530000</speed><course>73.476562</course><hAcc>5.000000</hAcc><vAcc>3.000000</vAcc></extensions></trkpt>
      <trkpt lon="-123.279396" lat="44.563276"><ele>67.687164</ele><time>2020-10-02T19:21:56Z</time><extensions><speed>4.530000</speed><course>49.218750</course><hAcc>5.000000</hAcc><vAcc>3.000000</vAcc></extensions></trkpt>
      <trkpt lon="-123.279419" lat="44.563291"><ele>67.822823</ele><time>2020-10-02T19:21:57Z</time><extensions><speed>4.530000</speed><course>31.289062</course><hAcc>5.000000</hAcc><vAcc>3.000000</vAcc></extensions></trkpt>
      <trkpt lon="-123.279419" lat="44.563291"><ele>67.698334</ele><time>2020-10-02T19:21:58Z</time><extensions><speed>0.000000</speed><course>31.992188</course><hAcc>5.000000</hAcc><vAcc>3.000000</vAcc></extensions></trkpt>
      <trkpt lon="-123.279410" lat="44.563310"><ele>67.861374</ele><time>2020-10-02T19:21:59Z</time><extensions><speed>0.380000</speed><course>24.609375</course><hAcc>5.000000</hAcc><vAcc>3.000000</vAcc></extensions></trkpt>
      <trkpt lon="-123.279410" lat="44.563310"><ele>68.185616</ele><time>2020-10-02T19:22:00Z</time><extensions><speed>0.000000</speed><course>24.609375</course><hAcc>5.000000</hAcc><vAcc>3.000000</vAcc></extensions></trkpt>
      <trkpt lon="-123.279410" lat="44.563310"><ele>68.332138</ele><time>2020-10-02T19:22:01Z</time><extensions><speed>0.000000</speed><course>24.609375</course><hAcc>5.000000</hAcc><vAcc>3.000000</vAcc></extensions></trkpt>
      <trkpt lon="-123.279410" lat="44.563310"><ele>68.354614</ele><time>2020-10-02T19:22:02Z</time><extensions><speed>0.000000</speed><course>24.609375</course><hAcc>5.000000</hAcc><vAcc>3.000000</vAcc></extensions></trkpt>
      <trkpt lon="-123.279410" lat="44.563310"><ele>68.516106</ele><time>2020-10-02T19:22:03Z</time><extensions><speed>0.000000</speed><course>24.609375</course><hAcc>5.000000</hAcc><vAcc>3.000000</vAcc></extensions></trkpt>
      <trkpt lon="-123.279410" lat="44.563310"><ele>68.571548</ele><time>2020-10-02T19:22:04Z</time><extensions><speed>0.000000</speed><course>24.609375</course><hAcc>5.000000</hAcc><vAcc>3.000000</vAcc></extensions></trkpt>
      <trkpt lon="-123.279410" lat="44.563310"><ele>68.535774</ele><time>2020-10-02T19:22:05Z</time><extensions><speed>0.000000</speed><course>24.609375</course><hAcc>5.000000</hAcc><vAcc>3.000000</vAcc></extensions></trkpt>
      <trkpt lon="-123.279410" lat="44.563310"><ele>68.698296</ele><time>2020-10-02T19:22:06Z</time><extensions><speed>0.000000</speed><course>24.609375</course><hAcc>5.000000</hAcc><vAcc>3.000000</vAcc></extensions></trkpt>
      <trkpt lon="-123.279410" lat="44.563310"><ele>68.809937</ele><time>2020-10-02T19:22:07Z</time><extensions><speed>0.000000</speed><course>24.609375</course><hAcc>5.000000</hAcc><vAcc>3.000000</vAcc></extensions></trkpt>
      <trkpt lon="-123.279410" lat="44.563310"><ele>68.740768</ele><time>2020-10-02T19:22:08Z</time><extensions><speed>0.000000</speed><course>24.609375</course><hAcc>5.000000</hAcc><vAcc>3.000000</vAcc></extensions></trkpt>
      <trkpt lon="-123.279410" lat="44.563310"><ele>68.886589</ele><time>2020-10-02T19:22:09Z</time><extensions><speed>0.000000</speed><course>24.609375</course><hAcc>5.000000</hAcc><vAcc>3.000000</vAcc></extensions></trkpt>
      <trkpt lon="-123.279410" lat="44.563310"><ele>69.127907</ele><time>2020-10-02T19:22:10Z</time><extensions><speed>0.000000</speed><course>24.609375</course><hAcc>5.000000</hAcc><vAcc>3.000000</vAcc></extensions></trkpt>
      <trkpt lon="-123.279410" lat="44.563310"><ele>69.000061</ele><time>2020-10-02T19:22:11Z</time><extensions><speed>0.000000</speed><course>24.609375</course><hAcc>5.000000</hAcc><vAcc>3.000000</vAcc></extensions></trkpt>
      <trkpt lon="-123.279410" lat="44.563310"><ele>69.130058</ele><time>2020-10-02T19:22:12Z</time><extensions><speed>0.000000</speed><course>24.609375</course><hAcc>5.000000</hAcc><vAcc>3.000000</vAcc></extensions></trkpt>
      <trkpt lon="-123.279410" lat="44.563310"><ele>69.230156</ele><time>2020-10-02T19:22:13Z</time><extensions><speed>0.000000</speed><course>24.609375</course><hAcc>5.000000</hAcc><vAcc>3.000000</vAcc></extensions></trkpt>
      <trkpt lon="-123.279410" lat="44.563310"><ele>69.300560</ele><time>2020-10-02T19:22:14Z</time><extensions><speed>0.000000</speed><course>24.609375</course><hAcc>5.000000</hAcc><vAcc>3.000000</vAcc></extensions></trkpt>
      <trkpt lon="-123.279410" lat="44.563310"><ele>69.442566</ele><time>2020-10-02T19:22:15Z</time><extensions><speed>0.000000</speed><course>24.609375</course><hAcc>5.000000</hAcc><vAcc>3.000000</vAcc></extensions></trkpt>
      <trkpt lon="-123.279410" lat="44.563310"><ele>69.509560</ele><time>2020-10-02T19:22:16Z</time><extensions><speed>0.000000</speed><course>24.609375</course><hAcc>5.000000</hAcc><vAcc>3.000000</vAcc></extensions></trkpt>
      <trkpt lon="-123.279410" lat="44.563310"><ele>69.531944</ele><time>2020-10-02T19:22:17Z</time><extensions><speed>0.000000</speed><course>24.609375</course><hAcc>5.000000</hAcc><vAcc>3.000000</vAcc></extensions></trkpt>
      <trkpt lon="-123.279410" lat="44.563310"><ele>69.667389</ele><time>2020-10-02T19:22:18Z</time><extensions><speed>0.000000</speed><course>24.609375</course><hAcc>5.000000</hAcc><vAcc>3.000000</vAcc></extensions></trkpt>
      <trkpt lon="-123.279410" lat="44.563310"><ele>69.735992</ele><time>2020-10-02T19:22:19Z</time><extensions><speed>0.000000</speed><course>24.609375</course><hAcc>5.000000</hAcc><vAcc>3.000000</vAcc></extensions></trkpt>
      <trkpt lon="-123.279410" lat="44.563310"><ele>69.800400</ele><time>2020-10-02T19:22:20Z</time><extensions><speed>0.000000</speed><course>24.609375</course><hAcc>5.000000</hAcc><vAcc>3.000000</vAcc></extensions></trkpt>
      <trkpt lon="-123.279410" lat="44.563310"><ele>69.925621</ele><time>2020-10-02T19:22:21Z</time><extensions><speed>0.000000</speed><course>24.609375</course><hAcc>5.000000</hAcc><vAcc>3.000000</vAcc></extensions></trkpt>
      <trkpt lon="-123.279410" lat="44.563310"><ele>69.991119</ele><time>2020-10-02T19:22:22Z</time><extensions><speed>0.000000</speed><course>24.609375</course><hAcc>5.000000</hAcc><vAcc>3.000000</vAcc></extensions></trkpt>
      <trkpt lon="-123.279410" lat="44.563310"><ele>69.996162</ele><time>2020-10-02T19:22:23Z</time><extensions><speed>0.000000</speed><course>24.609375</course><hAcc>5.000000</hAcc><vAcc>3.000000</vAcc></extensions></trkpt>
      <trkpt lon="-123.279410" lat="44.563310"><ele>69.962166</ele><time>2020-10-02T19:22:24Z</time><extensions><speed>0.000000</speed><course>160.312500</course><hAcc>5.000000</hAcc><vAcc>3.000000</vAcc></extensions></trkpt>
      <trkpt lon="-123.279417" lat="44.563295"><ele>70.158089</ele><time>2020-10-02T19:22:25Z</time><extensions><speed>0.360000</speed><course>182.812500</course><hAcc>5.000000</hAcc><vAcc>3.000000</vAcc></extensions></trkpt>
      <trkpt lon="-123.279417" lat="44.563285"><ele>70.138611</ele><time>2020-10-02T19:22:26Z</time><extensions><speed>1.040000</speed><course>178.593750</course><hAcc>5.000000</hAcc><vAcc>3.000000</vAcc></extensions></trkpt>
      <trkpt lon="-123.279417" lat="44.563272"><ele>70.075470</ele><time>2020-10-02T19:22:27Z</time><extensions><speed>1.320000</speed><course>177.187500</course><hAcc>5.000000</hAcc><vAcc>3.000000</vAcc></extensions></trkpt>
      <trkpt lon="-123.279415" lat="44.563260"><ele>70.384460</ele><time>2020-10-02T19:22:28Z</time><extensions><speed>1.170000</speed><course>162.421875</course><hAcc>5.000000</hAcc><vAcc>3.000000</vAcc></extensions></trkpt>
      <trkpt lon="-123.279411" lat="44.563249"><ele>70.724457</ele><time>2020-10-02T19:22:29Z</time><extensions><speed>1.320000</speed><course>148.710938</course><hAcc>5.000000</hAcc><vAcc>3.000000</vAcc></extensions></trkpt>
      <trkpt lon="-123.279404" lat="44.563239"><ele>70.373444</ele><time>2020-10-02T19:22:30Z</time><extensions><speed>1.210000</speed><course>126.210938</course><hAcc>5.000000</hAcc><vAcc>3.000000</vAcc></extensions></trkpt>
      <trkpt lon="-123.279393" lat="44.563232"><ele>70.306396</ele><time>2020-10-02T19:22:31Z</time><extensions><speed>1.230000</speed><course>123.046875</course><hAcc>5.000000</hAcc><vAcc>3.000000</vAcc></extensions></trkpt>
      <trkpt lon="-123.279378" lat="44.563223"><ele>70.206444</ele><time>2020-10-02T19:22:32Z</time><extensions><speed>1.710000</speed><course>130.429688</course><hAcc>5.000000</hAcc><vAcc>3.000000</vAcc></extensions></trkpt>
      <trkpt lon="-123.279362" lat="44.563215"><ele>70.039818</ele><time>2020-10-02T19:22:33Z</time><extensions><speed>1.420000</speed><course>113.203125</course><hAcc>5.000000</hAcc><vAcc>3.000000</vAcc></extensions></trkpt>
      <trkpt lon="-123.279346" lat="44.563211"><ele>69.921745</ele><time>2020-10-02T19:22:34Z</time><extensions><speed>1.420000</speed><course>94.921875</course><hAcc>5.000000</hAcc><vAcc>3.000000</vAcc></extensions></trkpt>
      <trkpt lon="-123.279329" lat="44.563208"><ele>70.020439</ele><time>2020-10-02T19:22:35Z</time><extensions><speed>1.400000</speed><course>95.625000</course><hAcc>5.000000</hAcc><vAcc>3.000000</vAcc></extensions></trkpt>
      <trkpt lon="-123.279311" lat="44.563208"><ele>69.915596</ele><time>2020-10-02T19:22:36Z</time><extensions><speed>1.510000</speed><course>97.734375</course><hAcc>5.000000</hAcc><vAcc>3.000000</vAcc></extensions></trkpt>
      <trkpt lon="-123.279294" lat="44.563209"><ele>69.714813</ele><time>2020-10-02T19:22:37Z</time><extensions><speed>1.510000</speed><course>96.679688</course><hAcc>5.000000</hAcc><vAcc>3.000000</vAcc></extensions></trkpt>
      <trkpt lon="-123.279280" lat="44.563209"><ele>69.904327</ele><time>2020-10-02T19:22:38Z</time><extensions><speed>1.360000</speed><course>97.734375</course><hAcc>5.000000</hAcc><vAcc>3.000000</vAcc></extensions></trkpt>
      <trkpt lon="-123.279270" lat="44.563210"><ele>70.003807</ele><time>2020-10-02T19:22:39Z</time><extensions><speed>1.190000</speed><course>80.859375</course><hAcc>5.000000</hAcc><vAcc>3.000000</vAcc></extensions></trkpt>
      <trkpt lon="-123.279258" lat="44.563211"><ele>70.039558</ele><time>2020-10-02T19:22:40Z</time><extensions><speed>1.190000</speed><course>94.570312</course><hAcc>5.000000</hAcc><vAcc>3.000000</vAcc></extensions></trkpt>
      <trkpt lon="-123.279241" lat="44.563210"><ele>70.102013</ele><time>2020-10-02T19:22:41Z</time><extensions><speed>1.280000</speed><course>100.195312</course><hAcc>5.000000</hAcc><vAcc>3.000000</vAcc></extensions></trkpt>
    </trkseg>
  </trk>
</gpx>