<?xml version="1.0" encoding="UTF-8"?>
<gpx version="1.1" creator="Apple Health Export" xmlns="http://www.topografix.com/GPX/1/1" xmlns:xsi="http://www.w3.org/2001/XMLSchema-instance" xsi:schemaLocation="http://www.topografix.com/GPX/1/1 http://www.topografix.com/GPX/1/1/gpx.xsd">
  <metadata>
    <time>2021-02-21T19:24:48Z</time>
  </metadata>
  <trk>
    <name>Route 2020-12-10 1:28pm</name>
    <trkseg>
      <trkpt lon="-123.279112" lat="44.563178"><ele>66.495552</ele><time>2020-12-10T21:22:49Z</time><extensions><speed>1.620000</speed><course>241.875000</course><hAcc>19.691174</hAcc><vAcc>24.000000</vAcc></extensions></trkpt>
      <trkpt lon="-123.279125" lat="44.563173"><ele>65.346443</ele><time>2020-12-10T21:22:49Z</time><extensions><speed>1.620000</speed><course>241.875000</course><hAcc>20.705364</hAcc><vAcc>24.000000</vAcc></extensions></trkpt>
      <trkpt lon="-123.279194" lat="44.563303"><ele>73.949287</ele><time>2020-12-10T21:22:50Z</time><extensions><speed>1.620000</speed><course>274.570312</course><hAcc>9.777415</hAcc><vAcc>3.000000</vAcc></extensions></trkpt>
      <trkpt lon="-123.279120" lat="44.563358"><ele>65.311714</ele><time>2020-12-10T21:22:51Z</time><extensions><speed>1.080000</speed><course>307.265625</course><hAcc>6.627931</hAcc><vAcc>3.000000</vAcc></extensions></trkpt>
      <trkpt lon="-123.279148" lat="44.563351"><ele>64.617195</ele><time>2020-12-10T21:22:52Z</time><extensions><speed>1.080000</speed><course>305.156250</course><hAcc>4.076950</hAcc><vAcc>3.000000</vAcc></extensions></trkpt>
      <trkpt lon="-123.279171" lat="44.563355"><ele>65.477180</ele><time>2020-12-10T21:22:53Z</time><extensions><speed>1.160000</speed><course>300.585938</course><hAcc>4.024317</hAcc><vAcc>3.000000</vAcc></extensions></trkpt>
      <trkpt lon="-123.279200" lat="44.563354"><ele>66.025093</ele><time>2020-12-10T21:22:53Z</time><extensions><speed>1.360000</speed><course>291.445312</course><hAcc>3.808084</hAcc><vAcc>3.000000</vAcc></extensions></trkpt>
      <trkpt lon="-123.279231" lat="44.563348"><ele>66.393990</ele><time>2020-12-10T21:22:54Z</time><extensions><speed>1.700000</speed><course>299.531250</course><hAcc>3.535534</hAcc><vAcc>3.000000</vAcc></extensions></trkpt>
      <trkpt lon="-123.279261" lat="44.563338"><ele>67.016609</ele><time>2020-12-10T21:22:55Z</time><extensions><speed>1.360000</speed><course>299.179688</course><hAcc>3.535534</hAcc><vAcc>3.000000</vAcc></extensions></trkpt>
      <trkpt lon="-123.279286" lat="44.563329"><ele>67.516121</ele><time>2020-12-10T21:22:56Z</time><extensions><speed>1.220000</speed><course>282.656250</course><hAcc>3.535534</hAcc><vAcc>3.000000</vAcc></extensions></trkpt>
      <trkpt lon="-123.279309" lat="44.563321"><ele>67.611519</ele><time>2020-12-10T21:22:57Z</time><extensions><speed>0.950000</speed><course>282.656250</course><hAcc>3.535534</hAcc><vAcc>3.000000</vAcc></extensions></trkpt>
      <trkpt lon="-123.279333" lat="44.563314"><ele>68.144356</ele><time>2020-12-10T21:22:58Z</time><extensions><speed>1.310000</speed><course>297.773438</course><hAcc>3.535534</hAcc><vAcc>3.000000</vAcc></extensions></trkpt>
      <trkpt lon="-123.279353" lat="44.563313"><ele>68.143929</ele><time>2020-12-10T21:22:59Z</time><extensions><speed>1.280000</speed><course>317.460938</course><hAcc>3.535534</hAcc><vAcc>3.000000</vAcc></extensions></trkpt>
      <trkpt lon="-123.279365" lat="44.563318"><ele>68.468330</ele><time>2020-12-10T21:23:00Z</time><extensions><speed>1.280000</speed><course>339.609375</course><hAcc>3.535534</hAcc><vAcc>3.000000</vAcc></extensions></trkpt>
      <trkpt lon="-123.279371" lat="44.563328"><ele>68.468330</ele><time>2020-12-10T21:23:01Z</time><extensions><speed>1.280000</speed><course>339.609375</course><hAcc>4.569110</hAcc><vAcc>3.598300</vAcc></extensions></trkpt>
      <trkpt lon="-123.279369" lat="44.563335"><ele>68.623116</ele><time>2020-12-10T21:23:02Z</time><extensions><speed>1.280000</speed><course>5.273438</course><hAcc>4.569111</hAcc><vAcc>3.598300</vAcc></extensions></trkpt>
      <trkpt lon="-123.279364" lat="44.563340"><ele>69.205574</ele><time>2020-12-10T21:23:03Z</time><extensions><speed>1.280000</speed><course>19.687504</course><hAcc>4.569111</hAcc><vAcc>3.598300</vAcc></extensions></trkpt>
      <trkpt lon="-123.279356" lat="44.563347"><ele>69.311897</ele><time>2020-12-10T21:23:04Z</time><extensions><speed>1.280000</speed><course>29.531256</course><hAcc>4.569111</hAcc><vAcc>3.598300</vAcc></extensions></trkpt>
      <trkpt lon="-123.279349" lat="44.563358"><ele>69.429085</ele><time>2020-12-10T21:23:05Z</time><extensions><speed>1.540000</speed><course>24.960943</course><hAcc>4.569111</hAcc><vAcc>3.598300</vAcc></extensions></trkpt>
      <trkpt lon="-123.279350" lat="44.563368"><ele>69.539436</ele><time>2020-12-10T21:23:06Z</time><extensions><speed>1.420000</speed><course>9.140627</course><hAcc>4.569111</hAcc><vAcc>3.598300</vAcc></extensions></trkpt>
      <trkpt lon="-123.279348" lat="44.563379"><ele>70.110481</ele><time>2020-12-10T21:23:07Z</time><extensions><speed>1.660000</speed><course>9.492190</course><hAcc>4.569111</hAcc><vAcc>3.598300</vAcc></extensions></trkpt>
      <trkpt lon="-123.279342" lat="44.563381"><ele>70.632820</ele><time>2020-12-10T21:23:08Z</time><extensions><speed>1.420000</speed><course>24.960943</course><hAcc>4.569111</hAcc><vAcc>3.598300</vAcc></extensions></trkpt>
      <trkpt lon="-123.279342" lat="44.563376"><ele>71.120674</ele><time>2020-12-10T21:23:09Z</time><extensions><speed>0.800000</speed><course>25.312504</course><hAcc>4.569111</hAcc><vAcc>3.598300</vAcc></extensions></trkpt>
      <trkpt lon="-123.279333" lat="44.563375"><ele>71.050117</ele><time>2020-12-10T21:23:10Z</time><extensions><speed>0.780000</speed><course>43.593754</course><hAcc>4.569111</hAcc><vAcc>3.598300</vAcc></extensions></trkpt>
      <trkpt lon="-123.279327" lat="44.563375"><ele>71.329964</ele><time>2020-12-10T21:23:11Z</time><extensions><speed>0.780000</speed><course>44.296879</course><hAcc>4.569111</hAcc><vAcc>3.598300</vAcc></extensions></trkpt>
      <trkpt lon="-123.279332" lat="44.563359"><ele>71.496284</ele><time>2020-12-10T21:23:12Z</time><extensions><speed>0.000000</speed><course>-1.000000</course><hAcc>4.569111</hAcc><vAcc>3.598300</vAcc></extensions></trkpt>
      <trkpt lon="-123.279333" lat="44.563354"><ele>71.678230</ele><time>2020-12-10T21:23:13Z</time><extensions><speed>0.000000</speed><course>-1.000000</course><hAcc>4.569111</hAcc><vAcc>3.598300</vAcc></extensions></trkpt>
      <trkpt lon="-123.279334" lat="44.563351"><ele>71.722725</ele><time>2020-12-10T21:23:14Z</time><extensions><speed>0.000000</speed><course>-1.000000</course><hAcc>4.569111</hAcc><vAcc>3.598300</vAcc></extensions></trkpt>
      <trkpt lon="-123.279335" lat="44.563350"><ele>71.593330</ele><time>2020-12-10T21:23:15Z</time><extensions><speed>0.000000</speed><course>-1.000000</course><hAcc>4.569111</hAcc><vAcc>3.598300</vAcc></extensions></trkpt>
      <trkpt lon="-123.279337" lat="44.563349"><ele>71.388863</ele><time>2020-12-10T21:23:16Z</time><extensions><speed>0.000000</speed><course>-1.000000</course><hAcc>4.569111</hAcc><vAcc>3.598300</vAcc></extensions></trkpt>
      <trkpt lon="-123.279339" lat="44.563348"><ele>71.283028</ele><time>2020-12-10T21:23:17Z</time><extensions><speed>0.000000</speed><course>-1.000000</course><hAcc>4.591533</hAcc><vAcc>3.569644</vAcc></extensions></trkpt>
      <trkpt lon="-123.279340" lat="44.563347"><ele>71.256172</ele><time>2020-12-10T21:23:18Z</time><extensions><speed>0.000000</speed><course>-1.000000</course><hAcc>4.635895</hAcc><vAcc>3.511839</vAcc></extensions></trkpt>
      <trkpt lon="-123.279341" lat="44.563347"><ele>71.361702</ele><time>2020-12-10T21:23:19Z</time><extensions><speed>0.000000</speed><course>-1.000000</course><hAcc>4.700409</hAcc><vAcc>3.425010</vAcc></extensions></trkpt>
      <trkpt lon="-123.279341" lat="44.563347"><ele>71.464546</ele><time>2020-12-10T21:23:20Z</time><extensions><speed>0.000000</speed><course>-1.000000</course><hAcc>4.770049</hAcc><vAcc>3.327337</vAcc></extensions></trkpt>
      <trkpt lon="-123.279417" lat="44.563341"><ele>72.639893</ele><time>2020-12-10T21:23:21Z</time><extensions><speed>0.020787</speed><course>-1.000000</course><hAcc>4.797470</hAcc><vAcc>3.287677</vAcc></extensions></trkpt>
      <trkpt lon="-123.279418" lat="44.563343"><ele>72.592308</ele><time>2020-12-10T21:23:22Z</time><extensions><speed>0.019983</speed><course>-1.000000</course><hAcc>4.795842</hAcc><vAcc>3.290051</vAcc></extensions></trkpt>
      <trkpt lon="-123.279419" lat="44.563347"><ele>72.545067</ele><time>2020-12-10T21:23:23Z</time><extensions><speed>0.029709</speed><course>-1.000000</course><hAcc>4.798625</hAcc><vAcc>3.285990</vAcc></extensions></trkpt>
      <trkpt lon="-123.279413" lat="44.563348"><ele>72.370697</ele><time>2020-12-10T21:23:24Z</time><extensions><speed>0.052073</speed><course>-1.000000</course><hAcc>4.797368</hAcc><vAcc>3.287826</vAcc></extensions></trkpt>
      <trkpt lon="-123.279405" lat="44.563351"><ele>72.286682</ele><time>2020-12-10T21:23:25Z</time><extensions><speed>0.010921</speed><course>-1.000000</course><hAcc>4.798983</hAcc><vAcc>3.285469</vAcc></extensions></trkpt>
      <trkpt lon="-123.279391" lat="44.563344"><ele>72.368225</ele><time>2020-12-10T21:23:26Z</time><extensions><speed>0.000000</speed><course>19.493164</course><hAcc>4.729367</hAcc><vAcc>3.384911</vAcc></extensions></trkpt>
      <trkpt lon="-123.279390" lat="44.563345"><ele>72.321777</ele><time>2020-12-10T21:23:27Z</time><extensions><speed>0.000000</speed><course>19.493164</course><hAcc>4.729176</hAcc><vAcc>3.385179</vAcc></extensions></trkpt>
      <trkpt lon="-123.279391" lat="44.563347"><ele>72.365257</ele><time>2020-12-10T21:23:28Z</time><extensions><speed>0.000000</speed><course>19.493164</course><hAcc>4.727467</hAcc><vAcc>3.387565</vAcc></extensions></trkpt>
      <trkpt lon="-123.279393" lat="44.563345"><ele>72.558578</ele><time>2020-12-10T21:23:29Z</time><extensions><speed>0.000000</speed><course>19.493162</course><hAcc>4.724618</hAcc><vAcc>3.391536</vAcc></extensions></trkpt>
      <trkpt lon="-123.279393" lat="44.563346"><ele>72.464256</ele><time>2020-12-10T21:23:30Z</time><extensions><speed>0.000000</speed><course>19.493160</course><hAcc>4.722933</hAcc><vAcc>3.393883</vAcc></extensions></trkpt>
      <trkpt lon="-123.279398" lat="44.563346"><ele>72.719658</ele><time>2020-12-10T21:23:31Z</time><extensions><speed>0.000000</speed><course>19.493156</course><hAcc>4.716686</hAcc><vAcc>3.402560</vAcc></extensions></trkpt>
      <trkpt lon="-123.279398" lat="44.563347"><ele>72.796097</ele><time>2020-12-10T21:23:32Z</time><extensions><speed>0.000000</speed><course>19.493155</course><hAcc>4.719508</hAcc><vAcc>3.398644</vAcc></extensions></trkpt>
      <trkpt lon="-123.279396" lat="44.563346"><ele>72.724434</ele><time>2020-12-10T21:23:33Z</time><extensions><speed>0.000000</speed><course>19.493158</course><hAcc>4.722232</hAcc><vAcc>3.394858</vAcc></extensions></trkpt>
      <trkpt lon="-123.279395" lat="44.563347"><ele>72.760292</ele><time>2020-12-10T21:23:34Z</time><extensions><speed>0.000000</speed><course>19.493158</course><hAcc>4.719120</hAcc><vAcc>3.399183</vAcc></extensions></trkpt>
      <trkpt lon="-123.279396" lat="44.563347"><ele>72.788231</ele><time>2020-12-10T21:23:35Z</time><extensions><speed>0.000000</speed><course>19.493158</course><hAcc>4.717234</hAcc><vAcc>3.401800</vAcc></extensions></trkpt>
      <trkpt lon="-123.279393" lat="44.563347"><ele>72.776466</ele><time>2020-12-10T21:23:36Z</time><extensions><speed>0.000000</speed><course>19.493162</course><hAcc>4.715527</hAcc><vAcc>3.404166</vAcc></extensions></trkpt>
      <trkpt lon="-123.279391" lat="44.563347"><ele>72.820023</ele><time>2020-12-10T21:23:37Z</time><extensions><speed>0.000000</speed><course>19.493164</course><hAcc>4.720114</hAcc><vAcc>3.397802</vAcc></extensions></trkpt>
      <trkpt lon="-123.279392" lat="44.563346"><ele>72.878235</ele><time>2020-12-10T21:23:38Z</time><extensions><speed>0.000000</speed><course>19.493164</course><hAcc>4.716735</hAcc><vAcc>3.402491</vAcc></extensions></trkpt>
      <trkpt lon="-123.279391" lat="44.563346"><ele>72.812134</ele><time>2020-12-10T21:23:39Z</time><extensions><speed>0.000000</speed><course>19.493164</course><hAcc>4.718709</hAcc><vAcc>3.399754</vAcc></extensions></trkpt>
      <trkpt lon="-123.279395" lat="44.563346"><ele>72.561867</ele><time>2020-12-10T21:23:40Z</time><extensions><speed>0.000000</speed><course>19.493160</course><hAcc>4.722166</hAcc><vAcc>3.394951</vAcc></extensions></trkpt>
      <trkpt lon="-123.279405" lat="44.563347"><ele>72.913712</ele><time>2020-12-10T21:23:41Z</time><extensions><speed>0.000000</speed><course>19.493147</course><hAcc>4.722550</hAcc><vAcc>3.394415</vAcc></extensions></trkpt>
      <trkpt lon="-123.279408" lat="44.563355"><ele>72.709671</ele><time>2020-12-10T21:23:42Z</time><extensions><speed>0.649651</speed><course>354.525787</course><hAcc>4.727487</hAcc><vAcc>3.387537</vAcc></extensions></trkpt>
      <trkpt lon="-123.279414" lat="44.563334"><ele>73.571777</ele><time>2020-12-10T21:23:43Z</time><extensions><speed>1.258638</speed><course>185.555099</course><hAcc>4.723153</hAcc><vAcc>3.393577</vAcc></extensions></trkpt>
      <trkpt lon="-123.279425" lat="44.563318"><ele>73.093330</ele><time>2020-12-10T21:23:44Z</time><extensions><speed>1.594634</speed><course>194.030823</course><hAcc>4.734968</hAcc><vAcc>3.377072</vAcc></extensions></trkpt>
      <trkpt lon="-123.279436" lat="44.563302"><ele>73.201599</ele><time>2020-12-10T21:23:46Z</time><extensions><speed>1.772616</speed><course>202.099289</course><hAcc>4.796393</hAcc><vAcc>3.289248</vAcc></extensions></trkpt>
      <trkpt lon="-123.279451" lat="44.563282"><ele>73.339844</ele><time>2020-12-10T21:23:47Z</time><extensions><speed>2.263691</speed><course>205.358551</course><hAcc>4.737070</hAcc><vAcc>3.374123</vAcc></extensions></trkpt>
      <trkpt lon="-123.279468" lat="44.563262"><ele>73.121643</ele><time>2020-12-10T21:23:48Z</time><extensions><speed>2.597795</speed><course>209.617477</course><hAcc>4.739470</hAcc><vAcc>3.370752</vAcc></extensions></trkpt>
      <trkpt lon="-123.279485" lat="44.563235"><ele>73.055595</ele><time>2020-12-10T21:23:49Z</time><extensions><speed>3.042602</speed><course>210.041214</course><hAcc>4.743670</hAcc><vAcc>3.364837</vAcc></extensions></trkpt>
      <trkpt lon="-123.279501" lat="44.563212"><ele>72.688522</ele><time>2020-12-10T21:23:50Z</time><extensions><speed>3.084165</speed><course>210.291946</course><hAcc>4.752883</hAcc><vAcc>3.351811</vAcc></extensions></trkpt>
      <trkpt lon="-123.279492" lat="44.563165"><ele>72.868477</ele><time>2020-12-10T21:23:51Z</time><extensions><speed>3.872994</speed><course>185.770203</course><hAcc>4.741504</hAcc><vAcc>3.367889</vAcc></extensions></trkpt>
      <trkpt lon="-123.279487" lat="44.563131"><ele>72.846550</ele><time>2020-12-10T21:23:52Z</time><extensions><speed>3.656198</speed><course>178.395187</course><hAcc>4.738277</hAcc><vAcc>3.372427</vAcc></extensions></trkpt>
      <trkpt lon="-123.279480" lat="44.563100"><ele>72.865738</ele><time>2020-12-10T21:23:53Z</time><extensions><speed>3.559458</speed><course>176.896317</course><hAcc>4.738604</hAcc><vAcc>3.371969</vAcc></extensions></trkpt>
      <trkpt lon="-123.279508" lat="44.563058"><ele>73.257446</ele><time>2020-12-10T21:23:54Z</time><extensions><speed>4.452174</speed><course>194.959503</course><hAcc>4.731778</hAcc><vAcc>3.381541</vAcc></extensions></trkpt>
      <trkpt lon="-123.279498" lat="44.563021"><ele>73.653114</ele><time>2020-12-10T21:23:55Z</time><extensions><speed>4.161902</speed><course>183.454681</course><hAcc>4.724266</hAcc><vAcc>3.392027</vAcc></extensions></trkpt>
      <trkpt lon="-123.279471" lat="44.562998"><ele>73.626396</ele><time>2020-12-10T21:23:56Z</time><extensions><speed>3.545168</speed><course>160.545197</course><hAcc>4.720731</hAcc><vAcc>3.396945</vAcc></extensions></trkpt>
      <trkpt lon="-123.279486" lat="44.562949"><ele>71.008080</ele><time>2020-12-10T21:23:57Z</time><extensions><speed>4.208580</speed><course>178.984940</course><hAcc>4.729003</hAcc><vAcc>3.385420</vAcc></extensions></trkpt>
      <trkpt lon="-123.279498" lat="44.562898"><ele>72.189972</ele><time>2020-12-10T21:23:58Z</time><extensions><speed>5.294291</speed><course>185.841522</course><hAcc>4.728588</hAcc><vAcc>3.385999</vAcc></extensions></trkpt>
      <trkpt lon="-123.279499" lat="44.562855"><ele>72.314949</ele><time>2020-12-10T21:23:59Z</time><extensions><speed>5.030341</speed><course>185.210312</course><hAcc>4.729442</hAcc><vAcc>3.384807</vAcc></extensions></trkpt>
      <trkpt lon="-123.279492" lat="44.562800"><ele>73.014351</ele><time>2020-12-10T21:24:00Z</time><extensions><speed>5.817153</speed><course>179.748322</course><hAcc>4.731135</hAcc><vAcc>3.382440</vAcc></extensions></trkpt>
      <trkpt lon="-123.279489" lat="44.562755"><ele>72.867691</ele><time>2020-12-10T21:24:01Z</time><extensions><speed>5.341147</speed><course>179.483032</course><hAcc>4.729799</hAcc><vAcc>3.384307</vAcc></extensions></trkpt>
      <trkpt lon="-123.279488" lat="44.562702"><ele>72.959396</ele><time>2020-12-10T21:24:02Z</time><extensions><speed>5.542068</speed><course>181.200378</course><hAcc>4.726094</hAcc><vAcc>3.389480</vAcc></extensions></trkpt>
      <trkpt lon="-123.279495" lat="44.562644"><ele>71.448082</ele><time>2020-12-10T21:24:03Z</time><extensions><speed>6.124480</speed><course>183.549713</course><hAcc>4.729639</hAcc><vAcc>3.384531</vAcc></extensions></trkpt>
      <trkpt lon="-123.279492" lat="44.562603"><ele>71.680405</ele><time>2020-12-10T21:24:04Z</time><extensions><speed>5.052591</speed><course>178.887299</course><hAcc>4.727376</hAcc><vAcc>3.387692</vAcc></extensions></trkpt>
      <trkpt lon="-123.279473" lat="44.562548"><ele>72.402298</ele><time>2020-12-10T21:24:05Z</time><extensions><speed>5.677638</speed><course>170.216934</course><hAcc>4.731546</hAcc><vAcc>3.381865</vAcc></extensions></trkpt>
      <trkpt lon="-123.279430" lat="44.562505"><ele>71.941750</ele><time>2020-12-10T21:24:06Z</time><extensions><speed>5.785682</speed><course>151.322418</course><hAcc>4.733856</hAcc><vAcc>3.378631</vAcc></extensions></trkpt>
      <trkpt lon="-123.279360" lat="44.562481"><ele>72.147438</ele><time>2020-12-10T21:24:07Z</time><extensions><speed>5.672311</speed><course>123.159187</course><hAcc>4.726635</hAcc><vAcc>3.388726</vAcc></extensions></trkpt>
      <trkpt lon="-123.279284" lat="44.562464"><ele>72.082291</ele><time>2020-12-10T21:24:08Z</time><extensions><speed>5.812782</speed><course>116.004005</course><hAcc>4.731299</hAcc><vAcc>3.382210</vAcc></extensions></trkpt>
      <trkpt lon="-123.279247" lat="44.562424"><ele>72.785057</ele><time>2020-12-10T21:24:09Z</time><extensions><speed>5.163938</speed><course>136.461411</course><hAcc>4.726778</hAcc><vAcc>3.388526</vAcc></extensions></trkpt>
      <trkpt lon="-123.279188" lat="44.562380"><ele>72.283157</ele><time>2020-12-10T21:24:10Z</time><extensions><speed>5.861670</speed><course>139.345505</course><hAcc>4.722769</hAcc><vAcc>3.394110</vAcc></extensions></trkpt>
      <trkpt lon="-123.279149" lat="44.562331"><ele>72.072266</ele><time>2020-12-10T21:24:11Z</time><extensions><speed>6.272201</speed><course>148.394577</course><hAcc>4.726921</hAcc><vAcc>3.388327</vAcc></extensions></trkpt>
      <trkpt lon="-123.279145" lat="44.562282"><ele>72.436699</ele><time>2020-12-10T21:24:12Z</time><extensions><speed>5.567986</speed><course>160.842621</course><hAcc>4.727631</hAcc><vAcc>3.387335</vAcc></extensions></trkpt>
      <trkpt lon="-123.279112" lat="44.562229"><ele>72.467941</ele><time>2020-12-10T21:24:13Z</time><extensions><speed>6.023009</speed><course>159.499985</course><hAcc>4.727543</hAcc><vAcc>3.387459</vAcc></extensions></trkpt>
      <trkpt lon="-123.279093" lat="44.562181"><ele>72.170517</ele><time>2020-12-10T21:24:14Z</time><extensions><speed>5.788336</speed><course>160.994583</course><hAcc>4.736539</hAcc><vAcc>3.374868</vAcc></extensions></trkpt>
      <trkpt lon="-123.279062" lat="44.562146"><ele>72.412079</ele><time>2020-12-10T21:24:15Z</time><extensions><speed>5.250012</speed><course>151.738464</course><hAcc>4.736617</hAcc><vAcc>3.374759</vAcc></extensions></trkpt>
      <trkpt lon="-123.279022" lat="44.562115"><ele>72.550484</ele><time>2020-12-10T21:24:16Z</time><extensions><speed>4.882100</speed><course>143.064331</course><hAcc>4.736014</hAcc><vAcc>3.375605</vAcc></extensions></trkpt>
      <trkpt lon="-123.278981" lat="44.562087"><ele>72.448051</ele><time>2020-12-10T21:24:17Z</time><extensions><speed>4.476498</speed><course>134.707047</course><hAcc>4.734490</hAcc><vAcc>3.377742</vAcc></extensions></trkpt>
      <trkpt lon="-123.278928" lat="44.562065"><ele>72.038719</ele><time>2020-12-10T21:24:18Z</time><extensions><speed>4.408842</speed><course>129.456482</course><hAcc>4.728824</hAcc><vAcc>3.385670</vAcc></extensions></trkpt>
      <trkpt lon="-123.278877" lat="44.562038"><ele>72.121819</ele><time>2020-12-10T21:24:19Z</time><extensions><speed>4.741458</speed><course>125.120811</course><hAcc>4.728179</hAcc><vAcc>3.386570</vAcc></extensions></trkpt>
      <trkpt lon="-123.278825" lat="44.562024"><ele>71.607971</ele><time>2020-12-10T21:24:20Z</time><extensions><speed>4.410096</speed><course>115.969315</course><hAcc>4.724051</hAcc><vAcc>3.392327</vAcc></extensions></trkpt>
      <trkpt lon="-123.278765" lat="44.561996"><ele>72.098076</ele><time>2020-12-10T21:24:21Z</time><extensions><speed>5.214716</speed><course>117.028351</course><hAcc>4.719223</hAcc><vAcc>3.399040</vAcc></extensions></trkpt>
      <trkpt lon="-123.278717" lat="44.561988"><ele>72.260117</ele><time>2020-12-10T21:24:22Z</time><extensions><speed>4.394220</speed><course>108.342392</course><hAcc>4.724789</hAcc><vAcc>3.391299</vAcc></extensions></trkpt>
      <trkpt lon="-123.278647" lat="44.561983"><ele>72.088745</ele><time>2020-12-10T21:24:23Z</time><extensions><speed>5.078081</speed><course>96.131897</course><hAcc>4.724679</hAcc><vAcc>3.391452</vAcc></extensions></trkpt>
      <trkpt lon="-123.278594" lat="44.561980"><ele>71.702492</ele><time>2020-12-10T21:24:24Z</time><extensions><speed>4.406805</speed><course>93.391518</course><hAcc>4.730251</hAcc><vAcc>3.383676</vAcc></extensions></trkpt>
      <trkpt lon="-123.278523" lat="44.561984"><ele>71.964005</ele><time>2020-12-10T21:24:25Z</time><extensions><speed>5.065301</speed><course>86.905014</course><hAcc>4.726217</hAcc><vAcc>3.389308</vAcc></extensions></trkpt>
      <trkpt lon="-123.278472" lat="44.561983"><ele>71.934990</ele><time>2020-12-10T21:24:26Z</time><extensions><speed>4.359303</speed><course>90.740158</course><hAcc>4.733172</hAcc><vAcc>3.379589</vAcc></extensions></trkpt>
      <trkpt lon="-123.278405" lat="44.561966"><ele>71.718369</ele><time>2020-12-10T21:24:27Z</time><extensions><speed>5.026508</speed><course>105.541397</course><hAcc>4.732007</hAcc><vAcc>3.381220</vAcc></extensions></trkpt>
      <trkpt lon="-123.278350" lat="44.561945"><ele>71.842865</ele><time>2020-12-10T21:24:28Z</time><extensions><speed>4.969348</speed><course>111.597031</course><hAcc>4.729755</hAcc><vAcc>3.384369</vAcc></extensions></trkpt>
      <trkpt lon="-123.278294" lat="44.561931"><ele>72.306190</ele><time>2020-12-10T21:24:29Z</time><extensions><speed>4.726429</speed><course>109.412064</course><hAcc>4.722634</hAcc><vAcc>3.394299</vAcc></extensions></trkpt>
      <trkpt lon="-123.278238" lat="44.561923"><ele>71.505028</ele><time>2020-12-10T21:24:30Z</time><extensions><speed>4.507252</speed><course>103.487396</course><hAcc>4.723398</hAcc><vAcc>3.393236</vAcc></extensions></trkpt>
      <trkpt lon="-123.278159" lat="44.561921"><ele>71.891838</ele><time>2020-12-10T21:24:31Z</time><extensions><speed>5.452015</speed><course>92.523796</course><hAcc>4.724621</hAcc><vAcc>3.391533</vAcc></extensions></trkpt>
      <trkpt lon="-123.278117" lat="44.561919"><ele>71.709511</ele><time>2020-12-10T21:24:32Z</time><extensions><speed>4.079237</speed><course>90.241974</course><hAcc>4.727581</hAcc><vAcc>3.387406</vAcc></extensions></trkpt>
      <trkpt lon="-123.278057" lat="44.561917"><ele>71.122009</ele><time>2020-12-10T21:24:33Z</time><extensions><speed>4.209928</speed><course>95.241089</course><hAcc>4.727735</hAcc><vAcc>3.387191</vAcc></extensions></trkpt>
      <trkpt lon="-123.277992" lat="44.561915"><ele>71.649147</ele><time>2020-12-10T21:24:34Z</time><extensions><speed>4.552700</speed><course>92.050659</course><hAcc>4.738779</hAcc><vAcc>3.371722</vAcc></extensions></trkpt>
      <trkpt lon="-123.277936" lat="44.561915"><ele>71.876030</ele><time>2020-12-10T21:24:35Z</time><extensions><speed>4.391720</speed><course>91.812370</course><hAcc>4.736828</hAcc><vAcc>3.374462</vAcc></extensions></trkpt>
      <trkpt lon="-123.277880" lat="44.561915"><ele>71.676483</ele><time>2020-12-10T21:24:36Z</time><extensions><speed>4.333764</speed><course>91.909599</course><hAcc>4.735039</hAcc><vAcc>3.376973</vAcc></extensions></trkpt>
      <trkpt lon="-123.277831" lat="44.561917"><ele>71.564331</ele><time>2020-12-10T21:24:37Z</time><extensions><speed>4.023929</speed><course>90.385445</course><hAcc>4.735130</hAcc><vAcc>3.376845</vAcc></extensions></trkpt>
      <trkpt lon="-123.277776" lat="44.561917"><ele>71.490082</ele><time>2020-12-10T21:24:38Z</time><extensions><speed>4.075863</speed><course>90.954506</course><hAcc>4.732763</hAcc><vAcc>3.380162</vAcc></extensions></trkpt>
      <trkpt lon="-123.277723" lat="44.561920"><ele>71.405273</ele><time>2020-12-10T21:24:39Z</time><extensions><speed>4.061698</speed><course>90.409691</course><hAcc>4.733177</hAcc><vAcc>3.379582</vAcc></extensions></trkpt>
      <trkpt lon="-123.277674" lat="44.561921"><ele>71.467644</ele><time>2020-12-10T21:24:40Z</time><extensions><speed>3.941935</speed><course>91.633171</course><hAcc>4.733660</hAcc><vAcc>3.378906</vAcc></extensions></trkpt>
      <trkpt lon="-123.277622" lat="44.561925"><ele>71.898758</ele><time>2020-12-10T21:24:41Z</time><extensions><speed>3.863780</speed><course>87.208473</course><hAcc>4.733366</hAcc><vAcc>3.379317</vAcc></extensions></trkpt>
      <trkpt lon="-123.277570" lat="44.561928"><ele>71.754753</ele><time>2020-12-10T21:24:42Z</time><extensions><speed>3.896105</speed><course>87.444954</course><hAcc>4.733554</hAcc><vAcc>3.379053</vAcc></extensions></trkpt>
      <trkpt lon="-123.277519" lat="44.561925"><ele>71.729988</ele><time>2020-12-10T21:24:43Z</time><extensions><speed>3.840599</speed><course>91.506981</course><hAcc>4.731732</hAcc><vAcc>3.381604</vAcc></extensions></trkpt>
      <trkpt lon="-123.277473" lat="44.561925"><ele>71.421249</ele><time>2020-12-10T21:24:44Z</time><extensions><speed>3.651784</speed><course>94.895493</course><hAcc>4.735179</hAcc><vAcc>3.376776</vAcc></extensions></trkpt>
      <trkpt lon="-123.277419" lat="44.561928"><ele>71.693886</ele><time>2020-12-10T21:24:45Z</time><extensions><speed>3.931355</speed><course>91.250771</course><hAcc>4.735178</hAcc><vAcc>3.376778</vAcc></extensions></trkpt>
      <trkpt lon="-123.277371" lat="44.561928"><ele>72.003548</ele><time>2020-12-10T21:24:46Z</time><extensions><speed>3.851640</speed><course>89.369225</course><hAcc>4.733159</hAcc><vAcc>3.379608</vAcc></extensions></trkpt>
      <trkpt lon="-123.277317" lat="44.561920"><ele>71.715401</ele><time>2020-12-10T21:24:47Z</time><extensions><speed>4.050519</speed><course>98.968361</course><hAcc>4.732887</hAcc><vAcc>3.379988</vAcc></extensions></trkpt>
      <trkpt lon="-123.277267" lat="44.561919"><ele>71.848999</ele><time>2020-12-10T21:24:48Z</time><extensions><speed>3.950418</speed><course>95.295059</course><hAcc>4.731996</hAcc><vAcc>3.381235</vAcc></extensions></trkpt>
      <trkpt lon="-123.277214" lat="44.561920"><ele>71.794220</ele><time>2020-12-10T21:24:49Z</time><extensions><speed>3.966719</speed><course>90.835625</course><hAcc>4.732113</hAcc><vAcc>3.381071</vAcc></extensions></trkpt>
      <trkpt lon="-123.277163" lat="44.561922"><ele>71.742165</ele><time>2020-12-10T21:24:50Z</time><extensions><speed>4.082587</speed><course>88.870308</course><hAcc>4.732892</hAcc><vAcc>3.379981</vAcc></extensions></trkpt>
      <trkpt lon="-123.277108" lat="44.561925"><ele>71.527016</ele><time>2020-12-10T21:24:51Z</time><extensions><speed>4.280462</speed><course>88.667542</course><hAcc>4.732697</hAcc><vAcc>3.380254</vAcc></extensions></trkpt>
      <trkpt lon="-123.277062" lat="44.561921"><ele>71.529274</ele><time>2020-12-10T21:24:52Z</time><extensions><speed>3.840834</speed><course>93.506500</course><hAcc>4.732244</hAcc><vAcc>3.380888</vAcc></extensions></trkpt>
      <trkpt lon="-123.277013" lat="44.561920"><ele>71.398048</ele><time>2020-12-10T21:24:53Z</time><extensions><speed>3.840106</speed><course>94.555855</course><hAcc>4.733204</hAcc><vAcc>3.379544</vAcc></extensions></trkpt>
      <trkpt lon="-123.276961" lat="44.561920"><ele>71.338669</ele><time>2020-12-10T21:24:54Z</time><extensions><speed>3.863045</speed><course>91.862000</course><hAcc>4.732400</hAcc><vAcc>3.380669</vAcc></extensions></trkpt>
      <trkpt lon="-123.276910" lat="44.561919"><ele>71.321495</ele><time>2020-12-10T21:24:55Z</time><extensions><speed>3.928379</speed><course>94.290565</course><hAcc>4.733548</hAcc><vAcc>3.379061</vAcc></extensions></trkpt>
      <trkpt lon="-123.276863" lat="44.561920"><ele>71.313400</ele><time>2020-12-10T21:24:56Z</time><extensions><speed>3.749909</speed><course>89.583168</course><hAcc>4.734216</hAcc><vAcc>3.378126</vAcc></extensions></trkpt>
      <trkpt lon="-123.276815" lat="44.561921"><ele>71.252892</ele><time>2020-12-10T21:24:57Z</time><extensions><speed>3.791471</speed><course>88.714081</course><hAcc>4.734882</hAcc><vAcc>3.377192</vAcc></extensions></trkpt>
      <trkpt lon="-123.276768" lat="44.561921"><ele>71.267776</ele><time>2020-12-10T21:24:58Z</time><extensions><speed>3.714957</speed><course>88.021545</course><hAcc>4.734669</hAcc><vAcc>3.377492</vAcc></extensions></trkpt>
      <trkpt lon="-123.276717" lat="44.561919"><ele>71.166687</ele><time>2020-12-10T21:24:59Z</time><extensions><speed>3.891588</speed><course>93.139374</course><hAcc>4.734226</hAcc><vAcc>3.378112</vAcc></extensions></trkpt>
      <trkpt lon="-123.276669" lat="44.561916"><ele>71.405807</ele><time>2020-12-10T21:25:00Z</time><extensions><speed>3.849252</speed><course>93.524597</course><hAcc>4.731395</hAcc><vAcc>3.382076</vAcc></extensions></trkpt>
      <trkpt lon="-123.276618" lat="44.561916"><ele>71.656723</ele><time>2020-12-10T21:25:01Z</time><extensions><speed>3.955389</speed><course>91.855064</course><hAcc>4.733321</hAcc><vAcc>3.379380</vAcc></extensions></trkpt>
      <trkpt lon="-123.276569" lat="44.561916"><ele>71.218452</ele><time>2020-12-10T21:25:02Z</time><extensions><speed>3.984560</speed><course>90.119576</course><hAcc>4.733888</hAcc><vAcc>3.378586</vAcc></extensions></trkpt>
      <trkpt lon="-123.276519" lat="44.561914"><ele>71.091507</ele><time>2020-12-10T21:25:03Z</time><extensions><speed>3.983413</speed><course>92.176682</course><hAcc>4.733576</hAcc><vAcc>3.379023</vAcc></extensions></trkpt>
      <trkpt lon="-123.276463" lat="44.561917"><ele>71.109329</ele><time>2020-12-10T21:25:04Z</time><extensions><speed>4.331919</speed><course>86.535637</course><hAcc>4.730127</hAcc><vAcc>3.383849</vAcc></extensions></trkpt>
      <trkpt lon="-123.276406" lat="44.561916"><ele>71.203690</ele><time>2020-12-10T21:25:05Z</time><extensions><speed>4.496737</speed><course>91.250015</course><hAcc>4.731920</hAcc><vAcc>3.381341</vAcc></extensions></trkpt>
      <trkpt lon="-123.276353" lat="44.561915"><ele>71.234268</ele><time>2020-12-10T21:25:06Z</time><extensions><speed>4.319842</speed><course>90.714523</course><hAcc>4.732222</hAcc><vAcc>3.380919</vAcc></extensions></trkpt>
      <trkpt lon="-123.276294" lat="44.561916"><ele>71.207626</ele><time>2020-12-10T21:25:07Z</time><extensions><speed>4.485429</speed><course>88.371841</course><hAcc>4.733391</hAcc><vAcc>3.379281</vAcc></extensions></trkpt>
      <trkpt lon="-123.276234" lat="44.561917"><ele>71.376617</ele><time>2020-12-10T21:25:08Z</time><extensions><speed>4.623608</speed><course>88.637962</course><hAcc>4.732706</hAcc><vAcc>3.380241</vAcc></extensions></trkpt>
      <trkpt lon="-123.276185" lat="44.561913"><ele>71.120003</ele><time>2020-12-10T21:25:09Z</time><extensions><speed>4.295849</speed><course>93.911583</course><hAcc>4.733183</hAcc><vAcc>3.379574</vAcc></extensions></trkpt>
      <trkpt lon="-123.276128" lat="44.561912"><ele>70.935005</ele><time>2020-12-10T21:25:10Z</time><extensions><speed>4.408422</speed><course>91.845505</course><hAcc>4.731129</hAcc><vAcc>3.382448</vAcc></extensions></trkpt>
      <trkpt lon="-123.276073" lat="44.561914"><ele>71.084915</ele><time>2020-12-10T21:25:11Z</time><extensions><speed>4.455023</speed><course>87.345840</course><hAcc>4.730284</hAcc><vAcc>3.383630</vAcc></extensions></trkpt>
      <trkpt lon="-123.276016" lat="44.561917"><ele>71.098091</ele><time>2020-12-10T21:25:12Z</time><extensions><speed>4.435119</speed><course>86.522697</course><hAcc>4.731571</hAcc><vAcc>3.381830</vAcc></extensions></trkpt>
      <trkpt lon="-123.275963" lat="44.561919"><ele>71.537880</ele><time>2020-12-10T21:25:13Z</time><extensions><speed>4.286267</speed><course>86.652969</course><hAcc>4.729017</hAcc><vAcc>3.385401</vAcc></extensions></trkpt>
      <trkpt lon="-123.275909" lat="44.561924"><ele>71.527344</ele><time>2020-12-10T21:25:14Z</time><extensions><speed>4.225908</speed><course>84.535614</course><hAcc>4.731825</hAcc><vAcc>3.381474</vAcc></extensions></trkpt>
      <trkpt lon="-123.275856" lat="44.561929"><ele>71.370186</ele><time>2020-12-10T21:25:15Z</time><extensions><speed>4.284251</speed><course>83.423714</course><hAcc>4.732287</hAcc><vAcc>3.380827</vAcc></extensions></trkpt>
      <trkpt lon="-123.275800" lat="44.561936"><ele>71.074211</ele><time>2020-12-10T21:25:16Z</time><extensions><speed>4.411763</speed><course>81.728203</course><hAcc>4.730269</hAcc><vAcc>3.383650</vAcc></extensions></trkpt>
      <trkpt lon="-123.275746" lat="44.561937"><ele>71.249855</ele><time>2020-12-10T21:25:17Z</time><extensions><speed>4.337375</speed><course>85.101036</course><hAcc>4.730358</hAcc><vAcc>3.383526</vAcc></extensions></trkpt>
      <trkpt lon="-123.275692" lat="44.561943"><ele>70.992897</ele><time>2020-12-10T21:25:18Z</time><extensions><speed>4.313655</speed><course>83.885323</course><hAcc>4.727275</hAcc><vAcc>3.387832</vAcc></extensions></trkpt>
      <trkpt lon="-123.275637" lat="44.561943"><ele>70.682930</ele><time>2020-12-10T21:25:19Z</time><extensions><speed>4.321387</speed><course>88.309631</course><hAcc>4.730546</hAcc><vAcc>3.383264</vAcc></extensions></trkpt>
      <trkpt lon="-123.275582" lat="44.561950"><ele>70.688835</ele><time>2020-12-10T21:25:20Z</time><extensions><speed>4.391934</speed><course>82.972580</course><hAcc>4.729325</hAcc><vAcc>3.384970</vAcc></extensions></trkpt>
      <trkpt lon="-123.275523" lat="44.561950"><ele>70.996307</ele><time>2020-12-10T21:25:21Z</time><extensions><speed>4.548487</speed><course>88.058990</course><hAcc>4.730590</hAcc><vAcc>3.383202</vAcc></extensions></trkpt>
      <trkpt lon="-123.275465" lat="44.561949"><ele>70.790237</ele><time>2020-12-10T21:25:22Z</time><extensions><speed>4.546665</speed><course>88.807030</course><hAcc>4.729678</hAcc><vAcc>3.384477</vAcc></extensions></trkpt>
      <trkpt lon="-123.275410" lat="44.561951"><ele>70.783981</ele><time>2020-12-10T21:25:23Z</time><extensions><speed>4.429682</speed><course>89.629944</course><hAcc>4.730782</hAcc><vAcc>3.382933</vAcc></extensions></trkpt>
      <trkpt lon="-123.275356" lat="44.561952"><ele>71.136162</ele><time>2020-12-10T21:25:24Z</time><extensions><speed>4.396602</speed><course>88.771065</course><hAcc>4.730402</hAcc><vAcc>3.383464</vAcc></extensions></trkpt>
      <trkpt lon="-123.275302" lat="44.561951"><ele>70.938011</ele><time>2020-12-10T21:25:25Z</time><extensions><speed>4.304642</speed><course>91.200615</course><hAcc>4.730928</hAcc><vAcc>3.382729</vAcc></extensions></trkpt>
      <trkpt lon="-123.275246" lat="44.561950"><ele>71.106987</ele><time>2020-12-10T21:25:26Z</time><extensions><speed>4.392238</speed><course>90.591621</course><hAcc>4.729590</hAcc><vAcc>3.384599</vAcc></extensions></trkpt>
      <trkpt lon="-123.275190" lat="44.561947"><ele>71.205521</ele><time>2020-12-10T21:25:27Z</time><extensions><speed>4.408800</speed><course>92.738922</course><hAcc>4.730405</hAcc><vAcc>3.383460</vAcc></extensions></trkpt>
      <trkpt lon="-123.275133" lat="44.561947"><ele>71.335121</ele><time>2020-12-10T21:25:28Z</time><extensions><speed>4.416875</speed><course>90.317245</course><hAcc>4.730056</hAcc><vAcc>3.383949</vAcc></extensions></trkpt>
      <trkpt lon="-123.275081" lat="44.561947"><ele>71.192039</ele><time>2020-12-10T21:25:29Z</time><extensions><speed>4.235107</speed><course>90.293175</course><hAcc>4.730314</hAcc><vAcc>3.383587</vAcc></extensions></trkpt>
      <trkpt lon="-123.275028" lat="44.561947"><ele>71.194839</ele><time>2020-12-10T21:25:30Z</time><extensions><speed>4.259194</speed><course>90.823586</course><hAcc>4.731952</hAcc><vAcc>3.381296</vAcc></extensions></trkpt>
      <trkpt lon="-123.274977" lat="44.561946"><ele>71.094589</ele><time>2020-12-10T21:25:31Z</time><extensions><speed>4.127451</speed><course>91.719719</course><hAcc>4.732724</hAcc><vAcc>3.380216</vAcc></extensions></trkpt>
      <trkpt lon="-123.274923" lat="44.561945"><ele>71.152115</ele><time>2020-12-10T21:25:32Z</time><extensions><speed>4.185056</speed><course>92.664688</course><hAcc>4.733538</hAcc><vAcc>3.379076</vAcc></extensions></trkpt>
      <trkpt lon="-123.274870" lat="44.561946"><ele>71.147751</ele><time>2020-12-10T21:25:33Z</time><extensions><speed>4.118456</speed><course>91.098785</course><hAcc>4.733373</hAcc><vAcc>3.379307</vAcc></extensions></trkpt>
      <trkpt lon="-123.274818" lat="44.561942"><ele>71.006577</ele><time>2020-12-10T21:25:34Z</time><extensions><speed>4.190823</speed><course>93.114784</course><hAcc>4.732947</hAcc><vAcc>3.379903</vAcc></extensions></trkpt>
      <trkpt lon="-123.274766" lat="44.561944"><ele>70.697189</ele><time>2020-12-10T21:25:35Z</time><extensions><speed>4.058585</speed><course>88.352699</course><hAcc>4.732735</hAcc><vAcc>3.380201</vAcc></extensions></trkpt>
      <trkpt lon="-123.274716" lat="44.561942"><ele>70.502678</ele><time>2020-12-10T21:25:36Z</time><extensions><speed>4.045319</speed><course>91.935280</course><hAcc>4.729849</hAcc><vAcc>3.384237</vAcc></extensions></trkpt>
      <trkpt lon="-123.274664" lat="44.561943"><ele>70.830193</ele><time>2020-12-10T21:25:37Z</time><extensions><speed>4.082924</speed><course>89.753365</course><hAcc>4.730121</hAcc><vAcc>3.383858</vAcc></extensions></trkpt>
      <trkpt lon="-123.274616" lat="44.561941"><ele>70.481232</ele><time>2020-12-10T21:25:38Z</time><extensions><speed>3.883454</speed><course>92.839584</course><hAcc>4.728740</hAcc><vAcc>3.385787</vAcc></extensions></trkpt>
      <trkpt lon="-123.274572" lat="44.561945"><ele>69.693588</ele><time>2020-12-10T21:25:39Z</time><extensions><speed>3.567867</speed><course>84.486687</course><hAcc>4.729392</hAcc><vAcc>3.384876</vAcc></extensions></trkpt>
      <trkpt lon="-123.274567" lat="44.561927"><ele>68.661919</ele><time>2020-12-10T21:25:40Z</time><extensions><speed>1.913457</speed><course>121.420738</course><hAcc>4.726734</hAcc><vAcc>3.388587</vAcc></extensions></trkpt>
      <trkpt lon="-123.274480" lat="44.561930"><ele>68.774162</ele><time>2020-12-10T21:25:41Z</time><extensions><speed>4.290912</speed><course>92.740280</course><hAcc>4.732800</hAcc><vAcc>3.380110</vAcc></extensions></trkpt>
      <trkpt lon="-123.274468" lat="44.561917"><ele>69.437714</ele><time>2020-12-10T21:25:42Z</time><extensions><speed>2.759353</speed><course>104.591095</course><hAcc>4.731312</hAcc><vAcc>3.382192</vAcc></extensions></trkpt>
      <trkpt lon="-123.274434" lat="44.561907"><ele>70.257271</ele><time>2020-12-10T21:25:43Z</time><extensions><speed>2.797217</speed><course>108.542442</course><hAcc>4.722483</hAcc><vAcc>3.394509</vAcc></extensions></trkpt>
      <trkpt lon="-123.274405" lat="44.561877"><ele>70.427834</ele><time>2020-12-10T21:25:44Z</time><extensions><speed>3.282364</speed><course>130.794525</course><hAcc>4.724770</hAcc><vAcc>3.391326</vAcc></extensions></trkpt>
      <trkpt lon="-123.274359" lat="44.561853"><ele>69.838951</ele><time>2020-12-10T21:25:45Z</time><extensions><speed>4.112500</speed><course>129.895554</course><hAcc>4.723805</hAcc><vAcc>3.392668</vAcc></extensions></trkpt>
      <trkpt lon="-123.274363" lat="44.561825"><ele>69.610085</ele><time>2020-12-10T21:25:46Z</time><extensions><speed>3.471184</speed><course>151.142670</course><hAcc>4.721611</hAcc><vAcc>3.395723</vAcc></extensions></trkpt>
      <trkpt lon="-123.274369" lat="44.561787"><ele>69.762848</ele><time>2020-12-10T21:25:47Z</time><extensions><speed>3.659166</speed><course>169.532120</course><hAcc>4.725533</hAcc><vAcc>3.390263</vAcc></extensions></trkpt>
      <trkpt lon="-123.274399" lat="44.561751"><ele>70.161972</ele><time>2020-12-10T21:25:48Z</time><extensions><speed>3.865767</speed><course>193.538635</course><hAcc>4.722437</hAcc><vAcc>3.394572</vAcc></extensions></trkpt>
      <trkpt lon="-123.274415" lat="44.561712"><ele>69.353508</ele><time>2020-12-10T21:25:49Z</time><extensions><speed>4.132214</speed><course>194.744843</course><hAcc>4.730160</hAcc><vAcc>3.383803</vAcc></extensions></trkpt>
      <trkpt lon="-123.274413" lat="44.561665"><ele>69.904297</ele><time>2020-12-10T21:25:50Z</time><extensions><speed>4.833360</speed><course>184.161972</course><hAcc>4.729719</hAcc><vAcc>3.384420</vAcc></extensions></trkpt>
      <trkpt lon="-123.274427" lat="44.561620"><ele>70.117683</ele><time>2020-12-10T21:25:51Z</time><extensions><speed>5.290433</speed><course>189.026184</course><hAcc>4.732078</hAcc><vAcc>3.381120</vAcc></extensions></trkpt>
      <trkpt lon="-123.274422" lat="44.561572"><ele>70.055824</ele><time>2020-12-10T21:25:52Z</time><extensions><speed>5.365211</speed><course>182.002258</course><hAcc>4.728044</hAcc><vAcc>3.386759</vAcc></extensions></trkpt>
      <trkpt lon="-123.274414" lat="44.561530"><ele>70.089577</ele><time>2020-12-10T21:25:53Z</time><extensions><speed>5.151854</speed><course>175.137222</course><hAcc>4.733834</hAcc><vAcc>3.378661</vAcc></extensions></trkpt>
      <trkpt lon="-123.274417" lat="44.561477"><ele>70.464836</ele><time>2020-12-10T21:25:54Z</time><extensions><speed>5.455371</speed><course>178.089355</course><hAcc>4.732488</hAcc><vAcc>3.380547</vAcc></extensions></trkpt>
      <trkpt lon="-123.274416" lat="44.561419"><ele>70.076012</ele><time>2020-12-10T21:25:55Z</time><extensions><speed>6.090334</speed><course>175.742447</course><hAcc>4.731503</hAcc><vAcc>3.381925</vAcc></extensions></trkpt>
      <trkpt lon="-123.274411" lat="44.561371"><ele>70.343353</ele><time>2020-12-10T21:25:56Z</time><extensions><speed>5.685132</speed><course>174.677750</course><hAcc>4.727208</hAcc><vAcc>3.387926</vAcc></extensions></trkpt>
      <trkpt lon="-123.274397" lat="44.561310"><ele>70.686829</ele><time>2020-12-10T21:25:57Z</time><extensions><speed>6.225429</speed><course>171.443665</course><hAcc>4.727294</hAcc><vAcc>3.387805</vAcc></extensions></trkpt>
      <trkpt lon="-123.274374" lat="44.561251"><ele>70.350845</ele><time>2020-12-10T21:25:58Z</time><extensions><speed>6.650870</speed><course>166.014542</course><hAcc>4.729235</hAcc><vAcc>3.385096</vAcc></extensions></trkpt>
      <trkpt lon="-123.274352" lat="44.561198"><ele>70.309540</ele><time>2020-12-10T21:25:59Z</time><extensions><speed>6.461103</speed><course>164.203461</course><hAcc>4.727341</hAcc><vAcc>3.387740</vAcc></extensions></trkpt>
      <trkpt lon="-123.274335" lat="44.561139"><ele>70.045967</ele><time>2020-12-10T21:26:00Z</time><extensions><speed>6.619633</speed><course>167.165161</course><hAcc>4.729186</hAcc><vAcc>3.385164</vAcc></extensions></trkpt>
      <trkpt lon="-123.274307" lat="44.561076"><ele>69.665138</ele><time>2020-12-10T21:26:01Z</time><extensions><speed>7.122102</speed><course>168.451279</course><hAcc>4.722181</hAcc><vAcc>3.394929</vAcc></extensions></trkpt>
      <trkpt lon="-123.274303" lat="44.561018"><ele>69.884491</ele><time>2020-12-10T21:26:02Z</time><extensions><speed>6.913548</speed><course>172.738037</course><hAcc>4.723325</hAcc><vAcc>3.393337</vAcc></extensions></trkpt>
      <trkpt lon="-123.274292" lat="44.560963"><ele>68.696129</ele><time>2020-12-10T21:26:03Z</time><extensions><speed>6.323661</speed><course>170.902771</course><hAcc>4.723797</hAcc><vAcc>3.392679</vAcc></extensions></trkpt>
      <trkpt lon="-123.274282" lat="44.560913"><ele>69.614502</ele><time>2020-12-10T21:26:04Z</time><extensions><speed>5.922810</speed><course>170.271271</course><hAcc>4.731173</hAcc><vAcc>3.382387</vAcc></extensions></trkpt>
      <trkpt lon="-123.274275" lat="44.560846"><ele>70.310913</ele><time>2020-12-10T21:26:05Z</time><extensions><speed>6.550474</speed><course>173.928009</course><hAcc>4.726170</hAcc><vAcc>3.389374</vAcc></extensions></trkpt>
      <trkpt lon="-123.274282" lat="44.560787"><ele>70.028717</ele><time>2020-12-10T21:26:06Z</time><extensions><speed>6.520169</speed><course>178.620880</course><hAcc>4.726930</hAcc><vAcc>3.388314</vAcc></extensions></trkpt>
      <trkpt lon="-123.274274" lat="44.560735"><ele>69.951775</ele><time>2020-12-10T21:26:07Z</time><extensions><speed>6.140875</speed><course>176.161972</course><hAcc>4.732586</hAcc><vAcc>3.380409</vAcc></extensions></trkpt>
      <trkpt lon="-123.274245" lat="44.560687"><ele>69.828362</ele><time>2020-12-10T21:26:08Z</time><extensions><speed>5.850660</speed><course>170.434860</course><hAcc>4.730175</hAcc><vAcc>3.383783</vAcc></extensions></trkpt>
      <trkpt lon="-123.274220" lat="44.560642"><ele>69.248268</ele><time>2020-12-10T21:26:09Z</time><extensions><speed>5.492240</speed><course>163.080597</course><hAcc>4.733820</hAcc><vAcc>3.378681</vAcc></extensions></trkpt>
      <trkpt lon="-123.274205" lat="44.560586"><ele>69.508965</ele><time>2020-12-10T21:26:10Z</time><extensions><speed>5.936278</speed><course>165.334686</course><hAcc>4.732864</hAcc><vAcc>3.380020</vAcc></extensions></trkpt>
      <trkpt lon="-123.274193" lat="44.560540"><ele>69.365219</ele><time>2020-12-10T21:26:11Z</time><extensions><speed>5.503270</speed><course>168.621887</course><hAcc>4.739218</hAcc><vAcc>3.371104</vAcc></extensions></trkpt>
      <trkpt lon="-123.274173" lat="44.560496"><ele>70.021049</ele><time>2020-12-10T21:26:12Z</time><extensions><speed>5.302453</speed><course>165.727402</course><hAcc>4.736814</hAcc><vAcc>3.374482</vAcc></extensions></trkpt>
      <trkpt lon="-123.274164" lat="44.560441"><ele>69.953590</ele><time>2020-12-10T21:26:13Z</time><extensions><speed>5.892741</speed><course>171.125107</course><hAcc>4.736936</hAcc><vAcc>3.374311</vAcc></extensions></trkpt>
      <trkpt lon="-123.274150" lat="44.560401"><ele>70.145813</ele><time>2020-12-10T21:26:14Z</time><extensions><speed>5.159954</speed><course>169.883041</course><hAcc>4.738828</hAcc><vAcc>3.371654</vAcc></extensions></trkpt>
      <trkpt lon="-123.274136" lat="44.560355"><ele>69.755341</ele><time>2020-12-10T21:26:15Z</time><extensions><speed>5.249033</speed><course>169.325043</course><hAcc>4.739109</hAcc><vAcc>3.371259</vAcc></extensions></trkpt>
      <trkpt lon="-123.274116" lat="44.560316"><ele>69.450302</ele><time>2020-12-10T21:26:16Z</time><extensions><speed>4.853678</speed><course>165.221100</course><hAcc>4.735926</hAcc><vAcc>3.375729</vAcc></extensions></trkpt>
      <trkpt lon="-123.274117" lat="44.560270"><ele>69.490845</ele><time>2020-12-10T21:26:17Z</time><extensions><speed>4.865640</speed><course>172.622910</course><hAcc>4.737422</hAcc><vAcc>3.373628</vAcc></extensions></trkpt>
      <trkpt lon="-123.274103" lat="44.560230"><ele>69.791084</ele><time>2020-12-10T21:26:18Z</time><extensions><speed>4.692487</speed><course>169.250214</course><hAcc>4.733117</hAcc><vAcc>3.379665</vAcc></extensions></trkpt>
      <trkpt lon="-123.274084" lat="44.560192"><ele>70.036095</ele><time>2020-12-10T21:26:19Z</time><extensions><speed>4.530044</speed><course>162.831619</course><hAcc>4.734178</hAcc><vAcc>3.378180</vAcc></extensions></trkpt>
      <trkpt lon="-123.274070" lat="44.560152"><ele>69.986504</ele><time>2020-12-10T21:26:20Z</time><extensions><speed>4.659039</speed><course>166.407410</course><hAcc>4.737251</hAcc><vAcc>3.373869</vAcc></extensions></trkpt>
      <trkpt lon="-123.274064" lat="44.560118"><ele>69.908356</ele><time>2020-12-10T21:26:21Z</time><extensions><speed>4.062208</speed><course>170.125015</course><hAcc>4.735888</hAcc><vAcc>3.375782</vAcc></extensions></trkpt>
      <trkpt lon="-123.274060" lat="44.560084"><ele>70.100983</ele><time>2020-12-10T21:26:22Z</time><extensions><speed>3.759925</speed><course>172.729980</course><hAcc>4.735199</hAcc><vAcc>3.376748</vAcc></extensions></trkpt>
      <trkpt lon="-123.274061" lat="44.560052"><ele>70.333710</ele><time>2020-12-10T21:26:23Z</time><extensions><speed>3.666607</speed><course>174.343307</course><hAcc>4.734837</hAcc><vAcc>3.377256</vAcc></extensions></trkpt>
      <trkpt lon="-123.274058" lat="44.560020"><ele>70.461052</ele><time>2020-12-10T21:26:24Z</time><extensions><speed>3.503721</speed><course>175.484024</course><hAcc>4.734755</hAcc><vAcc>3.377371</vAcc></extensions></trkpt>
      <trkpt lon="-123.274053" lat="44.559999"><ele>70.299965</ele><time>2020-12-10T21:26:25Z</time><extensions><speed>2.749926</speed><course>172.991867</course><hAcc>4.731452</hAcc><vAcc>3.381996</vAcc></extensions></trkpt>
      <trkpt lon="-123.274045" lat="44.559984"><ele>70.135971</ele><time>2020-12-10T21:26:26Z</time><extensions><speed>2.075908</speed><course>168.823776</course><hAcc>4.733595</hAcc><vAcc>3.378996</vAcc></extensions></trkpt>
      <trkpt lon="-123.274047" lat="44.559966"><ele>70.273376</ele><time>2020-12-10T21:26:27Z</time><extensions><speed>2.008332</speed><course>174.680405</course><hAcc>4.730190</hAcc><vAcc>3.383762</vAcc></extensions></trkpt>
      <trkpt lon="-123.274034" lat="44.559951"><ele>70.311310</ele><time>2020-12-10T21:26:28Z</time><extensions><speed>2.030999</speed><course>163.131683</course><hAcc>4.729411</hAcc><vAcc>3.384851</vAcc></extensions></trkpt>
      <trkpt lon="-123.274034" lat="44.559926"><ele>70.190872</ele><time>2020-12-10T21:26:29Z</time><extensions><speed>2.530721</speed><course>171.458145</course><hAcc>4.727293</hAcc><vAcc>3.387807</vAcc></extensions></trkpt>
      <trkpt lon="-123.274021" lat="44.559904"><ele>70.440483</ele><time>2020-12-10T21:26:30Z</time><extensions><speed>2.713032</speed><course>156.322556</course><hAcc>4.728085</hAcc><vAcc>3.386702</vAcc></extensions></trkpt>
      <trkpt lon="-123.273996" lat="44.559880"><ele>70.721848</ele><time>2020-12-10T21:26:31Z</time><extensions><speed>2.975128</speed><course>147.736526</course><hAcc>4.726300</hAcc><vAcc>3.389193</vAcc></extensions></trkpt>
      <trkpt lon="-123.273965" lat="44.559854"><ele>71.062614</ele><time>2020-12-10T21:26:32Z</time><extensions><speed>3.484610</speed><course>140.466110</course><hAcc>4.723868</hAcc><vAcc>3.392581</vAcc></extensions></trkpt>
      <trkpt lon="-123.273911" lat="44.559841"><ele>70.922714</ele><time>2020-12-10T21:26:33Z</time><extensions><speed>3.964103</speed><course>113.747643</course><hAcc>4.718291</hAcc><vAcc>3.400334</vAcc></extensions></trkpt>
      <trkpt lon="-123.273855" lat="44.559836"><ele>70.771973</ele><time>2020-12-10T21:26:34Z</time><extensions><speed>4.283299</speed><course>99.979897</course><hAcc>4.727028</hAcc><vAcc>3.388176</vAcc></extensions></trkpt>
      <trkpt lon="-123.273792" lat="44.559839"><ele>71.049835</ele><time>2020-12-10T21:26:35Z</time><extensions><speed>4.778074</speed><course>88.279633</course><hAcc>4.719717</hAcc><vAcc>3.398354</vAcc></extensions></trkpt>
      <trkpt lon="-123.273750" lat="44.559842"><ele>71.553932</ele><time>2020-12-10T21:26:36Z</time><extensions><speed>4.063473</speed><course>87.847954</course><hAcc>4.714445</hAcc><vAcc>3.405664</vAcc></extensions></trkpt>
      <trkpt lon="-123.273704" lat="44.559826"><ele>70.659180</ele><time>2020-12-10T21:26:37Z</time><extensions><speed>3.722309</speed><course>102.387596</course><hAcc>4.717176</hAcc><vAcc>3.401880</vAcc></extensions></trkpt>
      <trkpt lon="-123.273619" lat="44.559840"><ele>70.463127</ele><time>2020-12-10T21:26:38Z</time><extensions><speed>5.278411</speed><course>88.146416</course><hAcc>4.721920</hAcc><vAcc>3.395292</vAcc></extensions></trkpt>
      <trkpt lon="-123.273557" lat="44.559852"><ele>70.646622</ele><time>2020-12-10T21:26:39Z</time><extensions><speed>5.033792</speed><course>80.164482</course><hAcc>4.734338</hAcc><vAcc>3.377956</vAcc></extensions></trkpt>
      <trkpt lon="-123.273484" lat="44.559853"><ele>70.351456</ele><time>2020-12-10T21:26:40Z</time><extensions><speed>5.359501</speed><course>84.012306</course><hAcc>4.722052</hAcc><vAcc>3.395108</vAcc></extensions></trkpt>
      <trkpt lon="-123.273413" lat="44.559865"><ele>69.967728</ele><time>2020-12-10T21:26:41Z</time><extensions><speed>5.348764</speed><course>79.770454</course><hAcc>4.720947</hAcc><vAcc>3.396645</vAcc></extensions></trkpt>
      <trkpt lon="-123.273329" lat="44.559855"><ele>70.347374</ele><time>2020-12-10T21:26:42Z</time><extensions><speed>5.933714</speed><course>89.194550</course><hAcc>4.731994</hAcc><vAcc>3.381238</vAcc></extensions></trkpt>
      <trkpt lon="-123.273283" lat="44.559840"><ele>70.089424</ele><time>2020-12-10T21:26:43Z</time><extensions><speed>4.850609</speed><course>102.640671</course><hAcc>4.741986</hAcc><vAcc>3.367210</vAcc></extensions></trkpt>
      <trkpt lon="-123.273194" lat="44.559867"><ele>68.992561</ele><time>2020-12-10T21:26:44Z</time><extensions><speed>5.494717</speed><course>85.331757</course><hAcc>4.730075</hAcc><vAcc>3.383922</vAcc></extensions></trkpt>
      <trkpt lon="-123.273100" lat="44.559883"><ele>69.537727</ele><time>2020-12-10T21:26:45Z</time><extensions><speed>6.535403</speed><course>77.938766</course><hAcc>4.730056</hAcc><vAcc>3.383949</vAcc></extensions></trkpt>
      <trkpt lon="-123.273029" lat="44.559890"><ele>70.277100</ele><time>2020-12-10T21:26:46Z</time><extensions><speed>6.170302</speed><course>80.151680</course><hAcc>4.731889</hAcc><vAcc>3.381385</vAcc></extensions></trkpt>
      <trkpt lon="-123.272954" lat="44.559899"><ele>70.046936</ele><time>2020-12-10T21:26:47Z</time><extensions><speed>5.848889</speed><course>79.635803</course><hAcc>4.735147</hAcc><vAcc>3.376822</vAcc></extensions></trkpt>
      <trkpt lon="-123.272874" lat="44.559917"><ele>70.422600</ele><time>2020-12-10T21:26:48Z</time><extensions><speed>6.172362</speed><course>75.307739</course><hAcc>4.734842</hAcc><vAcc>3.377248</vAcc></extensions></trkpt>
      <trkpt lon="-123.272793" lat="44.559915"><ele>70.067627</ele><time>2020-12-10T21:26:49Z</time><extensions><speed>6.327413</speed><course>83.531975</course><hAcc>4.735648</hAcc><vAcc>3.376118</vAcc></extensions></trkpt>
      <trkpt lon="-123.272713" lat="44.559920"><ele>69.726440</ele><time>2020-12-10T21:26:50Z</time><extensions><speed>6.168641</speed><course>85.830849</course><hAcc>4.732192</hAcc><vAcc>3.380960</vAcc></extensions></trkpt>
      <trkpt lon="-123.272626" lat="44.559923"><ele>69.431427</ele><time>2020-12-10T21:26:51Z</time><extensions><speed>6.566838</speed><course>87.647964</course><hAcc>4.725882</hAcc><vAcc>3.389776</vAcc></extensions></trkpt>
      <trkpt lon="-123.272541" lat="44.559933"><ele>69.089226</ele><time>2020-12-10T21:26:52Z</time><extensions><speed>6.729176</speed><course>85.265228</course><hAcc>4.729391</hAcc><vAcc>3.384878</vAcc></extensions></trkpt>
      <trkpt lon="-123.272480" lat="44.559941"><ele>69.329346</ele><time>2020-12-10T21:26:53Z</time><extensions><speed>5.746592</speed><course>82.098213</course><hAcc>4.727029</hAcc><vAcc>3.388176</vAcc></extensions></trkpt>
      <trkpt lon="-123.272397" lat="44.559948"><ele>69.763779</ele><time>2020-12-10T21:26:54Z</time><extensions><speed>6.182746</speed><course>82.986458</course><hAcc>4.730207</hAcc><vAcc>3.383738</vAcc></extensions></trkpt>
      <trkpt lon="-123.272316" lat="44.559956"><ele>69.858833</ele><time>2020-12-10T21:26:55Z</time><extensions><speed>6.524282</speed><course>82.770439</course><hAcc>4.727427</hAcc><vAcc>3.387621</vAcc></extensions></trkpt>
      <trkpt lon="-123.272246" lat="44.559963"><ele>69.415695</ele><time>2020-12-10T21:26:56Z</time><extensions><speed>5.934629</speed><course>81.643173</course><hAcc>4.717611</hAcc><vAcc>3.401277</vAcc></extensions></trkpt>
      <trkpt lon="-123.272167" lat="44.559972"><ele>70.241379</ele><time>2020-12-10T21:26:57Z</time><extensions><speed>6.059128</speed><course>81.322769</course><hAcc>4.717669</hAcc><vAcc>3.401197</vAcc></extensions></trkpt>
      <trkpt lon="-123.272080" lat="44.559972"><ele>70.073853</ele><time>2020-12-10T21:26:58Z</time><extensions><speed>6.577997</speed><course>86.208611</course><hAcc>4.725528</hAcc><vAcc>3.390269</vAcc></extensions></trkpt>
      <trkpt lon="-123.272005" lat="44.559980"><ele>69.761055</ele><time>2020-12-10T21:26:59Z</time><extensions><speed>6.282969</speed><course>85.033012</course><hAcc>4.723709</hAcc><vAcc>3.392803</vAcc></extensions></trkpt>
      <trkpt lon="-123.271926" lat="44.559994"><ele>69.249191</ele><time>2020-12-10T21:27:00Z</time><extensions><speed>6.288317</speed><course>81.153709</course><hAcc>4.720867</hAcc><vAcc>3.396756</vAcc></extensions></trkpt>
      <trkpt lon="-123.271839" lat="44.560006"><ele>70.022728</ele><time>2020-12-10T21:27:01Z</time><extensions><speed>6.704162</speed><course>79.652771</course><hAcc>4.724618</hAcc><vAcc>3.391536</vAcc></extensions></trkpt>
      <trkpt lon="-123.271758" lat="44.560012"><ele>69.745346</ele><time>2020-12-10T21:27:02Z</time><extensions><speed>6.654542</speed><course>81.941895</course><hAcc>4.729838</hAcc><vAcc>3.384253</vAcc></extensions></trkpt>
      <trkpt lon="-123.271682" lat="44.560010"><ele>69.418663</ele><time>2020-12-10T21:27:03Z</time><extensions><speed>6.099936</speed><course>88.218704</course><hAcc>4.728213</hAcc><vAcc>3.386523</vAcc></extensions></trkpt>
      <trkpt lon="-123.271589" lat="44.560026"><ele>69.892670</ele><time>2020-12-10T21:27:04Z</time><extensions><speed>6.775331</speed><course>81.416580</course><hAcc>4.728084</hAcc><vAcc>3.386703</vAcc></extensions></trkpt>
      <trkpt lon="-123.271510" lat="44.560039"><ele>69.621239</ele><time>2020-12-10T21:27:05Z</time><extensions><speed>6.732747</speed><course>78.871742</course><hAcc>4.728507</hAcc><vAcc>3.386113</vAcc></extensions></trkpt>
      <trkpt lon="-123.271422" lat="44.560050"><ele>69.969643</ele><time>2020-12-10T21:27:06Z</time><extensions><speed>6.966959</speed><course>79.442513</course><hAcc>4.729064</hAcc><vAcc>3.385334</vAcc></extensions></trkpt>
      <trkpt lon="-123.271342" lat="44.560055"><ele>71.007034</ele><time>2020-12-10T21:27:07Z</time><extensions><speed>6.665532</speed><course>81.434258</course><hAcc>4.724893</hAcc><vAcc>3.391154</vAcc></extensions></trkpt>
      <trkpt lon="-123.271259" lat="44.560076"><ele>70.404625</ele><time>2020-12-10T21:27:08Z</time><extensions><speed>6.687021</speed><course>77.383606</course><hAcc>4.724822</hAcc><vAcc>3.391253</vAcc></extensions></trkpt>
      <trkpt lon="-123.271186" lat="44.560084"><ele>70.426735</ele><time>2020-12-10T21:27:09Z</time><extensions><speed>6.088831</speed><course>79.532753</course><hAcc>4.723099</hAcc><vAcc>3.393652</vAcc></extensions></trkpt>
      <trkpt lon="-123.271116" lat="44.560081"><ele>69.862129</ele><time>2020-12-10T21:27:10Z</time><extensions><speed>5.473191</speed><course>90.811539</course><hAcc>4.724585</hAcc><vAcc>3.391583</vAcc></extensions></trkpt>
      <trkpt lon="-123.271070" lat="44.560047"><ele>70.828674</ele><time>2020-12-10T21:27:11Z</time><extensions><speed>4.627644</speed><course>125.832329</course><hAcc>4.728270</hAcc><vAcc>3.386444</vAcc></extensions></trkpt>
      <trkpt lon="-123.271060" lat="44.559998"><ele>70.857391</ele><time>2020-12-10T21:27:12Z</time><extensions><speed>4.866879</speed><course>163.994186</course><hAcc>4.727434</hAcc><vAcc>3.387610</vAcc></extensions></trkpt>
      <trkpt lon="-123.271065" lat="44.559962"><ele>70.736809</ele><time>2020-12-10T21:27:13Z</time><extensions><speed>4.408027</speed><course>176.664780</course><hAcc>4.730935</hAcc><vAcc>3.382720</vAcc></extensions></trkpt>
      <trkpt lon="-123.271055" lat="44.559891"><ele>71.365784</ele><time>2020-12-10T21:27:14Z</time><extensions><speed>6.506522</speed><course>174.961990</course><hAcc>4.726648</hAcc><vAcc>3.388707</vAcc></extensions></trkpt>
      <trkpt lon="-123.271028" lat="44.559836"><ele>70.766418</ele><time>2020-12-10T21:27:15Z</time><extensions><speed>6.817960</speed><course>165.652618</course><hAcc>4.724800</hAcc><vAcc>3.391283</vAcc></extensions></trkpt>
      <trkpt lon="-123.271032" lat="44.559809"><ele>71.521324</ele><time>2020-12-10T21:27:16Z</time><extensions><speed>4.939014</speed><course>172.162338</course><hAcc>4.720887</hAcc><vAcc>3.396729</vAcc></extensions></trkpt>
      <trkpt lon="-123.271045" lat="44.559756"><ele>70.591316</ele><time>2020-12-10T21:27:17Z</time><extensions><speed>5.319174</speed><course>181.573502</course><hAcc>4.738337</hAcc><vAcc>3.372344</vAcc></extensions></trkpt>
      <trkpt lon="-123.271044" lat="44.559693"><ele>70.551216</ele><time>2020-12-10T21:27:18Z</time><extensions><speed>5.918376</speed><course>181.030228</course><hAcc>4.729104</hAcc><vAcc>3.385279</vAcc></extensions></trkpt>
      <trkpt lon="-123.271021" lat="44.559642"><ele>71.760719</ele><time>2020-12-10T21:27:19Z</time><extensions><speed>5.904508</speed><course>174.490692</course><hAcc>4.720294</hAcc><vAcc>3.397552</vAcc></extensions></trkpt>
      <trkpt lon="-123.271030" lat="44.559582"><ele>71.173470</ele><time>2020-12-10T21:27:20Z</time><extensions><speed>6.489355</speed><course>177.965164</course><hAcc>4.730989</hAcc><vAcc>3.382643</vAcc></extensions></trkpt>
      <trkpt lon="-123.271014" lat="44.559543"><ele>71.034729</ele><time>2020-12-10T21:27:21Z</time><extensions><speed>5.313529</speed><course>171.926468</course><hAcc>4.742627</hAcc><vAcc>3.366308</vAcc></extensions></trkpt>
      <trkpt lon="-123.270987" lat="44.559488"><ele>70.940575</ele><time>2020-12-10T21:27:22Z</time><extensions><speed>5.913212</speed><course>169.800278</course><hAcc>4.726406</hAcc><vAcc>3.389045</vAcc></extensions></trkpt>
      <trkpt lon="-123.270985" lat="44.559440"><ele>70.704826</ele><time>2020-12-10T21:27:23Z</time><extensions><speed>5.580495</speed><course>177.355576</course><hAcc>4.722568</hAcc><vAcc>3.394390</vAcc></extensions></trkpt>
      <trkpt lon="-123.270963" lat="44.559396"><ele>70.582863</ele><time>2020-12-10T21:27:24Z</time><extensions><speed>5.472649</speed><course>166.804794</course><hAcc>4.725158</hAcc><vAcc>3.390784</vAcc></extensions></trkpt>
      <trkpt lon="-123.270953" lat="44.559355"><ele>70.643631</ele><time>2020-12-10T21:27:25Z</time><extensions><speed>5.121943</speed><course>168.005646</course><hAcc>4.725276</hAcc><vAcc>3.390621</vAcc></extensions></trkpt>
      <trkpt lon="-123.270949" lat="44.559313"><ele>70.485107</ele><time>2020-12-10T21:27:26Z</time><extensions><speed>4.922328</speed><course>174.793900</course><hAcc>4.719734</hAcc><vAcc>3.398330</vAcc></extensions></trkpt>
      <trkpt lon="-123.270951" lat="44.559274"><ele>70.253708</ele><time>2020-12-10T21:27:27Z</time><extensions><speed>4.538275</speed><course>179.912827</course><hAcc>4.721968</hAcc><vAcc>3.395225</vAcc></extensions></trkpt>
      <trkpt lon="-123.270952" lat="44.559233"><ele>70.548279</ele><time>2020-12-10T21:27:28Z</time><extensions><speed>4.509570</speed><course>181.241058</course><hAcc>4.729806</hAcc><vAcc>3.384298</vAcc></extensions></trkpt>
      <trkpt lon="-123.270965" lat="44.559194"><ele>70.518791</ele><time>2020-12-10T21:27:29Z</time><extensions><speed>4.340040</speed><course>188.465668</course><hAcc>4.727207</hAcc><vAcc>3.387927</vAcc></extensions></trkpt>
      <trkpt lon="-123.270973" lat="44.559160"><ele>70.602577</ele><time>2020-12-10T21:27:30Z</time><extensions><speed>4.160681</speed><course>187.886749</course><hAcc>4.730453</hAcc><vAcc>3.383393</vAcc></extensions></trkpt>
      <trkpt lon="-123.270980" lat="44.559123"><ele>70.615517</ele><time>2020-12-10T21:27:31Z</time><extensions><speed>4.156751</speed><course>185.851501</course><hAcc>4.732006</hAcc><vAcc>3.381222</vAcc></extensions></trkpt>
      <trkpt lon="-123.270995" lat="44.559087"><ele>70.791748</ele><time>2020-12-10T21:27:32Z</time><extensions><speed>4.079796</speed><course>191.404083</course><hAcc>4.728947</hAcc><vAcc>3.385498</vAcc></extensions></trkpt>
      <trkpt lon="-123.270999" lat="44.559061"><ele>70.825417</ele><time>2020-12-10T21:27:33Z</time><extensions><speed>3.458594</speed><course>185.769714</course><hAcc>4.732763</hAcc><vAcc>3.380161</vAcc></extensions></trkpt>
      <trkpt lon="-123.270996" lat="44.559036"><ele>70.780190</ele><time>2020-12-10T21:27:34Z</time><extensions><speed>3.008991</speed><course>176.503082</course><hAcc>4.733762</hAcc><vAcc>3.378763</vAcc></extensions></trkpt>
      <trkpt lon="-123.271018" lat="44.559006"><ele>70.965141</ele><time>2020-12-10T21:27:35Z</time><extensions><speed>3.176808</speed><course>192.894547</course><hAcc>4.737633</hAcc><vAcc>3.373333</vAcc></extensions></trkpt>
      <trkpt lon="-123.270995" lat="44.558985"><ele>70.923721</ele><time>2020-12-10T21:27:36Z</time><extensions><speed>2.769029</speed><course>174.184280</course><hAcc>4.735497</hAcc><vAcc>3.376330</vAcc></extensions></trkpt>
      <trkpt lon="-123.271007" lat="44.558958"><ele>70.621689</ele><time>2020-12-10T21:27:37Z</time><extensions><speed>2.795931</speed><course>186.247513</course><hAcc>4.729218</hAcc><vAcc>3.385120</vAcc></extensions></trkpt>
      <trkpt lon="-123.270995" lat="44.558933"><ele>71.051208</ele><time>2020-12-10T21:27:38Z</time><extensions><speed>2.889900</speed><course>170.272293</course><hAcc>4.719002</hAcc><vAcc>3.399347</vAcc></extensions></trkpt>
      <trkpt lon="-123.270983" lat="44.558915"><ele>70.661285</ele><time>2020-12-10T21:27:39Z</time><extensions><speed>2.415854</speed><course>163.955582</course><hAcc>4.733382</hAcc><vAcc>3.379294</vAcc></extensions></trkpt>
      <trkpt lon="-123.270989" lat="44.558900"><ele>70.828781</ele><time>2020-12-10T21:27:40Z</time><extensions><speed>1.990478</speed><course>173.236572</course><hAcc>4.745573</hAcc><vAcc>3.362153</vAcc></extensions></trkpt>
      <trkpt lon="-123.270978" lat="44.558881"><ele>71.029037</ele><time>2020-12-10T21:27:41Z</time><extensions><speed>2.061157</speed><course>164.719849</course><hAcc>4.732950</hAcc><vAcc>3.379900</vAcc></extensions></trkpt>
      <trkpt lon="-123.270971" lat="44.558848"><ele>70.389359</ele><time>2020-12-10T21:27:42Z</time><extensions><speed>3.011781</speed><course>169.851074</course><hAcc>4.718953</hAcc><vAcc>3.399414</vAcc></extensions></trkpt>
      <trkpt lon="-123.270962" lat="44.558853"><ele>71.404816</ele><time>2020-12-10T21:27:43Z</time><extensions><speed>1.000582</speed><course>171.370270</course><hAcc>4.717959</hAcc><vAcc>3.400794</vAcc></extensions></trkpt>
      <trkpt lon="-123.270955" lat="44.558838"><ele>70.939804</ele><time>2020-12-10T21:27:44Z</time><extensions><speed>1.268940</speed><course>172.238434</course><hAcc>4.717207</hAcc><vAcc>3.401837</vAcc></extensions></trkpt>
      <trkpt lon="-123.270966" lat="44.558827"><ele>70.187737</ele><time>2020-12-10T21:27:45Z</time><extensions><speed>1.387082</speed><course>206.180008</course><hAcc>4.717442</hAcc><vAcc>3.401511</vAcc></extensions></trkpt>
      <trkpt lon="-123.270965" lat="44.558798"><ele>69.533630</ele><time>2020-12-10T21:27:46Z</time><extensions><speed>2.387519</speed><course>194.682327</course><hAcc>4.717083</hAcc><vAcc>3.402009</vAcc></extensions></trkpt>
      <trkpt lon="-123.270941" lat="44.558798"><ele>70.256050</ele><time>2020-12-10T21:27:47Z</time><extensions><speed>1.250450</speed><course>158.061172</course><hAcc>4.708954</hAcc><vAcc>3.413253</vAcc></extensions></trkpt>
      <trkpt lon="-123.270950" lat="44.558785"><ele>70.832550</ele><time>2020-12-10T21:27:48Z</time><extensions><speed>1.358495</speed><course>188.088348</course><hAcc>4.727958</hAcc><vAcc>3.386880</vAcc></extensions></trkpt>
      <trkpt lon="-123.270927" lat="44.558781"><ele>70.099213</ele><time>2020-12-10T21:27:49Z</time><extensions><speed>1.076330</speed><course>146.474731</course><hAcc>4.722072</hAcc><vAcc>3.395081</vAcc></extensions></trkpt>
      <trkpt lon="-123.270934" lat="44.558762"><ele>71.727356</ele><time>2020-12-10T21:27:50Z</time><extensions><speed>1.529734</speed><course>176.322342</course><hAcc>4.724118</hAcc><vAcc>3.392233</vAcc></extensions></trkpt>
      <trkpt lon="-123.270932" lat="44.558748"><ele>71.593880</ele><time>2020-12-10T21:27:51Z</time><extensions><speed>1.481674</speed><course>179.137451</course><hAcc>4.722187</hAcc><vAcc>3.394921</vAcc></extensions></trkpt>
      <trkpt lon="-123.270929" lat="44.558734"><ele>71.056427</ele><time>2020-12-10T21:27:52Z</time><extensions><speed>1.512644</speed><course>174.529709</course><hAcc>4.715301</hAcc><vAcc>3.404479</vAcc></extensions></trkpt>
      <trkpt lon="-123.270926" lat="44.558723"><ele>70.709663</ele><time>2020-12-10T21:27:53Z</time><extensions><speed>1.365083</speed><course>174.307831</course><hAcc>4.715988</hAcc><vAcc>3.403527</vAcc></extensions></trkpt>
      <trkpt lon="-123.270919" lat="44.558713"><ele>70.816101</ele><time>2020-12-10T21:27:54Z</time><extensions><speed>1.297829</speed><course>168.563568</course><hAcc>4.722795</hAcc><vAcc>3.394075</vAcc></extensions></trkpt>
      <trkpt lon="-123.270927" lat="44.558708"><ele>69.903938</ele><time>2020-12-10T21:27:55Z</time><extensions><speed>1.019921</speed><course>197.368698</course><hAcc>4.722528</hAcc><vAcc>3.394447</vAcc></extensions></trkpt>
      <trkpt lon="-123.270940" lat="44.558702"><ele>70.272758</ele><time>2020-12-10T21:27:56Z</time><extensions><speed>1.194524</speed><course>220.353256</course><hAcc>4.721332</hAcc><vAcc>3.396110</vAcc></extensions></trkpt>
      <trkpt lon="-123.270950" lat="44.558701"><ele>70.223778</ele><time>2020-12-10T21:27:57Z</time><extensions><speed>1.227231</speed><course>236.424820</course><hAcc>4.724112</hAcc><vAcc>3.392241</vAcc></extensions></trkpt>
      <trkpt lon="-123.270978" lat="44.558700"><ele>69.731026</ele><time>2020-12-10T21:27:58Z</time><extensions><speed>1.651081</speed><course>250.954117</course><hAcc>4.722590</hAcc><vAcc>3.394359</vAcc></extensions></trkpt>
      <trkpt lon="-123.270984" lat="44.558698"><ele>69.822128</ele><time>2020-12-10T21:27:59Z</time><extensions><speed>1.253140</speed><course>253.231430</course><hAcc>4.726866</hAcc><vAcc>3.388403</vAcc></extensions></trkpt>
      <trkpt lon="-123.270996" lat="44.558697"><ele>70.107452</ele><time>2020-12-10T21:28:00Z</time><extensions><speed>1.149052</speed><course>255.758301</course><hAcc>4.717287</hAcc><vAcc>3.401726</vAcc></extensions></trkpt>
      <trkpt lon="-123.271007" lat="44.558698"><ele>70.035446</ele><time>2020-12-10T21:28:01Z</time><extensions><speed>0.971006</speed><course>264.767609</course><hAcc>4.723237</hAcc><vAcc>3.393461</vAcc></extensions></trkpt>
      <trkpt lon="-123.271045" lat="44.558692"><ele>70.093895</ele><time>2020-12-10T21:28:02Z</time><extensions><speed>1.917909</speed><course>257.673248</course><hAcc>4.729957</hAcc><vAcc>3.384087</vAcc></extensions></trkpt>
      <trkpt lon="-123.271056" lat="44.558693"><ele>71.415695</ele><time>2020-12-10T21:28:03Z</time><extensions><speed>1.481320</speed><course>257.143921</course><hAcc>4.734285</hAcc><vAcc>3.378029</vAcc></extensions></trkpt>
      <trkpt lon="-123.271055" lat="44.558693"><ele>70.678314</ele><time>2020-12-10T21:28:04Z</time><extensions><speed>0.773994</speed><course>259.976044</course><hAcc>4.735940</hAcc><vAcc>3.375708</vAcc></extensions></trkpt>
      <trkpt lon="-123.271065" lat="44.558697"><ele>70.449539</ele><time>2020-12-10T21:28:05Z</time><extensions><speed>0.734107</speed><course>276.831604</course><hAcc>4.743280</hAcc><vAcc>3.365386</vAcc></extensions></trkpt>
      <trkpt lon="-123.271076" lat="44.558694"><ele>70.259796</ele><time>2020-12-10T21:28:06Z</time><extensions><speed>0.840794</speed><course>269.599457</course><hAcc>4.733145</hAcc><vAcc>3.379627</vAcc></extensions></trkpt>
      <trkpt lon="-123.271071" lat="44.558692"><ele>70.876289</ele><time>2020-12-10T21:28:07Z</time><extensions><speed>0.000000</speed><course>256.094177</course><hAcc>4.737584</hAcc><vAcc>3.373402</vAcc></extensions></trkpt>
      <trkpt lon="-123.271079" lat="44.558694"><ele>71.308617</ele><time>2020-12-10T21:28:08Z</time><extensions><speed>0.000000</speed><course>293.200989</course><hAcc>4.742154</hAcc><vAcc>3.366975</vAcc></extensions></trkpt>
      <trkpt lon="-123.271106" lat="44.558697"><ele>70.980148</ele><time>2020-12-10T21:28:09Z</time><extensions><speed>0.975579</speed><course>274.677979</course><hAcc>4.752071</hAcc><vAcc>3.352962</vAcc></extensions></trkpt>
      <trkpt lon="-123.271135" lat="44.558704"><ele>70.708763</ele><time>2020-12-10T21:28:10Z</time><extensions><speed>1.533172</speed><course>280.385468</course><hAcc>4.786118</hAcc><vAcc>3.304181</vAcc></extensions></trkpt>
      <trkpt lon="-123.271130" lat="44.558720"><ele>70.855026</ele><time>2020-12-10T21:28:11Z</time><extensions><speed>0.854588</speed><course>316.324188</course><hAcc>4.775556</hAcc><vAcc>3.319428</vAcc></extensions></trkpt>
      <trkpt lon="-123.271143" lat="44.558722"><ele>70.462029</ele><time>2020-12-10T21:28:12Z</time><extensions><speed>0.753155</speed><course>305.641418</course><hAcc>4.758223</hAcc><vAcc>3.344227</vAcc></extensions></trkpt>
      <trkpt lon="-123.271139" lat="44.558718"><ele>70.638687</ele><time>2020-12-10T21:28:13Z</time><extensions><speed>0.000000</speed><course>305.717346</course><hAcc>4.752169</hAcc><vAcc>3.352824</vAcc></extensions></trkpt>
      <trkpt lon="-123.271149" lat="44.558711"><ele>71.097885</ele><time>2020-12-10T21:28:14Z</time><extensions><speed>0.000000</speed><course>241.147430</course><hAcc>4.740135</hAcc><vAcc>3.369816</vAcc></extensions></trkpt>
      <trkpt lon="-123.271155" lat="44.558708"><ele>71.155884</ele><time>2020-12-10T21:28:15Z</time><extensions><speed>0.000000</speed><course>218.842392</course><hAcc>4.739436</hAcc><vAcc>3.370799</vAcc></extensions></trkpt>
      <trkpt lon="-123.271154" lat="44.558705"><ele>71.183746</ele><time>2020-12-10T21:28:16Z</time><extensions><speed>0.000000</speed><course>149.984009</course><hAcc>4.739749</hAcc><vAcc>3.370359</vAcc></extensions></trkpt>
      <trkpt lon="-123.271159" lat="44.558701"><ele>71.118759</ele><time>2020-12-10T21:28:17Z</time><extensions><speed>0.000000</speed><course>149.984009</course><hAcc>4.738988</hAcc><vAcc>3.371428</vAcc></extensions></trkpt>
      <trkpt lon="-123.271157" lat="44.558699"><ele>71.237839</ele><time>2020-12-10T21:28:18Z</time><extensions><speed>0.000000</speed><course>149.984009</course><hAcc>4.742845</hAcc><vAcc>3.366000</vAcc></extensions></trkpt>
      <trkpt lon="-123.271162" lat="44.558693"><ele>71.051079</ele><time>2020-12-10T21:28:19Z</time><extensions><speed>0.000000</speed><course>149.984009</course><hAcc>4.744270</hAcc><vAcc>3.363991</vAcc></extensions></trkpt>
      <trkpt lon="-123.271165" lat="44.558691"><ele>70.978981</ele><time>2020-12-10T21:28:20Z</time><extensions><speed>0.000000</speed><course>149.984009</course><hAcc>4.751360</hAcc><vAcc>3.353969</vAcc></extensions></trkpt>
      <trkpt lon="-123.271164" lat="44.558688"><ele>70.793213</ele><time>2020-12-10T21:28:21Z</time><extensions><speed>0.000000</speed><course>149.984009</course><hAcc>4.771258</hAcc><vAcc>3.325602</vAcc></extensions></trkpt>
      <trkpt lon="-123.271165" lat="44.558684"><ele>70.621712</ele><time>2020-12-10T21:28:22Z</time><extensions><speed>0.000000</speed><course>149.984009</course><hAcc>4.773153</hAcc><vAcc>3.322883</vAcc></extensions></trkpt>
      <trkpt lon="-123.271166" lat="44.558682"><ele>70.392197</ele><time>2020-12-10T21:28:23Z</time><extensions><speed>0.000000</speed><course>149.984009</course><hAcc>4.768124</hAcc><vAcc>3.330094</vAcc></extensions></trkpt>
      <trkpt lon="-123.271166" lat="44.558679"><ele>70.324059</ele><time>2020-12-10T21:28:24Z</time><extensions><speed>0.000000</speed><course>149.984009</course><hAcc>4.772171</hAcc><vAcc>3.324292</vAcc></extensions></trkpt>
      <trkpt lon="-123.271166" lat="44.558676"><ele>70.244438</ele><time>2020-12-10T21:28:25Z</time><extensions><speed>0.000000</speed><course>149.984009</course><hAcc>4.771752</hAcc><vAcc>3.324894</vAcc></extensions></trkpt>
      <trkpt lon="-123.271166" lat="44.558670"><ele>70.395081</ele><time>2020-12-10T21:28:26Z</time><extensions><speed>0.000000</speed><course>149.984009</course><hAcc>4.773737</hAcc><vAcc>3.322043</vAcc></extensions></trkpt>
      <trkpt lon="-123.271166" lat="44.558668"><ele>70.250397</ele><time>2020-12-10T21:28:27Z</time><extensions><speed>0.000000</speed><course>149.984009</course><hAcc>4.768573</hAcc><vAcc>3.329452</vAcc></extensions></trkpt>
      <trkpt lon="-123.271166" lat="44.558667"><ele>70.215881</ele><time>2020-12-10T21:28:28Z</time><extensions><speed>0.000000</speed><course>149.984009</course><hAcc>4.769498</hAcc><vAcc>3.328126</vAcc></extensions></trkpt>
      <trkpt lon="-123.271167" lat="44.558661"><ele>70.225334</ele><time>2020-12-10T21:28:29Z</time><extensions><speed>0.000000</speed><course>149.984009</course><hAcc>4.781320</hAcc><vAcc>3.311121</vAcc></extensions></trkpt>
      <trkpt lon="-123.271163" lat="44.558659"><ele>70.412041</ele><time>2020-12-10T21:28:30Z</time><extensions><speed>0.000000</speed><course>149.984009</course><hAcc>4.784577</hAcc><vAcc>3.306411</vAcc></extensions></trkpt>
      <trkpt lon="-123.271166" lat="44.558658"><ele>70.586266</ele><time>2020-12-10T21:28:31Z</time><extensions><speed>0.000000</speed><course>149.984009</course><hAcc>4.762480</hAcc><vAcc>3.338161</vAcc></extensions></trkpt>
      <trkpt lon="-123.271163" lat="44.558658"><ele>70.462189</ele><time>2020-12-10T21:28:32Z</time><extensions><speed>0.000000</speed><course>149.984009</course><hAcc>4.759779</hAcc><vAcc>3.342012</vAcc></extensions></trkpt>
      <trkpt lon="-123.271161" lat="44.558654"><ele>70.279953</ele><time>2020-12-10T21:28:33Z</time><extensions><speed>0.000000</speed><course>149.984009</course><hAcc>4.763662</hAcc><vAcc>3.336474</vAcc></extensions></trkpt>
      <trkpt lon="-123.271161" lat="44.558654"><ele>70.586258</ele><time>2020-12-10T21:28:34Z</time><extensions><speed>0.000000</speed><course>149.984009</course><hAcc>4.757100</hAcc><vAcc>3.345824</vAcc></extensions></trkpt>
      <trkpt lon="-123.271161" lat="44.558651"><ele>70.422668</ele><time>2020-12-10T21:28:35Z</time><extensions><speed>0.000000</speed><course>149.984009</course><hAcc>4.764359</hAcc><vAcc>3.335479</vAcc></extensions></trkpt>
      <trkpt lon="-123.271162" lat="44.558647"><ele>70.483353</ele><time>2020-12-10T21:28:36Z</time><extensions><speed>0.000000</speed><course>149.984009</course><hAcc>4.766306</hAcc><vAcc>3.332696</vAcc></extensions></trkpt>
      <trkpt lon="-123.271158" lat="44.558646"><ele>70.416763</ele><time>2020-12-10T21:28:37Z</time><extensions><speed>0.000000</speed><course>149.984009</course><hAcc>4.765538</hAcc><vAcc>3.333795</vAcc></extensions></trkpt>
      <trkpt lon="-123.271151" lat="44.558645"><ele>70.257355</ele><time>2020-12-10T21:28:38Z</time><extensions><speed>0.000000</speed><course>149.984009</course><hAcc>4.777270</hAcc><vAcc>3.316961</vAcc></extensions></trkpt>
      <trkpt lon="-123.271149" lat="44.558640"><ele>70.267639</ele><time>2020-12-10T21:28:39Z</time><extensions><speed>0.000000</speed><course>149.984009</course><hAcc>4.802252</hAcc><vAcc>3.280688</vAcc></extensions></trkpt>
      <trkpt lon="-123.271132" lat="44.558641"><ele>71.023048</ele><time>2020-12-10T21:28:40Z</time><extensions><speed>0.739176</speed><course>94.088989</course><hAcc>4.863715</hAcc><vAcc>3.188858</vAcc></extensions></trkpt>
      <trkpt lon="-123.271164" lat="44.558648"><ele>70.795151</ele><time>2020-12-10T21:28:41Z</time><extensions><speed>0.000000</speed><course>98.762276</course><hAcc>4.754985</hAcc><vAcc>3.348829</vAcc></extensions></trkpt>
    </trkseg>
  </trk>
</gpx>