<?xml version="1.0" encoding="UTF-8"?>
<gpx version="1.1" creator="Apple Health Export" xmlns="http://www.topografix.com/GPX/1/1" xmlns:xsi="http://www.w3.org/2001/XMLSchema-instance" xsi:schemaLocation="http://www.topografix.com/GPX/1/1 http://www.topografix.com/GPX/1/1/gpx.xsd">
  <metadata>
    <time>2021-02-21T19:24:48Z</time>
  </metadata>
  <trk>
    <name>Route 2021-01-05 3:55pm</name>
    <trkseg>
      <trkpt lon="-123.281764" lat="44.563414"><ele>73.827263</ele><time>2021-01-05T23:52:00Z</time><extensions><speed>2.968353</speed><course>230.148834</course><hAcc>1.552304</hAcc><vAcc>1.147111</vAcc></extensions></trkpt>
      <trkpt lon="-123.281772" lat="44.563388"><ele>73.778236</ele><time>2021-01-05T23:52:01Z</time><extensions><speed>2.970573</speed><course>222.488739</course><hAcc>1.355147</hAcc><vAcc>1.004557</vAcc></extensions></trkpt>
      <trkpt lon="-123.281781" lat="44.563362"><ele>73.730064</ele><time>2021-01-05T23:52:02Z</time><extensions><speed>2.977559</speed><course>223.395355</course><hAcc>1.203455</hAcc><vAcc>0.893711</vAcc></extensions></trkpt>
      <trkpt lon="-123.281789" lat="44.563336"><ele>73.684349</ele><time>2021-01-05T23:52:03Z</time><extensions><speed>2.989291</speed><course>213.263962</course><hAcc>1.094800</hAcc><vAcc>0.813099</vAcc></extensions></trkpt>
      <trkpt lon="-123.281797" lat="44.563310"><ele>73.642937</ele><time>2021-01-05T23:52:04Z</time><extensions><speed>3.005399</speed><course>209.313095</course><hAcc>1.023392</hAcc><vAcc>0.758999</vAcc></extensions></trkpt>
      <trkpt lon="-123.281805" lat="44.563283"><ele>73.607635</ele><time>2021-01-05T23:52:05Z</time><extensions><speed>3.026032</speed><course>199.713058</course><hAcc>0.981058</hAcc><vAcc>0.726001</vAcc></extensions></trkpt>
      <trkpt lon="-123.281811" lat="44.563256"><ele>73.580566</ele><time>2021-01-05T23:52:06Z</time><extensions><speed>3.051362</speed><course>196.040421</course><hAcc>0.959012</hAcc><vAcc>0.708116</vAcc></extensions></trkpt>
      <trkpt lon="-123.281817" lat="44.563229"><ele>73.564484</ele><time>2021-01-05T23:52:07Z</time><extensions><speed>3.081290</speed><course>185.694107</course><hAcc>0.949517</hAcc><vAcc>0.699900</vAcc></extensions></trkpt>
      <trkpt lon="-123.281823" lat="44.563201"><ele>73.562447</ele><time>2021-01-05T23:52:08Z</time><extensions><speed>3.115024</speed><course>178.472046</course><hAcc>0.946747</hAcc><vAcc>0.697114</vAcc></extensions></trkpt>
      <trkpt lon="-123.281828" lat="44.563173"><ele>73.577019</ele><time>2021-01-05T23:52:09Z</time><extensions><speed>3.150793</speed><course>183.507507</course><hAcc>0.946852</hAcc><vAcc>0.696853</vAcc></extensions></trkpt>
      <trkpt lon="-123.281832" lat="44.563145"><ele>73.609848</ele><time>2021-01-05T23:52:10Z</time><extensions><speed>3.186331</speed><course>183.127808</course><hAcc>0.947596</hAcc><vAcc>0.697351</vAcc></extensions></trkpt>
      <trkpt lon="-123.281835" lat="44.563116"><ele>73.661911</ele><time>2021-01-05T23:52:11Z</time><extensions><speed>3.219375</speed><course>175.868286</course><hAcc>0.947874</hAcc><vAcc>0.697675</vAcc></extensions></trkpt>
      <trkpt lon="-123.281838" lat="44.563087"><ele>73.733818</ele><time>2021-01-05T23:52:12Z</time><extensions><speed>3.249036</speed><course>178.303970</course><hAcc>0.947305</hAcc><vAcc>0.697448</vAcc></extensions></trkpt>
      <trkpt lon="-123.281840" lat="44.563058"><ele>73.826027</ele><time>2021-01-05T23:52:13Z</time><extensions><speed>3.275428</speed><course>178.026459</course><hAcc>0.945910</hAcc><vAcc>0.696614</vAcc></extensions></trkpt>
      <trkpt lon="-123.281842" lat="44.563028"><ele>73.938744</ele><time>2021-01-05T23:52:14Z</time><extensions><speed>3.298419</speed><course>184.670135</course><hAcc>0.943902</hAcc><vAcc>0.695291</vAcc></extensions></trkpt>
      <trkpt lon="-123.281843" lat="44.562999"><ele>74.071716</ele><time>2021-01-05T23:52:15Z</time><extensions><speed>3.317925</speed><course>178.478500</course><hAcc>0.941552</hAcc><vAcc>0.693657</vAcc></extensions></trkpt>
      <trkpt lon="-123.281844" lat="44.562969"><ele>74.223763</ele><time>2021-01-05T23:52:16Z</time><extensions><speed>3.333717</speed><course>180.111908</course><hAcc>0.939115</hAcc><vAcc>0.691897</vAcc></extensions></trkpt>
      <trkpt lon="-123.281845" lat="44.562939"><ele>74.392387</ele><time>2021-01-05T23:52:17Z</time><extensions><speed>3.345514</speed><course>182.366943</course><hAcc>0.936790</hAcc><vAcc>0.690168</vAcc></extensions></trkpt>
      <trkpt lon="-123.281846" lat="44.562909"><ele>74.574158</ele><time>2021-01-05T23:52:18Z</time><extensions><speed>3.353083</speed><course>177.060074</course><hAcc>0.934715</hAcc><vAcc>0.688586</vAcc></extensions></trkpt>
      <trkpt lon="-123.281846" lat="44.562878"><ele>74.765450</ele><time>2021-01-05T23:52:19Z</time><extensions><speed>3.356233</speed><course>176.153259</course><hAcc>0.932968</hAcc><vAcc>0.687224</vAcc></extensions></trkpt>
      <trkpt lon="-123.281846" lat="44.562848"><ele>74.962517</ele><time>2021-01-05T23:52:20Z</time><extensions><speed>3.354854</speed><course>173.506104</course><hAcc>0.931582</hAcc><vAcc>0.686122</vAcc></extensions></trkpt>
      <trkpt lon="-123.281846" lat="44.562818"><ele>75.161163</ele><time>2021-01-05T23:52:21Z</time><extensions><speed>3.348934</speed><course>176.557602</course><hAcc>0.930557</hAcc><vAcc>0.685294</vAcc></extensions></trkpt>
      <trkpt lon="-123.281846" lat="44.562788"><ele>75.356621</ele><time>2021-01-05T23:52:22Z</time><extensions><speed>3.338726</speed><course>178.331055</course><hAcc>0.929880</hAcc><vAcc>0.684740</vAcc></extensions></trkpt>
      <trkpt lon="-123.281846" lat="44.562758"><ele>75.544449</ele><time>2021-01-05T23:52:23Z</time><extensions><speed>3.324905</speed><course>172.612823</course><hAcc>0.929533</hAcc><vAcc>0.684453</vAcc></extensions></trkpt>
      <trkpt lon="-123.281847" lat="44.562728"><ele>75.721024</ele><time>2021-01-05T23:52:24Z</time><extensions><speed>3.308208</speed><course>181.888901</course><hAcc>0.929502</hAcc><vAcc>0.684428</vAcc></extensions></trkpt>
      <trkpt lon="-123.281847" lat="44.562698"><ele>75.882942</ele><time>2021-01-05T23:52:25Z</time><extensions><speed>3.288937</speed><course>183.288803</course><hAcc>0.929785</hAcc><vAcc>0.684662</vAcc></extensions></trkpt>
      <trkpt lon="-123.281847" lat="44.562669"><ele>76.027222</ele><time>2021-01-05T23:52:26Z</time><extensions><speed>3.267458</speed><course>175.684586</course><hAcc>0.930387</hAcc><vAcc>0.685158</vAcc></extensions></trkpt>
      <trkpt lon="-123.281848" lat="44.562640"><ele>76.151398</ele><time>2021-01-05T23:52:27Z</time><extensions><speed>3.243989</speed><course>172.098587</course><hAcc>0.931322</hAcc><vAcc>0.685920</vAcc></extensions></trkpt>
      <trkpt lon="-123.281848" lat="44.562611"><ele>76.252342</ele><time>2021-01-05T23:52:28Z</time><extensions><speed>3.217988</speed><course>176.515549</course><hAcc>0.932600</hAcc><vAcc>0.686945</vAcc></extensions></trkpt>
      <trkpt lon="-123.281849" lat="44.562582"><ele>76.326233</ele><time>2021-01-05T23:52:29Z</time><extensions><speed>3.189284</speed><course>175.342178</course><hAcc>0.934219</hAcc><vAcc>0.688220</vAcc></extensions></trkpt>
      <trkpt lon="-123.281849" lat="44.562553"><ele>76.370079</ele><time>2021-01-05T23:52:30Z</time><extensions><speed>3.158268</speed><course>179.241470</course><hAcc>0.936153</hAcc><vAcc>0.689710</vAcc></extensions></trkpt>
      <trkpt lon="-123.281850" lat="44.562525"><ele>76.381744</ele><time>2021-01-05T23:52:31Z</time><extensions><speed>3.124980</speed><course>180.774567</course><hAcc>0.938337</hAcc><vAcc>0.691351</vAcc></extensions></trkpt>
      <trkpt lon="-123.281850" lat="44.562497"><ele>76.358780</ele><time>2021-01-05T23:52:32Z</time><extensions><speed>3.088587</speed><course>173.278992</course><hAcc>0.940656</hAcc><vAcc>0.693044</vAcc></extensions></trkpt>
      <trkpt lon="-123.281850" lat="44.562469"><ele>76.298050</ele><time>2021-01-05T23:52:33Z</time><extensions><speed>3.048207</speed><course>178.131653</course><hAcc>0.942946</hAcc><vAcc>0.694658</vAcc></extensions></trkpt>
      <trkpt lon="-123.281849" lat="44.562442"><ele>76.196274</ele><time>2021-01-05T23:52:34Z</time><extensions><speed>3.004089</speed><course>190.064301</course><hAcc>0.944997</hAcc><vAcc>0.696038</vAcc></extensions></trkpt>
      <trkpt lon="-123.281848" lat="44.562415"><ele>76.050415</ele><time>2021-01-05T23:52:35Z</time><extensions><speed>2.956890</speed><course>184.255753</course><hAcc>0.946590</hAcc><vAcc>0.697037</vAcc></extensions></trkpt>
      <trkpt lon="-123.281846" lat="44.562389"><ele>75.858719</ele><time>2021-01-05T23:52:36Z</time><extensions><speed>2.907611</speed><course>177.058868</course><hAcc>0.947559</hAcc><vAcc>0.697569</vAcc></extensions></trkpt>
      <trkpt lon="-123.281843" lat="44.562363"><ele>75.622002</ele><time>2021-01-05T23:52:37Z</time><extensions><speed>2.857759</speed><course>184.158691</course><hAcc>0.947909</hAcc><vAcc>0.697698</vAcc></extensions></trkpt>
      <trkpt lon="-123.281838" lat="44.562338"><ele>75.343285</ele><time>2021-01-05T23:52:38Z</time><extensions><speed>2.808975</speed><course>178.160172</course><hAcc>0.948002</hAcc><vAcc>0.697775</vAcc></extensions></trkpt>
      <trkpt lon="-123.281833" lat="44.562313"><ele>75.027290</ele><time>2021-01-05T23:52:39Z</time><extensions><speed>2.763294</speed><course>183.206207</course><hAcc>0.948829</hAcc><vAcc>0.698639</vAcc></extensions></trkpt>
      <trkpt lon="-123.281826" lat="44.562289"><ele>74.680229</ele><time>2021-01-05T23:52:40Z</time><extensions><speed>2.722495</speed><course>181.079056</course><hAcc>0.952372</hAcc><vAcc>0.701862</vAcc></extensions></trkpt>
      <trkpt lon="-123.281817" lat="44.562265"><ele>74.308205</ele><time>2021-01-05T23:52:41Z</time><extensions><speed>2.687228</speed><course>181.841995</course><hAcc>0.962025</hAcc><vAcc>0.710018</vAcc></extensions></trkpt>
      <trkpt lon="-123.281807" lat="44.562242"><ele>73.915764</ele><time>2021-01-05T23:52:42Z</time><extensions><speed>2.657550</speed><course>169.553452</course><hAcc>0.982934</hAcc><vAcc>0.726882</vAcc></extensions></trkpt>
      <trkpt lon="-123.281796" lat="44.562220"><ele>73.506065</ele><time>2021-01-05T23:52:43Z</time><extensions><speed>2.633191</speed><course>157.400772</course><hAcc>1.022007</hAcc><vAcc>0.757354</vAcc></extensions></trkpt>
      <trkpt lon="-123.281772" lat="44.562210"><ele>72.621651</ele><time>2021-01-05T23:52:44Z</time><extensions><speed>2.593371</speed><course>199.713058</course><hAcc>0.980426</hAcc><vAcc>0.725340</vAcc></extensions></trkpt>
      <trkpt lon="-123.281742" lat="44.562201"><ele>72.411537</ele><time>2021-01-05T23:52:45Z</time><extensions><speed>2.634397</speed><course>196.040421</course><hAcc>0.958393</hAcc><vAcc>0.707469</vAcc></extensions></trkpt>
      <trkpt lon="-123.281710" lat="44.562193"><ele>72.197006</ele><time>2021-01-05T23:52:46Z</time><extensions><speed>2.685005</speed><course>185.694107</course><hAcc>0.948914</hAcc><vAcc>0.699271</vAcc></extensions></trkpt>
      <trkpt lon="-123.281677" lat="44.562186"><ele>71.981567</ele><time>2021-01-05T23:52:47Z</time><extensions><speed>2.743785</speed><course>178.472046</course><hAcc>0.946165</hAcc><vAcc>0.696508</vAcc></extensions></trkpt>
      <trkpt lon="-123.281644" lat="44.562180"><ele>71.769913</ele><time>2021-01-05T23:52:48Z</time><extensions><speed>2.806850</speed><course>183.507507</course><hAcc>0.946296</hAcc><vAcc>0.696275</vAcc></extensions></trkpt>
      <trkpt lon="-123.281608" lat="44.562175"><ele>71.566246</ele><time>2021-01-05T23:52:49Z</time><extensions><speed>2.870909</speed><course>183.127808</course><hAcc>0.947071</hAcc><vAcc>0.696807</vAcc></extensions></trkpt>
      <trkpt lon="-123.281572" lat="44.562171"><ele>71.373772</ele><time>2021-01-05T23:52:50Z</time><extensions><speed>2.933658</speed><course>175.868286</course><hAcc>0.947387</hAcc><vAcc>0.697172</vAcc></extensions></trkpt>
      <trkpt lon="-123.281535" lat="44.562168"><ele>71.194344</ele><time>2021-01-05T23:52:51Z</time><extensions><speed>2.993199</speed><course>178.303970</course><hAcc>0.946858</hAcc><vAcc>0.696987</vAcc></extensions></trkpt>
      <trkpt lon="-123.281498" lat="44.562165"><ele>71.028999</ele><time>2021-01-05T23:52:52Z</time><extensions><speed>3.048373</speed><course>178.026459</course><hAcc>0.945503</hAcc><vAcc>0.696198</vAcc></extensions></trkpt>
      <trkpt lon="-123.281459" lat="44.562164"><ele>70.878616</ele><time>2021-01-05T23:52:53Z</time><extensions><speed>3.098492</speed><course>184.670135</course><hAcc>0.943535</hAcc><vAcc>0.694916</vAcc></extensions></trkpt>
      <trkpt lon="-123.281420" lat="44.562162"><ele>70.744057</ele><time>2021-01-05T23:52:54Z</time><extensions><speed>3.143287</speed><course>178.478500</course><hAcc>0.941221</hAcc><vAcc>0.693319</vAcc></extensions></trkpt>
      <trkpt lon="-123.281380" lat="44.562162"><ele>70.625999</ele><time>2021-01-05T23:52:55Z</time><extensions><speed>3.182433</speed><course>180.111908</course><hAcc>0.938813</hAcc><vAcc>0.691590</vAcc></extensions></trkpt>
      <trkpt lon="-123.281340" lat="44.562161"><ele>70.524269</ele><time>2021-01-05T23:52:56Z</time><extensions><speed>3.214869</speed><course>182.366943</course><hAcc>0.936509</hAcc><vAcc>0.689882</vAcc></extensions></trkpt>
      <trkpt lon="-123.281299" lat="44.562161"><ele>70.437729</ele><time>2021-01-05T23:52:57Z</time><extensions><speed>3.239681</speed><course>177.060074</course><hAcc>0.934443</hAcc><vAcc>0.688306</vAcc></extensions></trkpt>
      <trkpt lon="-123.281258" lat="44.562161"><ele>70.364403</ele><time>2021-01-05T23:52:58Z</time><extensions><speed>3.256487</speed><course>176.153259</course><hAcc>0.932685</hAcc><vAcc>0.686930</vAcc></extensions></trkpt>
      <trkpt lon="-123.281217" lat="44.562162"><ele>70.301308</ele><time>2021-01-05T23:52:59Z</time><extensions><speed>3.265054</speed><course>173.506104</course><hAcc>0.931256</hAcc><vAcc>0.685783</vAcc></extensions></trkpt>
      <trkpt lon="-123.281176" lat="44.562162"><ele>70.244644</ele><time>2021-01-05T23:53:00Z</time><extensions><speed>3.265757</speed><course>176.557602</course><hAcc>0.930143</hAcc><vAcc>0.684866</vAcc></extensions></trkpt>
      <trkpt lon="-123.281135" lat="44.562162"><ele>70.190598</ele><time>2021-01-05T23:53:01Z</time><extensions><speed>3.259142</speed><course>178.331055</course><hAcc>0.929308</hAcc><vAcc>0.684160</vAcc></extensions></trkpt>
      <trkpt lon="-123.281094" lat="44.562163"><ele>70.136055</ele><time>2021-01-05T23:53:02Z</time><extensions><speed>3.245949</speed><course>172.612823</course><hAcc>0.928705</hAcc><vAcc>0.683636</vAcc></extensions></trkpt>
      <trkpt lon="-123.281053" lat="44.562163"><ele>70.078674</ele><time>2021-01-05T23:53:03Z</time><extensions><speed>3.227555</speed><course>181.888901</course><hAcc>0.928285</hAcc><vAcc>0.683260</vAcc></extensions></trkpt>
      <trkpt lon="-123.281013" lat="44.562164"><ele>70.016235</ele><time>2021-01-05T23:53:04Z</time><extensions><speed>3.205593</speed><course>183.288803</course><hAcc>0.928005</hAcc><vAcc>0.683001</vAcc></extensions></trkpt>
      <trkpt lon="-123.280973" lat="44.562164"><ele>69.946594</ele><time>2021-01-05T23:53:05Z</time><extensions><speed>3.181566</speed><course>175.684586</course><hAcc>0.927829</hAcc><vAcc>0.682834</vAcc></extensions></trkpt>
      <trkpt lon="-123.280933" lat="44.562164"><ele>69.868042</ele><time>2021-01-05T23:53:06Z</time><extensions><speed>3.156631</speed><course>172.098587</course><hAcc>0.927731</hAcc><vAcc>0.682738</vAcc></extensions></trkpt>
      <trkpt lon="-123.280893" lat="44.562164"><ele>69.779373</ele><time>2021-01-05T23:53:07Z</time><extensions><speed>3.131806</speed><course>176.515549</course><hAcc>0.927695</hAcc><vAcc>0.682702</vAcc></extensions></trkpt>
      <trkpt lon="-123.280854" lat="44.562164"><ele>69.680016</ele><time>2021-01-05T23:53:08Z</time><extensions><speed>3.108409</speed><course>175.342178</course><hAcc>0.927717</hAcc><vAcc>0.682722</vAcc></extensions></trkpt>
      <trkpt lon="-123.280815" lat="44.562164"><ele>69.569984</ele><time>2021-01-05T23:53:09Z</time><extensions><speed>3.087234</speed><course>179.241470</course><hAcc>0.927800</hAcc><vAcc>0.682802</vAcc></extensions></trkpt>
      <trkpt lon="-123.280776" lat="44.562164"><ele>69.449867</ele><time>2021-01-05T23:53:10Z</time><extensions><speed>3.068588</speed><course>180.774567</course><hAcc>0.927959</hAcc><vAcc>0.682953</vAcc></extensions></trkpt>
      <trkpt lon="-123.280738" lat="44.562164"><ele>69.320915</ele><time>2021-01-05T23:53:11Z</time><extensions><speed>3.052390</speed><course>173.278992</course><hAcc>0.928219</hAcc><vAcc>0.683193</vAcc></extensions></trkpt>
      <trkpt lon="-123.280699" lat="44.562164"><ele>69.185188</ele><time>2021-01-05T23:53:12Z</time><extensions><speed>3.038496</speed><course>178.131653</course><hAcc>0.928611</hAcc><vAcc>0.683547</vAcc></extensions></trkpt>
      <trkpt lon="-123.280661" lat="44.562165"><ele>69.045906</ele><time>2021-01-05T23:53:13Z</time><extensions><speed>3.027013</speed><course>190.064301</course><hAcc>0.929174</hAcc><vAcc>0.684042</vAcc></extensions></trkpt>
      <trkpt lon="-123.280623" lat="44.562165"><ele>68.907593</ele><time>2021-01-05T23:53:14Z</time><extensions><speed>3.018538</speed><course>184.255753</course><hAcc>0.929953</hAcc><vAcc>0.684708</vAcc></extensions></trkpt>
      <trkpt lon="-123.280585" lat="44.562165"><ele>68.776154</ele><time>2021-01-05T23:53:15Z</time><extensions><speed>3.013510</speed><course>177.058868</course><hAcc>0.930989</hAcc><vAcc>0.685572</vAcc></extensions></trkpt>
      <trkpt lon="-123.280547" lat="44.562166"><ele>68.658241</ele><time>2021-01-05T23:53:16Z</time><extensions><speed>3.012034</speed><course>184.158691</course><hAcc>0.932318</hAcc><vAcc>0.686652</vAcc></extensions></trkpt>
      <trkpt lon="-123.280509" lat="44.562167"><ele>68.560333</ele><time>2021-01-05T23:53:17Z</time><extensions><speed>3.015098</speed><course>178.160172</course><hAcc>0.933957</hAcc><vAcc>0.687952</vAcc></extensions></trkpt>
      <trkpt lon="-123.280471" lat="44.562168"><ele>68.488594</ele><time>2021-01-05T23:53:18Z</time><extensions><speed>3.023477</speed><course>183.206207</course><hAcc>0.935892</hAcc><vAcc>0.689447</vAcc></extensions></trkpt>
      <trkpt lon="-123.280433" lat="44.562170"><ele>68.448082</ele><time>2021-01-05T23:53:19Z</time><extensions><speed>3.036538</speed><course>181.079056</course><hAcc>0.938070</hAcc><vAcc>0.691084</vAcc></extensions></trkpt>
      <trkpt lon="-123.280395" lat="44.562172"><ele>68.441200</ele><time>2021-01-05T23:53:20Z</time><extensions><speed>3.053006</speed><course>181.841995</course><hAcc>0.940382</hAcc><vAcc>0.692771</vAcc></extensions></trkpt>
      <trkpt lon="-123.280357" lat="44.562175"><ele>68.466911</ele><time>2021-01-05T23:53:21Z</time><extensions><speed>3.071770</speed><course>169.553452</course><hAcc>0.942666</hAcc><vAcc>0.694379</vAcc></extensions></trkpt>
      <trkpt lon="-123.280318" lat="44.562179"><ele>68.521492</ele><time>2021-01-05T23:53:22Z</time><extensions><speed>3.092790</speed><course>157.400772</course><hAcc>0.944713</hAcc><vAcc>0.695753</vAcc></extensions></trkpt>
      <trkpt lon="-123.280280" lat="44.562183"><ele>68.599907</ele><time>2021-01-05T23:53:23Z</time><extensions><speed>3.116322</speed><course>144.700577</course><hAcc>0.946300</hAcc><vAcc>0.696746</vAcc></extensions></trkpt>
      <trkpt lon="-123.280241" lat="44.562188"><ele>68.696663</ele><time>2021-01-05T23:53:24Z</time><extensions><speed>3.141215</speed><course>135.158096</course><hAcc>0.947260</hAcc><vAcc>0.697267</vAcc></extensions></trkpt>
      <trkpt lon="-123.280202" lat="44.562194"><ele>68.806503</ele><time>2021-01-05T23:53:25Z</time><extensions><speed>3.165447</speed><course>123.241989</course><hAcc>0.947595</hAcc><vAcc>0.697377</vAcc></extensions></trkpt>
      <trkpt lon="-123.280163" lat="44.562201"><ele>68.925720</ele><time>2021-01-05T23:53:26Z</time><extensions><speed>3.187590</speed><course>108.710114</course><hAcc>0.947663</hAcc><vAcc>0.697428</vAcc></extensions></trkpt>
      <trkpt lon="-123.280125" lat="44.562209"><ele>69.053055</ele><time>2021-01-05T23:53:27Z</time><extensions><speed>3.207011</speed><course>86.289116</course><hAcc>0.948453</hAcc><vAcc>0.698252</vAcc></extensions></trkpt>
      <trkpt lon="-123.280086" lat="44.562218"><ele>69.188713</ele><time>2021-01-05T23:53:28Z</time><extensions><speed>3.223065</speed><course>81.456390</course><hAcc>0.951944</hAcc><vAcc>0.701419</vAcc></extensions></trkpt>
      <trkpt lon="-123.280048" lat="44.562227"><ele>69.332748</ele><time>2021-01-05T23:53:29Z</time><extensions><speed>3.235954</speed><course>91.432816</course><hAcc>0.961525</hAcc><vAcc>0.709501</vAcc></extensions></trkpt>
      <trkpt lon="-123.280010" lat="44.562238"><ele>69.484749</ele><time>2021-01-05T23:53:30Z</time><extensions><speed>3.245956</speed><course>97.469093</course><hAcc>0.982343</hAcc><vAcc>0.726270</vAcc></extensions></trkpt>
      <trkpt lon="-123.279972" lat="44.562250"><ele>69.643806</ele><time>2021-01-05T23:53:31Z</time><extensions><speed>3.252933</speed><course>92.443596</course><hAcc>1.021308</hAcc><vAcc>0.756631</vAcc></extensions></trkpt>
      <trkpt lon="-123.279950" lat="44.562294"><ele>69.843933</ele><time>2021-01-05T23:53:32Z</time><extensions><speed>4.526135</speed><course>199.713058</course><hAcc>0.980350</hAcc><vAcc>0.725219</vAcc></extensions></trkpt>
      <trkpt lon="-123.279930" lat="44.562333"><ele>70.113861</ele><time>2021-01-05T23:53:33Z</time><extensions><speed>4.673757</speed><course>196.040421</course><hAcc>0.958831</hAcc><vAcc>0.707821</vAcc></extensions></trkpt>
      <trkpt lon="-123.279912" lat="44.562374"><ele>70.363449</ele><time>2021-01-05T23:53:34Z</time><extensions><speed>4.843196</speed><course>185.694107</course><hAcc>0.950074</hAcc><vAcc>0.700269</vAcc></extensions></trkpt>
      <trkpt lon="-123.279896" lat="44.562417"><ele>70.590485</ele><time>2021-01-05T23:53:35Z</time><extensions><speed>5.026663</speed><course>178.472046</course><hAcc>0.948279</hAcc><vAcc>0.698338</vAcc></extensions></trkpt>
      <trkpt lon="-123.279881" lat="44.562462"><ele>70.793732</ele><time>2021-01-05T23:53:36Z</time><extensions><speed>5.213158</speed><course>183.507507</course><hAcc>0.949627</hAcc><vAcc>0.699137</vAcc></extensions></trkpt>
      <trkpt lon="-123.279868" lat="44.562508"><ele>70.973732</ele><time>2021-01-05T23:53:37Z</time><extensions><speed>5.391290</speed><course>183.127808</course><hAcc>0.951900</hAcc><vAcc>0.700907</vAcc></extensions></trkpt>
      <trkpt lon="-123.279857" lat="44.562557"><ele>71.132347</ele><time>2021-01-05T23:53:38Z</time><extensions><speed>5.551428</speed><course>175.868286</course><hAcc>0.954004</hAcc><vAcc>0.702712</vAcc></extensions></trkpt>
      <trkpt lon="-123.279847" lat="44.562607"><ele>71.272049</ele><time>2021-01-05T23:53:39Z</time><extensions><speed>5.685742</speed><course>178.303970</course><hAcc>0.955538</hAcc><vAcc>0.704143</vAcc></extensions></trkpt>
      <trkpt lon="-123.279839" lat="44.562658"><ele>71.395645</ele><time>2021-01-05T23:53:40Z</time><extensions><speed>5.788597</speed><course>178.026459</course><hAcc>0.956461</hAcc><vAcc>0.705087</vAcc></extensions></trkpt>
      <trkpt lon="-123.279831" lat="44.562711"><ele>71.506584</ele><time>2021-01-05T23:53:41Z</time><extensions><speed>5.855690</speed><course>184.670135</course><hAcc>0.956878</hAcc><vAcc>0.705564</vAcc></extensions></trkpt>
      <trkpt lon="-123.279825" lat="44.562763"><ele>71.608948</ele><time>2021-01-05T23:53:42Z</time><extensions><speed>5.882455</speed><course>178.478500</course><hAcc>0.956896</hAcc><vAcc>0.705625</vAcc></extensions></trkpt>
      <trkpt lon="-123.279820" lat="44.562816"><ele>71.707108</ele><time>2021-01-05T23:53:43Z</time><extensions><speed>5.864604</speed><course>180.111908</course><hAcc>0.956559</hAcc><vAcc>0.705299</vAcc></extensions></trkpt>
      <trkpt lon="-123.279816" lat="44.562868"><ele>71.805855</ele><time>2021-01-05T23:53:44Z</time><extensions><speed>5.801301</speed><course>182.366943</course><hAcc>0.955844</hAcc><vAcc>0.704592</vAcc></extensions></trkpt>
      <trkpt lon="-123.279813" lat="44.562920"><ele>71.910606</ele><time>2021-01-05T23:53:45Z</time><extensions><speed>5.696255</speed><course>177.060074</course><hAcc>0.954714</hAcc><vAcc>0.703526</vAcc></extensions></trkpt>
      <trkpt lon="-123.279811" lat="44.562971"><ele>72.026596</ele><time>2021-01-05T23:53:46Z</time><extensions><speed>5.556907</speed><course>176.153259</course><hAcc>0.953245</hAcc><vAcc>0.702228</vAcc></extensions></trkpt>
      <trkpt lon="-123.279810" lat="44.563020"><ele>72.157562</ele><time>2021-01-05T23:53:47Z</time><extensions><speed>5.391069</speed><course>173.506104</course><hAcc>0.951821</hAcc><vAcc>0.701084</vAcc></extensions></trkpt>
      <trkpt lon="-123.279810" lat="44.563068"><ele>72.305405</ele><time>2021-01-05T23:53:48Z</time><extensions><speed>5.205882</speed><course>176.557602</course><hAcc>0.951424</hAcc><vAcc>0.700935</vAcc></extensions></trkpt>
      <trkpt lon="-123.279811" lat="44.563113"><ele>72.470741</ele><time>2021-01-05T23:53:49Z</time><extensions><speed>5.010340</speed><course>178.331055</course><hAcc>0.954012</hAcc><vAcc>0.703343</vAcc></extensions></trkpt>
      <trkpt lon="-123.279813" lat="44.563158"><ele>72.653343</ele><time>2021-01-05T23:53:50Z</time><extensions><speed>4.814631</speed><course>172.612823</course><hAcc>0.962945</hAcc><vAcc>0.710868</vAcc></extensions></trkpt>
      <trkpt lon="-123.279815" lat="44.563200"><ele>72.852028</ele><time>2021-01-05T23:53:51Z</time><extensions><speed>4.629610</speed><course>181.888901</course><hAcc>0.983339</hAcc><vAcc>0.727264</vAcc></extensions></trkpt>
      <trkpt lon="-123.279819" lat="44.563241"><ele>73.064674</ele><time>2021-01-05T23:53:52Z</time><extensions><speed>4.465374</speed><course>183.288803</course><hAcc>1.022074</hAcc><vAcc>0.757416</vAcc></extensions></trkpt>
      <trkpt lon="-123.279829" lat="44.563269"><ele>73.348534</ele><time>2021-01-05T23:53:53Z</time><extensions><speed>1.689885</speed><course>199.713058</course><hAcc>0.980368</hAcc><vAcc>0.725290</vAcc></extensions></trkpt>
      <trkpt lon="-123.279837" lat="44.563282"><ele>73.437935</ele><time>2021-01-05T23:53:54Z</time><extensions><speed>1.593367</speed><course>196.040421</course><hAcc>0.958311</hAcc><vAcc>0.707394</vAcc></extensions></trkpt>
      <trkpt lon="-123.279845" lat="44.563295"><ele>73.538834</ele><time>2021-01-05T23:53:55Z</time><extensions><speed>1.494947</speed><course>185.694107</course><hAcc>0.948825</hAcc><vAcc>0.699187</vAcc></extensions></trkpt>
      <trkpt lon="-123.279854" lat="44.563306"><ele>73.651474</ele><time>2021-01-05T23:53:56Z</time><extensions><speed>1.399792</speed><course>178.472046</course><hAcc>0.946080</hAcc><vAcc>0.696429</vAcc></extensions></trkpt>
      <trkpt lon="-123.279863" lat="44.563316"><ele>73.775497</ele><time>2021-01-05T23:53:57Z</time><extensions><speed>1.311321</speed><course>183.507507</course><hAcc>0.946229</hAcc><vAcc>0.696214</vAcc></extensions></trkpt>
      <trkpt lon="-123.279873" lat="44.563325"><ele>73.910164</ele><time>2021-01-05T23:53:58Z</time><extensions><speed>1.232151</speed><course>183.127808</course><hAcc>0.947030</hAcc><vAcc>0.696773</vAcc></extensions></trkpt>
      <trkpt lon="-123.279883" lat="44.563334"><ele>74.054199</ele><time>2021-01-05T23:53:59Z</time><extensions><speed>1.164724</speed><course>175.868286</course><hAcc>0.947379</hAcc><vAcc>0.697172</vAcc></extensions></trkpt>
      <trkpt lon="-123.279893" lat="44.563341"><ele>74.205711</ele><time>2021-01-05T23:54:00Z</time><extensions><speed>1.111013</speed><course>178.303970</course><hAcc>0.946889</hAcc><vAcc>0.697028</vAcc></extensions></trkpt>
      <trkpt lon="-123.279904" lat="44.563347"><ele>74.362206</ele><time>2021-01-05T23:54:01Z</time><extensions><speed>1.072246</speed><course>178.026459</course><hAcc>0.945577</hAcc><vAcc>0.696282</vAcc></extensions></trkpt>
      <trkpt lon="-123.279915" lat="44.563352"><ele>74.520752</ele><time>2021-01-05T23:54:02Z</time><extensions><speed>1.048939</speed><course>184.670135</course><hAcc>0.943651</hAcc><vAcc>0.695045</vAcc></extensions></trkpt>
      <trkpt lon="-123.279927" lat="44.563356"><ele>74.678123</ele><time>2021-01-05T23:54:03Z</time><extensions><speed>1.040615</speed><course>178.478500</course><hAcc>0.941380</hAcc><vAcc>0.693493</vAcc></extensions></trkpt>
      <trkpt lon="-123.279939" lat="44.563359"><ele>74.830833</ele><time>2021-01-05T23:54:04Z</time><extensions><speed>1.045843</speed><course>180.111908</course><hAcc>0.939013</hAcc><vAcc>0.691807</vAcc></extensions></trkpt>
      <trkpt lon="-123.279952" lat="44.563362"><ele>74.974960</ele><time>2021-01-05T23:54:05Z</time><extensions><speed>1.062685</speed><course>182.366943</course><hAcc>0.936748</hAcc><vAcc>0.690140</vAcc></extensions></trkpt>
      <trkpt lon="-123.279965" lat="44.563364"><ele>75.106300</ele><time>2021-01-05T23:54:06Z</time><extensions><speed>1.088599</speed><course>177.060074</course><hAcc>0.934716</hAcc><vAcc>0.688601</vAcc></extensions></trkpt>
      <trkpt lon="-123.279979" lat="44.563366"><ele>75.220749</ele><time>2021-01-05T23:54:07Z</time><extensions><speed>1.121132</speed><course>176.153259</course><hAcc>0.932988</hAcc><vAcc>0.687257</vAcc></extensions></trkpt>
      <trkpt lon="-123.279993" lat="44.563367"><ele>75.314514</ele><time>2021-01-05T23:54:08Z</time><extensions><speed>1.157978</speed><course>173.506104</course><hAcc>0.931587</hAcc><vAcc>0.686140</vAcc></extensions></trkpt>
      <trkpt lon="-123.280008" lat="44.563368"><ele>75.384453</ele><time>2021-01-05T23:54:09Z</time><extensions><speed>1.196865</speed><course>176.557602</course><hAcc>0.930498</hAcc><vAcc>0.685251</vAcc></extensions></trkpt>
      <trkpt lon="-123.280023" lat="44.563369"><ele>75.428299</ele><time>2021-01-05T23:54:10Z</time><extensions><speed>1.236013</speed><course>178.331055</course><hAcc>0.929688</hAcc><vAcc>0.684571</vAcc></extensions></trkpt>
      <trkpt lon="-123.280039" lat="44.563369"><ele>75.444572</ele><time>2021-01-05T23:54:11Z</time><extensions><speed>1.273996</speed><course>172.612823</course><hAcc>0.929109</hAcc><vAcc>0.684073</vAcc></extensions></trkpt>
      <trkpt lon="-123.280055" lat="44.563370"><ele>75.432678</ele><time>2021-01-05T23:54:12Z</time><extensions><speed>1.309425</speed><course>181.888901</course><hAcc>0.928713</hAcc><vAcc>0.683722</vAcc></extensions></trkpt>
      <trkpt lon="-123.280072" lat="44.563371"><ele>75.393578</ele><time>2021-01-05T23:54:13Z</time><extensions><speed>1.340398</speed><course>183.288803</course><hAcc>0.928453</hAcc><vAcc>0.683484</vAcc></extensions></trkpt>
      <trkpt lon="-123.280089" lat="44.563372"><ele>75.330002</ele><time>2021-01-05T23:54:14Z</time><extensions><speed>1.364906</speed><course>175.684586</course><hAcc>0.928289</hAcc><vAcc>0.683328</vAcc></extensions></trkpt>
      <trkpt lon="-123.280106" lat="44.563372"><ele>75.245567</ele><time>2021-01-05T23:54:15Z</time><extensions><speed>1.382707</speed><course>172.098587</course><hAcc>0.928187</hAcc><vAcc>0.683226</vAcc></extensions></trkpt>
      <trkpt lon="-123.280123" lat="44.563373"><ele>75.144081</ele><time>2021-01-05T23:54:16Z</time><extensions><speed>1.394910</speed><course>176.515549</course><hAcc>0.928123</hAcc><vAcc>0.683160</vAcc></extensions></trkpt>
      <trkpt lon="-123.280141" lat="44.563375"><ele>75.029297</ele><time>2021-01-05T23:54:17Z</time><extensions><speed>1.402282</speed><course>175.342178</course><hAcc>0.928081</hAcc><vAcc>0.683115</vAcc></extensions></trkpt>
      <trkpt lon="-123.280159" lat="44.563376"><ele>74.904701</ele><time>2021-01-05T23:54:18Z</time><extensions><speed>1.405357</speed><course>179.241470</course><hAcc>0.928053</hAcc><vAcc>0.683083</vAcc></extensions></trkpt>
      <trkpt lon="-123.280176" lat="44.563377"><ele>74.773552</ele><time>2021-01-05T23:54:19Z</time><extensions><speed>1.404692</speed><course>180.774567</course><hAcc>0.928033</hAcc><vAcc>0.683062</vAcc></extensions></trkpt>
      <trkpt lon="-123.280194" lat="44.563379"><ele>74.638588</ele><time>2021-01-05T23:54:20Z</time><extensions><speed>1.400901</speed><course>173.278992</course><hAcc>0.928022</hAcc><vAcc>0.683051</vAcc></extensions></trkpt>
      <trkpt lon="-123.280211" lat="44.563381"><ele>74.501831</ele><time>2021-01-05T23:54:21Z</time><extensions><speed>1.394711</speed><course>178.131653</course><hAcc>0.928020</hAcc><vAcc>0.683050</vAcc></extensions></trkpt>
      <trkpt lon="-123.280228" lat="44.563382"><ele>74.365402</ele><time>2021-01-05T23:54:22Z</time><extensions><speed>1.386878</speed><course>190.064301</course><hAcc>0.928030</hAcc><vAcc>0.683062</vAcc></extensions></trkpt>
      <trkpt lon="-123.280246" lat="44.563384"><ele>74.232590</ele><time>2021-01-05T23:54:23Z</time><extensions><speed>1.378141</speed><course>184.255753</course><hAcc>0.928055</hAcc><vAcc>0.683089</vAcc></extensions></trkpt>
      <trkpt lon="-123.280263" lat="44.563385"><ele>74.107872</ele><time>2021-01-05T23:54:24Z</time><extensions><speed>1.369217</speed><course>177.058868</course><hAcc>0.928093</hAcc><vAcc>0.683130</vAcc></extensions></trkpt>
      <trkpt lon="-123.280280" lat="44.563386"><ele>73.996147</ele><time>2021-01-05T23:54:25Z</time><extensions><speed>1.360737</speed><course>184.158691</course><hAcc>0.928143</hAcc><vAcc>0.683183</vAcc></extensions></trkpt>
      <trkpt lon="-123.280297" lat="44.563388"><ele>73.902039</ele><time>2021-01-05T23:54:26Z</time><extensions><speed>1.353172</speed><course>178.160172</course><hAcc>0.928201</hAcc><vAcc>0.683244</vAcc></extensions></trkpt>
      <trkpt lon="-123.280314" lat="44.563388"><ele>73.829567</ele><time>2021-01-05T23:54:27Z</time><extensions><speed>1.346640</speed><course>183.206207</course><hAcc>0.928263</hAcc><vAcc>0.683308</vAcc></extensions></trkpt>
      <trkpt lon="-123.280331" lat="44.563389"><ele>73.781914</ele><time>2021-01-05T23:54:28Z</time><extensions><speed>1.341169</speed><course>181.079056</course><hAcc>0.928320</hAcc><vAcc>0.683367</vAcc></extensions></trkpt>
      <trkpt lon="-123.280348" lat="44.563390"><ele>73.761177</ele><time>2021-01-05T23:54:29Z</time><extensions><speed>1.336489</speed><course>181.841995</course><hAcc>0.928361</hAcc><vAcc>0.683410</vAcc></extensions></trkpt>
      <trkpt lon="-123.280364" lat="44.563390"><ele>73.768021</ele><time>2021-01-05T23:54:30Z</time><extensions><speed>1.332019</speed><course>169.553452</course><hAcc>0.928378</hAcc><vAcc>0.683427</vAcc></extensions></trkpt>
      <trkpt lon="-123.280381" lat="44.563389"><ele>73.801460</ele><time>2021-01-05T23:54:31Z</time><extensions><speed>1.327067</speed><course>157.400772</course><hAcc>0.928362</hAcc><vAcc>0.683410</vAcc></extensions></trkpt>
      <trkpt lon="-123.280398" lat="44.563389"><ele>73.858742</ele><time>2021-01-05T23:54:32Z</time><extensions><speed>1.320794</speed><course>144.700577</course><hAcc>0.928312</hAcc><vAcc>0.683360</vAcc></extensions></trkpt>
      <trkpt lon="-123.280414" lat="44.563388"><ele>73.935303</ele><time>2021-01-05T23:54:33Z</time><extensions><speed>1.312265</speed><course>135.158096</course><hAcc>0.928234</hAcc><vAcc>0.683280</vAcc></extensions></trkpt>
      <trkpt lon="-123.280431" lat="44.563387"><ele>74.024689</ele><time>2021-01-05T23:54:34Z</time><extensions><speed>1.300493</speed><course>123.241989</course><hAcc>0.928138</hAcc><vAcc>0.683181</vAcc></extensions></trkpt>
      <trkpt lon="-123.280447" lat="44.563386"><ele>74.119064</ele><time>2021-01-05T23:54:35Z</time><extensions><speed>1.284527</speed><course>108.710114</course><hAcc>0.928034</hAcc><vAcc>0.683074</vAcc></extensions></trkpt>
      <trkpt lon="-123.280463" lat="44.563385"><ele>74.209473</ele><time>2021-01-05T23:54:36Z</time><extensions><speed>1.263215</speed><course>86.289116</course><hAcc>0.927931</hAcc><vAcc>0.682969</vAcc></extensions></trkpt>
      <trkpt lon="-123.280479" lat="44.563384"><ele>74.286690</ele><time>2021-01-05T23:54:37Z</time><extensions><speed>1.235820</speed><course>81.456390</course><hAcc>0.927839</hAcc><vAcc>0.682874</vAcc></extensions></trkpt>
      <trkpt lon="-123.280494" lat="44.563383"><ele>74.343269</ele><time>2021-01-05T23:54:38Z</time><extensions><speed>1.202435</speed><course>91.432816</course><hAcc>0.927761</hAcc><vAcc>0.682794</vAcc></extensions></trkpt>
      <trkpt lon="-123.280509" lat="44.563382"><ele>74.375214</ele><time>2021-01-05T23:54:39Z</time><extensions><speed>1.163734</speed><course>97.469093</course><hAcc>0.927700</hAcc><vAcc>0.682730</vAcc></extensions></trkpt>
      <trkpt lon="-123.280523" lat="44.563382"><ele>74.381897</ele><time>2021-01-05T23:54:40Z</time><extensions><speed>1.121175</speed><course>92.443596</course><hAcc>0.927652</hAcc><vAcc>0.682680</vAcc></extensions></trkpt>
      <trkpt lon="-123.280537" lat="44.563381"><ele>74.364868</ele><time>2021-01-05T23:54:41Z</time><extensions><speed>1.076514</speed><course>90.385406</course><hAcc>0.927611</hAcc><vAcc>0.682639</vAcc></extensions></trkpt>
      <trkpt lon="-123.280550" lat="44.563381"><ele>74.326881</ele><time>2021-01-05T23:54:42Z</time><extensions><speed>1.030913</speed><course>89.793472</course><hAcc>0.927574</hAcc><vAcc>0.682602</vAcc></extensions></trkpt>
      <trkpt lon="-123.280563" lat="44.563381"><ele>74.271225</ele><time>2021-01-05T23:54:43Z</time><extensions><speed>0.985269</speed><course>71.873474</course><hAcc>0.927537</hAcc><vAcc>0.682566</vAcc></extensions></trkpt>
      <trkpt lon="-123.280575" lat="44.563382"><ele>74.201202</ele><time>2021-01-05T23:54:43Z</time><extensions><speed>0.940265</speed><course>87.172089</course><hAcc>0.927515</hAcc><vAcc>0.682541</vAcc></extensions></trkpt>
      <trkpt lon="-123.280586" lat="44.563383"><ele>74.119560</ele><time>2021-01-05T23:54:44Z</time><extensions><speed>0.895535</speed><course>85.128601</course><hAcc>0.927509</hAcc><vAcc>0.682528</vAcc></extensions></trkpt>
      <trkpt lon="-123.280597" lat="44.563384"><ele>74.029137</ele><time>2021-01-05T23:54:45Z</time><extensions><speed>0.851042</speed><course>89.388092</course><hAcc>0.927501</hAcc><vAcc>0.682514</vAcc></extensions></trkpt>
      <trkpt lon="-123.280608" lat="44.563385"><ele>73.932404</ele><time>2021-01-05T23:54:46Z</time><extensions><speed>0.807715</speed><course>95.355293</course><hAcc>0.927491</hAcc><vAcc>0.682500</vAcc></extensions></trkpt>
      <trkpt lon="-123.280617" lat="44.563386"><ele>73.830597</ele><time>2021-01-05T23:54:47Z</time><extensions><speed>0.767384</speed><course>92.199989</course><hAcc>0.927482</hAcc><vAcc>0.682488</vAcc></extensions></trkpt>
      <trkpt lon="-123.280627" lat="44.563388"><ele>73.724159</ele><time>2021-01-05T23:54:48Z</time><extensions><speed>0.731993</speed><course>90.983833</course><hAcc>0.927479</hAcc><vAcc>0.682484</vAcc></extensions></trkpt>
      <trkpt lon="-123.280635" lat="44.563389"><ele>73.614098</ele><time>2021-01-05T23:54:49Z</time><extensions><speed>0.702558</speed><course>84.718147</course><hAcc>0.927490</hAcc><vAcc>0.682494</vAcc></extensions></trkpt>
      <trkpt lon="-123.280644" lat="44.563391"><ele>73.502686</ele><time>2021-01-05T23:54:50Z</time><extensions><speed>0.679130</speed><course>87.924797</course><hAcc>0.927530</hAcc><vAcc>0.682532</vAcc></extensions></trkpt>
      <trkpt lon="-123.280652" lat="44.563393"><ele>73.393333</ele><time>2021-01-05T23:54:51Z</time><extensions><speed>0.662434</speed><course>88.467926</course><hAcc>0.927615</hAcc><vAcc>0.682611</vAcc></extensions></trkpt>
      <trkpt lon="-123.280660" lat="44.563395"><ele>73.289894</ele><time>2021-01-05T23:54:52Z</time><extensions><speed>0.652822</speed><course>87.182228</course><hAcc>0.927769</hAcc><vAcc>0.682753</vAcc></extensions></trkpt>
      <trkpt lon="-123.280667" lat="44.563396"><ele>73.195641</ele><time>2021-01-05T23:54:54Z</time><extensions><speed>0.648404</speed><course>92.848991</course><hAcc>0.928006</hAcc><vAcc>0.682970</vAcc></extensions></trkpt>
      <trkpt lon="-123.280675" lat="44.563398"><ele>73.113106</ele><time>2021-01-05T23:54:55Z</time><extensions><speed>0.646606</speed><course>89.881653</course><hAcc>0.928362</hAcc><vAcc>0.683291</vAcc></extensions></trkpt>
      <trkpt lon="-123.280683" lat="44.563400"><ele>73.043953</ele><time>2021-01-05T23:54:56Z</time><extensions><speed>0.645612</speed><course>85.109245</course><hAcc>0.928897</hAcc><vAcc>0.683758</vAcc></extensions></trkpt>
      <trkpt lon="-123.280691" lat="44.563402"><ele>72.989838</ele><time>2021-01-05T23:54:57Z</time><extensions><speed>0.644472</speed><course>86.267357</course><hAcc>0.929653</hAcc><vAcc>0.684402</vAcc></extensions></trkpt>
      <trkpt lon="-123.280698" lat="44.563403"><ele>72.952515</ele><time>2021-01-05T23:54:58Z</time><extensions><speed>0.643608</speed><course>100.412796</course><hAcc>0.930673</hAcc><vAcc>0.685249</vAcc></extensions></trkpt>
      <trkpt lon="-123.280706" lat="44.563405"><ele>72.933609</ele><time>2021-01-05T23:54:59Z</time><extensions><speed>0.643475</speed><course>87.785973</course><hAcc>0.931988</hAcc><vAcc>0.686315</vAcc></extensions></trkpt>
      <trkpt lon="-123.280714" lat="44.563406"><ele>72.933571</ele><time>2021-01-05T23:55:00Z</time><extensions><speed>0.643144</speed><course>86.179413</course><hAcc>0.933614</hAcc><vAcc>0.687600</vAcc></extensions></trkpt>
      <trkpt lon="-123.280722" lat="44.563407"><ele>72.951309</ele><time>2021-01-05T23:55:01Z</time><extensions><speed>0.642928</speed><course>90.150902</course><hAcc>0.935538</hAcc><vAcc>0.689083</vAcc></extensions></trkpt>
      <trkpt lon="-123.280730" lat="44.563409"><ele>72.985168</ele><time>2021-01-05T23:55:02Z</time><extensions><speed>0.644686</speed><course>94.065079</course><hAcc>0.937705</hAcc><vAcc>0.690709</vAcc></extensions></trkpt>
      <trkpt lon="-123.280738" lat="44.563409"><ele>73.034409</ele><time>2021-01-05T23:55:03Z</time><extensions><speed>0.650473</speed><course>83.743423</course><hAcc>0.940011</hAcc><vAcc>0.692390</vAcc></extensions></trkpt>
      <trkpt lon="-123.280746" lat="44.563410"><ele>73.099266</ele><time>2021-01-05T23:55:04Z</time><extensions><speed>0.661625</speed><course>95.704025</course><hAcc>0.942297</hAcc><vAcc>0.694000</vAcc></extensions></trkpt>
      <trkpt lon="-123.280755" lat="44.563410"><ele>73.179428</ele><time>2021-01-05T23:55:05Z</time><extensions><speed>0.677230</speed><course>94.616516</course><hAcc>0.944360</hAcc><vAcc>0.695391</vAcc></extensions></trkpt>
      <trkpt lon="-123.280763" lat="44.563410"><ele>73.273865</ele><time>2021-01-05T23:55:06Z</time><extensions><speed>0.695762</speed><course>91.428375</course><hAcc>0.945981</hAcc><vAcc>0.696418</vAcc></extensions></trkpt>
      <trkpt lon="-123.280772" lat="44.563410"><ele>73.381432</ele><time>2021-01-05T23:55:07Z</time><extensions><speed>0.715969</speed><course>87.779465</course><hAcc>0.946993</hAcc><vAcc>0.696994</vAcc></extensions></trkpt>
      <trkpt lon="-123.280781" lat="44.563410"><ele>73.500862</ele><time>2021-01-05T23:55:08Z</time><extensions><speed>0.736052</speed><course>82.184433</course><hAcc>0.947400</hAcc><vAcc>0.697179</vAcc></extensions></trkpt>
      <trkpt lon="-123.280791" lat="44.563409"><ele>73.630554</ele><time>2021-01-05T23:55:09Z</time><extensions><speed>0.753946</speed><course>84.816048</course><hAcc>0.947556</hAcc><vAcc>0.697321</vAcc></extensions></trkpt>
      <trkpt lon="-123.280800" lat="44.563408"><ele>73.768692</ele><time>2021-01-05T23:55:10Z</time><extensions><speed>0.768540</speed><course>89.251984</course><hAcc>0.948448</hAcc><vAcc>0.698251</vAcc></extensions></trkpt>
      <trkpt lon="-123.280810" lat="44.563406"><ele>73.913643</ele><time>2021-01-05T23:55:11Z</time><extensions><speed>0.780531</speed><course>98.072433</course><hAcc>0.952051</hAcc><vAcc>0.701535</vAcc></extensions></trkpt>
      <trkpt lon="-123.280819" lat="44.563405"><ele>74.063972</ele><time>2021-01-05T23:55:12Z</time><extensions><speed>0.791424</speed><course>91.880684</course><hAcc>0.961754</hAcc><vAcc>0.709743</vAcc></extensions></trkpt>
      <trkpt lon="-123.280829" lat="44.563403"><ele>74.218575</ele><time>2021-01-05T23:55:13Z</time><extensions><speed>0.802624</speed><course>87.021515</course><hAcc>0.982702</hAcc><vAcc>0.726647</vAcc></extensions></trkpt>
      <trkpt lon="-123.280839" lat="44.563401"><ele>74.376923</ele><time>2021-01-05T23:55:14Z</time><extensions><speed>0.813277</speed><course>70.947144</course><hAcc>1.021802</hAcc><vAcc>0.757148</vAcc></extensions></trkpt>
      <trkpt lon="-123.280848" lat="44.563398"><ele>74.538818</ele><time>2021-01-05T23:55:15Z</time><extensions><speed>0.821287</speed><course>47.730137</course><hAcc>1.087084</hAcc><vAcc>0.806773</vAcc></extensions></trkpt>
      <trkpt lon="-123.280858" lat="44.563396"><ele>74.703949</ele><time>2021-01-05T23:55:16Z</time><extensions><speed>0.826385</speed><course>76.185379</course><hAcc>1.186334</hAcc><vAcc>0.880724</vAcc></extensions></trkpt>
      <trkpt lon="-123.280868" lat="44.563393"><ele>74.871361</ele><time>2021-01-05T23:55:17Z</time><extensions><speed>0.829420</speed><course>74.010727</course><hAcc>1.325486</hAcc><vAcc>0.982855</vAcc></extensions></trkpt>
      <trkpt lon="-123.280878" lat="44.563391"><ele>75.039658</ele><time>2021-01-05T23:55:18Z</time><extensions><speed>0.830994</speed><course>72.854691</course><hAcc>1.507548</hAcc><vAcc>1.115029</vAcc></extensions></trkpt>
      <trkpt lon="-123.280888" lat="44.563388"><ele>75.208122</ele><time>2021-01-05T23:55:19Z</time><extensions><speed>0.831428</speed><course>82.122597</course><hAcc>1.732385</hAcc><vAcc>1.277034</vAcc></extensions></trkpt>
    </trkseg>
  </trk>
</gpx>