<?xml version="1.0" encoding="UTF-8"?>
<gpx version="1.1" creator="Apple Health Export" xmlns="http://www.topografix.com/GPX/1/1" xmlns:xsi="http://www.w3.org/2001/XMLSchema-instance" xsi:schemaLocation="http://www.topografix.com/GPX/1/1 http://www.topografix.com/GPX/1/1/gpx.xsd">
  <metadata>
    <time>2021-02-21T19:24:48Z</time>
  </metadata>
  <trk>
    <name>Route 2020-11-29 10:18pm</name>
    <trkseg>
      <trkpt lon="-123.272967" lat="44.560047"><ele>63.699409</ele><time>2020-11-30T06:16:11Z</time><extensions><speed>5.020000</speed><course>266.484375</course><hAcc>3.883248</hAcc><vAcc>6.000000</vAcc></extensions></trkpt>
      <trkpt lon="-123.272967" lat="44.560047"><ele>63.699409</ele><time>2020-11-30T06:16:11Z</time><extensions><speed>5.020000</speed><course>266.484375</course><hAcc>3.883248</hAcc><vAcc>6.000000</vAcc></extensions></trkpt>
      <trkpt lon="-123.273043" lat="44.560041"><ele>64.344856</ele><time>2020-11-30T06:16:12Z</time><extensions><speed>5.300000</speed><course>263.671875</course><hAcc>3.900616</hAcc><vAcc>6.000000</vAcc></extensions></trkpt>
      <trkpt lon="-123.273141" lat="44.560022"><ele>66.375740</ele><time>2020-11-30T06:16:13Z</time><extensions><speed>5.020000</speed><course>255.585938</course><hAcc>3.787920</hAcc><vAcc>6.000000</vAcc></extensions></trkpt>
      <trkpt lon="-123.273205" lat="44.560020"><ele>69.117134</ele><time>2020-11-30T06:16:14Z</time><extensions><speed>5.170000</speed><course>260.156250</course><hAcc>4.170455</hAcc><vAcc>3.000000</vAcc></extensions></trkpt>
      <trkpt lon="-123.273297" lat="44.560050"><ele>67.680061</ele><time>2020-11-30T06:16:15Z</time><extensions><speed>5.170000</speed><course>290.039062</course><hAcc>4.053185</hAcc><vAcc>3.000000</vAcc></extensions></trkpt>
      <trkpt lon="-123.273392" lat="44.560048"><ele>66.807503</ele><time>2020-11-30T06:16:16Z</time><extensions><speed>6.300000</speed><course>269.296875</course><hAcc>4.126540</hAcc><vAcc>3.000000</vAcc></extensions></trkpt>
      <trkpt lon="-123.273449" lat="44.560031"><ele>67.629951</ele><time>2020-11-30T06:16:17Z</time><extensions><speed>6.300000</speed><course>256.640625</course><hAcc>4.198513</hAcc><vAcc>3.000000</vAcc></extensions></trkpt>
      <trkpt lon="-123.273518" lat="44.560017"><ele>67.732307</ele><time>2020-11-30T06:16:18Z</time><extensions><speed>5.730000</speed><course>255.585938</course><hAcc>4.325002</hAcc><vAcc>3.000000</vAcc></extensions></trkpt>
      <trkpt lon="-123.273588" lat="44.560004"><ele>67.732307</ele><time>2020-11-30T06:16:19Z</time><extensions><speed>5.730000</speed><course>255.585892</course><hAcc>4.771197</hAcc><vAcc>3.325690</vAcc></extensions></trkpt>
      <trkpt lon="-123.273658" lat="44.560004"><ele>67.768990</ele><time>2020-11-30T06:16:20Z</time><extensions><speed>5.430000</speed><course>261.562439</course><hAcc>4.839416</hAcc><vAcc>3.225616</vAcc></extensions></trkpt>
      <trkpt lon="-123.273723" lat="44.560020"><ele>67.810310</ele><time>2020-11-30T06:16:21Z</time><extensions><speed>5.360000</speed><course>273.164001</course><hAcc>4.815678</hAcc><vAcc>3.260948</vAcc></extensions></trkpt>
      <trkpt lon="-123.273795" lat="44.559995"><ele>67.574287</ele><time>2020-11-30T06:16:22Z</time><extensions><speed>5.360000</speed><course>264.023376</course><hAcc>4.782844</hAcc><vAcc>3.308918</vAcc></extensions></trkpt>
      <trkpt lon="-123.273859" lat="44.559991"><ele>67.585091</ele><time>2020-11-30T06:16:23Z</time><extensions><speed>5.270000</speed><course>260.859314</course><hAcc>4.805738</hAcc><vAcc>3.275579</vAcc></extensions></trkpt>
      <trkpt lon="-123.273927" lat="44.560003"><ele>67.851143</ele><time>2020-11-30T06:16:24Z</time><extensions><speed>5.270000</speed><course>273.515564</course><hAcc>4.811535</hAcc><vAcc>3.267057</vAcc></extensions></trkpt>
      <trkpt lon="-123.273987" lat="44.560019"><ele>67.733894</ele><time>2020-11-30T06:16:25Z</time><extensions><speed>5.180000</speed><course>285.820282</course><hAcc>4.789120</hAcc><vAcc>3.299829</vAcc></extensions></trkpt>
      <trkpt lon="-123.274008" lat="44.560103"><ele>67.777657</ele><time>2020-11-30T06:16:26Z</time><extensions><speed>6.830000</speed><course>333.281219</course><hAcc>4.624750</hAcc><vAcc>3.526503</vAcc></extensions></trkpt>
      <trkpt lon="-123.273968" lat="44.560130"><ele>66.799263</ele><time>2020-11-30T06:16:27Z</time><extensions><speed>6.010000</speed><course>1.406251</course><hAcc>4.569109</hAcc><vAcc>3.598302</vAcc></extensions></trkpt>
      <trkpt lon="-123.273973" lat="44.560188"><ele>66.137276</ele><time>2020-11-30T06:16:28Z</time><extensions><speed>6.830000</speed><course>359.296875</course><hAcc>4.569109</hAcc><vAcc>3.598302</vAcc></extensions></trkpt>
      <trkpt lon="-123.273977" lat="44.560244"><ele>66.392159</ele><time>2020-11-30T06:16:29Z</time><extensions><speed>6.790000</speed><course>358.945312</course><hAcc>4.569109</hAcc><vAcc>3.598302</vAcc></extensions></trkpt>
      <trkpt lon="-123.274003" lat="44.560311"><ele>66.611580</ele><time>2020-11-30T06:16:30Z</time><extensions><speed>7.130000</speed><course>350.859375</course><hAcc>4.569109</hAcc><vAcc>3.598302</vAcc></extensions></trkpt>
      <trkpt lon="-123.274013" lat="44.560369"><ele>66.979683</ele><time>2020-11-30T06:16:31Z</time><extensions><speed>6.840000</speed><course>350.859375</course><hAcc>4.569110</hAcc><vAcc>3.598301</vAcc></extensions></trkpt>
      <trkpt lon="-123.274039" lat="44.560437"><ele>66.780830</ele><time>2020-11-30T06:16:32Z</time><extensions><speed>7.130000</speed><course>348.046875</course><hAcc>4.569110</hAcc><vAcc>3.598301</vAcc></extensions></trkpt>
      <trkpt lon="-123.274043" lat="44.560510"><ele>67.026009</ele><time>2020-11-30T06:16:33Z</time><extensions><speed>7.510000</speed><course>351.914062</course><hAcc>4.569110</hAcc><vAcc>3.598301</vAcc></extensions></trkpt>
      <trkpt lon="-123.274053" lat="44.560579"><ele>67.491890</ele><time>2020-11-30T06:16:34Z</time><extensions><speed>7.850000</speed><course>351.562500</course><hAcc>4.569110</hAcc><vAcc>3.598301</vAcc></extensions></trkpt>
      <trkpt lon="-123.274057" lat="44.560640"><ele>67.746040</ele><time>2020-11-30T06:16:35Z</time><extensions><speed>7.510000</speed><course>355.078125</course><hAcc>4.569110</hAcc><vAcc>3.598301</vAcc></extensions></trkpt>
      <trkpt lon="-123.274072" lat="44.560690"><ele>67.957405</ele><time>2020-11-30T06:16:36Z</time><extensions><speed>7.000000</speed><course>352.265625</course><hAcc>4.569110</hAcc><vAcc>3.598301</vAcc></extensions></trkpt>
      <trkpt lon="-123.274082" lat="44.560767"><ele>67.494392</ele><time>2020-11-30T06:16:37Z</time><extensions><speed>7.620000</speed><course>354.023438</course><hAcc>4.569110</hAcc><vAcc>3.598300</vAcc></extensions></trkpt>
      <trkpt lon="-123.274101" lat="44.560832"><ele>67.579903</ele><time>2020-11-30T06:16:38Z</time><extensions><speed>7.620000</speed><course>351.210938</course><hAcc>4.569110</hAcc><vAcc>3.598300</vAcc></extensions></trkpt>
      <trkpt lon="-123.274103" lat="44.560874"><ele>70.782013</ele><time>2020-11-30T06:16:39Z</time><extensions><speed>7.459705</speed><course>350.977997</course><hAcc>4.839401</hAcc><vAcc>3.225637</vAcc></extensions></trkpt>
      <trkpt lon="-123.274112" lat="44.560931"><ele>70.628250</ele><time>2020-11-30T06:16:40Z</time><extensions><speed>6.926094</speed><course>351.516541</course><hAcc>4.846210</hAcc><vAcc>3.215397</vAcc></extensions></trkpt>
      <trkpt lon="-123.274128" lat="44.560991"><ele>70.551514</ele><time>2020-11-30T06:16:41Z</time><extensions><speed>6.843853</speed><course>349.695679</course><hAcc>4.846725</hAcc><vAcc>3.214622</vAcc></extensions></trkpt>
      <trkpt lon="-123.274150" lat="44.561054"><ele>70.628654</ele><time>2020-11-30T06:16:42Z</time><extensions><speed>7.025667</speed><course>346.508667</course><hAcc>4.853709</hAcc><vAcc>3.204068</vAcc></extensions></trkpt>
      <trkpt lon="-123.274186" lat="44.561124"><ele>70.580978</ele><time>2020-11-30T06:16:43Z</time><extensions><speed>6.743211</speed><course>346.301392</course><hAcc>4.777975</hAcc><vAcc>3.315945</vAcc></extensions></trkpt>
      <trkpt lon="-123.274188" lat="44.561184"><ele>70.837822</ele><time>2020-11-30T06:16:44Z</time><extensions><speed>6.826685</speed><course>349.274597</course><hAcc>4.772731</hAcc><vAcc>3.323489</vAcc></extensions></trkpt>
      <trkpt lon="-123.274210" lat="44.561248"><ele>70.563103</ele><time>2020-11-30T06:16:45Z</time><extensions><speed>7.203638</speed><course>348.192719</course><hAcc>4.773457</hAcc><vAcc>3.322446</vAcc></extensions></trkpt>
      <trkpt lon="-123.274233" lat="44.561308"><ele>70.366982</ele><time>2020-11-30T06:16:46Z</time><extensions><speed>7.041368</speed><course>347.903748</course><hAcc>4.762614</hAcc><vAcc>3.337970</vAcc></extensions></trkpt>
      <trkpt lon="-123.274246" lat="44.561368"><ele>70.594215</ele><time>2020-11-30T06:16:47Z</time><extensions><speed>6.891710</speed><course>349.786743</course><hAcc>4.774665</hAcc><vAcc>3.320709</vAcc></extensions></trkpt>
      <trkpt lon="-123.274257" lat="44.561429"><ele>70.062515</ele><time>2020-11-30T06:16:48Z</time><extensions><speed>6.868492</speed><course>350.945282</course><hAcc>4.762673</hAcc><vAcc>3.337886</vAcc></extensions></trkpt>
      <trkpt lon="-123.274268" lat="44.561488"><ele>70.444237</ele><time>2020-11-30T06:16:49Z</time><extensions><speed>6.678641</speed><course>352.487976</course><hAcc>4.759755</hAcc><vAcc>3.342046</vAcc></extensions></trkpt>
      <trkpt lon="-123.274280" lat="44.561548"><ele>70.176003</ele><time>2020-11-30T06:16:50Z</time><extensions><speed>6.642683</speed><course>353.565399</course><hAcc>4.757481</hAcc><vAcc>3.345282</vAcc></extensions></trkpt>
      <trkpt lon="-123.274282" lat="44.561602"><ele>70.413368</ele><time>2020-11-30T06:16:51Z</time><extensions><speed>6.303139</speed><course>355.895569</course><hAcc>4.757586</hAcc><vAcc>3.345133</vAcc></extensions></trkpt>
      <trkpt lon="-123.274270" lat="44.561652"><ele>71.531761</ele><time>2020-11-30T06:16:52Z</time><extensions><speed>5.955211</speed><course>2.623332</course><hAcc>4.755160</hAcc><vAcc>3.348580</vAcc></extensions></trkpt>
      <trkpt lon="-123.274270" lat="44.561712"><ele>70.926239</ele><time>2020-11-30T06:16:53Z</time><extensions><speed>6.252840</speed><course>2.370217</course><hAcc>4.760929</hAcc><vAcc>3.340373</vAcc></extensions></trkpt>
      <trkpt lon="-123.274272" lat="44.561769"><ele>71.406853</ele><time>2020-11-30T06:16:54Z</time><extensions><speed>6.211412</speed><course>359.372437</course><hAcc>4.769934</hAcc><vAcc>3.327501</vAcc></extensions></trkpt>
      <trkpt lon="-123.274290" lat="44.561825"><ele>71.273689</ele><time>2020-11-30T06:16:55Z</time><extensions><speed>6.294285</speed><course>350.202301</course><hAcc>4.763375</hAcc><vAcc>3.336884</vAcc></extensions></trkpt>
      <trkpt lon="-123.274316" lat="44.561871"><ele>71.818466</ele><time>2020-11-30T06:16:56Z</time><extensions><speed>6.016302</speed><course>341.422333</course><hAcc>4.760548</hAcc><vAcc>3.340916</vAcc></extensions></trkpt>
      <trkpt lon="-123.274361" lat="44.561908"><ele>71.881310</ele><time>2020-11-30T06:16:57Z</time><extensions><speed>5.574423</speed><course>325.733582</course><hAcc>4.760458</hAcc><vAcc>3.341045</vAcc></extensions></trkpt>
      <trkpt lon="-123.274427" lat="44.561946"><ele>71.890900</ele><time>2020-11-30T06:16:58Z</time><extensions><speed>5.887179</speed><course>312.829376</course><hAcc>4.759620</hAcc><vAcc>3.342238</vAcc></extensions></trkpt>
      <trkpt lon="-123.274510" lat="44.561969"><ele>71.594559</ele><time>2020-11-30T06:16:59Z</time><extensions><speed>6.217714</speed><course>298.668518</course><hAcc>4.756248</hAcc><vAcc>3.347035</vAcc></extensions></trkpt>
      <trkpt lon="-123.274600" lat="44.561983"><ele>71.267677</ele><time>2020-11-30T06:17:00Z</time><extensions><speed>6.370169</speed><course>286.729767</course><hAcc>4.753088</hAcc><vAcc>3.351520</vAcc></extensions></trkpt>
      <trkpt lon="-123.274691" lat="44.561995"><ele>70.965240</ele><time>2020-11-30T06:17:01Z</time><extensions><speed>6.550224</speed><course>280.558014</course><hAcc>4.754354</hAcc><vAcc>3.349725</vAcc></extensions></trkpt>
      <trkpt lon="-123.274780" lat="44.562002"><ele>71.303482</ele><time>2020-11-30T06:17:02Z</time><extensions><speed>6.762564</speed><course>276.374084</course><hAcc>4.754958</hAcc><vAcc>3.348867</vAcc></extensions></trkpt>
      <trkpt lon="-123.274858" lat="44.562011"><ele>71.143379</ele><time>2020-11-30T06:17:03Z</time><extensions><speed>6.463312</speed><course>277.915253</course><hAcc>4.754344</hAcc><vAcc>3.349739</vAcc></extensions></trkpt>
      <trkpt lon="-123.274935" lat="44.562017"><ele>71.138542</ele><time>2020-11-30T06:17:04Z</time><extensions><speed>6.308621</speed><course>275.260040</course><hAcc>4.758990</hAcc><vAcc>3.343136</vAcc></extensions></trkpt>
      <trkpt lon="-123.275012" lat="44.562018"><ele>70.812401</ele><time>2020-11-30T06:17:05Z</time><extensions><speed>6.185628</speed><course>272.183929</course><hAcc>4.760057</hAcc><vAcc>3.341616</vAcc></extensions></trkpt>
      <trkpt lon="-123.275084" lat="44.562022"><ele>71.145226</ele><time>2020-11-30T06:17:06Z</time><extensions><speed>5.859594</speed><course>274.173248</course><hAcc>4.759374</hAcc><vAcc>3.342588</vAcc></extensions></trkpt>
      <trkpt lon="-123.275164" lat="44.562025"><ele>70.830193</ele><time>2020-11-30T06:17:07Z</time><extensions><speed>6.083018</speed><course>270.791321</course><hAcc>4.760788</hAcc><vAcc>3.340573</vAcc></extensions></trkpt>
      <trkpt lon="-123.275257" lat="44.562019"><ele>70.201836</ele><time>2020-11-30T06:17:08Z</time><extensions><speed>6.776226</speed><course>264.919067</course><hAcc>4.759724</hAcc><vAcc>3.342090</vAcc></extensions></trkpt>
      <trkpt lon="-123.275331" lat="44.562015"><ele>70.732605</ele><time>2020-11-30T06:17:09Z</time><extensions><speed>6.376135</speed><course>264.264099</course><hAcc>4.761276</hAcc><vAcc>3.339878</vAcc></extensions></trkpt>
      <trkpt lon="-123.275403" lat="44.562015"><ele>71.181007</ele><time>2020-11-30T06:17:10Z</time><extensions><speed>6.076279</speed><course>266.537567</course><hAcc>4.766682</hAcc><vAcc>3.332159</vAcc></extensions></trkpt>
      <trkpt lon="-123.275478" lat="44.562016"><ele>70.834564</ele><time>2020-11-30T06:17:11Z</time><extensions><speed>5.953586</speed><course>269.020844</course><hAcc>4.765601</hAcc><vAcc>3.333705</vAcc></extensions></trkpt>
      <trkpt lon="-123.275546" lat="44.562017"><ele>70.975075</ele><time>2020-11-30T06:17:12Z</time><extensions><speed>5.581973</speed><course>270.734528</course><hAcc>4.762401</hAcc><vAcc>3.338275</vAcc></extensions></trkpt>
      <trkpt lon="-123.275617" lat="44.562012"><ele>71.042564</ele><time>2020-11-30T06:17:13Z</time><extensions><speed>5.518256</speed><course>265.797668</course><hAcc>4.757603</hAcc><vAcc>3.345109</vAcc></extensions></trkpt>
      <trkpt lon="-123.275694" lat="44.562002"><ele>71.248215</ele><time>2020-11-30T06:17:14Z</time><extensions><speed>5.884302</speed><course>260.095978</course><hAcc>4.758074</hAcc><vAcc>3.344438</vAcc></extensions></trkpt>
      <trkpt lon="-123.275757" lat="44.561991"><ele>71.035049</ele><time>2020-11-30T06:17:15Z</time><extensions><speed>5.586147</speed><course>256.232025</course><hAcc>4.762019</hAcc><vAcc>3.338819</vAcc></extensions></trkpt>
      <trkpt lon="-123.275825" lat="44.561974"><ele>71.178528</ele><time>2020-11-30T06:17:16Z</time><extensions><speed>5.761706</speed><course>253.681244</course><hAcc>4.767453</hAcc><vAcc>3.331056</vAcc></extensions></trkpt>
      <trkpt lon="-123.275883" lat="44.561968"><ele>70.982368</ele><time>2020-11-30T06:17:17Z</time><extensions><speed>5.241731</speed><course>258.459320</course><hAcc>4.765999</hAcc><vAcc>3.333136</vAcc></extensions></trkpt>
      <trkpt lon="-123.275950" lat="44.561966"><ele>70.936256</ele><time>2020-11-30T06:17:18Z</time><extensions><speed>5.240500</speed><course>263.205475</course><hAcc>4.767390</hAcc><vAcc>3.331146</vAcc></extensions></trkpt>
      <trkpt lon="-123.276016" lat="44.561964"><ele>71.208328</ele><time>2020-11-30T06:17:19Z</time><extensions><speed>5.267957</speed><course>266.324066</course><hAcc>4.769504</hAcc><vAcc>3.328118</vAcc></extensions></trkpt>
      <trkpt lon="-123.276078" lat="44.561972"><ele>71.095039</ele><time>2020-11-30T06:17:20Z</time><extensions><speed>5.061196</speed><course>273.654449</course><hAcc>4.769905</hAcc><vAcc>3.327543</vAcc></extensions></trkpt>
      <trkpt lon="-123.276138" lat="44.561970"><ele>70.919456</ele><time>2020-11-30T06:17:21Z</time><extensions><speed>4.934912</speed><course>271.579041</course><hAcc>4.763531</hAcc><vAcc>3.336661</vAcc></extensions></trkpt>
      <trkpt lon="-123.276211" lat="44.561965"><ele>70.586517</ele><time>2020-11-30T06:17:22Z</time><extensions><speed>5.378257</speed><course>266.026886</course><hAcc>4.762867</hAcc><vAcc>3.337608</vAcc></extensions></trkpt>
      <trkpt lon="-123.276273" lat="44.561961"><ele>71.060127</ele><time>2020-11-30T06:17:23Z</time><extensions><speed>5.230910</speed><course>264.704987</course><hAcc>4.764917</hAcc><vAcc>3.334681</vAcc></extensions></trkpt>
      <trkpt lon="-123.276326" lat="44.561963"><ele>70.662888</ele><time>2020-11-30T06:17:24Z</time><extensions><speed>4.530478</speed><course>270.174347</course><hAcc>4.765918</hAcc><vAcc>3.333251</vAcc></extensions></trkpt>
      <trkpt lon="-123.276393" lat="44.561964"><ele>71.211365</ele><time>2020-11-30T06:17:25Z</time><extensions><speed>4.877234</speed><course>271.070465</course><hAcc>4.762376</hAcc><vAcc>3.338309</vAcc></extensions></trkpt>
      <trkpt lon="-123.276450" lat="44.561968"><ele>70.798325</ele><time>2020-11-30T06:17:26Z</time><extensions><speed>4.623257</speed><course>273.360260</course><hAcc>4.761214</hAcc><vAcc>3.339966</vAcc></extensions></trkpt>
      <trkpt lon="-123.276507" lat="44.561968"><ele>70.600807</ele><time>2020-11-30T06:17:27Z</time><extensions><speed>4.509415</speed><course>273.329346</course><hAcc>4.762527</hAcc><vAcc>3.338094</vAcc></extensions></trkpt>
      <trkpt lon="-123.276568" lat="44.561966"><ele>70.542862</ele><time>2020-11-30T06:17:28Z</time><extensions><speed>4.647257</speed><course>268.917969</course><hAcc>4.761733</hAcc><vAcc>3.339228</vAcc></extensions></trkpt>
      <trkpt lon="-123.276619" lat="44.561962"><ele>70.898964</ele><time>2020-11-30T06:17:29Z</time><extensions><speed>4.384059</speed><course>266.354156</course><hAcc>4.762107</hAcc><vAcc>3.338693</vAcc></extensions></trkpt>
      <trkpt lon="-123.276675" lat="44.561963"><ele>70.518944</ele><time>2020-11-30T06:17:30Z</time><extensions><speed>4.256485</speed><course>269.153442</course><hAcc>4.758416</hAcc><vAcc>3.343951</vAcc></extensions></trkpt>
      <trkpt lon="-123.276728" lat="44.561968"><ele>70.659927</ele><time>2020-11-30T06:17:31Z</time><extensions><speed>4.332125</speed><course>271.800049</course><hAcc>4.754488</hAcc><vAcc>3.349535</vAcc></extensions></trkpt>
      <trkpt lon="-123.276782" lat="44.561968"><ele>70.100685</ele><time>2020-11-30T06:17:32Z</time><extensions><speed>4.153133</speed><course>271.471222</course><hAcc>4.752754</hAcc><vAcc>3.351995</vAcc></extensions></trkpt>
      <trkpt lon="-123.276845" lat="44.561970"><ele>70.643021</ele><time>2020-11-30T06:17:33Z</time><extensions><speed>4.586569</speed><course>272.178528</course><hAcc>4.754290</hAcc><vAcc>3.349816</vAcc></extensions></trkpt>
      <trkpt lon="-123.276895" lat="44.561976"><ele>70.229774</ele><time>2020-11-30T06:17:34Z</time><extensions><speed>4.292959</speed><course>274.521729</course><hAcc>4.751575</hAcc><vAcc>3.353666</vAcc></extensions></trkpt>
      <trkpt lon="-123.276951" lat="44.561975"><ele>70.122238</ele><time>2020-11-30T06:17:35Z</time><extensions><speed>4.254121</speed><course>269.851501</course><hAcc>4.752526</hAcc><vAcc>3.352318</vAcc></extensions></trkpt>
      <trkpt lon="-123.277006" lat="44.561975"><ele>70.217529</ele><time>2020-11-30T06:17:36Z</time><extensions><speed>4.376045</speed><course>269.111450</course><hAcc>4.741908</hAcc><vAcc>3.367321</vAcc></extensions></trkpt>
      <trkpt lon="-123.277058" lat="44.561979"><ele>70.120842</ele><time>2020-11-30T06:17:37Z</time><extensions><speed>4.155478</speed><course>271.334717</course><hAcc>4.743770</hAcc><vAcc>3.364697</vAcc></extensions></trkpt>
      <trkpt lon="-123.277111" lat="44.561975"><ele>69.666901</ele><time>2020-11-30T06:17:38Z</time><extensions><speed>4.106845</speed><course>266.693237</course><hAcc>4.743149</hAcc><vAcc>3.365572</vAcc></extensions></trkpt>
      <trkpt lon="-123.277159" lat="44.561972"><ele>70.275673</ele><time>2020-11-30T06:17:39Z</time><extensions><speed>4.015633</speed><course>265.839294</course><hAcc>4.752744</hAcc><vAcc>3.352009</vAcc></extensions></trkpt>
      <trkpt lon="-123.277203" lat="44.561968"><ele>70.443359</ele><time>2020-11-30T06:17:40Z</time><extensions><speed>3.701975</speed><course>264.473846</course><hAcc>4.744179</hAcc><vAcc>3.364120</vAcc></extensions></trkpt>
      <trkpt lon="-123.277245" lat="44.561966"><ele>70.327873</ele><time>2020-11-30T06:17:41Z</time><extensions><speed>3.555386</speed><course>263.500732</course><hAcc>4.747550</hAcc><vAcc>3.359360</vAcc></extensions></trkpt>
      <trkpt lon="-123.277285" lat="44.561967"><ele>70.726814</ele><time>2020-11-30T06:17:42Z</time><extensions><speed>3.333530</speed><course>267.126282</course><hAcc>4.751495</hAcc><vAcc>3.353779</vAcc></extensions></trkpt>
      <trkpt lon="-123.277332" lat="44.561968"><ele>70.804817</ele><time>2020-11-30T06:17:43Z</time><extensions><speed>3.536427</speed><course>271.636780</course><hAcc>4.746970</hAcc><vAcc>3.360181</vAcc></extensions></trkpt>
      <trkpt lon="-123.277369" lat="44.561973"><ele>70.659470</ele><time>2020-11-30T06:17:44Z</time><extensions><speed>3.251692</speed><course>275.869629</course><hAcc>4.751763</hAcc><vAcc>3.353400</vAcc></extensions></trkpt>
      <trkpt lon="-123.277410" lat="44.561973"><ele>70.827713</ele><time>2020-11-30T06:17:45Z</time><extensions><speed>3.076959</speed><course>272.030457</course><hAcc>4.753232</hAcc><vAcc>3.351317</vAcc></extensions></trkpt>
      <trkpt lon="-123.277454" lat="44.561967"><ele>71.036797</ele><time>2020-11-30T06:17:46Z</time><extensions><speed>3.304249</speed><course>261.748016</course><hAcc>4.757520</hAcc><vAcc>3.345226</vAcc></extensions></trkpt>
      <trkpt lon="-123.277484" lat="44.561967"><ele>71.121193</ele><time>2020-11-30T06:17:47Z</time><extensions><speed>2.829974</speed><course>266.475220</course><hAcc>4.752238</hAcc><vAcc>3.352726</vAcc></extensions></trkpt>
      <trkpt lon="-123.277513" lat="44.561981"><ele>70.699028</ele><time>2020-11-30T06:17:48Z</time><extensions><speed>2.547329</speed><course>298.491089</course><hAcc>4.752440</hAcc><vAcc>3.352439</vAcc></extensions></trkpt>
      <trkpt lon="-123.277527" lat="44.562006"><ele>70.911194</ele><time>2020-11-30T06:17:49Z</time><extensions><speed>2.811486</speed><course>327.160156</course><hAcc>4.748269</hAcc><vAcc>3.358345</vAcc></extensions></trkpt>
      <trkpt lon="-123.277525" lat="44.562033"><ele>71.106979</ele><time>2020-11-30T06:17:50Z</time><extensions><speed>2.892452</speed><course>348.153503</course><hAcc>4.745630</hAcc><vAcc>3.362073</vAcc></extensions></trkpt>
      <trkpt lon="-123.277538" lat="44.562059"><ele>71.250473</ele><time>2020-11-30T06:17:51Z</time><extensions><speed>3.191276</speed><course>344.069275</course><hAcc>4.748667</hAcc><vAcc>3.357782</vAcc></extensions></trkpt>
      <trkpt lon="-123.277540" lat="44.562079"><ele>71.127380</ele><time>2020-11-30T06:17:52Z</time><extensions><speed>2.464058</speed><course>345.923645</course><hAcc>4.749566</hAcc><vAcc>3.356510</vAcc></extensions></trkpt>
      <trkpt lon="-123.277555" lat="44.562109"><ele>71.147346</ele><time>2020-11-30T06:17:53Z</time><extensions><speed>3.299002</speed><course>345.425995</course><hAcc>4.750504</hAcc><vAcc>3.355183</vAcc></extensions></trkpt>
      <trkpt lon="-123.277574" lat="44.562134"><ele>71.097702</ele><time>2020-11-30T06:17:54Z</time><extensions><speed>3.124584</speed><course>337.803253</course><hAcc>4.749645</hAcc><vAcc>3.356398</vAcc></extensions></trkpt>
      <trkpt lon="-123.277578" lat="44.562146"><ele>70.642105</ele><time>2020-11-30T06:17:55Z</time><extensions><speed>2.063922</speed><course>343.271667</course><hAcc>4.749136</hAcc><vAcc>3.357118</vAcc></extensions></trkpt>
      <trkpt lon="-123.277569" lat="44.562147"><ele>70.863739</ele><time>2020-11-30T06:17:56Z</time><extensions><speed>1.056287</speed><course>13.324799</course><hAcc>4.745193</hAcc><vAcc>3.362690</vAcc></extensions></trkpt>
      <trkpt lon="-123.277570" lat="44.562137"><ele>70.331444</ele><time>2020-11-30T06:17:57Z</time><extensions><speed>0.000000</speed><course>53.184887</course><hAcc>4.740064</hAcc><vAcc>3.369916</vAcc></extensions></trkpt>
      <trkpt lon="-123.277548" lat="44.562140"><ele>71.291321</ele><time>2020-11-30T06:17:58Z</time><extensions><speed>1.034121</speed><course>82.441040</course><hAcc>4.736660</hAcc><vAcc>3.374699</vAcc></extensions></trkpt>
      <trkpt lon="-123.277552" lat="44.562138"><ele>71.041290</ele><time>2020-11-30T06:17:59Z</time><extensions><speed>0.000000</speed><course>92.503273</course><hAcc>4.728055</hAcc><vAcc>3.386744</vAcc></extensions></trkpt>
      <trkpt lon="-123.277547" lat="44.562140"><ele>71.021965</ele><time>2020-11-30T06:18:00Z</time><extensions><speed>0.000000</speed><course>92.503273</course><hAcc>4.740222</hAcc><vAcc>3.369693</vAcc></extensions></trkpt>
      <trkpt lon="-123.277552" lat="44.562141"><ele>70.860107</ele><time>2020-11-30T06:18:01Z</time><extensions><speed>0.000000</speed><course>92.503273</course><hAcc>4.737025</hAcc><vAcc>3.374186</vAcc></extensions></trkpt>
      <trkpt lon="-123.277554" lat="44.562144"><ele>70.858070</ele><time>2020-11-30T06:18:02Z</time><extensions><speed>0.000000</speed><course>92.503273</course><hAcc>4.727641</hAcc><vAcc>3.387321</vAcc></extensions></trkpt>
      <trkpt lon="-123.277557" lat="44.562145"><ele>70.791840</ele><time>2020-11-30T06:18:03Z</time><extensions><speed>0.000000</speed><course>92.503273</course><hAcc>4.759460</hAcc><vAcc>3.342466</vAcc></extensions></trkpt>
      <trkpt lon="-123.277554" lat="44.562145"><ele>71.144051</ele><time>2020-11-30T06:18:04Z</time><extensions><speed>0.000000</speed><course>92.503273</course><hAcc>4.731022</hAcc><vAcc>3.382598</vAcc></extensions></trkpt>
      <trkpt lon="-123.277544" lat="44.562141"><ele>70.782082</ele><time>2020-11-30T06:18:05Z</time><extensions><speed>0.559845</speed><course>111.759026</course><hAcc>4.733076</hAcc><vAcc>3.379723</vAcc></extensions></trkpt>
      <trkpt lon="-123.277538" lat="44.562143"><ele>71.047485</ele><time>2020-11-30T06:18:06Z</time><extensions><speed>0.449106</speed><course>94.503304</course><hAcc>4.731831</hAcc><vAcc>3.381467</vAcc></extensions></trkpt>
      <trkpt lon="-123.277538" lat="44.562138"><ele>70.078178</ele><time>2020-11-30T06:18:07Z</time><extensions><speed>0.783922</speed><course>137.641769</course><hAcc>4.727953</hAcc><vAcc>3.386886</vAcc></extensions></trkpt>
      <trkpt lon="-123.277534" lat="44.562138"><ele>69.489777</ele><time>2020-11-30T06:18:08Z</time><extensions><speed>0.495733</speed><course>124.063042</course><hAcc>4.740248</hAcc><vAcc>3.369657</vAcc></extensions></trkpt>
      <trkpt lon="-123.277534" lat="44.562140"><ele>69.904182</ele><time>2020-11-30T06:18:09Z</time><extensions><speed>0.000000</speed><course>158.840332</course><hAcc>4.728405</hAcc><vAcc>3.386256</vAcc></extensions></trkpt>
      <trkpt lon="-123.277534" lat="44.562142"><ele>70.157181</ele><time>2020-11-30T06:18:10Z</time><extensions><speed>0.000000</speed><course>158.840332</course><hAcc>4.741521</hAcc><vAcc>3.367865</vAcc></extensions></trkpt>
      <trkpt lon="-123.277534" lat="44.562142"><ele>70.157181</ele><time>2020-11-30T06:18:11Z</time><extensions><speed>0.000000</speed><course>158.840332</course><hAcc>4.731677</hAcc><vAcc>3.381682</vAcc></extensions></trkpt>
      <trkpt lon="-123.277534" lat="44.562142"><ele>70.157181</ele><time>2020-11-30T06:18:12Z</time><extensions><speed>0.000000</speed><course>158.840332</course><hAcc>4.730320</hAcc><vAcc>3.383580</vAcc></extensions></trkpt>
      <trkpt lon="-123.277534" lat="44.562142"><ele>70.157181</ele><time>2020-11-30T06:18:13Z</time><extensions><speed>0.000000</speed><course>158.840332</course><hAcc>4.727701</hAcc><vAcc>3.387238</vAcc></extensions></trkpt>
      <trkpt lon="-123.277534" lat="44.562142"><ele>70.157181</ele><time>2020-11-30T06:18:14Z</time><extensions><speed>0.000000</speed><course>158.840332</course><hAcc>4.740035</hAcc><vAcc>3.369956</vAcc></extensions></trkpt>
      <trkpt lon="-123.277534" lat="44.562142"><ele>70.157181</ele><time>2020-11-30T06:18:15Z</time><extensions><speed>0.000000</speed><course>158.840332</course><hAcc>4.742551</hAcc><vAcc>3.366415</vAcc></extensions></trkpt>
      <trkpt lon="-123.277534" lat="44.562142"><ele>70.157181</ele><time>2020-11-30T06:18:16Z</time><extensions><speed>0.000000</speed><course>158.840332</course><hAcc>4.743774</hAcc><vAcc>3.364690</vAcc></extensions></trkpt>
      <trkpt lon="-123.277534" lat="44.562142"><ele>70.157181</ele><time>2020-11-30T06:18:17Z</time><extensions><speed>0.000000</speed><course>158.840332</course><hAcc>4.744937</hAcc><vAcc>3.363050</vAcc></extensions></trkpt>
      <trkpt lon="-123.277534" lat="44.562142"><ele>70.157181</ele><time>2020-11-30T06:18:18Z</time><extensions><speed>0.000000</speed><course>158.840332</course><hAcc>4.745441</hAcc><vAcc>3.362339</vAcc></extensions></trkpt>
      <trkpt lon="-123.277534" lat="44.562142"><ele>70.157181</ele><time>2020-11-30T06:18:19Z</time><extensions><speed>0.000000</speed><course>158.840332</course><hAcc>4.746113</hAcc><vAcc>3.361390</vAcc></extensions></trkpt>
      <trkpt lon="-123.277534" lat="44.562142"><ele>70.157181</ele><time>2020-11-30T06:18:20Z</time><extensions><speed>0.000000</speed><course>158.840332</course><hAcc>4.746782</hAcc><vAcc>3.360446</vAcc></extensions></trkpt>
      <trkpt lon="-123.277534" lat="44.562142"><ele>70.157181</ele><time>2020-11-30T06:18:21Z</time><extensions><speed>0.000000</speed><course>158.840332</course><hAcc>4.746878</hAcc><vAcc>3.360311</vAcc></extensions></trkpt>
      <trkpt lon="-123.277534" lat="44.562142"><ele>70.157181</ele><time>2020-11-30T06:18:22Z</time><extensions><speed>0.000000</speed><course>158.840332</course><hAcc>4.747715</hAcc><vAcc>3.359128</vAcc></extensions></trkpt>
      <trkpt lon="-123.277534" lat="44.562142"><ele>70.157181</ele><time>2020-11-30T06:18:23Z</time><extensions><speed>0.000000</speed><course>158.840332</course><hAcc>4.747698</hAcc><vAcc>3.359152</vAcc></extensions></trkpt>
      <trkpt lon="-123.277534" lat="44.562142"><ele>70.157181</ele><time>2020-11-30T06:18:24Z</time><extensions><speed>0.000000</speed><course>158.840332</course><hAcc>4.747242</hAcc><vAcc>3.359796</vAcc></extensions></trkpt>
      <trkpt lon="-123.277534" lat="44.562142"><ele>70.157181</ele><time>2020-11-30T06:18:25Z</time><extensions><speed>0.000000</speed><course>158.840332</course><hAcc>4.747478</hAcc><vAcc>3.359464</vAcc></extensions></trkpt>
      <trkpt lon="-123.277534" lat="44.562142"><ele>70.157181</ele><time>2020-11-30T06:18:26Z</time><extensions><speed>0.000000</speed><course>158.840332</course><hAcc>4.747969</hAcc><vAcc>3.358769</vAcc></extensions></trkpt>
      <trkpt lon="-123.277534" lat="44.562142"><ele>70.157181</ele><time>2020-11-30T06:18:27Z</time><extensions><speed>0.000000</speed><course>158.840332</course><hAcc>4.748350</hAcc><vAcc>3.358231</vAcc></extensions></trkpt>
      <trkpt lon="-123.277534" lat="44.562142"><ele>70.157181</ele><time>2020-11-30T06:18:28Z</time><extensions><speed>0.000000</speed><course>158.840332</course><hAcc>4.748312</hAcc><vAcc>3.358284</vAcc></extensions></trkpt>
      <trkpt lon="-123.277534" lat="44.562142"><ele>70.157181</ele><time>2020-11-30T06:18:29Z</time><extensions><speed>0.000000</speed><course>158.840332</course><hAcc>4.748529</hAcc><vAcc>3.357976</vAcc></extensions></trkpt>
      <trkpt lon="-123.277534" lat="44.562142"><ele>70.157181</ele><time>2020-11-30T06:18:30Z</time><extensions><speed>0.000000</speed><course>158.840332</course><hAcc>4.748655</hAcc><vAcc>3.357799</vAcc></extensions></trkpt>
      <trkpt lon="-123.277534" lat="44.562142"><ele>70.157181</ele><time>2020-11-30T06:18:31Z</time><extensions><speed>0.000000</speed><course>158.840332</course><hAcc>4.748919</hAcc><vAcc>3.357425</vAcc></extensions></trkpt>
      <trkpt lon="-123.277534" lat="44.562142"><ele>70.157181</ele><time>2020-11-30T06:18:32Z</time><extensions><speed>0.000000</speed><course>158.840332</course><hAcc>4.749514</hAcc><vAcc>3.356585</vAcc></extensions></trkpt>
      <trkpt lon="-123.277534" lat="44.562142"><ele>70.157181</ele><time>2020-11-30T06:18:33Z</time><extensions><speed>0.000000</speed><course>158.840332</course><hAcc>4.749164</hAcc><vAcc>3.357079</vAcc></extensions></trkpt>
      <trkpt lon="-123.277534" lat="44.562142"><ele>70.157181</ele><time>2020-11-30T06:18:34Z</time><extensions><speed>0.000000</speed><course>158.840332</course><hAcc>4.749120</hAcc><vAcc>3.357141</vAcc></extensions></trkpt>
      <trkpt lon="-123.277534" lat="44.562142"><ele>70.157181</ele><time>2020-11-30T06:18:35Z</time><extensions><speed>0.000000</speed><course>158.840332</course><hAcc>4.749188</hAcc><vAcc>3.357045</vAcc></extensions></trkpt>
      <trkpt lon="-123.277534" lat="44.562142"><ele>70.157181</ele><time>2020-11-30T06:18:36Z</time><extensions><speed>0.000000</speed><course>158.840332</course><hAcc>4.749203</hAcc><vAcc>3.357024</vAcc></extensions></trkpt>
      <trkpt lon="-123.277534" lat="44.562142"><ele>70.157181</ele><time>2020-11-30T06:18:37Z</time><extensions><speed>0.000000</speed><course>158.840332</course><hAcc>4.749259</hAcc><vAcc>3.356944</vAcc></extensions></trkpt>
      <trkpt lon="-123.277534" lat="44.562142"><ele>70.157181</ele><time>2020-11-30T06:18:38Z</time><extensions><speed>0.000000</speed><course>158.840332</course><hAcc>4.749329</hAcc><vAcc>3.356846</vAcc></extensions></trkpt>
      <trkpt lon="-123.277534" lat="44.562142"><ele>70.157181</ele><time>2020-11-30T06:18:39Z</time><extensions><speed>0.000000</speed><course>158.840332</course><hAcc>4.749312</hAcc><vAcc>3.356869</vAcc></extensions></trkpt>
      <trkpt lon="-123.277534" lat="44.562142"><ele>70.157181</ele><time>2020-11-30T06:18:40Z</time><extensions><speed>0.000000</speed><course>158.840332</course><hAcc>4.749211</hAcc><vAcc>3.357012</vAcc></extensions></trkpt>
      <trkpt lon="-123.277534" lat="44.562142"><ele>70.157181</ele><time>2020-11-30T06:18:41Z</time><extensions><speed>0.000000</speed><course>158.840332</course><hAcc>4.749303</hAcc><vAcc>3.356883</vAcc></extensions></trkpt>
      <trkpt lon="-123.277534" lat="44.562142"><ele>70.157181</ele><time>2020-11-30T06:18:42Z</time><extensions><speed>0.000000</speed><course>158.840332</course><hAcc>4.749163</hAcc><vAcc>3.357080</vAcc></extensions></trkpt>
      <trkpt lon="-123.277534" lat="44.562142"><ele>70.157181</ele><time>2020-11-30T06:18:43Z</time><extensions><speed>0.000000</speed><course>158.840332</course><hAcc>4.749326</hAcc><vAcc>3.356850</vAcc></extensions></trkpt>
      <trkpt lon="-123.277534" lat="44.562142"><ele>70.157181</ele><time>2020-11-30T06:18:44Z</time><extensions><speed>0.000000</speed><course>158.840332</course><hAcc>4.749207</hAcc><vAcc>3.357019</vAcc></extensions></trkpt>
      <trkpt lon="-123.277534" lat="44.562142"><ele>70.157181</ele><time>2020-11-30T06:18:45Z</time><extensions><speed>0.000000</speed><course>158.840332</course><hAcc>4.748416</hAcc><vAcc>3.358137</vAcc></extensions></trkpt>
    </trkseg>
  </trk>
</gpx>