<?xml version="1.0" encoding="UTF-8"?>
<gpx version="1.1" creator="Apple Health Export" xmlns="http://www.topografix.com/GPX/1/1" xmlns:xsi="http://www.w3.org/2001/XMLSchema-instance" xsi:schemaLocation="http://www.topografix.com/GPX/1/1 http://www.topografix.com/GPX/1/1/gpx.xsd">
  <metadata>
    <time>2021-02-21T19:24:47Z</time>
  </metadata>
  <trk>
    <name>Route 2020-09-29 5:44pm</name>
    <trkseg>
      <trkpt lon="-123.279395" lat="44.563384"><ele>71.424812</ele><time>2020-09-30T00:39:04Z</time><extensions><speed>2.430000</speed><course>180.703125</course><hAcc>30.000000</hAcc><vAcc>32.000000</vAcc></extensions></trkpt>
      <trkpt lon="-123.279395" lat="44.563360"><ele>72.508858</ele><time>2020-09-30T00:39:05Z</time><extensions><speed>2.430000</speed><course>180.703125</course><hAcc>30.000000</hAcc><vAcc>32.000000</vAcc></extensions></trkpt>
      <trkpt lon="-123.279403" lat="44.563357"><ele>86.341560</ele><time>2020-09-30T00:39:10Z</time><extensions><speed>0.930000</speed><course>247.851562</course><hAcc>5.000000</hAcc><vAcc>8.000000</vAcc></extensions></trkpt>
      <trkpt lon="-123.279452" lat="44.563333"><ele>83.400093</ele><time>2020-09-30T00:39:11Z</time><extensions><speed>1.650000</speed><course>215.156250</course><hAcc>5.000000</hAcc><vAcc>6.000000</vAcc></extensions></trkpt>
      <trkpt lon="-123.279471" lat="44.563260"><ele>73.733467</ele><time>2020-09-30T00:39:12Z</time><extensions><speed>1.650000</speed><course>195.468750</course><hAcc>5.000000</hAcc><vAcc>4.000000</vAcc></extensions></trkpt>
      <trkpt lon="-123.279486" lat="44.563233"><ele>75.702950</ele><time>2020-09-30T00:39:13Z</time><extensions><speed>2.450000</speed><course>198.984375</course><hAcc>5.000000</hAcc><vAcc>6.000000</vAcc></extensions></trkpt>
      <trkpt lon="-123.279486" lat="44.563339"><ele>71.909737</ele><time>2020-09-30T00:39:14Z</time><extensions><speed>4.560000</speed><course>301.640625</course><hAcc>5.000000</hAcc><vAcc>8.000000</vAcc></extensions></trkpt>
      <trkpt lon="-123.279536" lat="44.563347"><ele>72.499092</ele><time>2020-09-30T00:39:15Z</time><extensions><speed>4.560000</speed><course>300.585938</course><hAcc>5.000000</hAcc><vAcc>4.000000</vAcc></extensions></trkpt>
      <trkpt lon="-123.279582" lat="44.563372"><ele>71.645271</ele><time>2020-09-30T00:39:16Z</time><extensions><speed>4.560000</speed><course>315.351562</course><hAcc>5.000000</hAcc><vAcc>3.000000</vAcc></extensions></trkpt>
      <trkpt lon="-123.279616" lat="44.563403"><ele>69.688362</ele><time>2020-09-30T00:39:17Z</time><extensions><speed>4.580000</speed><course>347.695312</course><hAcc>5.000000</hAcc><vAcc>3.000000</vAcc></extensions></trkpt>
      <trkpt lon="-123.279641" lat="44.563441"><ele>71.180916</ele><time>2020-09-30T00:39:18Z</time><extensions><speed>5.340000</speed><course>337.851562</course><hAcc>5.000000</hAcc><vAcc>3.000000</vAcc></extensions></trkpt>
      <trkpt lon="-123.279658" lat="44.563489"><ele>71.538338</ele><time>2020-09-30T00:39:19Z</time><extensions><speed>6.030000</speed><course>343.828125</course><hAcc>5.000000</hAcc><vAcc>3.000000</vAcc></extensions></trkpt>
      <trkpt lon="-123.279678" lat="44.563544"><ele>71.223457</ele><time>2020-09-30T00:39:20Z</time><extensions><speed>6.690000</speed><course>337.500000</course><hAcc>5.000000</hAcc><vAcc>3.000000</vAcc></extensions></trkpt>
      <trkpt lon="-123.279702" lat="44.563600"><ele>71.205208</ele><time>2020-09-30T00:39:21Z</time><extensions><speed>6.510000</speed><course>342.773438</course><hAcc>5.000000</hAcc><vAcc>3.000000</vAcc></extensions></trkpt>
      <trkpt lon="-123.279726" lat="44.563658"><ele>70.900581</ele><time>2020-09-30T00:39:22Z</time><extensions><speed>6.690000</speed><course>345.585938</course><hAcc>5.000000</hAcc><vAcc>3.000000</vAcc></extensions></trkpt>
      <trkpt lon="-123.279749" lat="44.563717"><ele>70.733345</ele><time>2020-09-30T00:39:23Z</time><extensions><speed>6.730000</speed><course>343.828125</course><hAcc>5.000000</hAcc><vAcc>3.000000</vAcc></extensions></trkpt>
      <trkpt lon="-123.279774" lat="44.563773"><ele>71.220284</ele><time>2020-09-30T00:39:24Z</time><extensions><speed>6.560000</speed><course>337.500000</course><hAcc>5.000000</hAcc><vAcc>3.000000</vAcc></extensions></trkpt>
      <trkpt lon="-123.279798" lat="44.563814"><ele>71.705269</ele><time>2020-09-30T00:39:25Z</time><extensions><speed>6.560000</speed><course>339.257812</course><hAcc>5.000000</hAcc><vAcc>3.000000</vAcc></extensions></trkpt>
      <trkpt lon="-123.279828" lat="44.563867"><ele>73.509468</ele><time>2020-09-30T00:39:26Z</time><extensions><speed>6.380000</speed><course>337.148438</course><hAcc>5.000000</hAcc><vAcc>3.000000</vAcc></extensions></trkpt>
      <trkpt lon="-123.279835" lat="44.563926"><ele>73.806831</ele><time>2020-09-30T00:39:27Z</time><extensions><speed>6.380000</speed><course>344.882812</course><hAcc>5.000000</hAcc><vAcc>3.000000</vAcc></extensions></trkpt>
      <trkpt lon="-123.279852" lat="44.563990"><ele>73.921089</ele><time>2020-09-30T00:39:28Z</time><extensions><speed>6.380000</speed><course>348.750000</course><hAcc>5.000000</hAcc><vAcc>3.000000</vAcc></extensions></trkpt>
      <trkpt lon="-123.279869" lat="44.564052"><ele>74.386482</ele><time>2020-09-30T00:39:29Z</time><extensions><speed>6.760000</speed><course>346.992188</course><hAcc>5.000000</hAcc><vAcc>3.000000</vAcc></extensions></trkpt>
      <trkpt lon="-123.279880" lat="44.564099"><ele>74.098824</ele><time>2020-09-30T00:39:30Z</time><extensions><speed>6.760000</speed><course>350.507812</course><hAcc>5.000000</hAcc><vAcc>3.000000</vAcc></extensions></trkpt>
      <trkpt lon="-123.279886" lat="44.564153"><ele>73.892464</ele><time>2020-09-30T00:39:31Z</time><extensions><speed>6.390000</speed><course>351.914062</course><hAcc>5.000000</hAcc><vAcc>3.000000</vAcc></extensions></trkpt>
      <trkpt lon="-123.279902" lat="44.564208"><ele>73.829048</ele><time>2020-09-30T00:39:32Z</time><extensions><speed>6.390000</speed><course>349.804688</course><hAcc>5.000000</hAcc><vAcc>3.000000</vAcc></extensions></trkpt>
      <trkpt lon="-123.279895" lat="44.564262"><ele>73.797798</ele><time>2020-09-30T00:39:33Z</time><extensions><speed>6.290000</speed><course>358.945312</course><hAcc>5.000000</hAcc><vAcc>3.000000</vAcc></extensions></trkpt>
      <trkpt lon="-123.279902" lat="44.564316"><ele>73.979424</ele><time>2020-09-30T00:39:34Z</time><extensions><speed>6.090000</speed><course>356.132812</course><hAcc>5.000000</hAcc><vAcc>3.000000</vAcc></extensions></trkpt>
      <trkpt lon="-123.279926" lat="44.564376"><ele>73.822815</ele><time>2020-09-30T00:39:35Z</time><extensions><speed>6.090000</speed><course>350.859375</course><hAcc>5.000000</hAcc><vAcc>3.000000</vAcc></extensions></trkpt>
      <trkpt lon="-123.279937" lat="44.564430"><ele>73.530548</ele><time>2020-09-30T00:39:36Z</time><extensions><speed>6.090000</speed><course>352.265625</course><hAcc>5.000000</hAcc><vAcc>3.000000</vAcc></extensions></trkpt>
      <trkpt lon="-123.279931" lat="44.564481"><ele>73.944969</ele><time>2020-09-30T00:39:37Z</time><extensions><speed>6.020000</speed><course>357.187500</course><hAcc>5.000000</hAcc><vAcc>3.000000</vAcc></extensions></trkpt>
      <trkpt lon="-123.279933" lat="44.564536"><ele>73.511192</ele><time>2020-09-30T00:39:38Z</time><extensions><speed>6.060000</speed><course>355.781250</course><hAcc>5.000000</hAcc><vAcc>3.000000</vAcc></extensions></trkpt>
      <trkpt lon="-123.279921" lat="44.564588"><ele>73.982140</ele><time>2020-09-30T00:39:39Z</time><extensions><speed>6.110000</speed><course>356.835938</course><hAcc>5.000000</hAcc><vAcc>3.000000</vAcc></extensions></trkpt>
      <trkpt lon="-123.279932" lat="44.564650"><ele>73.828033</ele><time>2020-09-30T00:39:40Z</time><extensions><speed>6.820000</speed><course>358.242188</course><hAcc>5.000000</hAcc><vAcc>3.000000</vAcc></extensions></trkpt>
      <trkpt lon="-123.279932" lat="44.564712"><ele>74.290382</ele><time>2020-09-30T00:39:41Z</time><extensions><speed>6.820000</speed><course>355.781250</course><hAcc>5.000000</hAcc><vAcc>3.000000</vAcc></extensions></trkpt>
      <trkpt lon="-123.279934" lat="44.564776"><ele>74.018608</ele><time>2020-09-30T00:39:42Z</time><extensions><speed>6.820000</speed><course>357.539062</course><hAcc>5.000000</hAcc><vAcc>3.000000</vAcc></extensions></trkpt>
      <trkpt lon="-123.279943" lat="44.564836"><ele>74.141640</ele><time>2020-09-30T00:39:43Z</time><extensions><speed>6.510000</speed><course>357.187500</course><hAcc>5.000000</hAcc><vAcc>3.000000</vAcc></extensions></trkpt>
      <trkpt lon="-123.279952" lat="44.564897"><ele>74.047195</ele><time>2020-09-30T00:39:44Z</time><extensions><speed>6.210000</speed><course>355.781250</course><hAcc>5.000000</hAcc><vAcc>3.000000</vAcc></extensions></trkpt>
      <trkpt lon="-123.279981" lat="44.564939"><ele>74.844734</ele><time>2020-09-30T00:39:45Z</time><extensions><speed>6.210000</speed><course>352.617188</course><hAcc>5.000000</hAcc><vAcc>3.000000</vAcc></extensions></trkpt>
      <trkpt lon="-123.279973" lat="44.564987"><ele>75.007652</ele><time>2020-09-30T00:39:46Z</time><extensions><speed>5.930000</speed><course>2.812500</course><hAcc>5.000000</hAcc><vAcc>3.000000</vAcc></extensions></trkpt>
      <trkpt lon="-123.279964" lat="44.565036"><ele>74.558746</ele><time>2020-09-30T00:39:47Z</time><extensions><speed>5.260000</speed><course>0.000000</course><hAcc>5.000000</hAcc><vAcc>3.000000</vAcc></extensions></trkpt>
      <trkpt lon="-123.279968" lat="44.565093"><ele>74.677856</ele><time>2020-09-30T00:39:48Z</time><extensions><speed>5.260000</speed><course>358.945312</course><hAcc>5.000000</hAcc><vAcc>3.000000</vAcc></extensions></trkpt>
      <trkpt lon="-123.279968" lat="44.565153"><ele>74.511192</ele><time>2020-09-30T00:39:49Z</time><extensions><speed>6.070000</speed><course>0.703125</course><hAcc>5.000000</hAcc><vAcc>3.000000</vAcc></extensions></trkpt>
      <trkpt lon="-123.279961" lat="44.565206"><ele>74.759567</ele><time>2020-09-30T00:39:50Z</time><extensions><speed>6.070000</speed><course>3.164062</course><hAcc>5.000000</hAcc><vAcc>3.000000</vAcc></extensions></trkpt>
      <trkpt lon="-123.279955" lat="44.565268"><ele>74.535622</ele><time>2020-09-30T00:39:51Z</time><extensions><speed>5.940000</speed><course>358.593750</course><hAcc>5.000000</hAcc><vAcc>3.000000</vAcc></extensions></trkpt>
      <trkpt lon="-123.279961" lat="44.565314"><ele>74.567917</ele><time>2020-09-30T00:39:52Z</time><extensions><speed>5.790000</speed><course>358.593750</course><hAcc>5.000000</hAcc><vAcc>4.000000</vAcc></extensions></trkpt>
      <trkpt lon="-123.279974" lat="44.565374"><ele>74.604332</ele><time>2020-09-30T00:39:53Z</time><extensions><speed>5.940000</speed><course>359.648438</course><hAcc>5.000000</hAcc><vAcc>4.000000</vAcc></extensions></trkpt>
      <trkpt lon="-123.279992" lat="44.565411"><ele>74.616394</ele><time>2020-09-30T00:39:54Z</time><extensions><speed>5.400000</speed><course>359.648438</course><hAcc>5.000000</hAcc><vAcc>4.000000</vAcc></extensions></trkpt>
      <trkpt lon="-123.279974" lat="44.565465"><ele>74.292534</ele><time>2020-09-30T00:39:55Z</time><extensions><speed>6.000000</speed><course>3.164062</course><hAcc>5.000000</hAcc><vAcc>4.000000</vAcc></extensions></trkpt>
      <trkpt lon="-123.279950" lat="44.565521"><ele>74.336037</ele><time>2020-09-30T00:39:56Z</time><extensions><speed>6.000000</speed><course>5.273438</course><hAcc>5.000000</hAcc><vAcc>4.000000</vAcc></extensions></trkpt>
      <trkpt lon="-123.279941" lat="44.565576"><ele>74.101036</ele><time>2020-09-30T00:39:57Z</time><extensions><speed>6.000000</speed><course>3.164062</course><hAcc>5.000000</hAcc><vAcc>4.000000</vAcc></extensions></trkpt>
      <trkpt lon="-123.279937" lat="44.565631"><ele>74.472702</ele><time>2020-09-30T00:39:58Z</time><extensions><speed>6.140000</speed><course>0.703125</course><hAcc>5.000000</hAcc><vAcc>3.000000</vAcc></extensions></trkpt>
      <trkpt lon="-123.279936" lat="44.565687"><ele>74.406715</ele><time>2020-09-30T00:39:59Z</time><extensions><speed>6.440000</speed><course>357.539062</course><hAcc>5.000000</hAcc><vAcc>3.000000</vAcc></extensions></trkpt>
      <trkpt lon="-123.279947" lat="44.565746"><ele>74.840309</ele><time>2020-09-30T00:40:00Z</time><extensions><speed>6.900000</speed><course>356.132812</course><hAcc>5.000000</hAcc><vAcc>4.000000</vAcc></extensions></trkpt>
      <trkpt lon="-123.279951" lat="44.565811"><ele>74.837051</ele><time>2020-09-30T00:40:01Z</time><extensions><speed>6.900000</speed><course>358.593750</course><hAcc>5.000000</hAcc><vAcc>3.000000</vAcc></extensions></trkpt>
      <trkpt lon="-123.279956" lat="44.565878"><ele>74.708260</ele><time>2020-09-30T00:40:02Z</time><extensions><speed>7.130000</speed><course>0.351562</course><hAcc>5.000000</hAcc><vAcc>3.000000</vAcc></extensions></trkpt>
      <trkpt lon="-123.279960" lat="44.565955"><ele>74.836182</ele><time>2020-09-30T00:40:03Z</time><extensions><speed>7.600000</speed><course>358.593750</course><hAcc>5.000000</hAcc><vAcc>3.000000</vAcc></extensions></trkpt>
      <trkpt lon="-123.279971" lat="44.566037"><ele>75.105293</ele><time>2020-09-30T00:40:04Z</time><extensions><speed>8.630000</speed><course>352.617188</course><hAcc>5.000000</hAcc><vAcc>3.000000</vAcc></extensions></trkpt>
      <trkpt lon="-123.279974" lat="44.566110"><ele>75.038055</ele><time>2020-09-30T00:40:05Z</time><extensions><speed>8.000000</speed><course>354.726562</course><hAcc>5.000000</hAcc><vAcc>3.000000</vAcc></extensions></trkpt>
      <trkpt lon="-123.279982" lat="44.566186"><ele>75.208344</ele><time>2020-09-30T00:40:06Z</time><extensions><speed>8.770000</speed><course>354.726562</course><hAcc>5.000000</hAcc><vAcc>3.000000</vAcc></extensions></trkpt>
      <trkpt lon="-123.279981" lat="44.566265"><ele>74.845383</ele><time>2020-09-30T00:40:07Z</time><extensions><speed>8.930000</speed><course>359.296875</course><hAcc>5.000000</hAcc><vAcc>3.000000</vAcc></extensions></trkpt>
      <trkpt lon="-123.279986" lat="44.566346"><ele>74.899902</ele><time>2020-09-30T00:40:08Z</time><extensions><speed>8.820000</speed><course>355.781250</course><hAcc>5.000000</hAcc><vAcc>3.000000</vAcc></extensions></trkpt>
      <trkpt lon="-123.279978" lat="44.566414"><ele>75.223015</ele><time>2020-09-30T00:40:09Z</time><extensions><speed>8.370000</speed><course>359.648438</course><hAcc>5.000000</hAcc><vAcc>4.000000</vAcc></extensions></trkpt>
      <trkpt lon="-123.279970" lat="44.566497"><ele>75.352127</ele><time>2020-09-30T00:40:10Z</time><extensions><speed>8.910000</speed><course>358.593750</course><hAcc>5.000000</hAcc><vAcc>3.000000</vAcc></extensions></trkpt>
      <trkpt lon="-123.279976" lat="44.566575"><ele>75.359848</ele><time>2020-09-30T00:40:11Z</time><extensions><speed>8.820000</speed><course>0.351562</course><hAcc>5.000000</hAcc><vAcc>4.000000</vAcc></extensions></trkpt>
      <trkpt lon="-123.279981" lat="44.566660"><ele>75.271263</ele><time>2020-09-30T00:40:12Z</time><extensions><speed>8.260000</speed><course>356.835938</course><hAcc>5.000000</hAcc><vAcc>4.000000</vAcc></extensions></trkpt>
      <trkpt lon="-123.279979" lat="44.566736"><ele>75.833557</ele><time>2020-09-30T00:40:13Z</time><extensions><speed>8.320000</speed><course>356.835938</course><hAcc>5.000000</hAcc><vAcc>4.000000</vAcc></extensions></trkpt>
      <trkpt lon="-123.279973" lat="44.566815"><ele>76.458588</ele><time>2020-09-30T00:40:14Z</time><extensions><speed>8.430000</speed><course>358.945312</course><hAcc>5.000000</hAcc><vAcc>4.000000</vAcc></extensions></trkpt>
      <trkpt lon="-123.279957" lat="44.566892"><ele>76.032921</ele><time>2020-09-30T00:40:15Z</time><extensions><speed>7.720000</speed><course>358.593750</course><hAcc>5.000000</hAcc><vAcc>4.000000</vAcc></extensions></trkpt>
      <trkpt lon="-123.279959" lat="44.566961"><ele>75.849266</ele><time>2020-09-30T00:40:16Z</time><extensions><speed>7.720000</speed><course>358.593750</course><hAcc>5.000000</hAcc><vAcc>4.000000</vAcc></extensions></trkpt>
      <trkpt lon="-123.279976" lat="44.567034"><ele>74.321762</ele><time>2020-09-30T00:40:17Z</time><extensions><speed>7.230000</speed><course>358.242188</course><hAcc>5.000000</hAcc><vAcc>4.000000</vAcc></extensions></trkpt>
      <trkpt lon="-123.279966" lat="44.567119"><ele>74.223923</ele><time>2020-09-30T00:40:18Z</time><extensions><speed>8.630000</speed><course>2.460938</course><hAcc>5.000000</hAcc><vAcc>4.000000</vAcc></extensions></trkpt>
      <trkpt lon="-123.279961" lat="44.567197"><ele>74.137062</ele><time>2020-09-30T00:40:19Z</time><extensions><speed>8.630000</speed><course>2.460938</course><hAcc>5.000000</hAcc><vAcc>4.000000</vAcc></extensions></trkpt>
      <trkpt lon="-123.279941" lat="44.567287"><ele>77.179108</ele><time>2020-09-30T00:40:20Z</time><extensions><speed>8.160000</speed><course>4.921875</course><hAcc>5.000000</hAcc><vAcc>4.000000</vAcc></extensions></trkpt>
      <trkpt lon="-123.279941" lat="44.567358"><ele>77.267662</ele><time>2020-09-30T00:40:21Z</time><extensions><speed>7.670000</speed><course>0.000000</course><hAcc>5.000000</hAcc><vAcc>4.000000</vAcc></extensions></trkpt>
      <trkpt lon="-123.279941" lat="44.567428"><ele>77.169868</ele><time>2020-09-30T00:40:22Z</time><extensions><speed>7.670000</speed><course>0.000000</course><hAcc>5.000000</hAcc><vAcc>4.000000</vAcc></extensions></trkpt>
      <trkpt lon="-123.279950" lat="44.567508"><ele>77.288376</ele><time>2020-09-30T00:40:23Z</time><extensions><speed>7.750000</speed><course>356.484375</course><hAcc>5.000000</hAcc><vAcc>4.000000</vAcc></extensions></trkpt>
      <trkpt lon="-123.279963" lat="44.567577"><ele>77.143425</ele><time>2020-09-30T00:40:24Z</time><extensions><speed>7.730000</speed><course>356.132812</course><hAcc>5.000000</hAcc><vAcc>4.000000</vAcc></extensions></trkpt>
      <trkpt lon="-123.279959" lat="44.567631"><ele>77.468102</ele><time>2020-09-30T00:40:25Z</time><extensions><speed>6.840000</speed><course>2.460938</course><hAcc>5.000000</hAcc><vAcc>4.000000</vAcc></extensions></trkpt>
      <trkpt lon="-123.279953" lat="44.567702"><ele>77.060204</ele><time>2020-09-30T00:40:26Z</time><extensions><speed>7.930000</speed><course>2.109375</course><hAcc>5.000000</hAcc><vAcc>4.000000</vAcc></extensions></trkpt>
      <trkpt lon="-123.279950" lat="44.567764"><ele>76.991745</ele><time>2020-09-30T00:40:27Z</time><extensions><speed>8.140000</speed><course>5.976562</course><hAcc>5.000000</hAcc><vAcc>4.000000</vAcc></extensions></trkpt>
      <trkpt lon="-123.279922" lat="44.567834"><ele>76.938728</ele><time>2020-09-30T00:40:28Z</time><extensions><speed>9.180000</speed><course>3.867188</course><hAcc>5.000000</hAcc><vAcc>4.000000</vAcc></extensions></trkpt>
      <trkpt lon="-123.279916" lat="44.567907"><ele>77.012589</ele><time>2020-09-30T00:40:29Z</time><extensions><speed>7.120000</speed><course>357.890625</course><hAcc>5.000000</hAcc><vAcc>4.000000</vAcc></extensions></trkpt>
      <trkpt lon="-123.279915" lat="44.567975"><ele>76.935150</ele><time>2020-09-30T00:40:30Z</time><extensions><speed>6.940000</speed><course>1.406250</course><hAcc>5.000000</hAcc><vAcc>4.000000</vAcc></extensions></trkpt>
      <trkpt lon="-123.279913" lat="44.568037"><ele>77.005142</ele><time>2020-09-30T00:40:31Z</time><extensions><speed>6.920000</speed><course>1.406250</course><hAcc>5.000000</hAcc><vAcc>4.000000</vAcc></extensions></trkpt>
      <trkpt lon="-123.279940" lat="44.568120"><ele>76.950401</ele><time>2020-09-30T00:40:32Z</time><extensions><speed>7.400000</speed><course>351.210938</course><hAcc>5.000000</hAcc><vAcc>4.000000</vAcc></extensions></trkpt>
      <trkpt lon="-123.279966" lat="44.568171"><ele>76.793945</ele><time>2020-09-30T00:40:33Z</time><extensions><speed>7.600000</speed><course>354.375000</course><hAcc>5.000000</hAcc><vAcc>4.000000</vAcc></extensions></trkpt>
      <trkpt lon="-123.279974" lat="44.568239"><ele>76.844933</ele><time>2020-09-30T00:40:34Z</time><extensions><speed>7.610000</speed><course>354.375000</course><hAcc>5.000000</hAcc><vAcc>4.000000</vAcc></extensions></trkpt>
      <trkpt lon="-123.279982" lat="44.568308"><ele>76.925400</ele><time>2020-09-30T00:40:35Z</time><extensions><speed>7.750000</speed><course>357.539062</course><hAcc>5.000000</hAcc><vAcc>4.000000</vAcc></extensions></trkpt>
      <trkpt lon="-123.279990" lat="44.568378"><ele>76.845276</ele><time>2020-09-30T00:40:36Z</time><extensions><speed>7.600000</speed><course>356.835938</course><hAcc>5.000000</hAcc><vAcc>4.000000</vAcc></extensions></trkpt>
      <trkpt lon="-123.280027" lat="44.568427"><ele>76.783928</ele><time>2020-09-30T00:40:37Z</time><extensions><speed>7.420000</speed><course>353.320312</course><hAcc>5.000000</hAcc><vAcc>4.000000</vAcc></extensions></trkpt>
      <trkpt lon="-123.280035" lat="44.568491"><ele>77.033905</ele><time>2020-09-30T00:40:38Z</time><extensions><speed>7.110000</speed><course>356.835938</course><hAcc>5.000000</hAcc><vAcc>4.000000</vAcc></extensions></trkpt>
      <trkpt lon="-123.280040" lat="44.568554"><ele>76.821671</ele><time>2020-09-30T00:40:39Z</time><extensions><speed>7.100000</speed><course>356.835938</course><hAcc>5.000000</hAcc><vAcc>4.000000</vAcc></extensions></trkpt>
      <trkpt lon="-123.280046" lat="44.568620"><ele>76.639633</ele><time>2020-09-30T00:40:40Z</time><extensions><speed>7.470000</speed><course>356.835938</course><hAcc>5.000000</hAcc><vAcc>4.000000</vAcc></extensions></trkpt>
      <trkpt lon="-123.280056" lat="44.568690"><ele>76.847206</ele><time>2020-09-30T00:40:41Z</time><extensions><speed>7.090000</speed><course>356.132812</course><hAcc>5.000000</hAcc><vAcc>4.000000</vAcc></extensions></trkpt>
      <trkpt lon="-123.280062" lat="44.568745"><ele>76.722839</ele><time>2020-09-30T00:40:42Z</time><extensions><speed>6.590000</speed><course>0.703125</course><hAcc>5.000000</hAcc><vAcc>4.000000</vAcc></extensions></trkpt>
      <trkpt lon="-123.280051" lat="44.568805"><ele>76.650879</ele><time>2020-09-30T00:40:43Z</time><extensions><speed>6.760000</speed><course>358.945312</course><hAcc>5.000000</hAcc><vAcc>4.000000</vAcc></extensions></trkpt>
      <trkpt lon="-123.280054" lat="44.568874"><ele>76.708191</ele><time>2020-09-30T00:40:44Z</time><extensions><speed>7.290000</speed><course>1.406250</course><hAcc>5.000000</hAcc><vAcc>4.000000</vAcc></extensions></trkpt>
      <trkpt lon="-123.280031" lat="44.568936"><ele>76.528008</ele><time>2020-09-30T00:40:45Z</time><extensions><speed>6.990000</speed><course>7.031250</course><hAcc>5.000000</hAcc><vAcc>4.000000</vAcc></extensions></trkpt>
      <trkpt lon="-123.280027" lat="44.568994"><ele>76.596733</ele><time>2020-09-30T00:40:46Z</time><extensions><speed>6.970000</speed><course>357.890625</course><hAcc>5.000000</hAcc><vAcc>4.000000</vAcc></extensions></trkpt>
      <trkpt lon="-123.280036" lat="44.569055"><ele>76.789421</ele><time>2020-09-30T00:40:47Z</time><extensions><speed>6.780000</speed><course>352.968750</course><hAcc>5.000000</hAcc><vAcc>4.000000</vAcc></extensions></trkpt>
      <trkpt lon="-123.280053" lat="44.569113"><ele>77.018890</ele><time>2020-09-30T00:40:48Z</time><extensions><speed>6.620000</speed><course>345.585938</course><hAcc>5.000000</hAcc><vAcc>4.000000</vAcc></extensions></trkpt>
      <trkpt lon="-123.280086" lat="44.569169"><ele>76.987854</ele><time>2020-09-30T00:40:49Z</time><extensions><speed>6.000000</speed><course>339.960938</course><hAcc>10.000000</hAcc><vAcc>4.000000</vAcc></extensions></trkpt>
      <trkpt lon="-123.280112" lat="44.569220"><ele>76.989624</ele><time>2020-09-30T00:40:50Z</time><extensions><speed>6.010000</speed><course>339.960938</course><hAcc>10.000000</hAcc><vAcc>4.000000</vAcc></extensions></trkpt>
      <trkpt lon="-123.280196" lat="44.569275"><ele>76.826538</ele><time>2020-09-30T00:40:51Z</time><extensions><speed>6.040000</speed><course>323.789062</course><hAcc>5.000000</hAcc><vAcc>4.000000</vAcc></extensions></trkpt>
      <trkpt lon="-123.280227" lat="44.569313"><ele>76.660301</ele><time>2020-09-30T00:40:52Z</time><extensions><speed>5.550000</speed><course>324.140625</course><hAcc>10.000000</hAcc><vAcc>4.000000</vAcc></extensions></trkpt>
      <trkpt lon="-123.280300" lat="44.569360"><ele>76.948189</ele><time>2020-09-30T00:40:53Z</time><extensions><speed>6.930000</speed><course>315.351562</course><hAcc>10.000000</hAcc><vAcc>4.000000</vAcc></extensions></trkpt>
      <trkpt lon="-123.280387" lat="44.569414"><ele>77.054733</ele><time>2020-09-30T00:40:54Z</time><extensions><speed>6.930000</speed><course>322.734375</course><hAcc>5.000000</hAcc><vAcc>4.000000</vAcc></extensions></trkpt>
      <trkpt lon="-123.280450" lat="44.569464"><ele>76.799583</ele><time>2020-09-30T00:40:55Z</time><extensions><speed>6.930000</speed><course>327.304688</course><hAcc>5.000000</hAcc><vAcc>4.000000</vAcc></extensions></trkpt>
      <trkpt lon="-123.280490" lat="44.569527"><ele>76.920555</ele><time>2020-09-30T00:40:56Z</time><extensions><speed>6.630000</speed><course>327.304688</course><hAcc>5.000000</hAcc><vAcc>4.000000</vAcc></extensions></trkpt>
      <trkpt lon="-123.280543" lat="44.569579"><ele>76.746056</ele><time>2020-09-30T00:40:57Z</time><extensions><speed>6.800000</speed><course>322.734375</course><hAcc>5.000000</hAcc><vAcc>4.000000</vAcc></extensions></trkpt>
      <trkpt lon="-123.280595" lat="44.569628"><ele>76.883934</ele><time>2020-09-30T00:40:58Z</time><extensions><speed>6.810000</speed><course>322.734375</course><hAcc>5.000000</hAcc><vAcc>4.000000</vAcc></extensions></trkpt>
      <trkpt lon="-123.280664" lat="44.569670"><ele>77.040878</ele><time>2020-09-30T00:40:59Z</time><extensions><speed>6.800000</speed><course>319.218750</course><hAcc>5.000000</hAcc><vAcc>4.000000</vAcc></extensions></trkpt>
      <trkpt lon="-123.280776" lat="44.569688"><ele>76.915169</ele><time>2020-09-30T00:41:00Z</time><extensions><speed>6.760000</speed><course>319.570312</course><hAcc>5.000000</hAcc><vAcc>4.000000</vAcc></extensions></trkpt>
      <trkpt lon="-123.280829" lat="44.569733"><ele>77.076233</ele><time>2020-09-30T00:41:01Z</time><extensions><speed>6.570000</speed><course>318.164062</course><hAcc>5.000000</hAcc><vAcc>4.000000</vAcc></extensions></trkpt>
      <trkpt lon="-123.280882" lat="44.569784"><ele>77.037941</ele><time>2020-09-30T00:41:02Z</time><extensions><speed>6.620000</speed><course>324.492188</course><hAcc>5.000000</hAcc><vAcc>4.000000</vAcc></extensions></trkpt>
      <trkpt lon="-123.280939" lat="44.569826"><ele>77.063187</ele><time>2020-09-30T00:41:03Z</time><extensions><speed>6.630000</speed><course>321.328125</course><hAcc>5.000000</hAcc><vAcc>4.000000</vAcc></extensions></trkpt>
      <trkpt lon="-123.281007" lat="44.569870"><ele>76.812958</ele><time>2020-09-30T00:41:04Z</time><extensions><speed>7.380000</speed><course>316.757812</course><hAcc>5.000000</hAcc><vAcc>3.000000</vAcc></extensions></trkpt>
      <trkpt lon="-123.281074" lat="44.569920"><ele>77.187531</ele><time>2020-09-30T00:41:05Z</time><extensions><speed>6.810000</speed><course>316.406250</course><hAcc>5.000000</hAcc><vAcc>4.000000</vAcc></extensions></trkpt>
      <trkpt lon="-123.281101" lat="44.569956"><ele>76.892311</ele><time>2020-09-30T00:41:06Z</time><extensions><speed>5.990000</speed><course>317.109375</course><hAcc>5.000000</hAcc><vAcc>4.000000</vAcc></extensions></trkpt>
      <trkpt lon="-123.281153" lat="44.569996"><ele>77.218216</ele><time>2020-09-30T00:41:07Z</time><extensions><speed>5.980000</speed><course>317.109375</course><hAcc>5.000000</hAcc><vAcc>4.000000</vAcc></extensions></trkpt>
      <trkpt lon="-123.281190" lat="44.570044"><ele>77.220764</ele><time>2020-09-30T00:41:08Z</time><extensions><speed>6.380000</speed><course>322.734375</course><hAcc>5.000000</hAcc><vAcc>4.000000</vAcc></extensions></trkpt>
      <trkpt lon="-123.281243" lat="44.570087"><ele>76.900925</ele><time>2020-09-30T00:41:09Z</time><extensions><speed>6.630000</speed><course>317.812500</course><hAcc>5.000000</hAcc><vAcc>4.000000</vAcc></extensions></trkpt>
      <trkpt lon="-123.281278" lat="44.570136"><ele>77.447556</ele><time>2020-09-30T00:41:10Z</time><extensions><speed>6.400000</speed><course>320.976562</course><hAcc>5.000000</hAcc><vAcc>4.000000</vAcc></extensions></trkpt>
      <trkpt lon="-123.281332" lat="44.570189"><ele>77.355240</ele><time>2020-09-30T00:41:11Z</time><extensions><speed>6.400000</speed><course>324.492188</course><hAcc>5.000000</hAcc><vAcc>4.000000</vAcc></extensions></trkpt>
      <trkpt lon="-123.281393" lat="44.570226"><ele>77.357018</ele><time>2020-09-30T00:41:12Z</time><extensions><speed>6.390000</speed><course>317.460938</course><hAcc>5.000000</hAcc><vAcc>3.000000</vAcc></extensions></trkpt>
      <trkpt lon="-123.281435" lat="44.570266"><ele>77.303970</ele><time>2020-09-30T00:41:13Z</time><extensions><speed>6.180000</speed><course>318.515625</course><hAcc>5.000000</hAcc><vAcc>4.000000</vAcc></extensions></trkpt>
      <trkpt lon="-123.281487" lat="44.570312"><ele>77.436874</ele><time>2020-09-30T00:41:14Z</time><extensions><speed>6.270000</speed><course>319.570312</course><hAcc>5.000000</hAcc><vAcc>4.000000</vAcc></extensions></trkpt>
      <trkpt lon="-123.281548" lat="44.570358"><ele>77.517273</ele><time>2020-09-30T00:41:15Z</time><extensions><speed>6.270000</speed><course>317.109375</course><hAcc>5.000000</hAcc><vAcc>4.000000</vAcc></extensions></trkpt>
      <trkpt lon="-123.281594" lat="44.570403"><ele>77.158791</ele><time>2020-09-30T00:41:16Z</time><extensions><speed>6.400000</speed><course>317.812500</course><hAcc>5.000000</hAcc><vAcc>3.000000</vAcc></extensions></trkpt>
      <trkpt lon="-123.281660" lat="44.570438"><ele>77.338753</ele><time>2020-09-30T00:41:17Z</time><extensions><speed>6.400000</speed><course>313.945312</course><hAcc>5.000000</hAcc><vAcc>3.000000</vAcc></extensions></trkpt>
      <trkpt lon="-123.281700" lat="44.570482"><ele>77.151451</ele><time>2020-09-30T00:41:18Z</time><extensions><speed>5.760000</speed><course>325.898438</course><hAcc>5.000000</hAcc><vAcc>3.000000</vAcc></extensions></trkpt>
      <trkpt lon="-123.281753" lat="44.570524"><ele>77.854935</ele><time>2020-09-30T00:41:19Z</time><extensions><speed>6.710000</speed><course>313.242188</course><hAcc>5.000000</hAcc><vAcc>4.000000</vAcc></extensions></trkpt>
      <trkpt lon="-123.281823" lat="44.570575"><ele>77.402573</ele><time>2020-09-30T00:41:20Z</time><extensions><speed>6.690000</speed><course>318.164062</course><hAcc>5.000000</hAcc><vAcc>4.000000</vAcc></extensions></trkpt>
      <trkpt lon="-123.281863" lat="44.570627"><ele>77.239723</ele><time>2020-09-30T00:41:21Z</time><extensions><speed>6.700000</speed><course>320.625000</course><hAcc>5.000000</hAcc><vAcc>4.000000</vAcc></extensions></trkpt>
      <trkpt lon="-123.281914" lat="44.570670"><ele>77.436897</ele><time>2020-09-30T00:41:22Z</time><extensions><speed>6.690000</speed><course>320.625000</course><hAcc>5.000000</hAcc><vAcc>3.000000</vAcc></extensions></trkpt>
      <trkpt lon="-123.281955" lat="44.570712"><ele>77.493187</ele><time>2020-09-30T00:41:23Z</time><extensions><speed>6.150000</speed><course>319.570312</course><hAcc>5.000000</hAcc><vAcc>3.000000</vAcc></extensions></trkpt>
      <trkpt lon="-123.282022" lat="44.570744"><ele>77.421539</ele><time>2020-09-30T00:41:24Z</time><extensions><speed>6.170000</speed><course>315.000000</course><hAcc>5.000000</hAcc><vAcc>3.000000</vAcc></extensions></trkpt>
      <trkpt lon="-123.282125" lat="44.570773"><ele>77.504524</ele><time>2020-09-30T00:41:25Z</time><extensions><speed>6.170000</speed><course>316.406250</course><hAcc>5.000000</hAcc><vAcc>4.000000</vAcc></extensions></trkpt>
      <trkpt lon="-123.282175" lat="44.570808"><ele>77.545410</ele><time>2020-09-30T00:41:26Z</time><extensions><speed>6.260000</speed><course>314.648438</course><hAcc>5.000000</hAcc><vAcc>4.000000</vAcc></extensions></trkpt>
      <trkpt lon="-123.282226" lat="44.570848"><ele>77.415886</ele><time>2020-09-30T00:41:27Z</time><extensions><speed>6.260000</speed><course>317.812500</course><hAcc>5.000000</hAcc><vAcc>4.000000</vAcc></extensions></trkpt>
      <trkpt lon="-123.282278" lat="44.570889"><ele>77.470810</ele><time>2020-09-30T00:41:28Z</time><extensions><speed>6.230000</speed><course>317.812500</course><hAcc>5.000000</hAcc><vAcc>4.000000</vAcc></extensions></trkpt>
      <trkpt lon="-123.282355" lat="44.570932"><ele>77.167641</ele><time>2020-09-30T00:41:29Z</time><extensions><speed>6.430000</speed><course>317.460938</course><hAcc>5.000000</hAcc><vAcc>4.000000</vAcc></extensions></trkpt>
      <trkpt lon="-123.282396" lat="44.570976"><ele>77.090927</ele><time>2020-09-30T00:41:30Z</time><extensions><speed>6.430000</speed><course>320.625000</course><hAcc>5.000000</hAcc><vAcc>4.000000</vAcc></extensions></trkpt>
      <trkpt lon="-123.282450" lat="44.571023"><ele>77.266243</ele><time>2020-09-30T00:41:31Z</time><extensions><speed>6.620000</speed><course>320.625000</course><hAcc>5.000000</hAcc><vAcc>4.000000</vAcc></extensions></trkpt>
      <trkpt lon="-123.282493" lat="44.571064"><ele>76.968849</ele><time>2020-09-30T00:41:32Z</time><extensions><speed>6.680000</speed><course>320.625000</course><hAcc>5.000000</hAcc><vAcc>4.000000</vAcc></extensions></trkpt>
      <trkpt lon="-123.282557" lat="44.571125"><ele>76.545685</ele><time>2020-09-30T00:41:33Z</time><extensions><speed>6.680000</speed><course>320.976562</course><hAcc>5.000000</hAcc><vAcc>4.000000</vAcc></extensions></trkpt>
      <trkpt lon="-123.282611" lat="44.571176"><ele>76.512054</ele><time>2020-09-30T00:41:34Z</time><extensions><speed>6.680000</speed><course>325.898438</course><hAcc>5.000000</hAcc><vAcc>4.000000</vAcc></extensions></trkpt>
      <trkpt lon="-123.282695" lat="44.571201"><ele>76.512291</ele><time>2020-09-30T00:41:35Z</time><extensions><speed>6.410000</speed><course>319.921875</course><hAcc>5.000000</hAcc><vAcc>4.000000</vAcc></extensions></trkpt>
      <trkpt lon="-123.282726" lat="44.571241"><ele>77.194115</ele><time>2020-09-30T00:41:36Z</time><extensions><speed>6.410000</speed><course>318.164062</course><hAcc>5.000000</hAcc><vAcc>4.000000</vAcc></extensions></trkpt>
      <trkpt lon="-123.282771" lat="44.571289"><ele>76.956795</ele><time>2020-09-30T00:41:37Z</time><extensions><speed>6.400000</speed><course>325.546875</course><hAcc>5.000000</hAcc><vAcc>4.000000</vAcc></extensions></trkpt>
      <trkpt lon="-123.282822" lat="44.571338"><ele>76.677673</ele><time>2020-09-30T00:41:38Z</time><extensions><speed>6.130000</speed><course>324.492188</course><hAcc>5.000000</hAcc><vAcc>3.000000</vAcc></extensions></trkpt>
      <trkpt lon="-123.282868" lat="44.571389"><ele>76.754021</ele><time>2020-09-30T00:41:39Z</time><extensions><speed>6.130000</speed><course>325.195312</course><hAcc>5.000000</hAcc><vAcc>4.000000</vAcc></extensions></trkpt>
      <trkpt lon="-123.282921" lat="44.571436"><ele>76.579826</ele><time>2020-09-30T00:41:40Z</time><extensions><speed>6.110000</speed><course>325.195312</course><hAcc>5.000000</hAcc><vAcc>4.000000</vAcc></extensions></trkpt>
      <trkpt lon="-123.282969" lat="44.571475"><ele>76.589760</ele><time>2020-09-30T00:41:41Z</time><extensions><speed>5.910000</speed><course>317.460938</course><hAcc>5.000000</hAcc><vAcc>4.000000</vAcc></extensions></trkpt>
      <trkpt lon="-123.283016" lat="44.571516"><ele>76.551750</ele><time>2020-09-30T00:41:42Z</time><extensions><speed>5.610000</speed><course>322.031250</course><hAcc>5.000000</hAcc><vAcc>4.000000</vAcc></extensions></trkpt>
      <trkpt lon="-123.283058" lat="44.571556"><ele>76.471512</ele><time>2020-09-30T00:41:43Z</time><extensions><speed>5.280000</speed><course>318.515625</course><hAcc>5.000000</hAcc><vAcc>4.000000</vAcc></extensions></trkpt>
      <trkpt lon="-123.283099" lat="44.571590"><ele>76.428207</ele><time>2020-09-30T00:41:44Z</time><extensions><speed>5.280000</speed><course>320.976562</course><hAcc>5.000000</hAcc><vAcc>3.000000</vAcc></extensions></trkpt>
      <trkpt lon="-123.283120" lat="44.571621"><ele>76.136322</ele><time>2020-09-30T00:41:45Z</time><extensions><speed>4.710000</speed><course>321.328125</course><hAcc>5.000000</hAcc><vAcc>3.000000</vAcc></extensions></trkpt>
      <trkpt lon="-123.283150" lat="44.571638"><ele>76.088821</ele><time>2020-09-30T00:41:46Z</time><extensions><speed>3.390000</speed><course>316.406250</course><hAcc>5.000000</hAcc><vAcc>3.000000</vAcc></extensions></trkpt>
      <trkpt lon="-123.283171" lat="44.571650"><ele>75.969139</ele><time>2020-09-30T00:41:47Z</time><extensions><speed>1.800000</speed><course>316.054688</course><hAcc>5.000000</hAcc><vAcc>3.000000</vAcc></extensions></trkpt>
      <trkpt lon="-123.283175" lat="44.571653"><ele>76.045090</ele><time>2020-09-30T00:41:48Z</time><extensions><speed>0.660000</speed><course>316.054688</course><hAcc>5.000000</hAcc><vAcc>3.000000</vAcc></extensions></trkpt>
      <trkpt lon="-123.283175" lat="44.571653"><ele>76.006477</ele><time>2020-09-30T00:41:49Z</time><extensions><speed>0.000000</speed><course>316.054688</course><hAcc>5.000000</hAcc><vAcc>3.000000</vAcc></extensions></trkpt>
      <trkpt lon="-123.283175" lat="44.571653"><ele>75.977158</ele><time>2020-09-30T00:41:50Z</time><extensions><speed>0.000000</speed><course>316.054688</course><hAcc>5.000000</hAcc><vAcc>3.000000</vAcc></extensions></trkpt>
      <trkpt lon="-123.283175" lat="44.571653"><ele>76.160355</ele><time>2020-09-30T00:41:51Z</time><extensions><speed>0.000000</speed><course>316.054688</course><hAcc>5.000000</hAcc><vAcc>3.000000</vAcc></extensions></trkpt>
      <trkpt lon="-123.283175" lat="44.571653"><ele>76.152016</ele><time>2020-09-30T00:41:52Z</time><extensions><speed>0.000000</speed><course>316.054688</course><hAcc>5.000000</hAcc><vAcc>3.000000</vAcc></extensions></trkpt>
      <trkpt lon="-123.283196" lat="44.571674"><ele>76.331680</ele><time>2020-09-30T00:41:53Z</time><extensions><speed>1.250000</speed><course>316.054688</course><hAcc>5.000000</hAcc><vAcc>3.000000</vAcc></extensions></trkpt>
      <trkpt lon="-123.283205" lat="44.571696"><ele>76.215134</ele><time>2020-09-30T00:41:54Z</time><extensions><speed>2.430000</speed><course>331.875000</course><hAcc>5.000000</hAcc><vAcc>3.000000</vAcc></extensions></trkpt>
      <trkpt lon="-123.283222" lat="44.571723"><ele>76.427895</ele><time>2020-09-30T00:41:55Z</time><extensions><speed>2.430000</speed><course>328.710938</course><hAcc>5.000000</hAcc><vAcc>3.000000</vAcc></extensions></trkpt>
      <trkpt lon="-123.283244" lat="44.571753"><ele>76.794258</ele><time>2020-09-30T00:41:56Z</time><extensions><speed>3.080000</speed><course>330.117188</course><hAcc>5.000000</hAcc><vAcc>3.000000</vAcc></extensions></trkpt>
      <trkpt lon="-123.283274" lat="44.571789"><ele>76.945526</ele><time>2020-09-30T00:41:57Z</time><extensions><speed>4.500000</speed><course>329.765625</course><hAcc>5.000000</hAcc><vAcc>3.000000</vAcc></extensions></trkpt>
      <trkpt lon="-123.283305" lat="44.571830"><ele>76.934624</ele><time>2020-09-30T00:41:58Z</time><extensions><speed>5.500000</speed><course>328.007812</course><hAcc>5.000000</hAcc><vAcc>3.000000</vAcc></extensions></trkpt>
      <trkpt lon="-123.283337" lat="44.571877"><ele>77.074547</ele><time>2020-09-30T00:41:59Z</time><extensions><speed>6.240000</speed><course>337.148438</course><hAcc>5.000000</hAcc><vAcc>3.000000</vAcc></extensions></trkpt>
      <trkpt lon="-123.283353" lat="44.571931"><ele>77.363213</ele><time>2020-09-30T00:42:00Z</time><extensions><speed>6.240000</speed><course>351.562500</course><hAcc>5.000000</hAcc><vAcc>3.000000</vAcc></extensions></trkpt>
      <trkpt lon="-123.283357" lat="44.571994"><ele>77.303581</ele><time>2020-09-30T00:42:01Z</time><extensions><speed>7.200000</speed><course>359.296875</course><hAcc>5.000000</hAcc><vAcc>3.000000</vAcc></extensions></trkpt>
      <trkpt lon="-123.283386" lat="44.572079"><ele>77.521935</ele><time>2020-09-30T00:42:02Z</time><extensions><speed>7.510000</speed><course>358.593750</course><hAcc>5.000000</hAcc><vAcc>3.000000</vAcc></extensions></trkpt>
      <trkpt lon="-123.283422" lat="44.572167"><ele>77.877487</ele><time>2020-09-30T00:42:03Z</time><extensions><speed>7.960000</speed><course>352.968750</course><hAcc>5.000000</hAcc><vAcc>3.000000</vAcc></extensions></trkpt>
      <trkpt lon="-123.283422" lat="44.572255"><ele>77.988823</ele><time>2020-09-30T00:42:04Z</time><extensions><speed>8.110000</speed><course>1.054688</course><hAcc>5.000000</hAcc><vAcc>3.000000</vAcc></extensions></trkpt>
      <trkpt lon="-123.283429" lat="44.572312"><ele>77.978386</ele><time>2020-09-30T00:42:05Z</time><extensions><speed>7.960000</speed><course>355.078125</course><hAcc>5.000000</hAcc><vAcc>3.000000</vAcc></extensions></trkpt>
      <trkpt lon="-123.283439" lat="44.572389"><ele>77.956207</ele><time>2020-09-30T00:42:06Z</time><extensions><speed>8.110000</speed><course>356.484375</course><hAcc>5.000000</hAcc><vAcc>3.000000</vAcc></extensions></trkpt>
      <trkpt lon="-123.283427" lat="44.572477"><ele>77.548203</ele><time>2020-09-30T00:42:07Z</time><extensions><speed>9.670000</speed><course>2.812500</course><hAcc>5.000000</hAcc><vAcc>3.000000</vAcc></extensions></trkpt>
      <trkpt lon="-123.283424" lat="44.572565"><ele>77.165489</ele><time>2020-09-30T00:42:08Z</time><extensions><speed>9.960000</speed><course>3.164062</course><hAcc>5.000000</hAcc><vAcc>3.000000</vAcc></extensions></trkpt>
      <trkpt lon="-123.283417" lat="44.572655"><ele>77.797539</ele><time>2020-09-30T00:42:09Z</time><extensions><speed>9.950000</speed><course>3.164062</course><hAcc>5.000000</hAcc><vAcc>3.000000</vAcc></extensions></trkpt>
      <trkpt lon="-123.283395" lat="44.572754"><ele>78.284271</ele><time>2020-09-30T00:42:10Z</time><extensions><speed>10.510000</speed><course>3.164062</course><hAcc>5.000000</hAcc><vAcc>3.000000</vAcc></extensions></trkpt>
      <trkpt lon="-123.283384" lat="44.572848"><ele>78.145180</ele><time>2020-09-30T00:42:11Z</time><extensions><speed>10.060000</speed><course>4.218750</course><hAcc>5.000000</hAcc><vAcc>3.000000</vAcc></extensions></trkpt>
      <trkpt lon="-123.283350" lat="44.572917"><ele>76.695419</ele><time>2020-09-30T00:42:12Z</time><extensions><speed>10.010000</speed><course>2.812500</course><hAcc>5.000000</hAcc><vAcc>3.000000</vAcc></extensions></trkpt>
      <trkpt lon="-123.283334" lat="44.573001"><ele>77.056458</ele><time>2020-09-30T00:42:13Z</time><extensions><speed>9.540000</speed><course>0.703125</course><hAcc>5.000000</hAcc><vAcc>3.000000</vAcc></extensions></trkpt>
      <trkpt lon="-123.283333" lat="44.573087"><ele>77.040512</ele><time>2020-09-30T00:42:14Z</time><extensions><speed>9.540000</speed><course>0.703125</course><hAcc>5.000000</hAcc><vAcc>3.000000</vAcc></extensions></trkpt>
      <trkpt lon="-123.283300" lat="44.573178"><ele>76.815819</ele><time>2020-09-30T00:42:15Z</time><extensions><speed>9.420000</speed><course>9.843750</course><hAcc>5.000000</hAcc><vAcc>3.000000</vAcc></extensions></trkpt>
      <trkpt lon="-123.283296" lat="44.573259"><ele>77.144241</ele><time>2020-09-30T00:42:16Z</time><extensions><speed>9.310000</speed><course>3.515625</course><hAcc>5.000000</hAcc><vAcc>3.000000</vAcc></extensions></trkpt>
      <trkpt lon="-123.283289" lat="44.573343"><ele>76.483559</ele><time>2020-09-30T00:42:17Z</time><extensions><speed>9.310000</speed><course>3.515625</course><hAcc>5.000000</hAcc><vAcc>3.000000</vAcc></extensions></trkpt>
      <trkpt lon="-123.283281" lat="44.573440"><ele>76.106644</ele><time>2020-09-30T00:42:18Z</time><extensions><speed>9.560000</speed><course>4.921875</course><hAcc>5.000000</hAcc><vAcc>4.000000</vAcc></extensions></trkpt>
      <trkpt lon="-123.283273" lat="44.573524"><ele>76.008568</ele><time>2020-09-30T00:42:19Z</time><extensions><speed>9.160000</speed><course>2.812500</course><hAcc>5.000000</hAcc><vAcc>4.000000</vAcc></extensions></trkpt>
      <trkpt lon="-123.283263" lat="44.573603"><ele>76.162918</ele><time>2020-09-30T00:42:20Z</time><extensions><speed>9.200000</speed><course>4.570312</course><hAcc>5.000000</hAcc><vAcc>4.000000</vAcc></extensions></trkpt>
      <trkpt lon="-123.283269" lat="44.573685"><ele>75.980453</ele><time>2020-09-30T00:42:21Z</time><extensions><speed>9.160000</speed><course>2.460938</course><hAcc>5.000000</hAcc><vAcc>4.000000</vAcc></extensions></trkpt>
      <trkpt lon="-123.283260" lat="44.573754"><ele>76.546707</ele><time>2020-09-30T00:42:22Z</time><extensions><speed>8.660000</speed><course>2.460938</course><hAcc>5.000000</hAcc><vAcc>4.000000</vAcc></extensions></trkpt>
      <trkpt lon="-123.283255" lat="44.573832"><ele>76.246086</ele><time>2020-09-30T00:42:23Z</time><extensions><speed>8.660000</speed><course>2.460938</course><hAcc>5.000000</hAcc><vAcc>4.000000</vAcc></extensions></trkpt>
      <trkpt lon="-123.283228" lat="44.573882"><ele>76.148491</ele><time>2020-09-30T00:42:24Z</time><extensions><speed>6.970000</speed><course>5.625000</course><hAcc>5.000000</hAcc><vAcc>4.000000</vAcc></extensions></trkpt>
      <trkpt lon="-123.283228" lat="44.573949"><ele>77.339439</ele><time>2020-09-30T00:42:25Z</time><extensions><speed>7.310000</speed><course>0.351562</course><hAcc>5.000000</hAcc><vAcc>4.000000</vAcc></extensions></trkpt>
      <trkpt lon="-123.283227" lat="44.574014"><ele>77.066925</ele><time>2020-09-30T00:42:26Z</time><extensions><speed>7.310000</speed><course>0.351562</course><hAcc>5.000000</hAcc><vAcc>4.000000</vAcc></extensions></trkpt>
      <trkpt lon="-123.283220" lat="44.574050"><ele>76.529533</ele><time>2020-09-30T00:42:27Z</time><extensions><speed>6.380000</speed><course>2.812500</course><hAcc>5.000000</hAcc><vAcc>4.000000</vAcc></extensions></trkpt>
      <trkpt lon="-123.283216" lat="44.574108"><ele>76.928528</ele><time>2020-09-30T00:42:28Z</time><extensions><speed>6.390000</speed><course>2.812500</course><hAcc>5.000000</hAcc><vAcc>4.000000</vAcc></extensions></trkpt>
      <trkpt lon="-123.283228" lat="44.574188"><ele>77.132996</ele><time>2020-09-30T00:42:29Z</time><extensions><speed>6.820000</speed><course>4.218750</course><hAcc>5.000000</hAcc><vAcc>4.000000</vAcc></extensions></trkpt>
      <trkpt lon="-123.283236" lat="44.574249"><ele>77.034721</ele><time>2020-09-30T00:42:30Z</time><extensions><speed>6.790000</speed><course>3.164062</course><hAcc>5.000000</hAcc><vAcc>4.000000</vAcc></extensions></trkpt>
      <trkpt lon="-123.283233" lat="44.574318"><ele>76.339539</ele><time>2020-09-30T00:42:31Z</time><extensions><speed>6.550000</speed><course>2.460938</course><hAcc>5.000000</hAcc><vAcc>4.000000</vAcc></extensions></trkpt>
      <trkpt lon="-123.283232" lat="44.574385"><ele>76.717346</ele><time>2020-09-30T00:42:32Z</time><extensions><speed>6.720000</speed><course>4.570312</course><hAcc>5.000000</hAcc><vAcc>4.000000</vAcc></extensions></trkpt>
      <trkpt lon="-123.283231" lat="44.574458"><ele>76.331886</ele><time>2020-09-30T00:42:33Z</time><extensions><speed>6.630000</speed><course>2.460938</course><hAcc>5.000000</hAcc><vAcc>4.000000</vAcc></extensions></trkpt>
      <trkpt lon="-123.283227" lat="44.574517"><ele>76.395821</ele><time>2020-09-30T00:42:34Z</time><extensions><speed>6.630000</speed><course>2.109375</course><hAcc>5.000000</hAcc><vAcc>4.000000</vAcc></extensions></trkpt>
      <trkpt lon="-123.283229" lat="44.574577"><ele>76.192268</ele><time>2020-09-30T00:42:35Z</time><extensions><speed>6.640000</speed><course>3.164062</course><hAcc>5.000000</hAcc><vAcc>4.000000</vAcc></extensions></trkpt>
      <trkpt lon="-123.283224" lat="44.574637"><ele>75.886810</ele><time>2020-09-30T00:42:36Z</time><extensions><speed>6.640000</speed><course>3.164062</course><hAcc>5.000000</hAcc><vAcc>4.000000</vAcc></extensions></trkpt>
      <trkpt lon="-123.283211" lat="44.574698"><ele>75.776833</ele><time>2020-09-30T00:42:37Z</time><extensions><speed>6.750000</speed><course>2.812500</course><hAcc>5.000000</hAcc><vAcc>4.000000</vAcc></extensions></trkpt>
      <trkpt lon="-123.283260" lat="44.574807"><ele>75.508057</ele><time>2020-09-30T00:42:38Z</time><extensions><speed>7.500000</speed><course>359.648438</course><hAcc>5.000000</hAcc><vAcc>4.000000</vAcc></extensions></trkpt>
      <trkpt lon="-123.283265" lat="44.574877"><ele>75.149368</ele><time>2020-09-30T00:42:39Z</time><extensions><speed>7.520000</speed><course>357.890625</course><hAcc>5.000000</hAcc><vAcc>4.000000</vAcc></extensions></trkpt>
      <trkpt lon="-123.283277" lat="44.574909"><ele>75.373360</ele><time>2020-09-30T00:42:40Z</time><extensions><speed>6.980000</speed><course>359.296875</course><hAcc>5.000000</hAcc><vAcc>4.000000</vAcc></extensions></trkpt>
      <trkpt lon="-123.283268" lat="44.574974"><ele>75.012428</ele><time>2020-09-30T00:42:41Z</time><extensions><speed>7.320000</speed><course>2.812500</course><hAcc>5.000000</hAcc><vAcc>4.000000</vAcc></extensions></trkpt>
      <trkpt lon="-123.283264" lat="44.575046"><ele>74.780792</ele><time>2020-09-30T00:42:42Z</time><extensions><speed>7.260000</speed><course>5.625000</course><hAcc>5.000000</hAcc><vAcc>4.000000</vAcc></extensions></trkpt>
      <trkpt lon="-123.283255" lat="44.575111"><ele>74.497131</ele><time>2020-09-30T00:42:43Z</time><extensions><speed>7.260000</speed><course>5.625000</course><hAcc>5.000000</hAcc><vAcc>4.000000</vAcc></extensions></trkpt>
      <trkpt lon="-123.283251" lat="44.575186"><ele>74.464432</ele><time>2020-09-30T00:42:44Z</time><extensions><speed>7.430000</speed><course>0.703125</course><hAcc>5.000000</hAcc><vAcc>4.000000</vAcc></extensions></trkpt>
      <trkpt lon="-123.283263" lat="44.575266"><ele>74.078896</ele><time>2020-09-30T00:42:45Z</time><extensions><speed>7.530000</speed><course>0.703125</course><hAcc>5.000000</hAcc><vAcc>4.000000</vAcc></extensions></trkpt>
      <trkpt lon="-123.283262" lat="44.575333"><ele>74.319756</ele><time>2020-09-30T00:42:46Z</time><extensions><speed>7.530000</speed><course>0.703125</course><hAcc>5.000000</hAcc><vAcc>4.000000</vAcc></extensions></trkpt>
      <trkpt lon="-123.283259" lat="44.575400"><ele>73.921631</ele><time>2020-09-30T00:42:47Z</time><extensions><speed>7.280000</speed><course>1.757812</course><hAcc>5.000000</hAcc><vAcc>4.000000</vAcc></extensions></trkpt>
      <trkpt lon="-123.283248" lat="44.575461"><ele>73.801941</ele><time>2020-09-30T00:42:48Z</time><extensions><speed>7.210000</speed><course>6.679688</course><hAcc>5.000000</hAcc><vAcc>4.000000</vAcc></extensions></trkpt>
      <trkpt lon="-123.283243" lat="44.575528"><ele>73.527771</ele><time>2020-09-30T00:42:49Z</time><extensions><speed>6.950000</speed><course>4.921875</course><hAcc>5.000000</hAcc><vAcc>4.000000</vAcc></extensions></trkpt>
      <trkpt lon="-123.283232" lat="44.575588"><ele>73.526779</ele><time>2020-09-30T00:42:50Z</time><extensions><speed>6.920000</speed><course>4.921875</course><hAcc>5.000000</hAcc><vAcc>4.000000</vAcc></extensions></trkpt>
      <trkpt lon="-123.283240" lat="44.575655"><ele>73.170631</ele><time>2020-09-30T00:42:51Z</time><extensions><speed>6.850000</speed><course>2.460938</course><hAcc>5.000000</hAcc><vAcc>4.000000</vAcc></extensions></trkpt>
      <trkpt lon="-123.283235" lat="44.575716"><ele>73.666176</ele><time>2020-09-30T00:42:52Z</time><extensions><speed>6.830000</speed><course>2.812500</course><hAcc>5.000000</hAcc><vAcc>4.000000</vAcc></extensions></trkpt>
      <trkpt lon="-123.283185" lat="44.575737"><ele>73.446701</ele><time>2020-09-30T00:42:53Z</time><extensions><speed>5.170000</speed><course>15.820312</course><hAcc>5.000000</hAcc><vAcc>4.000000</vAcc></extensions></trkpt>
      <trkpt lon="-123.283173" lat="44.575801"><ele>73.599007</ele><time>2020-09-30T00:42:54Z</time><extensions><speed>6.790000</speed><course>2.812500</course><hAcc>5.000000</hAcc><vAcc>4.000000</vAcc></extensions></trkpt>
      <trkpt lon="-123.283169" lat="44.575862"><ele>73.386597</ele><time>2020-09-30T00:42:55Z</time><extensions><speed>6.790000</speed><course>2.460938</course><hAcc>5.000000</hAcc><vAcc>4.000000</vAcc></extensions></trkpt>
      <trkpt lon="-123.283187" lat="44.575913"><ele>73.191017</ele><time>2020-09-30T00:42:56Z</time><extensions><speed>6.960000</speed><course>350.507812</course><hAcc>5.000000</hAcc><vAcc>4.000000</vAcc></extensions></trkpt>
      <trkpt lon="-123.283202" lat="44.575975"><ele>73.044243</ele><time>2020-09-30T00:42:57Z</time><extensions><speed>6.960000</speed><course>350.507812</course><hAcc>5.000000</hAcc><vAcc>4.000000</vAcc></extensions></trkpt>
      <trkpt lon="-123.283227" lat="44.576035"><ele>72.192192</ele><time>2020-09-30T00:42:58Z</time><extensions><speed>6.730000</speed><course>348.398438</course><hAcc>5.000000</hAcc><vAcc>4.000000</vAcc></extensions></trkpt>
      <trkpt lon="-123.283228" lat="44.576092"><ele>72.933128</ele><time>2020-09-30T00:42:59Z</time><extensions><speed>6.390000</speed><course>358.593750</course><hAcc>5.000000</hAcc><vAcc>4.000000</vAcc></extensions></trkpt>
      <trkpt lon="-123.283231" lat="44.576152"><ele>73.148567</ele><time>2020-09-30T00:43:00Z</time><extensions><speed>6.060000</speed><course>0.351562</course><hAcc>5.000000</hAcc><vAcc>4.000000</vAcc></extensions></trkpt>
      <trkpt lon="-123.283233" lat="44.576200"><ele>73.030693</ele><time>2020-09-30T00:43:01Z</time><extensions><speed>6.060000</speed><course>2.109375</course><hAcc>5.000000</hAcc><vAcc>4.000000</vAcc></extensions></trkpt>
      <trkpt lon="-123.283232" lat="44.576256"><ele>73.057472</ele><time>2020-09-30T00:43:02Z</time><extensions><speed>5.950000</speed><course>3.164062</course><hAcc>5.000000</hAcc><vAcc>4.000000</vAcc></extensions></trkpt>
      <trkpt lon="-123.283236" lat="44.576309"><ele>73.292976</ele><time>2020-09-30T00:43:03Z</time><extensions><speed>5.850000</speed><course>2.460938</course><hAcc>5.000000</hAcc><vAcc>4.000000</vAcc></extensions></trkpt>
      <trkpt lon="-123.283244" lat="44.576359"><ele>73.046692</ele><time>2020-09-30T00:43:04Z</time><extensions><speed>5.850000</speed><course>4.921875</course><hAcc>5.000000</hAcc><vAcc>4.000000</vAcc></extensions></trkpt>
      <trkpt lon="-123.283241" lat="44.576400"><ele>72.957993</ele><time>2020-09-30T00:43:05Z</time><extensions><speed>4.830000</speed><course>7.382812</course><hAcc>5.000000</hAcc><vAcc>4.000000</vAcc></extensions></trkpt>
      <trkpt lon="-123.283236" lat="44.576442"><ele>73.477890</ele><time>2020-09-30T00:43:06Z</time><extensions><speed>4.830000</speed><course>10.195312</course><hAcc>5.000000</hAcc><vAcc>4.000000</vAcc></extensions></trkpt>
      <trkpt lon="-123.283230" lat="44.576474"><ele>72.636398</ele><time>2020-09-30T00:43:07Z</time><extensions><speed>4.660000</speed><course>341.367188</course><hAcc>5.000000</hAcc><vAcc>3.000000</vAcc></extensions></trkpt>
      <trkpt lon="-123.283279" lat="44.576507"><ele>72.511009</ele><time>2020-09-30T00:43:08Z</time><extensions><speed>4.190000</speed><course>311.484375</course><hAcc>5.000000</hAcc><vAcc>3.000000</vAcc></extensions></trkpt>
      <trkpt lon="-123.283289" lat="44.576509"><ele>72.693253</ele><time>2020-09-30T00:43:09Z</time><extensions><speed>3.690000</speed><course>278.085938</course><hAcc>5.000000</hAcc><vAcc>3.000000</vAcc></extensions></trkpt>
      <trkpt lon="-123.283320" lat="44.576510"><ele>72.793594</ele><time>2020-09-30T00:43:10Z</time><extensions><speed>2.630000</speed><course>270.703125</course><hAcc>5.000000</hAcc><vAcc>4.000000</vAcc></extensions></trkpt>
      <trkpt lon="-123.283352" lat="44.576514"><ele>72.715683</ele><time>2020-09-30T00:43:11Z</time><extensions><speed>2.630000</speed><course>265.781250</course><hAcc>5.000000</hAcc><vAcc>4.000000</vAcc></extensions></trkpt>
      <trkpt lon="-123.283382" lat="44.576517"><ele>72.788399</ele><time>2020-09-30T00:43:12Z</time><extensions><speed>2.000000</speed><course>265.781250</course><hAcc>5.000000</hAcc><vAcc>4.000000</vAcc></extensions></trkpt>
      <trkpt lon="-123.283406" lat="44.576520"><ele>72.567116</ele><time>2020-09-30T00:43:13Z</time><extensions><speed>2.000000</speed><course>266.132812</course><hAcc>5.000000</hAcc><vAcc>4.000000</vAcc></extensions></trkpt>
      <trkpt lon="-123.283414" lat="44.576519"><ele>72.765228</ele><time>2020-09-30T00:43:14Z</time><extensions><speed>1.410000</speed><course>265.781250</course><hAcc>5.000000</hAcc><vAcc>4.000000</vAcc></extensions></trkpt>
      <trkpt lon="-123.283420" lat="44.576517"><ele>72.706703</ele><time>2020-09-30T00:43:15Z</time><extensions><speed>0.640000</speed><course>265.781250</course><hAcc>5.000000</hAcc><vAcc>4.000000</vAcc></extensions></trkpt>
      <trkpt lon="-123.283426" lat="44.576518"><ele>72.637955</ele><time>2020-09-30T00:43:16Z</time><extensions><speed>0.640000</speed><course>265.781250</course><hAcc>5.000000</hAcc><vAcc>4.000000</vAcc></extensions></trkpt>
      <trkpt lon="-123.283433" lat="44.576520"><ele>72.882111</ele><time>2020-09-30T00:43:17Z</time><extensions><speed>0.590000</speed><course>295.312500</course><hAcc>5.000000</hAcc><vAcc>4.000000</vAcc></extensions></trkpt>
      <trkpt lon="-123.283441" lat="44.576524"><ele>73.002304</ele><time>2020-09-30T00:43:18Z</time><extensions><speed>0.590000</speed><course>297.070312</course><hAcc>5.000000</hAcc><vAcc>4.000000</vAcc></extensions></trkpt>
      <trkpt lon="-123.283449" lat="44.576526"><ele>72.974342</ele><time>2020-09-30T00:43:19Z</time><extensions><speed>0.700000</speed><course>265.781250</course><hAcc>5.000000</hAcc><vAcc>4.000000</vAcc></extensions></trkpt>
      <trkpt lon="-123.283458" lat="44.576527"><ele>72.795059</ele><time>2020-09-30T00:43:20Z</time><extensions><speed>0.700000</speed><course>265.781250</course><hAcc>5.000000</hAcc><vAcc>4.000000</vAcc></extensions></trkpt>
      <trkpt lon="-123.283457" lat="44.576526"><ele>72.783958</ele><time>2020-09-30T00:43:21Z</time><extensions><speed>0.160000</speed><course>265.781250</course><hAcc>5.000000</hAcc><vAcc>4.000000</vAcc></extensions></trkpt>
      <trkpt lon="-123.283457" lat="44.576526"><ele>72.721245</ele><time>2020-09-30T00:43:22Z</time><extensions><speed>0.000000</speed><course>265.781250</course><hAcc>5.000000</hAcc><vAcc>4.000000</vAcc></extensions></trkpt>
      <trkpt lon="-123.283443" lat="44.576526"><ele>72.740494</ele><time>2020-09-30T00:43:23Z</time><extensions><speed>0.160000</speed><course>265.781250</course><hAcc>5.000000</hAcc><vAcc>4.000000</vAcc></extensions></trkpt>
      <trkpt lon="-123.283443" lat="44.576526"><ele>72.836823</ele><time>2020-09-30T00:43:24Z</time><extensions><speed>0.000000</speed><course>265.781250</course><hAcc>5.000000</hAcc><vAcc>4.000000</vAcc></extensions></trkpt>
      <trkpt lon="-123.283432" lat="44.576531"><ele>72.808304</ele><time>2020-09-30T00:43:25Z</time><extensions><speed>0.690000</speed><course>33.398438</course><hAcc>5.000000</hAcc><vAcc>4.000000</vAcc></extensions></trkpt>
      <trkpt lon="-123.283426" lat="44.576537"><ele>72.932213</ele><time>2020-09-30T00:43:26Z</time><extensions><speed>0.690000</speed><course>266.132812</course><hAcc>5.000000</hAcc><vAcc>4.000000</vAcc></extensions></trkpt>
      <trkpt lon="-123.283426" lat="44.576537"><ele>72.963684</ele><time>2020-09-30T00:43:27Z</time><extensions><speed>0.000000</speed><course>265.781250</course><hAcc>5.000000</hAcc><vAcc>4.000000</vAcc></extensions></trkpt>
      <trkpt lon="-123.283423" lat="44.576541"><ele>73.053665</ele><time>2020-09-30T00:43:28Z</time><extensions><speed>0.300000</speed><course>266.132812</course><hAcc>5.000000</hAcc><vAcc>4.000000</vAcc></extensions></trkpt>
      <trkpt lon="-123.283421" lat="44.576544"><ele>72.937904</ele><time>2020-09-30T00:43:29Z</time><extensions><speed>0.300000</speed><course>75.937500</course><hAcc>5.000000</hAcc><vAcc>3.000000</vAcc></extensions></trkpt>
      <trkpt lon="-123.283417" lat="44.576541"><ele>73.280319</ele><time>2020-09-30T00:43:30Z</time><extensions><speed>0.500000</speed><course>114.257812</course><hAcc>5.000000</hAcc><vAcc>4.000000</vAcc></extensions></trkpt>
      <trkpt lon="-123.283410" lat="44.576537"><ele>72.921936</ele><time>2020-09-30T00:43:31Z</time><extensions><speed>0.730000</speed><course>125.156250</course><hAcc>5.000000</hAcc><vAcc>3.000000</vAcc></extensions></trkpt>
      <trkpt lon="-123.283403" lat="44.576531"><ele>72.931313</ele><time>2020-09-30T00:43:32Z</time><extensions><speed>0.500000</speed><course>114.960938</course><hAcc>5.000000</hAcc><vAcc>4.000000</vAcc></extensions></trkpt>
      <trkpt lon="-123.283395" lat="44.576528"><ele>72.988464</ele><time>2020-09-30T00:43:33Z</time><extensions><speed>0.560000</speed><course>101.250000</course><hAcc>5.000000</hAcc><vAcc>4.000000</vAcc></extensions></trkpt>
      <trkpt lon="-123.283389" lat="44.576524"><ele>73.007126</ele><time>2020-09-30T00:43:34Z</time><extensions><speed>0.560000</speed><course>109.687500</course><hAcc>5.000000</hAcc><vAcc>4.000000</vAcc></extensions></trkpt>
      <trkpt lon="-123.283385" lat="44.576518"><ele>73.081940</ele><time>2020-09-30T00:43:35Z</time><extensions><speed>0.820000</speed><course>142.031250</course><hAcc>5.000000</hAcc><vAcc>4.000000</vAcc></extensions></trkpt>
      <trkpt lon="-123.283385" lat="44.576506"><ele>73.001114</ele><time>2020-09-30T00:43:36Z</time><extensions><speed>1.240000</speed><course>178.242188</course><hAcc>5.000000</hAcc><vAcc>4.000000</vAcc></extensions></trkpt>
      <trkpt lon="-123.283389" lat="44.576494"><ele>73.014778</ele><time>2020-09-30T00:43:37Z</time><extensions><speed>1.120000</speed><course>188.085938</course><hAcc>5.000000</hAcc><vAcc>4.000000</vAcc></extensions></trkpt>
      <trkpt lon="-123.283396" lat="44.576484"><ele>73.109306</ele><time>2020-09-30T00:43:38Z</time><extensions><speed>1.120000</speed><course>193.710938</course><hAcc>5.000000</hAcc><vAcc>4.000000</vAcc></extensions></trkpt>
      <trkpt lon="-123.283401" lat="44.576474"><ele>73.078995</ele><time>2020-09-30T00:43:39Z</time><extensions><speed>0.820000</speed><course>176.835938</course><hAcc>10.000000</hAcc><vAcc>4.000000</vAcc></extensions></trkpt>
      <trkpt lon="-123.283402" lat="44.576465"><ele>72.947830</ele><time>2020-09-30T00:43:40Z</time><extensions><speed>0.810000</speed><course>175.429688</course><hAcc>10.000000</hAcc><vAcc>4.000000</vAcc></extensions></trkpt>
      <trkpt lon="-123.283401" lat="44.576457"><ele>73.061447</ele><time>2020-09-30T00:43:41Z</time><extensions><speed>0.810000</speed><course>175.078125</course><hAcc>10.000000</hAcc><vAcc>4.000000</vAcc></extensions></trkpt>
      <trkpt lon="-123.283409" lat="44.576454"><ele>73.128181</ele><time>2020-09-30T00:43:42Z</time><extensions><speed>0.710000</speed><course>229.218750</course><hAcc>10.000000</hAcc><vAcc>4.000000</vAcc></extensions></trkpt>
      <trkpt lon="-123.283414" lat="44.576458"><ele>73.137566</ele><time>2020-09-30T00:43:43Z</time><extensions><speed>0.240000</speed><course>310.429688</course><hAcc>10.000000</hAcc><vAcc>4.000000</vAcc></extensions></trkpt>
      <trkpt lon="-123.283412" lat="44.576465"><ele>73.042381</ele><time>2020-09-30T00:43:44Z</time><extensions><speed>0.250000</speed><course>74.531250</course><hAcc>10.000000</hAcc><vAcc>4.000000</vAcc></extensions></trkpt>
      <trkpt lon="-123.283400" lat="44.576467"><ele>73.118912</ele><time>2020-09-30T00:43:45Z</time><extensions><speed>0.680000</speed><course>89.648438</course><hAcc>10.000000</hAcc><vAcc>4.000000</vAcc></extensions></trkpt>
      <trkpt lon="-123.283394" lat="44.576471"><ele>73.234917</ele><time>2020-09-30T00:43:46Z</time><extensions><speed>0.680000</speed><course>82.617188</course><hAcc>10.000000</hAcc><vAcc>4.000000</vAcc></extensions></trkpt>
      <trkpt lon="-123.283403" lat="44.576479"><ele>73.187523</ele><time>2020-09-30T00:43:47Z</time><extensions><speed>0.180000</speed><course>42.890625</course><hAcc>10.000000</hAcc><vAcc>4.000000</vAcc></extensions></trkpt>
      <trkpt lon="-123.283408" lat="44.576484"><ele>73.196846</ele><time>2020-09-30T00:43:48Z</time><extensions><speed>0.490000</speed><course>270.000000</course><hAcc>10.000000</hAcc><vAcc>4.000000</vAcc></extensions></trkpt>
      <trkpt lon="-123.283417" lat="44.576476"><ele>73.146500</ele><time>2020-09-30T00:43:49Z</time><extensions><speed>0.330000</speed><course>270.351562</course><hAcc>10.000000</hAcc><vAcc>4.000000</vAcc></extensions></trkpt>
      <trkpt lon="-123.283420" lat="44.576470"><ele>73.142326</ele><time>2020-09-30T00:43:50Z</time><extensions><speed>0.220000</speed><course>267.890625</course><hAcc>10.000000</hAcc><vAcc>4.000000</vAcc></extensions></trkpt>
      <trkpt lon="-123.283462" lat="44.576479"><ele>73.122444</ele><time>2020-09-30T00:43:51Z</time><extensions><speed>1.600000</speed><course>273.867188</course><hAcc>10.000000</hAcc><vAcc>4.000000</vAcc></extensions></trkpt>
      <trkpt lon="-123.283475" lat="44.576481"><ele>73.131355</ele><time>2020-09-30T00:43:52Z</time><extensions><speed>0.390000</speed><course>275.273438</course><hAcc>10.000000</hAcc><vAcc>4.000000</vAcc></extensions></trkpt>
      <trkpt lon="-123.283475" lat="44.576481"><ele>73.067032</ele><time>2020-09-30T00:43:53Z</time><extensions><speed>0.000000</speed><course>273.164062</course><hAcc>10.000000</hAcc><vAcc>4.000000</vAcc></extensions></trkpt>
      <trkpt lon="-123.283475" lat="44.576481"><ele>72.980583</ele><time>2020-09-30T00:43:54Z</time><extensions><speed>0.000000</speed><course>276.328125</course><hAcc>10.000000</hAcc><vAcc>4.000000</vAcc></extensions></trkpt>
      <trkpt lon="-123.283475" lat="44.576481"><ele>72.858154</ele><time>2020-09-30T00:43:55Z</time><extensions><speed>0.000000</speed><course>276.328125</course><hAcc>10.000000</hAcc><vAcc>4.000000</vAcc></extensions></trkpt>
      <trkpt lon="-123.283475" lat="44.576481"><ele>72.889030</ele><time>2020-09-30T00:43:56Z</time><extensions><speed>0.000000</speed><course>87.539062</course><hAcc>10.000000</hAcc><vAcc>4.000000</vAcc></extensions></trkpt>
      <trkpt lon="-123.283475" lat="44.576481"><ele>72.895500</ele><time>2020-09-30T00:43:57Z</time><extensions><speed>0.000000</speed><course>356.132812</course><hAcc>10.000000</hAcc><vAcc>6.000000</vAcc></extensions></trkpt>
      <trkpt lon="-123.283463" lat="44.576480"><ele>72.992813</ele><time>2020-09-30T00:43:58Z</time><extensions><speed>0.150000</speed><course>15.820312</course><hAcc>10.000000</hAcc><vAcc>6.000000</vAcc></extensions></trkpt>
      <trkpt lon="-123.283450" lat="44.576486"><ele>72.985619</ele><time>2020-09-30T00:43:59Z</time><extensions><speed>0.150000</speed><course>64.335938</course><hAcc>10.000000</hAcc><vAcc>4.000000</vAcc></extensions></trkpt>
      <trkpt lon="-123.283437" lat="44.576488"><ele>72.974915</ele><time>2020-09-30T00:44:00Z</time><extensions><speed>0.320000</speed><course>78.046875</course><hAcc>10.000000</hAcc><vAcc>4.000000</vAcc></extensions></trkpt>
      <trkpt lon="-123.283441" lat="44.576487"><ele>72.980774</ele><time>2020-09-30T00:44:01Z</time><extensions><speed>0.210000</speed><course>195.820312</course><hAcc>10.000000</hAcc><vAcc>4.000000</vAcc></extensions></trkpt>
      <trkpt lon="-123.283448" lat="44.576488"><ele>73.059555</ele><time>2020-09-30T00:44:02Z</time><extensions><speed>0.280000</speed><course>296.367188</course><hAcc>10.000000</hAcc><vAcc>4.000000</vAcc></extensions></trkpt>
      <trkpt lon="-123.283456" lat="44.576500"><ele>73.099983</ele><time>2020-09-30T00:44:03Z</time><extensions><speed>0.280000</speed><course>341.015625</course><hAcc>10.000000</hAcc><vAcc>4.000000</vAcc></extensions></trkpt>
      <trkpt lon="-123.283460" lat="44.576512"><ele>73.142120</ele><time>2020-09-30T00:44:04Z</time><extensions><speed>0.580000</speed><course>352.968750</course><hAcc>10.000000</hAcc><vAcc>4.000000</vAcc></extensions></trkpt>
      <trkpt lon="-123.283456" lat="44.576518"><ele>73.087364</ele><time>2020-09-30T00:44:05Z</time><extensions><speed>0.440000</speed><course>13.359375</course><hAcc>10.000000</hAcc><vAcc>4.000000</vAcc></extensions></trkpt>
      <trkpt lon="-123.283452" lat="44.576507"><ele>73.042473</ele><time>2020-09-30T00:44:06Z</time><extensions><speed>0.440000</speed><course>359.296875</course><hAcc>10.000000</hAcc><vAcc>4.000000</vAcc></extensions></trkpt>
      <trkpt lon="-123.283438" lat="44.576503"><ele>73.097748</ele><time>2020-09-30T00:44:07Z</time><extensions><speed>0.290000</speed><course>359.648438</course><hAcc>10.000000</hAcc><vAcc>4.000000</vAcc></extensions></trkpt>
      <trkpt lon="-123.283434" lat="44.576510"><ele>73.027901</ele><time>2020-09-30T00:44:08Z</time><extensions><speed>0.290000</speed><course>10.195312</course><hAcc>10.000000</hAcc><vAcc>4.000000</vAcc></extensions></trkpt>
      <trkpt lon="-123.283428" lat="44.576521"><ele>73.163582</ele><time>2020-09-30T00:44:09Z</time><extensions><speed>0.790000</speed><course>17.929688</course><hAcc>10.000000</hAcc><vAcc>4.000000</vAcc></extensions></trkpt>
      <trkpt lon="-123.283422" lat="44.576524"><ele>73.027924</ele><time>2020-09-30T00:44:10Z</time><extensions><speed>0.220000</speed><course>21.093750</course><hAcc>10.000000</hAcc><vAcc>4.000000</vAcc></extensions></trkpt>
      <trkpt lon="-123.283411" lat="44.576523"><ele>73.032257</ele><time>2020-09-30T00:44:11Z</time><extensions><speed>0.480000</speed><course>45.703125</course><hAcc>10.000000</hAcc><vAcc>4.000000</vAcc></extensions></trkpt>
      <trkpt lon="-123.283402" lat="44.576521"><ele>73.129982</ele><time>2020-09-30T00:44:12Z</time><extensions><speed>0.290000</speed><course>89.648438</course><hAcc>10.000000</hAcc><vAcc>4.000000</vAcc></extensions></trkpt>
      <trkpt lon="-123.283397" lat="44.576517"><ele>73.062836</ele><time>2020-09-30T00:44:13Z</time><extensions><speed>0.200000</speed><course>128.320312</course><hAcc>10.000000</hAcc><vAcc>4.000000</vAcc></extensions></trkpt>
      <trkpt lon="-123.283398" lat="44.576516"><ele>73.028992</ele><time>2020-09-30T00:44:14Z</time><extensions><speed>0.220000</speed><course>196.875000</course><hAcc>10.000000</hAcc><vAcc>4.000000</vAcc></extensions></trkpt>
      <trkpt lon="-123.283396" lat="44.576516"><ele>73.062065</ele><time>2020-09-30T00:44:15Z</time><extensions><speed>0.460000</speed><course>121.289062</course><hAcc>10.000000</hAcc><vAcc>4.000000</vAcc></extensions></trkpt>
      <trkpt lon="-123.283394" lat="44.576515"><ele>73.093018</ele><time>2020-09-30T00:44:16Z</time><extensions><speed>0.460000</speed><course>71.367188</course><hAcc>10.000000</hAcc><vAcc>4.000000</vAcc></extensions></trkpt>
      <trkpt lon="-123.283391" lat="44.576514"><ele>73.104202</ele><time>2020-09-30T00:44:17Z</time><extensions><speed>0.300000</speed><course>69.960938</course><hAcc>10.000000</hAcc><vAcc>4.000000</vAcc></extensions></trkpt>
      <trkpt lon="-123.283390" lat="44.576511"><ele>73.183929</ele><time>2020-09-30T00:44:18Z</time><extensions><speed>0.260000</speed><course>103.359375</course><hAcc>10.000000</hAcc><vAcc>4.000000</vAcc></extensions></trkpt>
      <trkpt lon="-123.283390" lat="44.576508"><ele>73.075264</ele><time>2020-09-30T00:44:19Z</time><extensions><speed>0.260000</speed><course>125.859375</course><hAcc>10.000000</hAcc><vAcc>4.000000</vAcc></extensions></trkpt>
      <trkpt lon="-123.283388" lat="44.576503"><ele>73.070221</ele><time>2020-09-30T00:44:20Z</time><extensions><speed>0.470000</speed><course>135.351562</course><hAcc>10.000000</hAcc><vAcc>4.000000</vAcc></extensions></trkpt>
      <trkpt lon="-123.283390" lat="44.576497"><ele>73.163887</ele><time>2020-09-30T00:44:21Z</time><extensions><speed>0.470000</speed><course>139.921875</course><hAcc>10.000000</hAcc><vAcc>4.000000</vAcc></extensions></trkpt>
      <trkpt lon="-123.283389" lat="44.576492"><ele>73.088020</ele><time>2020-09-30T00:44:22Z</time><extensions><speed>0.470000</speed><course>152.929688</course><hAcc>10.000000</hAcc><vAcc>4.000000</vAcc></extensions></trkpt>
      <trkpt lon="-123.283394" lat="44.576488"><ele>72.940598</ele><time>2020-09-30T00:44:23Z</time><extensions><speed>0.410000</speed><course>178.242188</course><hAcc>10.000000</hAcc><vAcc>4.000000</vAcc></extensions></trkpt>
      <trkpt lon="-123.283395" lat="44.576482"><ele>73.038780</ele><time>2020-09-30T00:44:24Z</time><extensions><speed>0.410000</speed><course>161.367188</course><hAcc>10.000000</hAcc><vAcc>4.000000</vAcc></extensions></trkpt>
      <trkpt lon="-123.283395" lat="44.576482"><ele>73.204803</ele><time>2020-09-30T00:44:25Z</time><extensions><speed>0.000000</speed><course>157.851562</course><hAcc>10.000000</hAcc><vAcc>4.000000</vAcc></extensions></trkpt>
      <trkpt lon="-123.283401" lat="44.576480"><ele>73.052025</ele><time>2020-09-30T00:44:26Z</time><extensions><speed>0.170000</speed><course>130.078125</course><hAcc>10.000000</hAcc><vAcc>4.000000</vAcc></extensions></trkpt>
      <trkpt lon="-123.283401" lat="44.576480"><ele>73.085190</ele><time>2020-09-30T00:44:27Z</time><extensions><speed>0.000000</speed><course>120.234375</course><hAcc>10.000000</hAcc><vAcc>4.000000</vAcc></extensions></trkpt>
      <trkpt lon="-123.283406" lat="44.576486"><ele>73.138649</ele><time>2020-09-30T00:44:28Z</time><extensions><speed>0.170000</speed><course>15.468750</course><hAcc>10.000000</hAcc><vAcc>4.000000</vAcc></extensions></trkpt>
      <trkpt lon="-123.283405" lat="44.576494"><ele>73.121269</ele><time>2020-09-30T00:44:29Z</time><extensions><speed>0.500000</speed><course>1.406250</course><hAcc>10.000000</hAcc><vAcc>4.000000</vAcc></extensions></trkpt>
      <trkpt lon="-123.283404" lat="44.576498"><ele>73.100471</ele><time>2020-09-30T00:44:30Z</time><extensions><speed>0.200000</speed><course>357.187500</course><hAcc>10.000000</hAcc><vAcc>4.000000</vAcc></extensions></trkpt>
      <trkpt lon="-123.283407" lat="44.576502"><ele>73.153343</ele><time>2020-09-30T00:44:31Z</time><extensions><speed>0.610000</speed><course>332.578125</course><hAcc>10.000000</hAcc><vAcc>3.000000</vAcc></extensions></trkpt>
      <trkpt lon="-123.283413" lat="44.576503"><ele>73.138481</ele><time>2020-09-30T00:44:32Z</time><extensions><speed>0.340000</speed><course>302.343750</course><hAcc>10.000000</hAcc><vAcc>3.000000</vAcc></extensions></trkpt>
      <trkpt lon="-123.283418" lat="44.576512"><ele>73.067024</ele><time>2020-09-30T00:44:33Z</time><extensions><speed>0.450000</speed><course>330.468750</course><hAcc>10.000000</hAcc><vAcc>3.000000</vAcc></extensions></trkpt>
      <trkpt lon="-123.283413" lat="44.576523"><ele>73.143867</ele><time>2020-09-30T00:44:34Z</time><extensions><speed>0.420000</speed><course>355.429688</course><hAcc>10.000000</hAcc><vAcc>3.000000</vAcc></extensions></trkpt>
      <trkpt lon="-123.283413" lat="44.576523"><ele>73.172714</ele><time>2020-09-30T00:44:35Z</time><extensions><speed>0.000000</speed><course>5.625000</course><hAcc>10.000000</hAcc><vAcc>3.000000</vAcc></extensions></trkpt>
      <trkpt lon="-123.283398" lat="44.576530"><ele>73.149292</ele><time>2020-09-30T00:44:36Z</time><extensions><speed>0.280000</speed><course>6.328125</course><hAcc>10.000000</hAcc><vAcc>3.000000</vAcc></extensions></trkpt>
    </trkseg>
  </trk>
</gpx>